"Prefix","Usage","County","City","ShortState","LongState","Zip","Timezone","Latitude","Longitude"
"(870) 364-","Landline","Ashley","Crossett","AR","Arkansas","71635","Central","33.180855","-91.806256"
"(501) 687-","Landline","Pulaski","Little Rock","AR","Arkansas","72217","Central","34.830158","-92.170174"
"(870) 725-","Landline","Union","Smackover","AR","Arkansas","71762","Central","33.194725","-92.523809"
"(479) 831-","Cell Number","Sebastian","Fort Smith","AR","Arkansas","72901","Central","35.231245","-94.339412"
"(501) 686-","Landline","Pulaski","Little Rock","AR","Arkansas","72217","Central","34.830158","-92.170174"
"(870) 905-","Landline","Montgomery","Mount Ida","AR","Arkansas","71957","Central","34.550661","-93.585206"
"(870) 652-","Landline","Stone","Pleasant Grove","AR","Arkansas","72567","Central","35.91896","-92.127207"
"(870) 683-","Landline","Miller","Garland City","AR","Arkansas","71839","Central","33.25024","-93.612966"
"(870) 815-","Cell Number","Mississippi","Osceola","AR","Arkansas","72370","Central","35.646832","-90.094653"
"(501) 397-","Landline","Jefferson","Redfield","AR","Arkansas","72132","Central","34.436424","-92.150356"
"(870) 892-","Landline","Randolph","Pocahontas","AR","Arkansas","72455","Central","36.324042","-91.084748"
"(870) 266-","Landline","Sharp","Sidney","AR","Arkansas","72577","Central","36.066371","-91.64203"
"(870) 895-","Landline","Fulton","Salem","AR","Arkansas","72576","Central","36.425836","-91.699502"
"(870) 224-","Landline","Drew","Monticello","AR","Arkansas","71656","Central","33.590601","-91.732829"
"(479) 460-","Landline","Washington","Springdale","AR","Arkansas","72765","Central","36.172541","-94.153512"
"(870) 662-","Unknown","Lee","Marianna","AR","Arkansas","72360","Central","34.768479","-90.783138"
"(479) 435-","Cell Number","Washington","Fayetteville","AR","Arkansas","72702","Central","35.99403","-94.219977"
"(870) 934-","Landline","Craighead","Jonesboro","AR","Arkansas","72401","Central","35.835847","-90.623071"
"(479) 820-","Landline","Washington","Springdale","AR","Arkansas","72765","Central","36.172541","-94.153512"
"(479) 222-","Unknown","Sebastian","Fort Smith","AR","Arkansas","72901","Central","35.231245","-94.339412"
"(870) 508-","Landline","Baxter","Mountain Home","AR","Arkansas","72654","Central","36.23638","-92.372635"
"(479) 243-","Landline","Polk","Mena","AR","Arkansas","71953","Central","34.503699","-94.194756"
"(479) 484-","Landline","Sebastian","Fort Smith","AR","Arkansas","72901","Central","35.231245","-94.339412"
"(479) 597-","Cell Number","Sebastian","Greenwood","AR","Arkansas","72936","Central","35.181209","-94.206011"
"(870) 624-","Landline","Jackson","Tuckerman","AR","Arkansas","72473","Central","35.71528","-91.173296"
"(870) 483-","Landline","Poinsett","Trumann","AR","Arkansas","72472","Central","35.588215","-90.561977"
"(870) 379-","Landline","Pike","Delight","AR","Arkansas","71940","Central","34.146678","-93.653733"
"(870) 638-","Cell Number","Monroe","Brinkley","AR","Arkansas","72021","Central","34.883421","-91.194574"
"(870) 816-","Landline","Phillips","Helena","AR","Arkansas","72342","Central","34.45192","-90.751249"
"(870) 818-","Cell Number","Jefferson","Pine Bluff","AR","Arkansas","71603","Central","34.148699","-92.083653"
"(479) 653-","Cell Number","Sebastian","Fort Smith","AR","Arkansas","72901","Central","35.231245","-94.339412"
"(479) 500-","Unknown","Washington","Lincoln","AR","Arkansas","72744","Central","35.935038","-94.362211"
"(870) 740-","Cell Number","Mississippi","Blytheville","AR","Arkansas","72316","Central","35.694942","-89.966819"
"(870) 546-","Landline","Union","Smackover","AR","Arkansas","71762","Central","33.194725","-92.523809"
"(870) 571-","Unknown","Miller","Texarkana","AR","Arkansas","71854","Central","33.431043","-93.876485"
"(501) 218-","Landline","Pulaski","Little Rock","AR","Arkansas","72217","Central","34.830158","-92.170174"
"(870) 467-","Landline","Baxter","Gamaliel","AR","Arkansas","72537","Central","36.42957","-92.325688"
"(501) 342-","Landline","Faulkner","Conway","AR","Arkansas","72032","Central","35.146446","-92.376466"
"(870) 562-","Cell Number","Columbia","Magnolia","AR","Arkansas","71754","Central","33.242571","-93.22996"
"(870) 825-","Landline","Howard","Dierks","AR","Arkansas","71833","Central","34.136218","-94.044286"
"(501) 516-","Cell Number","Pulaski","Little Rock","AR","Arkansas","72217","Central","34.830158","-92.170174"
"(870) 240-","Cell Number","Greene","Paragould","AR","Arkansas","72451","Central","36.11635","-90.525077"
"(501) 682-","Landline","Pulaski","Little Rock","AR","Arkansas","72217","Central","34.830158","-92.170174"
"(870) 737-","Landline","Ashley","Portland","AR","Arkansas","71663","Central","33.212137","-91.512163"
"(870) 262-","Landline","Greene","Paragould","AR","Arkansas","72451","Central","36.11635","-90.525077"
"(479) 474-","Landline","Crawford","Van Buren","AR","Arkansas","72957","Central","35.494412","-94.318648"
"(870) 690-","Cell Number","Desha","Mc Gehee","AR","Arkansas","71666","Central","33.818318","-91.214054"
"(870) 951-","Cell Number","Union","Strong","AR","Arkansas","71765","Central","33.169586","-92.331829"
"(479) 715-","Landline","Benton","Bentonville","AR","Arkansas","72716","Central","36.299507","-93.956801"
"(479) 214-","Cell Number","Johnson","Clarksville","AR","Arkansas","72830","Central","35.473886","-93.516564"
"(870) 642-","Landline","Sevier","De Queen","AR","Arkansas","71832","Central","34.050929","-94.28072"
"(870) 589-","Landline","Monroe","Brinkley","AR","Arkansas","72021","Central","34.883421","-91.194574"
"(501) 916-","Landline","Pulaski","Little Rock","AR","Arkansas","72217","Central","34.830158","-92.170174"
"(870) 330-","Landline","Miller","Texarkana","AR","Arkansas","71854","Central","33.431043","-93.876485"
"(870) 856-","Landline","Sharp","Hardy","AR","Arkansas","72542","Central","36.178441","-91.481669"
"(479) 531-","Cell Number","Benton","Rogers","AR","Arkansas","72757","Central","36.371981","-94.115649"
"(479) 979-","Landline","Johnson","Clarksville","AR","Arkansas","72830","Central","35.473886","-93.516564"
"(870) 805-","Cell Number","Independence","Batesville","AR","Arkansas","72503","Central","35.734617","-91.534303"
"(870) 715-","Landline","Boone","Harrison","AR","Arkansas","72601","Central","36.295086","-93.092861"
"(870) 413-","Cell Number","Jefferson","Pine Bluff","AR","Arkansas","71603","Central","34.148699","-92.083653"
"(870) 350-","Cell Number","Carroll","Berryville","AR","Arkansas","72616","Central","36.316779","-93.5616"
"(870) 322-","Landline","Izard","Franklin","AR","Arkansas","72536","Central","36.064329","-91.944673"
"(501) 278-","Landline","White","Searcy","AR","Arkansas","72143","Central","35.243622","-91.731729"
"(501) 224-","Landline","Pulaski","Little Rock","AR","Arkansas","72217","Central","34.830158","-92.170174"
"(479) 879-","Cell Number","Washington","Fayetteville","AR","Arkansas","72702","Central","35.99403","-94.219977"
"(479) 659-","Landline","Benton","Rogers","AR","Arkansas","72757","Central","36.371981","-94.115649"
"(870) 440-","Cell Number","Union","El Dorado","AR","Arkansas","71731","Central","33.198024","-92.52891"
"(501) 283-","Cell Number","White","Bald Knob","AR","Arkansas","72010","Central","35.331399","-91.520754"
"(870) 795-","Unknown","Marion","Yellville","AR","Arkansas","72687","Central","36.254905","-92.688068"
"(870) 496-","Landline","Searcy","Witts Springs","AR","Arkansas","72686","Central","35.916744","-92.681408"
"(501) 818-","Cell Number","Hot Spring","Malvern","AR","Arkansas","72104","Central","34.36975","-92.839331"
"(870) 374-","Cell Number","Lincoln","Gould","AR","Arkansas","71643","Central","34.024648","-91.626178"
"(479) 646-","Landline","Sebastian","Fort Smith","AR","Arkansas","72901","Central","35.231245","-94.339412"
"(479) 622-","Cell Number","Yell","Danville","AR","Arkansas","72833","Central","35.052818","-93.381315"
"(501) 932-","Landline","Faulkner","Conway","AR","Arkansas","72032","Central","35.146446","-92.376466"
"(501) 606-","Cell Number","Lonoke","Cabot","AR","Arkansas","72023","Central","34.826103","-91.931526"
"(501) 570-","Landline","Pulaski","Little Rock","AR","Arkansas","72217","Central","34.830158","-92.170174"
"(501) 850-","Unknown","Pulaski","Little Rock","AR","Arkansas","72217","Central","34.830158","-92.170174"
"(870) 391-","Landline","Boone","Harrison","AR","Arkansas","72601","Central","36.295086","-93.092861"
"(501) 529-","Cell Number","Pulaski","Little Rock","AR","Arkansas","72217","Central","34.830158","-92.170174"
"(479) 280-","Unknown","Pope","Russellville","AR","Arkansas","72802","Central","35.306683","-93.071219"
"(501) 456-","Unknown","White","Judsonia","AR","Arkansas","72081","Central","35.39438","-91.758198"
"(870) 673-","Landline","Arkansas","Stuttgart","AR","Arkansas","72160","Central","34.387577","-91.419955"
"(479) 283-","Cell Number","Washington","Fayetteville","AR","Arkansas","72702","Central","35.99403","-94.219977"
"(870) 407-","Landline","Marion","Bull Shoals","AR","Arkansas","72619","Central","36.318875","-92.629141"
"(870) 518-","Landline","Sevier","De Queen","AR","Arkansas","71832","Central","34.050929","-94.28072"
"(501) 734-","Landline","Pulaski","Little Rock","AR","Arkansas","72217","Central","34.830158","-92.170174"
"(479) 524-","Landline","Benton","Siloam Springs","AR","Arkansas","72761","Central","36.21791","-94.383778"
"(479) 640-","Cell Number","Benton","Rogers","AR","Arkansas","72757","Central","36.371981","-94.115649"
"(870) 601-","Unknown","Baxter","Gassville","AR","Arkansas","72635","Central","36.318799","-92.487866"
"(501) 838-","Cell Number","Pulaski","Little Rock","AR","Arkansas","72217","Central","34.830158","-92.170174"
"(870) 584-","Landline","Sevier","De Queen","AR","Arkansas","71832","Central","34.050929","-94.28072"
"(479) 462-","Cell Number","Sebastian","Fort Smith","AR","Arkansas","72901","Central","35.231245","-94.339412"
"(501) 679-","Landline","Faulkner","Greenbrier","AR","Arkansas","72058","Central","35.211744","-92.376242"
"(870) 396-","Landline","Fulton","Viola","AR","Arkansas","72583","Central","36.392508","-91.93942"
"(501) 676-","Landline","Lonoke","Lonoke","AR","Arkansas","72086","Central","34.81247","-91.905399"
"(501) 423-","Landline","Pulaski","Little Rock","AR","Arkansas","72217","Central","34.830158","-92.170174"
"(501) 203-","Landline","White","Searcy","AR","Arkansas","72143","Central","35.243622","-91.731729"
"(870) 479-","Landline","Lincoln","Grady","AR","Arkansas","71644","Central","34.103233","-91.705699"
"(870) 793-","Landline","Independence","Batesville","AR","Arkansas","72503","Central","35.734617","-91.534303"
"(501) 365-","Landline","Cleburne","Heber Springs","AR","Arkansas","72543","Central","35.453106","-91.98883"
"(501) 355-","Landline","Pulaski","Little Rock","AR","Arkansas","72217","Central","34.830158","-92.170174"
"(501) 306-","Unknown","Cleburne","Quitman","AR","Arkansas","72131","Central","35.449492","-92.151804"
"(870) 898-","Landline","Little River","Ashdown","AR","Arkansas","71822","Central","33.704625","-94.130221"
"(479) 806-","Cell Number","Sebastian","Fort Smith","AR","Arkansas","72901","Central","35.231245","-94.339412"
"(501) 330-","Landline","Perry","Bigelow","AR","Arkansas","72016","Central","34.968975","-92.626882"
"(479) 883-","Cell Number","Sebastian","Fort Smith","AR","Arkansas","72901","Central","35.231245","-94.339412"
"(870) 362-","Cell Number","Cross","Wynne","AR","Arkansas","72396","Central","35.274844","-90.798946"
"(501) 207-","Landline","White","Searcy","AR","Arkansas","72143","Central","35.243622","-91.731729"
"(479) 639-","Landline","Sebastian","Huntington","AR","Arkansas","72940","Central","35.13786","-94.24613"
"(479) 692-","Cell Number","Pope","Russellville","AR","Arkansas","72802","Central","35.306683","-93.071219"
"(501) 794-","Landline","Saline","Bryant","AR","Arkansas","72022","Central","34.612417","-92.493519"
"(479) 304-","Unknown","Benton","Bentonville","AR","Arkansas","72716","Central","36.299507","-93.956801"
"(501) 422-","Unknown","Lonoke","Cabot","AR","Arkansas","72023","Central","34.826103","-91.931526"
"(870) 371-","Cell Number","Fulton","Salem","AR","Arkansas","72576","Central","36.425836","-91.699502"
"(501) 791-","Landline","Pulaski","Little Rock","AR","Arkansas","72217","Central","34.830158","-92.170174"
"(501) 376-","Landline","Pulaski","Little Rock","AR","Arkansas","72217","Central","34.830158","-92.170174"
"(479) 847-","Cell Number","Logan","Paris","AR","Arkansas","72855","Central","35.274106","-93.615999"
"(870) 869-","Landline","Lawrence","Imboden","AR","Arkansas","72434","Central","36.183681","-91.215672"
"(501) 566-","Landline","Hot Spring","Malvern","AR","Arkansas","72104","Central","34.36975","-92.839331"
"(501) 712-","Cell Number","Pulaski","Little Rock","AR","Arkansas","72217","Central","34.830158","-92.170174"
"(501) 513-","Landline","Faulkner","Conway","AR","Arkansas","72032","Central","35.146446","-92.376466"
"(870) 863-","Landline","Union","El Dorado","AR","Arkansas","71731","Central","33.198024","-92.52891"
"(870) 797-","Landline","Union","Strong","AR","Arkansas","71765","Central","33.169586","-92.331829"
"(501) 902-","Cell Number","Pulaski","Little Rock","AR","Arkansas","72217","Central","34.830158","-92.170174"
"(870) 445-","Landline","Marion","Bull Shoals","AR","Arkansas","72619","Central","36.318875","-92.629141"
"(870) 730-","Landline","Jefferson","Pine Bluff","AR","Arkansas","71603","Central","34.148699","-92.083653"
"(479) 287-","Unknown","Washington","Fayetteville","AR","Arkansas","72702","Central","35.99403","-94.219977"
"(870) 684-","Landline","Poinsett","Weiner","AR","Arkansas","72479","Central","35.611992","-90.873808"
"(479) 276-","Unknown","Crawford","Alma","AR","Arkansas","72921","Central","35.479157","-94.193334"
"(479) 790-","Cell Number","Washington","Fayetteville","AR","Arkansas","72702","Central","35.99403","-94.219977"
"(501) 314-","Unknown","Faulkner","Greenbrier","AR","Arkansas","72058","Central","35.211744","-92.376242"
"(479) 410-","Landline","Crawford","Van Buren","AR","Arkansas","72957","Central","35.494412","-94.318648"
"(870) 539-","Landline","Mississippi","Leachville","AR","Arkansas","72438","Central","35.884302","-90.210167"
"(501) 233-","Landline","Perry","Casa","AR","Arkansas","72025","Central","34.943809","-92.923191"
"(479) 855-","Landline","Benton","Bella Vista","AR","Arkansas","72715","Central","36.442323","-94.427298"
"(501) 728-","Landline","White","Pangburn","AR","Arkansas","72121","Central","35.329969","-91.652684"
"(870) 212-","Cell Number","Greene","Paragould","AR","Arkansas","72451","Central","36.11635","-90.525077"
"(501) 329-","Landline","Faulkner","Conway","AR","Arkansas","72032","Central","35.146446","-92.376466"
"(479) 633-","Landline","Benton","Rogers","AR","Arkansas","72757","Central","36.371981","-94.115649"
"(870) 455-","Landline","Howard","Nashville","AR","Arkansas","71852","Central","34.024903","-93.942206"
"(479) 322-","Cell Number","Sebastian","Greenwood","AR","Arkansas","72936","Central","35.181209","-94.206011"
"(501) 287-","Unknown","Pulaski","Little Rock","AR","Arkansas","72217","Central","34.830158","-92.170174"
"(479) 957-","Cell Number","Washington","Fayetteville","AR","Arkansas","72702","Central","35.99403","-94.219977"
"(479) 353-","Cell Number","Sebastian","Fort Smith","AR","Arkansas","72901","Central","35.231245","-94.339412"
"(479) 204-","Landline","Benton","Bentonville","AR","Arkansas","72716","Central","36.299507","-93.956801"
"(479) 586-","Cell Number","Benton","Rogers","AR","Arkansas","72757","Central","36.371981","-94.115649"
"(501) 633-","Landline","Pulaski","Little Rock","AR","Arkansas","72217","Central","34.830158","-92.170174"
"(870) 290-","Landline","Monroe","Brinkley","AR","Arkansas","72021","Central","34.883421","-91.194574"
"(870) 337-","Landline","Independence","Oil Trough","AR","Arkansas","72564","Central","35.59985","-91.475445"
"(870) 226-","Landline","Bradley","Warren","AR","Arkansas","71671","Central","33.573602","-92.097852"
"(870) 643-","Unknown","Jefferson","Pine Bluff","AR","Arkansas","71603","Central","34.148699","-92.083653"
"(870) 922-","Landline","Baxter","Mountain Home","AR","Arkansas","72654","Central","36.23638","-92.372635"
"(870) 452-","Cell Number","Union","El Dorado","AR","Arkansas","71731","Central","33.198024","-92.52891"
"(479) 477-","Cell Number","Yell","Dardanelle","AR","Arkansas","72834","Central","35.235025","-93.184774"
"(501) 978-","Landline","Pulaski","Little Rock","AR","Arkansas","72217","Central","34.830158","-92.170174"
"(501) 641-","Landline","Pulaski","Little Rock","AR","Arkansas","72217","Central","34.830158","-92.170174"
"(870) 792-","Landline","Crittenden","Earle","AR","Arkansas","72331","Central","35.270213","-90.355335"
"(870) 392-","Landline","Desha","Tillar","AR","Arkansas","71670","Central","33.698144","-91.443347"
"(501) 732-","Cell Number","Hot Spring","Malvern","AR","Arkansas","72104","Central","34.36975","-92.839331"
"(479) 765-","Unknown","Washington","Winslow","AR","Arkansas","72959","Central","35.862402","-94.106004"
"(870) 532-","Landline","Mississippi","Blytheville","AR","Arkansas","72316","Central","35.694942","-89.966819"
"(870) 238-","Landline","Cross","Wynne","AR","Arkansas","72396","Central","35.274844","-90.798946"
"(870) 819-","Landline","Craighead","Jonesboro","AR","Arkansas","72401","Central","35.835847","-90.623071"
"(870) 788-","Cell Number","Jefferson","Pine Bluff","AR","Arkansas","71603","Central","34.148699","-92.083653"
"(501) 421-","Landline","Pulaski","Little Rock","AR","Arkansas","72217","Central","34.830158","-92.170174"
"(870) 521-","Landline","Columbia","Magnolia","AR","Arkansas","71754","Central","33.242571","-93.22996"
"(870) 343-","Landline","Crittenden","Turrell","AR","Arkansas","72384","Central","35.343902","-90.297822"
"(870) 899-","Landline","Nevada","Emmet","AR","Arkansas","71835","Central","33.761471","-93.42928"
"(501) 983-","Landline","Pulaski","Jacksonville","AR","Arkansas","72076","Central","34.918774","-92.15149"
"(870) 236-","Landline","Greene","Paragould","AR","Arkansas","72451","Central","36.11635","-90.525077"
"(870) 274-","Landline","Clark","Okolona","AR","Arkansas","71962","Central","34.041476","-93.267115"
"(479) 802-","Landline","Benton","Bentonville","AR","Arkansas","72716","Central","36.299507","-93.956801"
"(501) 472-","Cell Number","Faulkner","Conway","AR","Arkansas","72032","Central","35.146446","-92.376466"
"(501) 553-","Landline","Pulaski","Little Rock","AR","Arkansas","72217","Central","34.830158","-92.170174"
"(501) 514-","Cell Number","Faulkner","Conway","AR","Arkansas","72032","Central","35.146446","-92.376466"
"(870) 945-","Cell Number","Saint Francis","Forrest City","AR","Arkansas","72335","Central","35.026272","-90.859555"
"(479) 964-","Landline","Pope","Russellville","AR","Arkansas","72802","Central","35.306683","-93.071219"
"(501) 951-","Cell Number","Pulaski","Little Rock","AR","Arkansas","72217","Central","34.830158","-92.170174"
"(479) 439-","Landline","Washington","Fayetteville","AR","Arkansas","72702","Central","35.99403","-94.219977"
"(501) 843-","Landline","Lonoke","Cabot","AR","Arkansas","72023","Central","34.826103","-91.931526"
"(479) 260-","Cell Number","Washington","Fayetteville","AR","Arkansas","72702","Central","35.99403","-94.219977"
"(479) 203-","Landline","Washington","Springdale","AR","Arkansas","72765","Central","36.172541","-94.153512"
"(479) 275-","Unknown","Franklin","Charleston","AR","Arkansas","72933","Central","35.387924","-93.95098"
"(870) 647-","Landline","Randolph","Maynard","AR","Arkansas","72444","Central","36.396694","-90.936899"
"(870) 755-","Landline","Cross","Parkin","AR","Arkansas","72373","Central","35.293247","-90.635505"
"(870) 234-","Landline","Columbia","Magnolia","AR","Arkansas","71754","Central","33.242571","-93.22996"
"(479) 521-","Landline","Washington","Fayetteville","AR","Arkansas","72702","Central","35.99403","-94.219977"
"(501) 828-","Cell Number","Pulaski","Little Rock","AR","Arkansas","72217","Central","34.830158","-92.170174"
"(501) 977-","Landline","Conway","Morrilton","AR","Arkansas","72110","Central","35.169237","-92.817379"
"(479) 292-","Landline","Johnson","Oark","AR","Arkansas","72852","Central","35.547714","-93.437264"
"(479) 358-","Unknown","Sebastian","Fort Smith","AR","Arkansas","72901","Central","35.231245","-94.339412"
"(479) 638-","Landline","Sebastian","Hackett","AR","Arkansas","72937","Central","35.119452","-94.329759"
"(479) 632-","Landline","Crawford","Alma","AR","Arkansas","72921","Central","35.479157","-94.193334"
"(479) 885-","Landline","Johnson","Clarksville","AR","Arkansas","72830","Central","35.473886","-93.516564"
"(479) 599-","Cell Number","Benton","Siloam Springs","AR","Arkansas","72761","Central","36.21791","-94.383778"
"(479) 345-","Unknown","Crawford","Natural Dam","AR","Arkansas","72948","Central","35.680583","-94.404185"
"(870) 349-","Landline","Jackson","Tuckerman","AR","Arkansas","72473","Central","35.71528","-91.173296"
"(870) 469-","Landline","Drew","Wilmar","AR","Arkansas","71675","Central","33.614151","-91.916698"
"(479) 858-","Landline","Pope","Russellville","AR","Arkansas","72802","Central","35.306683","-93.071219"
"(479) 495-","Landline","Yell","Danville","AR","Arkansas","72833","Central","35.052818","-93.381315"
"(501) 219-","Landline","Pulaski","Little Rock","AR","Arkansas","72217","Central","34.830158","-92.170174"
"(479) 277-","Landline","Benton","Bentonville","AR","Arkansas","72716","Central","36.299507","-93.956801"
"(870) 486-","Landline","Craighead","Monette","AR","Arkansas","72447","Central","35.909972","-90.347446"
"(870) 342-","Landline","Clark","Amity","AR","Arkansas","71921","Central","34.232509","-93.313673"
"(870) 771-","Landline","Baxter","Henderson","AR","Arkansas","72544","Central","36.410457","-92.195113"
"(501) 920-","Cell Number","Pulaski","Little Rock","AR","Arkansas","72217","Central","34.830158","-92.170174"
"(870) 731-","Landline","Woodruff","Mc Crory","AR","Arkansas","72101","Central","35.259987","-91.219846"
"(501) 961-","Landline","Pulaski","Scott","AR","Arkansas","72142","Central","34.670904","-92.152336"
"(870) 901-","Landline","Columbia","Magnolia","AR","Arkansas","71754","Central","33.242571","-93.22996"
"(501) 680-","Cell Number","Pulaski","Little Rock","AR","Arkansas","72217","Central","34.830158","-92.170174"
"(870) 830-","Cell Number","Arkansas","Stuttgart","AR","Arkansas","72160","Central","34.387577","-91.419955"
"(501) 945-","Landline","Pulaski","Little Rock","AR","Arkansas","72217","Central","34.830158","-92.170174"
"(479) 456-","Landline","Madison","Wesley","AR","Arkansas","72773","Central","36.033601","-93.704255"
"(501) 779-","Cell Number","Pulaski","Little Rock","AR","Arkansas","72217","Central","34.830158","-92.170174"
"(501) 360-","Cell Number","Pulaski","Little Rock","AR","Arkansas","72217","Central","34.830158","-92.170174"
"(479) 677-","Landline","Madison","Saint Paul","AR","Arkansas","72760","Central","36.033601","-93.704255"
"(479) 876-","Landline","Benton","Bella Vista","AR","Arkansas","72715","Central","36.442323","-94.427298"
"(870) 734-","Landline","Monroe","Brinkley","AR","Arkansas","72021","Central","34.883421","-91.194574"
"(870) 722-","Landline","Hempstead","Hope","AR","Arkansas","71802","Central","33.765584","-93.559162"
"(870) 243-","Cell Number","Craighead","Jonesboro","AR","Arkansas","72401","Central","35.835847","-90.623071"
"(479) 414-","Cell Number","Sebastian","Fort Smith","AR","Arkansas","72901","Central","35.231245","-94.339412"
"(479) 878-","Landline","Benton","Rogers","AR","Arkansas","72757","Central","36.371981","-94.115649"
"(870) 974-","Landline","Craighead","Jonesboro","AR","Arkansas","72401","Central","35.835847","-90.623071"
"(870) 747-","Landline","Monroe","Clarendon","AR","Arkansas","72029","Central","34.745361","-91.247509"
"(870) 714-","Cell Number","Phillips","Helena","AR","Arkansas","72342","Central","34.45192","-90.751249"
"(870) 441-","Cell Number","Jefferson","Pine Bluff","AR","Arkansas","71603","Central","34.148699","-92.083653"
"(479) 518-","Cell Number","Pope","Russellville","AR","Arkansas","72802","Central","35.306683","-93.071219"
"(501) 650-","Cell Number","Pulaski","Little Rock","AR","Arkansas","72217","Central","34.830158","-92.170174"
"(870) 256-","Landline","Prairie","Des Arc","AR","Arkansas","72040","Central","34.831514","-91.53744"
"(501) 349-","Cell Number","Pulaski","Little Rock","AR","Arkansas","72217","Central","34.830158","-92.170174"
"(479) 719-","Cell Number","Sebastian","Fort Smith","AR","Arkansas","72901","Central","35.231245","-94.339412"
"(501) 222-","Landline","Pulaski","Little Rock","AR","Arkansas","72217","Central","34.830158","-92.170174"
"(870) 944-","Cell Number","Union","Smackover","AR","Arkansas","71762","Central","33.194725","-92.523809"
"(501) 292-","Unknown","White","Bald Knob","AR","Arkansas","72010","Central","35.331399","-91.520754"
"(479) 657-","Landline","Benton","Bentonville","AR","Arkansas","72716","Central","36.299507","-93.956801"
"(870) 341-","Cell Number","Jefferson","Pine Bluff","AR","Arkansas","71603","Central","34.148699","-92.083653"
"(870) 426-","Landline","Boone","Omaha","AR","Arkansas","72662","Central","36.421611","-93.166451"
"(870) 729-","Cell Number","Hempstead","Hope","AR","Arkansas","71802","Central","33.765584","-93.559162"
"(870) 474-","Landline","Hempstead","Hope","AR","Arkansas","71802","Central","33.765584","-93.559162"
"(501) 340-","Landline","Pulaski","Little Rock","AR","Arkansas","72217","Central","34.830158","-92.170174"
"(479) 338-","Unknown","Benton","Rogers","AR","Arkansas","72757","Central","36.371981","-94.115649"
"(870) 932-","Landline","Craighead","Jonesboro","AR","Arkansas","72401","Central","35.835847","-90.623071"
"(870) 679-","Cell Number","Lawrence","Walnut Ridge","AR","Arkansas","72476","Central","36.042979","-90.998707"
"(870) 640-","Unknown","Marion","Flippin","AR","Arkansas","72634","Central","36.317483","-92.595011"
"(479) 641-","Landline","Pope","Atkins","AR","Arkansas","72823","Central","35.325504","-92.992285"
"(479) 343-","Unknown","Sebastian","Fort Smith","AR","Arkansas","72901","Central","35.231245","-94.339412"
"(501) 297-","Cell Number","Pulaski","Little Rock","AR","Arkansas","72217","Central","34.830158","-92.170174"
"(870) 933-","Landline","Craighead","Jonesboro","AR","Arkansas","72401","Central","35.835847","-90.623071"
"(870) 339-","Landline","Saint Francis","Hughes","AR","Arkansas","72348","Central","34.959855","-90.564357"
"(501) 312-","Landline","Pulaski","Little Rock","AR","Arkansas","72217","Central","34.830158","-92.170174"
"(479) 674-","Landline","Sebastian","Lavaca","AR","Arkansas","72941","Central","35.241045","-94.18783"
"(870) 952-","Cell Number","Bradley","Warren","AR","Arkansas","71671","Central","33.573602","-92.097852"
"(870) 414-","Landline","Boone","Harrison","AR","Arkansas","72601","Central","36.295086","-93.092861"
"(870) 595-","Landline","Clay","Rector","AR","Arkansas","72461","Central","36.310788","-90.329565"
"(870) 807-","Cell Number","Ouachita","Camden","AR","Arkansas","71711","Central","33.589009","-92.842649"
"(501) 504-","Landline","Faulkner","Conway","AR","Arkansas","72032","Central","35.146446","-92.376466"
"(870) 726-","Landline","Carroll","Green Forest","AR","Arkansas","72638","Central","36.310046","-93.57875"
"(870) 537-","Landline","Mississippi","Joiner","AR","Arkansas","72350","Central","35.501635","-90.145752"
"(479) 651-","Cell Number","Sebastian","Fort Smith","AR","Arkansas","72901","Central","35.231245","-94.339412"
"(870) 878-","Landline","Lawrence","Black Rock","AR","Arkansas","72415","Central","36.132344","-91.187361"
"(479) 274-","Unknown","Sebastian","Fort Smith","AR","Arkansas","72901","Central","35.231245","-94.339412"
"(501) 596-","Cell Number","Pulaski","Jacksonville","AR","Arkansas","72076","Central","34.918774","-92.15149"
"(479) 488-","Unknown","Benton","Pea Ridge","AR","Arkansas","72751","Central","36.461444","-94.129727"
"(479) 207-","Cell Number","Scott","Waldron","AR","Arkansas","72958","Central","34.908133","-94.089381"
"(870) 665-","Cell Number","Union","El Dorado","AR","Arkansas","71731","Central","33.198024","-92.52891"
"(870) 637-","Landline","Lawrence","Walnut Ridge","AR","Arkansas","72476","Central","36.042979","-90.998707"
"(870) 614-","Landline","Mississippi","Luxora","AR","Arkansas","72358","Central","35.773408","-89.887854"
"(870) 658-","Landline","Mississippi","Luxora","AR","Arkansas","72358","Central","35.773408","-89.887854"
"(870) 216-","Landline","Miller","Texarkana","AR","Arkansas","71854","Central","33.431043","-93.876485"
"(870) 586-","Landline","Greene","Lafe","AR","Arkansas","72436","Central","36.202584","-90.469652"
"(501) 481-","Landline","Pulaski","Little Rock","AR","Arkansas","72217","Central","34.830158","-92.170174"
"(870) 523-","Landline","Jackson","Newport","AR","Arkansas","72112","Central","35.569278","-91.203951"
"(870) 457-","Landline","Saint Francis","Wheatley","AR","Arkansas","72392","Central","34.950619","-91.091003"
"(870) 376-","Landline","Clay","Corning","AR","Arkansas","72422","Central","36.379467","-90.538667"
"(870) 692-","Cell Number","Jefferson","Pine Bluff","AR","Arkansas","71603","Central","34.148699","-92.083653"
"(870) 867-","Landline","Montgomery","Mount Ida","AR","Arkansas","71957","Central","34.550661","-93.585206"
"(501) 412-","Cell Number","Pulaski","Little Rock","AR","Arkansas","72217","Central","34.830158","-92.170174"
"(501) 724-","Landline","White","Bald Knob","AR","Arkansas","72010","Central","35.331399","-91.520754"
"(870) 997-","Cell Number","Chicot","Eudora","AR","Arkansas","71640","Central","33.148807","-91.310103"
"(501) 386-","Landline","Conway","Center Ridge","AR","Arkansas","72027","Central","35.311464","-92.572763"
"(479) 249-","Unknown","Washington","Fayetteville","AR","Arkansas","72702","Central","35.99403","-94.219977"
"(501) 975-","Landline","Pulaski","Little Rock","AR","Arkansas","72217","Central","34.830158","-92.170174"
"(501) 681-","Cell Number","Pulaski","Little Rock","AR","Arkansas","72217","Central","34.830158","-92.170174"
"(870) 914-","Cell Number","Columbia","Magnolia","AR","Arkansas","71754","Central","33.242571","-93.22996"
"(870) 689-","Landline","Ouachita","Louann","AR","Arkansas","71751","Central","33.416913","-92.777026"
"(870) 284-","Cell Number","Poinsett","Trumann","AR","Arkansas","72472","Central","35.588215","-90.561977"
"(501) 913-","Cell Number","Pulaski","Little Rock","AR","Arkansas","72217","Central","34.830158","-92.170174"
"(870) 802-","Landline","Craighead","Jonesboro","AR","Arkansas","72401","Central","35.835847","-90.623071"
"(479) 928-","Landline","Scott","Mansfield","AR","Arkansas","72944","Central","35.063448","-94.243268"
"(870) 422-","Landline","Boone","Lead Hill","AR","Arkansas","72644","Central","36.384844","-93.003892"
"(501) 294-","Unknown","Van Buren","Bee Branch","AR","Arkansas","72013","Central","35.404671","-92.4808"
"(870) 427-","Landline","Boone","Everton","AR","Arkansas","72633","Central","36.164402","-92.953069"
"(479) 273-","Landline","Benton","Bentonville","AR","Arkansas","72716","Central","36.299507","-93.956801"
"(501) 882-","Landline","White","Beebe","AR","Arkansas","72012","Central","35.173395","-91.808393"
"(501) 631-","Landline","Pulaski","Little Rock","AR","Arkansas","72217","Central","34.830158","-92.170174"
"(501) 858-","Cell Number","White","Beebe","AR","Arkansas","72012","Central","35.173395","-91.808393"
"(501) 400-","Unknown","Pulaski","Little Rock","AR","Arkansas","72217","Central","34.830158","-92.170174"
"(501) 743-","Landline","Lonoke","Cabot","AR","Arkansas","72023","Central","34.826103","-91.931526"
"(501) 815-","Landline","Hot Spring","Malvern","AR","Arkansas","72104","Central","34.36975","-92.839331"
"(870) 460-","Landline","Drew","Monticello","AR","Arkansas","71656","Central","33.590601","-91.732829"
"(501) 688-","Landline","Pulaski","Little Rock","AR","Arkansas","72217","Central","34.830158","-92.170174"
"(479) 567-","Cell Number","Pope","Russellville","AR","Arkansas","72802","Central","35.306683","-93.071219"
"(479) 699-","Cell Number","Yell","Dardanelle","AR","Arkansas","72834","Central","35.235025","-93.184774"
"(870) 858-","Cell Number","Clay","Sparkman","AR","Arkansas","71763","Central","33.914288","-92.853193"
"(870) 817-","Landline","Phillips","Helena","AR","Arkansas","72342","Central","34.45192","-90.751249"
"(870) 461-","Cell Number","Cleveland","Rison","AR","Arkansas","71665","Central","33.900651","-92.131777"
"(870) 723-","Cell Number","Drew","Monticello","AR","Arkansas","71656","Central","33.590601","-91.732829"
"(479) 489-","Landline","Yell","Ola","AR","Arkansas","72853","Central","35.030397","-93.303203"
"(870) 495-","Landline","Jackson","Newport","AR","Arkansas","72112","Central","35.569278","-91.203951"
"(870) 408-","Cell Number","Poinsett","Harrisburg","AR","Arkansas","72432","Central","35.575374","-90.791023"
"(479) 927-","Landline","Washington","Springdale","AR","Arkansas","72765","Central","36.172541","-94.153512"
"(870) 639-","Landline","Union","El Dorado","AR","Arkansas","71731","Central","33.198024","-92.52891"
"(501) 473-","Cell Number","White","Searcy","AR","Arkansas","72143","Central","35.243622","-91.731729"
"(870) 390-","Cell Number","Ouachita","Camden","AR","Arkansas","71711","Central","33.589009","-92.842649"
"(870) 326-","Landline","Montgomery","Oden","AR","Arkansas","71966","Central","34.542995","-93.66463"
"(479) 459-","Cell Number","Sebastian","Fort Smith","AR","Arkansas","72901","Central","35.231245","-94.339412"
"(870) 275-","Landline","Craighead","Jonesboro","AR","Arkansas","72401","Central","35.835847","-90.623071"
"(479) 288-","Landline","Sebastian","Fort Smith","AR","Arkansas","72901","Central","35.231245","-94.339412"
"(870) 882-","Cell Number","Craighead","Jonesboro","AR","Arkansas","72401","Central","35.835847","-90.623071"
"(870) 860-","Landline","Izard","Pineville","AR","Arkansas","72566","Central","36.157991","-92.112983"
"(501) 908-","Cell Number","Faulkner","Conway","AR","Arkansas","72032","Central","35.146446","-92.376466"
"(501) 398-","Cell Number","Pulaski","Little Rock","AR","Arkansas","72217","Central","34.830158","-92.170174"
"(870) 824-","Cell Number","Mississippi","Blytheville","AR","Arkansas","72316","Central","35.694942","-89.966819"
"(870) 681-","Unknown","Pike","Glenwood","AR","Arkansas","71943","Central","34.206025","-93.589297"
"(870) 228-","Landline","Phillips","Helena","AR","Arkansas","72342","Central","34.45192","-90.751249"
"(870) 787-","Cell Number","Greene","Paragould","AR","Arkansas","72451","Central","36.11635","-90.525077"
"(501) 887-","Landline","Cleburne","Heber Springs","AR","Arkansas","72543","Central","35.453106","-91.98883"
"(479) 314-","Landline","Sebastian","Fort Smith","AR","Arkansas","72901","Central","35.231245","-94.339412"
"(501) 433-","Landline","Pulaski","Little Rock","AR","Arkansas","72217","Central","34.830158","-92.170174"
"(501) 842-","Landline","Lonoke","England","AR","Arkansas","72046","Central","34.759526","-91.846164"
"(870) 442-","Landline","Cross","Cherry Valley","AR","Arkansas","72324","Central","35.340002","-90.788851"
"(870) 834-","Cell Number","Independence","Batesville","AR","Arkansas","72503","Central","35.734617","-91.534303"
"(870) 383-","Cell Number","Chicot","Flippin","AR","Arkansas","72634","Central","36.317483","-92.595011"
"(479) 508-","Landline","Franklin","Ozark","AR","Arkansas","72949","Central","35.405649","-93.909428"
"(870) 576-","Landline","Mississippi","Osceola","AR","Arkansas","72370","Central","35.646832","-90.094653"
"(870) 619-","Landline","Jefferson","Pine Bluff","AR","Arkansas","71603","Central","34.148699","-92.083653"
"(870) 475-","Landline","Poinsett","Lepanto","AR","Arkansas","72354","Central","35.596339","-90.340023"
"(870) 203-","Unknown","Craighead","Jonesboro","AR","Arkansas","72401","Central","35.835847","-90.623071"
"(479) 451-","Landline","Benton","Pea Ridge","AR","Arkansas","72751","Central","36.461444","-94.129727"
"(479) 747-","Cell Number","Pope","Russellville","AR","Arkansas","72802","Central","35.306683","-93.071219"
"(870) 246-","Landline","Clark","Arkadelphia","AR","Arkansas","71999","Central","34.055486","-93.189406"
"(501) 747-","Landline","Pulaski","Little Rock","AR","Arkansas","72217","Central","34.830158","-92.170174"
"(501) 487-","Landline","Pulaski","Little Rock","AR","Arkansas","72217","Central","34.830158","-92.170174"
"(479) 250-","Landline","Benton","Bentonville","AR","Arkansas","72716","Central","36.299507","-93.956801"
"(870) 353-","Landline","Clark","Gurdon","AR","Arkansas","71743","Central","33.930011","-93.129994"
"(870) 688-","Cell Number","Boone","Harrison","AR","Arkansas","72601","Central","36.295086","-93.092861"
"(870) 209-","Cell Number","Jefferson","Pine Bluff","AR","Arkansas","71603","Central","34.148699","-92.083653"
"(870) 328-","Landline","Poinsett","Fisher","AR","Arkansas","72429","Central","35.503918","-90.944428"
"(870) 763-","Landline","Mississippi","Blytheville","AR","Arkansas","72316","Central","35.694942","-89.966819"
"(870) 568-","Landline","Clark","Arkadelphia","AR","Arkansas","71999","Central","34.055486","-93.189406"
"(479) 498-","Landline","Pope","Russellville","AR","Arkansas","72802","Central","35.306683","-93.071219"
"(479) 430-","Cell Number","Crawford","Alma","AR","Arkansas","72921","Central","35.479157","-94.193334"
"(870) 378-","Cell Number","Randolph","Pocahontas","AR","Arkansas","72455","Central","36.324042","-91.084748"
"(870) 575-","Landline","Jefferson","Pine Bluff","AR","Arkansas","71603","Central","34.148699","-92.083653"
"(870) 499-","Landline","Baxter","Norfork","AR","Arkansas","72659","Central","36.23638","-92.372635"
"(501) 749-","Cell Number","Pulaski","Little Rock","AR","Arkansas","72217","Central","34.830158","-92.170174"
"(479) 228-","Cell Number","Benton","Siloam Springs","AR","Arkansas","72761","Central","36.21791","-94.383778"
"(870) 605-","Unknown","Poinsett","Weiner","AR","Arkansas","72479","Central","35.611992","-90.873808"
"(870) 402-","Landline","Bradley","Warren","AR","Arkansas","71671","Central","33.573602","-92.097852"
"(870) 316-","Cell Number","Craighead","Jonesboro","AR","Arkansas","72401","Central","35.835847","-90.623071"
"(870) 272-","Cell Number","Craighead","Jonesboro","AR","Arkansas","72401","Central","35.835847","-90.623071"
"(479) 361-","Landline","Washington","Springdale","AR","Arkansas","72765","Central","36.172541","-94.153512"
"(501) 420-","Unknown","Pulaski","Little Rock","AR","Arkansas","72217","Central","34.830158","-92.170174"
"(870) 443-","Cell Number","Drew","Monticello","AR","Arkansas","71656","Central","33.590601","-91.732829"
"(870) 668-","Landline","Cleburne","Concord","AR","Arkansas","72523","Central","35.642663","-91.857781"
"(870) 963-","Unknown","Marion","Bull Shoals","AR","Arkansas","72619","Central","36.318875","-92.629141"
"(501) 862-","Landline","Pulaski","Little Rock","AR","Arkansas","72217","Central","34.830158","-92.170174"
"(479) 300-","Unknown","Washington","Springdale","AR","Arkansas","72765","Central","36.172541","-94.153512"
"(870) 866-","Cell Number","Jefferson","Pine Bluff","AR","Arkansas","71603","Central","34.148699","-92.083653"
"(870) 752-","Cell Number","Monroe","Brinkley","AR","Arkansas","72021","Central","34.883421","-91.194574"
"(479) 530-","Cell Number","Washington","Fayetteville","AR","Arkansas","72702","Central","35.99403","-94.219977"
"(870) 534-","Landline","Jefferson","Pine Bluff","AR","Arkansas","71603","Central","34.148699","-92.083653"
"(501) 581-","Landline","Faulkner","Greenbrier","AR","Arkansas","72058","Central","35.211744","-92.376242"
"(479) 696-","Landline","Benton","Bentonville","AR","Arkansas","72716","Central","36.299507","-93.956801"
"(501) 613-","Landline","Pulaski","Little Rock","AR","Arkansas","72217","Central","34.830158","-92.170174"
"(501) 345-","Landline","Independence","Pleasant Plains","AR","Arkansas","72568","Central","35.654477","-91.619627"
"(870) 798-","Landline","Calhoun","Hampton","AR","Arkansas","71744","Central","33.516751","-92.582269"
"(870) 799-","Landline","Independence","Newark","AR","Arkansas","72562","Central","35.732409","-91.42517"
"(870) 918-","Cell Number","Jefferson","Pine Bluff","AR","Arkansas","71603","Central","34.148699","-92.083653"
"(870) 607-","Unknown","Baxter","Henderson","AR","Arkansas","72544","Central","36.410457","-92.195113"
"(479) 783-","Landline","Sebastian","Fort Smith","AR","Arkansas","72901","Central","35.231245","-94.339412"
"(501) 982-","Landline","Pulaski","Jacksonville","AR","Arkansas","72076","Central","34.918774","-92.15149"
"(501) 558-","Landline","Pulaski","Little Rock","AR","Arkansas","72217","Central","34.830158","-92.170174"
"(870) 386-","Landline","Sevier","Gillham","AR","Arkansas","71841","Central","34.065882","-94.358778"
"(501) 664-","Landline","Pulaski","Little Rock","AR","Arkansas","72217","Central","34.830158","-92.170174"
"(870) 956-","Unknown","Craighead","Caraway","AR","Arkansas","72419","Central","35.767307","-90.338001"
"(479) 494-","Landline","Sebastian","Fort Smith","AR","Arkansas","72901","Central","35.231245","-94.339412"
"(479) 755-","Landline","Sebastian","Fort Smith","AR","Arkansas","72901","Central","35.231245","-94.339412"
"(479) 525-","Unknown","Benton","Gentry","AR","Arkansas","72734","Central","36.288541","-94.435512"
"(870) 333-","Landline","Craighead","Jonesboro","AR","Arkansas","72401","Central","35.835847","-90.623071"
"(501) 639-","Landline","Pulaski","Little Rock","AR","Arkansas","72217","Central","34.830158","-92.170174"
"(870) 438-","Landline","Carroll","Green Forest","AR","Arkansas","72638","Central","36.310046","-93.57875"
"(501) 210-","Landline","Pulaski","Little Rock","AR","Arkansas","72217","Central","34.830158","-92.170174"
"(479) 272-","Landline","Yell","Plainview","AR","Arkansas","72857","Central","34.992068","-93.295552"
"(870) 208-","Landline","Cross","Wynne","AR","Arkansas","72396","Central","35.274844","-90.798946"
"(501) 448-","Landline","Pulaski","Little Rock","AR","Arkansas","72217","Central","34.830158","-92.170174"
"(479) 770-","Landline","Washington","Springdale","AR","Arkansas","72765","Central","36.172541","-94.153512"
"(501) 465-","Cell Number","Faulkner","Conway","AR","Arkansas","72032","Central","35.146446","-92.376466"
"(870) 241-","Landline","Monroe","Roe","AR","Arkansas","72134","Central","34.670187","-91.224126"
"(479) 935-","Landline","Washington","Fayetteville","AR","Arkansas","72702","Central","35.99403","-94.219977"
"(501) 242-","Landline","Conway","Morrilton","AR","Arkansas","72110","Central","35.169237","-92.817379"
"(501) 742-","Landline","White","Kensett","AR","Arkansas","72082","Central","35.14574","-91.847466"
"(501) 227-","Landline","Pulaski","Little Rock","AR","Arkansas","72217","Central","34.830158","-92.170174"
"(870) 493-","Landline","Mississippi","Manila","AR","Arkansas","72442","Central","35.843919","-90.1806"
"(870) 533-","Landline","Lafayette","Stamps","AR","Arkansas","71860","Central","33.343809","-93.50573"
"(870) 873-","Landline","Jefferson","Humphrey","AR","Arkansas","72073","Central","34.374078","-91.638613"
"(479) 359-","Landline","Benton","Garfield","AR","Arkansas","72732","Central","36.365048","-94.184187"
"(501) 804-","Cell Number","Pulaski","Little Rock","AR","Arkansas","72217","Central","34.830158","-92.170174"
"(870) 744-","Landline","Woodruff","Augusta","AR","Arkansas","72006","Central","35.207566","-91.372792"
"(479) 670-","Cell Number","Crawford","Alma","AR","Arkansas","72921","Central","35.479157","-94.193334"
"(870) 464-","Landline","Clark","Arkadelphia","AR","Arkansas","71999","Central","34.055486","-93.189406"
"(501) 584-","Cell Number","Pulaski","Little Rock","AR","Arkansas","72217","Central","34.830158","-92.170174"
"(870) 233-","Landline","Arkansas","De Witt","AR","Arkansas","72042","Central","34.2746","-91.414442"
"(870) 451-","Landline","Howard","Nashville","AR","Arkansas","71852","Central","34.024903","-93.942206"
"(501) 322-","Unknown","White","Kensett","AR","Arkansas","72082","Central","35.14574","-91.847466"
"(501) 252-","Landline","Pulaski","Little Rock","AR","Arkansas","72217","Central","34.830158","-92.170174"
"(870) 204-","Unknown","Boone","Harrison","AR","Arkansas","72601","Central","36.295086","-93.092861"
"(870) 291-","Cell Number","Izard","Melbourne","AR","Arkansas","72556","Central","36.063529","-91.907947"
"(501) 475-","Landline","Pulaski","Little Rock","AR","Arkansas","72217","Central","34.830158","-92.170174"
"(479) 245-","Landline","Benton","Bentonville","AR","Arkansas","72716","Central","36.299507","-93.956801"
"(870) 957-","Unknown","Mississippi","Leachville","AR","Arkansas","72438","Central","35.884302","-90.210167"
"(870) 344-","Cell Number","Arkansas","De Witt","AR","Arkansas","72042","Central","34.2746","-91.414442"
"(870) 554-","Landline","Union","Mount Holly","AR","Arkansas","71758","Central","33.302589","-92.817651"
"(501) 215-","Cell Number","Conway","Morrilton","AR","Arkansas","72110","Central","35.169237","-92.817379"
"(501) 918-","Landline","Pulaski","Little Rock","AR","Arkansas","72217","Central","34.830158","-92.170174"
"(479) 544-","Cell Number","Benton","Bentonville","AR","Arkansas","72716","Central","36.299507","-93.956801"
"(501) 289-","Cell Number","Conway","Morrilton","AR","Arkansas","72110","Central","35.169237","-92.817379"
"(479) 575-","Landline","Washington","Fayetteville","AR","Arkansas","72702","Central","35.99403","-94.219977"
"(870) 214-","Cell Number","Stone","Mountain View","AR","Arkansas","72560","Central","35.820825","-92.038894"
"(479) 965-","Landline","Franklin","Charleston","AR","Arkansas","72933","Central","35.387924","-93.95098"
"(501) 939-","Landline","Garland","Lonsdale","AR","Arkansas","72087","Central","34.574419","-92.85784"
"(479) 441-","Landline","Sebastian","Fort Smith","AR","Arkansas","72901","Central","35.231245","-94.339412"
"(870) 844-","Cell Number","Lawrence","Imboden","AR","Arkansas","72434","Central","36.183681","-91.215672"
"(479) 213-","Cell Number","Franklin","Ozark","AR","Arkansas","72949","Central","35.405649","-93.909428"
"(479) 233-","Cell Number","Benton","Gentry","AR","Arkansas","72734","Central","36.288541","-94.435512"
"(479) 445-","Landline","Washington","Fayetteville","AR","Arkansas","72702","Central","35.99403","-94.219977"
"(479) 297-","Unknown","Crawford","Mulberry","AR","Arkansas","72947","Central","35.565805","-94.124776"
"(870) 377-","Cell Number","Desha","Dumas","AR","Arkansas","71639","Central","33.875244","-91.488393"
"(870) 462-","Landline","Monroe","Holly Grove","AR","Arkansas","72069","Central","34.598059","-91.183945"
"(870) 753-","Landline","Phillips","Helena","AR","Arkansas","72342","Central","34.45192","-90.751249"
"(501) 907-","Landline","Pulaski","Little Rock","AR","Arkansas","72217","Central","34.830158","-92.170174"
"(479) 393-","Landline","Yell","Danville","AR","Arkansas","72833","Central","35.052818","-93.381315"
"(501) 569-","Landline","Pulaski","Little Rock","AR","Arkansas","72217","Central","34.830158","-92.170174"
"(870) 757-","Landline","Stone","Fifty Six","AR","Arkansas","72533","Central","35.91896","-92.127207"
"(479) 415-","Cell Number","Sebastian","Fort Smith","AR","Arkansas","72901","Central","35.231245","-94.339412"
"(870) 382-","Landline","Desha","Dumas","AR","Arkansas","71639","Central","33.875244","-91.488393"
"(501) 554-","Landline","Pulaski","Little Rock","AR","Arkansas","72217","Central","34.830158","-92.170174"
"(870) 941-","Landline","Grant","Sheridan","AR","Arkansas","72150","Central","34.306936","-92.398709"
"(479) 738-","Landline","Madison","Huntsville","AR","Arkansas","72740","Central","36.028046","-93.778748"
"(501) 802-","Cell Number","Hot Spring","Malvern","AR","Arkansas","72104","Central","34.36975","-92.839331"
"(501) 476-","Unknown","Pulaski","Little Rock","AR","Arkansas","72217","Central","34.830158","-92.170174"
"(501) 368-","Landline","White","Searcy","AR","Arkansas","72143","Central","35.243622","-91.731729"
"(870) 375-","Cell Number","Poinsett","Marked Tree","AR","Arkansas","72365","Central","35.531267","-90.43642"
"(501) 523-","Landline","Pulaski","Scott","AR","Arkansas","72142","Central","34.670904","-92.152336"
"(501) 729-","Landline","White","Kensett","AR","Arkansas","72082","Central","35.14574","-91.847466"
"(870) 942-","Landline","Grant","Sheridan","AR","Arkansas","72150","Central","34.306936","-92.398709"
"(870) 397-","Cell Number","Hempstead","Hope","AR","Arkansas","71802","Central","33.765584","-93.559162"
"(870) 833-","Cell Number","Ouachita","Camden","AR","Arkansas","71711","Central","33.589009","-92.842649"
"(501) 428-","Cell Number","Faulkner","Conway","AR","Arkansas","72032","Central","35.146446","-92.376466"
"(479) 331-","Landline","Pope","Dover","AR","Arkansas","72837","Central","35.498142","-93.063411"
"(501) 580-","Cell Number","Pulaski","Little Rock","AR","Arkansas","72217","Central","34.830158","-92.170174"
"(870) 919-","Cell Number","Craighead","Jonesboro","AR","Arkansas","72401","Central","35.835847","-90.623071"
"(501) 217-","Landline","Pulaski","Little Rock","AR","Arkansas","72217","Central","34.830158","-92.170174"
"(501) 772-","Cell Number","Pulaski","Little Rock","AR","Arkansas","72217","Central","34.830158","-92.170174"
"(870) 821-","Cell Number","Lee","Marianna","AR","Arkansas","72360","Central","34.768479","-90.783138"
"(479) 258-","Landline","Benton","Bentonville","AR","Arkansas","72716","Central","36.299507","-93.956801"
"(870) 727-","Landline","Jefferson","Pine Bluff","AR","Arkansas","71603","Central","34.148699","-92.083653"
"(870) 389-","Landline","Polk","Hatfield","AR","Arkansas","71945","Central","34.5019","-94.362242"
"(870) 759-","Landline","Lawrence","Walnut Ridge","AR","Arkansas","72476","Central","36.042979","-90.998707"
"(479) 647-","Cell Number","Johnson","Clarksville","AR","Arkansas","72830","Central","35.473886","-93.516564"
"(870) 626-","Landline","Columbia","Magnolia","AR","Arkansas","71754","Central","33.242571","-93.22996"
"(870) 646-","Landline","Baxter","Midway","AR","Arkansas","72651","Central","36.37792","-92.474246"
"(501) 307-","Cell Number","Pulaski","Little Rock","AR","Arkansas","72217","Central","34.830158","-92.170174"
"(870) 370-","Cell Number","Lincoln","Star City","AR","Arkansas","71667","Central","33.999462","-91.709308"
"(870) 732-","Landline","Crittenden","West Memphis","AR","Arkansas","72303","Central","35.137366","-90.285543"
"(870) 506-","Unknown","Marion","Bull Shoals","AR","Arkansas","72619","Central","36.318875","-92.629141"
"(501) 893-","Landline","Conway","Center Ridge","AR","Arkansas","72027","Central","35.311464","-92.572763"
"(479) 453-","Cell Number","Yell","Dardanelle","AR","Arkansas","72834","Central","35.235025","-93.184774"
"(501) 541-","Cell Number","Pulaski","Little Rock","AR","Arkansas","72217","Central","34.830158","-92.170174"
"(479) 463-","Landline","Washington","Fayetteville","AR","Arkansas","72702","Central","35.99403","-94.219977"
"(479) 221-","Landline","Sebastian","Fort Smith","AR","Arkansas","72901","Central","35.231245","-94.339412"
"(479) 248-","Landline","Benton","Cave Springs","AR","Arkansas","72718","Central","36.266213","-94.245722"
"(501) 647-","Landline","Pulaski","Little Rock","AR","Arkansas","72217","Central","34.830158","-92.170174"
"(479) 662-","Unknown","Crawford","Mountainburg","AR","Arkansas","72946","Central","35.64644","-94.149687"
"(870) 790-","Unknown","Fulton","Viola","AR","Arkansas","72583","Central","36.392508","-91.93942"
"(870) 696-","Landline","Columbia","Magnolia","AR","Arkansas","71754","Central","33.242571","-93.22996"
"(870) 994-","Landline","Sharp","Ash Flat","AR","Arkansas","72513","Central","36.234637","-91.568849"
"(479) 650-","Cell Number","Sebastian","Fort Smith","AR","Arkansas","72901","Central","35.231245","-94.339412"
"(479) 344-","Unknown","Benton","Gravette","AR","Arkansas","72736","Central","36.381245","-94.471388"
"(501) 268-","Landline","White","Searcy","AR","Arkansas","72143","Central","35.243622","-91.731729"
"(479) 799-","Cell Number","Washington","Fayetteville","AR","Arkansas","72702","Central","35.99403","-94.219977"
"(501) 865-","Landline","Hot Spring","Bismarck","AR","Arkansas","71929","Central","34.276538","-93.11742"
"(870) 758-","Cell Number","Randolph","Pocahontas","AR","Arkansas","72455","Central","36.324042","-91.084748"
"(870) 671-","Landline","Jefferson","Pine Bluff","AR","Arkansas","71603","Central","34.148699","-92.083653"
"(870) 843-","Cell Number","Union","Junction City","AR","Arkansas","71749","Central","33.16579","-92.768091"
"(501) 588-","Landline","Pulaski","Little Rock","AR","Arkansas","72217","Central","34.830158","-92.170174"
"(479) 394-","Landline","Polk","Mena","AR","Arkansas","71953","Central","34.503699","-94.194756"
"(501) 849-","Landline","Faulkner","Enola","AR","Arkansas","72047","Central","35.230211","-92.202242"
"(870) 751-","Cell Number","Sharp","Ash Flat","AR","Arkansas","72513","Central","36.234637","-91.568849"
"(870) 645-","Landline","Hempstead","Fulton","AR","Arkansas","71838","Central","33.669917","-93.79752"
"(479) 323-","Unknown","Benton","Gravette","AR","Arkansas","72736","Central","36.381245","-94.471388"
"(870) 435-","Landline","Baxter","Gassville","AR","Arkansas","72635","Central","36.318799","-92.487866"
"(870) 739-","Landline","Crittenden","Marion","AR","Arkansas","72364","Central","35.174997","-90.294424"
"(479) 836-","Cell Number","Benton","Rogers","AR","Arkansas","72757","Central","36.371981","-94.115649"
"(479) 215-","Landline","Benton","Siloam Springs","AR","Arkansas","72761","Central","36.21791","-94.383778"
"(870) 660-","Unknown","Prairie","Des Arc","AR","Arkansas","72040","Central","34.831514","-91.53744"
"(479) 721-","Cell Number","Benton","Rogers","AR","Arkansas","72757","Central","36.371981","-94.115649"
"(870) 756-","Unknown","Craighead","Jonesboro","AR","Arkansas","72401","Central","35.835847","-90.623071"
"(501) 296-","Landline","Pulaski","Little Rock","AR","Arkansas","72217","Central","34.830158","-92.170174"
"(870) 222-","Landline","Desha","Mc Gehee","AR","Arkansas","71666","Central","33.818318","-91.214054"
"(870) 710-","Cell Number","Sharp","Cherokee Village","AR","Arkansas","72525","Central","36.295879","-91.488845"
"(501) 413-","Cell Number","Pulaski","Little Rock","AR","Arkansas","72217","Central","34.830158","-92.170174"
"(479) 839-","Landline","Washington","West Fork","AR","Arkansas","72774","Central","35.98025","-94.198446"
"(870) 766-","Landline","Jefferson","Wabbaseka","AR","Arkansas","72175","Central","34.348461","-91.862772"
"(479) 251-","Landline","Washington","Fayetteville","AR","Arkansas","72702","Central","35.99403","-94.219977"
"(870) 803-","Landline","Baxter","Gassville","AR","Arkansas","72635","Central","36.318799","-92.487866"
"(501) 407-","Landline","Pulaski","Little Rock","AR","Arkansas","72217","Central","34.830158","-92.170174"
"(501) 370-","Landline","Pulaski","Little Rock","AR","Arkansas","72217","Central","34.830158","-92.170174"
"(870) 278-","Cell Number","Mississippi","Blytheville","AR","Arkansas","72316","Central","35.694942","-89.966819"
"(479) 668-","Landline","Sebastian","Fort Smith","AR","Arkansas","72901","Central","35.231245","-94.339412"
"(870) 955-","Cell Number","Sharp","Hardy","AR","Arkansas","72542","Central","36.178441","-91.481669"
"(479) 739-","Cell Number","Sebastian","Fort Smith","AR","Arkansas","72901","Central","35.231245","-94.339412"
"(501) 952-","Cell Number","Pulaski","Little Rock","AR","Arkansas","72217","Central","34.830158","-92.170174"
"(479) 601-","Cell Number","Washington","Fayetteville","AR","Arkansas","72702","Central","35.99403","-94.219977"
"(479) 926-","Cell Number","Sebastian","Fort Smith","AR","Arkansas","72901","Central","35.231245","-94.339412"
"(479) 209-","Cell Number","Franklin","Ozark","AR","Arkansas","72949","Central","35.405649","-93.909428"
"(479) 493-","Landline","Yell","Belleville","AR","Arkansas","72824","Central","35.030397","-93.303203"
"(870) 459-","Landline","Woodruff","Cotton Plant","AR","Arkansas","72036","Central","35.004397","-91.252284"
"(501) 253-","Cell Number","Van Buren","Clinton","AR","Arkansas","72031","Central","35.568709","-92.41875"
"(479) 600-","Unknown","Benton","Gravette","AR","Arkansas","72736","Central","36.381245","-94.471388"
"(870) 530-","Cell Number","Craighead","Jonesboro","AR","Arkansas","72401","Central","35.835847","-90.623071"
"(870) 213-","Landline","Stone","Mountain View","AR","Arkansas","72560","Central","35.820825","-92.038894"
"(479) 689-","Landline","Crawford","Van Buren","AR","Arkansas","72957","Central","35.494412","-94.318648"
"(501) 277-","Cell Number","Faulkner","Greenbrier","AR","Arkansas","72058","Central","35.211744","-92.376242"
"(479) 434-","Landline","Sebastian","Fort Smith","AR","Arkansas","72901","Central","35.231245","-94.339412"
"(870) 728-","Unknown","Phillips","Marvell","AR","Arkansas","72366","Central","34.5334","-90.954242"
"(501) 350-","Cell Number","Pulaski","Little Rock","AR","Arkansas","72217","Central","34.830158","-92.170174"
"(501) 730-","Landline","Faulkner","Conway","AR","Arkansas","72032","Central","35.146446","-92.376466"
"(479) 366-","Cell Number","Benton","Rogers","AR","Arkansas","72757","Central","36.371981","-94.115649"
"(501) 302-","Unknown","Cleburne","Heber Springs","AR","Arkansas","72543","Central","35.453106","-91.98883"
"(501) 208-","Landline","Conway","Morrilton","AR","Arkansas","72110","Central","35.169237","-92.817379"
"(501) 859-","Landline","Pulaski","Little Rock","AR","Arkansas","72217","Central","34.830158","-92.170174"
"(870) 398-","Landline","Pike","Kirby","AR","Arkansas","71950","Central","34.146678","-93.653733"
"(479) 634-","Landline","Washington","Winslow","AR","Arkansas","72959","Central","35.862402","-94.106004"
"(870) 466-","Landline","Bradley","Warren","AR","Arkansas","71671","Central","33.573602","-92.097852"
"(870) 764-","Landline","Mississippi","Dyess","AR","Arkansas","72330","Central","35.593098","-90.21404"
"(870) 489-","Cell Number","Jefferson","Pine Bluff","AR","Arkansas","71603","Central","34.148699","-92.083653"
"(501) 206-","Landline","Cleburne","Heber Springs","AR","Arkansas","72543","Central","35.453106","-91.98883"
"(870) 202-","Cell Number","Randolph","Pocahontas","AR","Arkansas","72455","Central","36.324042","-91.084748"
"(870) 940-","Cell Number","Ashley","Hamburg","AR","Arkansas","71646","Central","33.215895","-91.804371"
"(501) 265-","Landline","Pulaski","Little Rock","AR","Arkansas","72217","Central","34.830158","-92.170174"
"(870) 352-","Landline","Dallas","Fordyce","AR","Arkansas","71742","Central","33.935138","-92.610536"
"(501) 914-","Cell Number","Pulaski","Little Rock","AR","Arkansas","72217","Central","34.830158","-92.170174"
"(479) 290-","Landline","Washington","Springdale","AR","Arkansas","72765","Central","36.172541","-94.153512"
"(870) 476-","Cell Number","Greene","Paragould","AR","Arkansas","72451","Central","36.11635","-90.525077"
"(870) 796-","Cell Number","Nevada","Prescott","AR","Arkansas","71857","Central","33.776791","-93.289132"
"(870) 286-","Landline","Howard","Dierks","AR","Arkansas","71833","Central","34.136218","-94.044286"
"(479) 455-","Landline","Washington","Fayetteville","AR","Arkansas","72702","Central","35.99403","-94.219977"
"(479) 553-","Landline","Benton","Bentonville","AR","Arkansas","72716","Central","36.299507","-93.956801"
"(501) 590-","Cell Number","Pulaski","Little Rock","AR","Arkansas","72217","Central","34.830158","-92.170174"
"(479) 400-","Unknown","Washington","Prairie Grove","AR","Arkansas","72753","Central","35.927985","-94.317796"
"(479) 299-","Landline","Yell","Bluffton","AR","Arkansas","72827","Central","35.030397","-93.303203"
"(501) 410-","Unknown","Pulaski","Little Rock","AR","Arkansas","72217","Central","34.830158","-92.170174"
"(479) 656-","Landline","Benton","Garfield","AR","Arkansas","72732","Central","36.365048","-94.184187"
"(501) 378-","Landline","Pulaski","Little Rock","AR","Arkansas","72217","Central","34.830158","-92.170174"
"(501) 602-","Landline","Saline","Bauxite","AR","Arkansas","72011","Central","34.509071","-92.482828"
"(501) 694-","Landline","Pulaski","Little Rock","AR","Arkansas","72217","Central","34.830158","-92.170174"
"(501) 593-","Landline","White","Searcy","AR","Arkansas","72143","Central","35.243622","-91.731729"
"(501) 988-","Landline","Pulaski","Jacksonville","AR","Arkansas","72076","Central","34.918774","-92.15149"
"(479) 925-","Landline","Benton","Rogers","AR","Arkansas","72757","Central","36.371981","-94.115649"
"(479) 899-","Landline","Benton","Rogers","AR","Arkansas","72757","Central","36.371981","-94.115649"
"(870) 368-","Landline","Izard","Melbourne","AR","Arkansas","72556","Central","36.063529","-91.907947"
"(870) 249-","Landline","Greene","Delaplaine","AR","Arkansas","72425","Central","36.208255","-90.721173"
"(870) 769-","Landline","Randolph","Biggers","AR","Arkansas","72413","Central","36.284433","-90.853751"
"(501) 213-","Cell Number","Saline","Alexander","AR","Arkansas","72002","Central","34.694468","-92.425087"
"(479) 788-","Landline","Sebastian","Fort Smith","AR","Arkansas","72901","Central","35.231245","-94.339412"
"(870) 421-","Cell Number","Baxter","Mountain Home","AR","Arkansas","72654","Central","36.23638","-92.372635"
"(870) 512-","Landline","Jackson","Newport","AR","Arkansas","72112","Central","35.569278","-91.203951"
"(870) 270-","Cell Number","Saint Francis","Forrest City","AR","Arkansas","72335","Central","35.026272","-90.859555"
"(501) 960-","Cell Number","Pulaski","Little Rock","AR","Arkansas","72217","Central","34.830158","-92.170174"
"(870) 627-","Cell Number","Craighead","Jonesboro","AR","Arkansas","72401","Central","35.835847","-90.623071"
"(870) 283-","Landline","Sharp","Cave City","AR","Arkansas","72521","Central","35.948292","-91.5317"
"(870) 304-","Landline","Ashley","Crossett","AR","Arkansas","71635","Central","33.180855","-91.806256"
"(501) 515-","Landline","Pulaski","Little Rock","AR","Arkansas","72217","Central","34.830158","-92.170174"
"(501) 228-","Landline","Pulaski","Little Rock","AR","Arkansas","72217","Central","34.830158","-92.170174"
"(501) 366-","Cell Number","Pulaski","Little Rock","AR","Arkansas","72217","Central","34.830158","-92.170174"
"(870) 282-","Landline","Arkansas","Saint Charles","AR","Arkansas","72140","Central","34.337186","-91.139284"
"(870) 623-","Cell Number","Mississippi","Blytheville","AR","Arkansas","72316","Central","35.694942","-89.966819"
"(479) 255-","Unknown","Sebastian","Hackett","AR","Arkansas","72937","Central","35.119452","-94.329759"
"(870) 320-","Landline","Sharp","Ash Flat","AR","Arkansas","72513","Central","36.234637","-91.568849"
"(501) 395-","Cell Number","Pulaski","Little Rock","AR","Arkansas","72217","Central","34.830158","-92.170174"
"(501) 552-","Landline","Pulaski","Little Rock","AR","Arkansas","72217","Central","34.830158","-92.170174"
"(501) 632-","Landline","Pulaski","Little Rock","AR","Arkansas","72217","Central","34.830158","-92.170174"
"(501) 827-","Cell Number","White","Searcy","AR","Arkansas","72143","Central","35.243622","-91.731729"
"(501) 716-","Landline","Pulaski","Little Rock","AR","Arkansas","72217","Central","34.830158","-92.170174"
"(870) 385-","Landline","Polk","Wickes","AR","Arkansas","71973","Central","34.307662","-94.36157"
"(501) 537-","Landline","Pulaski","Little Rock","AR","Arkansas","72217","Central","34.830158","-92.170174"
"(870) 535-","Landline","Jefferson","Pine Bluff","AR","Arkansas","71603","Central","34.148699","-92.083653"
"(870) 450-","Cell Number","Greene","Paragould","AR","Arkansas","72451","Central","36.11635","-90.525077"
"(479) 996-","Landline","Sebastian","Greenwood","AR","Arkansas","72936","Central","35.181209","-94.206011"
"(870) 733-","Landline","Crittenden","West Memphis","AR","Arkansas","72303","Central","35.137366","-90.285543"
"(501) 830-","Landline","Pulaski","Little Rock","AR","Arkansas","72217","Central","34.830158","-92.170174"
"(479) 587-","Landline","Washington","Fayetteville","AR","Arkansas","72702","Central","35.99403","-94.219977"
"(870) 354-","Landline","Lee","Marianna","AR","Arkansas","72360","Central","34.768479","-90.783138"
"(870) 505-","Landline","Carroll","Berryville","AR","Arkansas","72616","Central","36.316779","-93.5616"
"(870) 777-","Landline","Hempstead","Hope","AR","Arkansas","71802","Central","33.765584","-93.559162"
"(501) 343-","Cell Number","Pulaski","Little Rock","AR","Arkansas","72217","Central","34.830158","-92.170174"
"(870) 774-","Landline","Miller","Texarkana","AR","Arkansas","71854","Central","33.431043","-93.876485"
"(870) 779-","Landline","Miller","Texarkana","AR","Arkansas","71854","Central","33.431043","-93.876485"
"(501) 708-","Landline","Pulaski","Little Rock","AR","Arkansas","72217","Central","34.830158","-92.170174"
"(870) 336-","Landline","Craighead","Jonesboro","AR","Arkansas","72401","Central","35.835847","-90.623071"
"(870) 556-","Cell Number","Jefferson","Pine Bluff","AR","Arkansas","71603","Central","34.148699","-92.083653"
"(501) 336-","Landline","Faulkner","Conway","AR","Arkansas","72032","Central","35.146446","-92.376466"
"(479) 754-","Landline","Johnson","Clarksville","AR","Arkansas","72830","Central","35.473886","-93.516564"
"(501) 464-","Landline","Conway","Center Ridge","AR","Arkansas","72027","Central","35.311464","-92.572763"
"(870) 675-","Cell Number","Ouachita","Camden","AR","Arkansas","71711","Central","33.589009","-92.842649"
"(870) 314-","Cell Number","Union","El Dorado","AR","Arkansas","71731","Central","33.198024","-92.52891"
"(870) 770-","Unknown","Craighead","Bay","AR","Arkansas","72411","Central","35.810496","-90.641731"
"(501) 922-","Landline","Garland","Jessieville","AR","Arkansas","71949","Central","34.709408","-93.038231"
"(870) 309-","Landline","Union","El Dorado","AR","Arkansas","71731","Central","33.198024","-92.52891"
"(501) 607-","Cell Number","Pulaski","Little Rock","AR","Arkansas","72217","Central","34.830158","-92.170174"
"(870) 591-","Landline","Stone","Mountain View","AR","Arkansas","72560","Central","35.820825","-92.038894"
"(870) 387-","Landline","Polk","Cove","AR","Arkansas","71937","Central","34.354193","-94.383483"
"(870) 896-","Landline","Hempstead","Fulton","AR","Arkansas","71838","Central","33.669917","-93.79752"
"(479) 234-","Landline","Polk","Mena","AR","Arkansas","71953","Central","34.503699","-94.194756"
"(501) 812-","Landline","Pulaski","Little Rock","AR","Arkansas","72217","Central","34.830158","-92.170174"
"(501) 801-","Landline","Pulaski","Little Rock","AR","Arkansas","72217","Central","34.830158","-92.170174"
"(501) 346-","Cell Number","Pulaski","Little Rock","AR","Arkansas","72217","Central","34.830158","-92.170174"
"(870) 271-","Unknown","Poinsett","Harrisburg","AR","Arkansas","72432","Central","35.575374","-90.791023"
"(870) 765-","Landline","Grant","Leola","AR","Arkansas","72084","Central","34.218652","-92.613185"
"(870) 890-","Landline","Dallas","Fordyce","AR","Arkansas","71742","Central","33.935138","-92.610536"
"(479) 296-","Unknown","Washington","Elkins","AR","Arkansas","72727","Central","35.972331","-93.997572"
"(501) 351-","Cell Number","Pulaski","Little Rock","AR","Arkansas","72217","Central","34.830158","-92.170174"
"(479) 305-","Cell Number","Washington","Fayetteville","AR","Arkansas","72702","Central","35.99403","-94.219977"
"(870) 409-","Landline","Desha","Mc Gehee","AR","Arkansas","71666","Central","33.818318","-91.214054"
"(870) 687-","Landline","Ouachita","Bearden","AR","Arkansas","71720","Central","33.715918","-92.844808"
"(501) 301-","Landline","Pulaski","Little Rock","AR","Arkansas","72217","Central","34.830158","-92.170174"
"(870) 305-","Landline","Ashley","Crossett","AR","Arkansas","71635","Central","33.180855","-91.806256"
"(501) 280-","Landline","Pulaski","Little Rock","AR","Arkansas","72217","Central","34.830158","-92.170174"
"(870) 680-","Landline","Craighead","Jonesboro","AR","Arkansas","72401","Central","35.835847","-90.623071"
"(501) 813-","Landline","Pulaski","Little Rock","AR","Arkansas","72217","Central","34.830158","-92.170174"
"(870) 252-","Landline","Jackson","Amagon","AR","Arkansas","72005","Central","35.502463","-91.081687"
"(501) 259-","Cell Number","Lonoke","Cabot","AR","Arkansas","72023","Central","34.826103","-91.931526"
"(870) 685-","Landline","Ouachita","Chidester","AR","Arkansas","71726","Central","33.665157","-92.996873"
"(870) 659-","Cell Number","Arkansas","Stuttgart","AR","Arkansas","72160","Central","34.387577","-91.419955"
"(870) 925-","Unknown","Pike","Murfreesboro","AR","Arkansas","71958","Central","34.050402","-93.75435"
"(501) 379-","Landline","Pulaski","Little Rock","AR","Arkansas","72217","Central","34.830158","-92.170174"
"(479) 652-","Cell Number","Sebastian","Fort Smith","AR","Arkansas","72901","Central","35.231245","-94.339412"
"(479) 208-","Cell Number","Crawford","Van Buren","AR","Arkansas","72957","Central","35.494412","-94.318648"
"(501) 539-","Cell Number","Pulaski","Little Rock","AR","Arkansas","72217","Central","34.830158","-92.170174"
"(479) 286-","Unknown","Benton","Bentonville","AR","Arkansas","72716","Central","36.299507","-93.956801"
"(501) 993-","Cell Number","Pulaski","Little Rock","AR","Arkansas","72217","Central","34.830158","-92.170174"
"(501) 449-","Landline","Pulaski","Little Rock","AR","Arkansas","72217","Central","34.830158","-92.170174"
"(870) 287-","Landline","Howard","Mineral Springs","AR","Arkansas","71851","Central","33.895583","-93.925108"
"(870) 463-","Landline","Bradley","Hermitage","AR","Arkansas","71647","Central","33.390044","-92.155958"
"(870) 831-","Cell Number","Ashley","Hamburg","AR","Arkansas","71646","Central","33.215895","-91.804371"
"(479) 966-","Cell Number","Washington","Fayetteville","AR","Arkansas","72702","Central","35.99403","-94.219977"
"(870) 910-","Landline","Craighead","Jonesboro","AR","Arkansas","72401","Central","35.835847","-90.623071"
"(870) 649-","Landline","Baxter","Lakeview","AR","Arkansas","72642","Central","36.372572","-92.494857"
"(501) 247-","Cell Number","Pulaski","Little Rock","AR","Arkansas","72217","Central","34.830158","-92.170174"
"(870) 267-","Landline","Jefferson","Pine Bluff","AR","Arkansas","71603","Central","34.148699","-92.083653"
"(870) 348-","Landline","Cleveland","Kingsland","AR","Arkansas","71652","Central","33.866338","-92.276397"
"(870) 954-","Cell Number","Drew","Monticello","AR","Arkansas","71656","Central","33.590601","-91.732829"
"(870) 529-","Landline","Clay","Piggott","AR","Arkansas","72454","Central","36.378787","-90.313223"
"(501) 626-","Cell Number","Pulaski","Little Rock","AR","Arkansas","72217","Central","34.830158","-92.170174"
"(479) 731-","Cell Number","Washington","Fayetteville","AR","Arkansas","72702","Central","35.99403","-94.219977"
"(870) 338-","Landline","Phillips","Helena","AR","Arkansas","72342","Central","34.45192","-90.751249"
"(870) 655-","Landline","Mississippi","Wilson","AR","Arkansas","72395","Central","35.63816","-90.043135"
"(870) 613-","Landline","Independence","Batesville","AR","Arkansas","72503","Central","35.734617","-91.534303"
"(870) 288-","Cell Number","Independence","Batesville","AR","Arkansas","72503","Central","35.734617","-91.534303"
"(870) 615-","Cell Number","Stone","Mountain View","AR","Arkansas","72560","Central","35.820825","-92.038894"
"(501) 328-","Landline","Faulkner","Conway","AR","Arkansas","72032","Central","35.146446","-92.376466"
"(501) 200-","Cell Number","Jefferson","Redfield","AR","Arkansas","72132","Central","34.436424","-92.150356"
"(870) 567-","Landline","Ashley","Crossett","AR","Arkansas","71635","Central","33.180855","-91.806256"
"(870) 921-","Landline","Lafayette","Lewisville","AR","Arkansas","71845","Central","33.292401","-93.597793"
"(479) 685-","Cell Number","Benton","Bentonville","AR","Arkansas","72716","Central","36.299507","-93.956801"
"(870) 577-","Cell Number","Boone","Harrison","AR","Arkansas","72601","Central","36.295086","-93.092861"
"(479) 285-","Cell Number","Sebastian","Fort Smith","AR","Arkansas","72901","Central","35.231245","-94.339412"
"(501) 661-","Landline","Pulaski","Little Rock","AR","Arkansas","72217","Central","34.830158","-92.170174"
"(479) 372-","Unknown","Benton","Rogers","AR","Arkansas","72757","Central","36.371981","-94.115649"
"(479) 420-","Cell Number","Sebastian","Fort Smith","AR","Arkansas","72901","Central","35.231245","-94.339412"
"(870) 432-","Unknown","Nevada","Prescott","AR","Arkansas","71857","Central","33.776791","-93.289132"
"(870) 501-","Cell Number","Desha","Mc Gehee","AR","Arkansas","71666","Central","33.818318","-91.214054"
"(479) 382-","Cell Number","Sebastian","Fort Smith","AR","Arkansas","72901","Central","35.231245","-94.339412"
"(501) 758-","Landline","Pulaski","Little Rock","AR","Arkansas","72217","Central","34.830158","-92.170174"
"(870) 695-","Landline","Columbia","Mc Neil","AR","Arkansas","71752","Central","33.373136","-93.18731"
"(870) 373-","Cell Number","Izard","Melbourne","AR","Arkansas","72556","Central","36.063529","-91.907947"
"(870) 953-","Cell Number","Lafayette","Stamps","AR","Arkansas","71860","Central","33.343809","-93.50573"
"(479) 424-","Landline","Sebastian","Fort Smith","AR","Arkansas","72901","Central","35.231245","-94.339412"
"(870) 553-","Landline","Newton","Compton","AR","Arkansas","72624","Central","35.924868","-93.232298"
"(870) 367-","Landline","Drew","Monticello","AR","Arkansas","71656","Central","33.590601","-91.732829"
"(501) 640-","Landline","Pulaski","Little Rock","AR","Arkansas","72217","Central","34.830158","-92.170174"
"(870) 215-","Landline","Greene","Paragould","AR","Arkansas","72451","Central","36.11635","-90.525077"
"(870) 351-","Cell Number","Craighead","Jonesboro","AR","Arkansas","72401","Central","35.835847","-90.623071"
"(870) 292-","Cell Number","Hempstead","Hope","AR","Arkansas","71802","Central","33.765584","-93.559162"
"(870) 230-","Landline","Clark","Arkadelphia","AR","Arkansas","71999","Central","34.055486","-93.189406"
"(870) 884-","Cell Number","Dallas","Fordyce","AR","Arkansas","71742","Central","33.935138","-92.610536"
"(501) 319-","Landline","Pulaski","Little Rock","AR","Arkansas","72217","Central","34.830158","-92.170174"
"(501) 255-","Landline","Pulaski","Little Rock","AR","Arkansas","72217","Central","34.830158","-92.170174"
"(501) 884-","Landline","Van Buren","Fairfield Bay","AR","Arkansas","72088","Central","35.602704","-92.274195"
"(501) 796-","Landline","Faulkner","Vilonia","AR","Arkansas","72173","Central","35.104753","-92.228182"
"(870) 881-","Landline","Union","El Dorado","AR","Arkansas","71731","Central","33.198024","-92.52891"
"(870) 428-","Landline","Newton","Deer","AR","Arkansas","72628","Central","35.924868","-93.232298"
"(870) 606-","Landline","Sharp","Cherokee Village","AR","Arkansas","72525","Central","36.295879","-91.488845"
"(870) 749-","Landline","Carroll","Oak Grove","AR","Arkansas","72660","Central","36.466366","-93.370349"
"(870) 962-","Landline","Union","Strong","AR","Arkansas","71765","Central","33.169586","-92.331829"
"(870) 415-","Cell Number","Ashley","Crossett","AR","Arkansas","71635","Central","33.180855","-91.806256"
"(870) 332-","Cell Number","Jefferson","Pine Bluff","AR","Arkansas","71603","Central","34.148699","-92.083653"
"(479) 217-","Cell Number","Crawford","Mulberry","AR","Arkansas","72947","Central","35.565805","-94.124776"
"(479) 461-","Cell Number","Sebastian","Fort Smith","AR","Arkansas","72901","Central","35.231245","-94.339412"
"(479) 733-","Unknown","Johnson","Lamar","AR","Arkansas","72846","Central","35.476393","-93.369461"
"(501) 348-","Cell Number","Pulaski","Little Rock","AR","Arkansas","72217","Central","34.830158","-92.170174"
"(501) 490-","Landline","Pulaski","Little Rock","AR","Arkansas","72217","Central","34.830158","-92.170174"
"(870) 303-","Landline","Hempstead","Hope","AR","Arkansas","71802","Central","33.765584","-93.559162"
"(501) 669-","Landline","Conway","Cleveland","AR","Arkansas","72030","Central","35.395535","-92.701955"
"(501) 335-","Landline","Faulkner","Damascus","AR","Arkansas","72039","Central","35.302414","-92.401428"
"(479) 654-","Landline","Polk","Mena","AR","Arkansas","71953","Central","34.503699","-94.194756"
"(870) 465-","Landline","Bradley","Banks","AR","Arkansas","71631","Central","33.566349","-92.240352"
"(479) 963-","Landline","Logan","Paris","AR","Arkansas","72855","Central","35.274106","-93.615999"
"(501) 817-","Landline","Pulaski","Little Rock","AR","Arkansas","72217","Central","34.830158","-92.170174"
"(479) 573-","Landline","Sebastian","Fort Smith","AR","Arkansas","72901","Central","35.231245","-94.339412"
"(501) 221-","Landline","Pulaski","Little Rock","AR","Arkansas","72217","Central","34.830158","-92.170174"
"(479) 785-","Landline","Sebastian","Fort Smith","AR","Arkansas","72901","Central","35.231245","-94.339412"
"(870) 678-","Landline","Dallas","Sparkman","AR","Arkansas","71763","Central","33.914288","-92.853193"
"(870) 634-","Landline","Clay","Piggott","AR","Arkansas","72454","Central","36.378787","-90.313223"
"(479) 200-","Cell Number","Washington","Fayetteville","AR","Arkansas","72702","Central","35.99403","-94.219977"
"(870) 936-","Unknown","Craighead","Jonesboro","AR","Arkansas","72401","Central","35.835847","-90.623071"
"(870) 257-","Landline","Sharp","Cherokee Village","AR","Arkansas","72525","Central","36.295879","-91.488845"
"(479) 649-","Landline","Sebastian","Fort Smith","AR","Arkansas","72901","Central","35.231245","-94.339412"
"(501) 638-","Landline","Pulaski","Little Rock","AR","Arkansas","72217","Central","34.830158","-92.170174"
"(870) 313-","Landline","Dallas","Fordyce","AR","Arkansas","71742","Central","33.935138","-92.610536"
"(501) 499-","Cell Number","Faulkner","Conway","AR","Arkansas","72032","Central","35.146446","-92.376466"
"(501) 663-","Landline","Pulaski","Little Rock","AR","Arkansas","72217","Central","34.830158","-92.170174"
"(501) 637-","Landline","Pulaski","Little Rock","AR","Arkansas","72217","Central","34.830158","-92.170174"
"(870) 507-","Unknown","Baxter","Midway","AR","Arkansas","72651","Central","36.37792","-92.474246"
"(479) 871-","Cell Number","Washington","Fayetteville","AR","Arkansas","72702","Central","35.99403","-94.219977"
"(501) 425-","Cell Number","Pulaski","Little Rock","AR","Arkansas","72217","Central","34.830158","-92.170174"
"(479) 746-","Landline","Johnson","Clarksville","AR","Arkansas","72830","Central","35.473886","-93.516564"
"(870) 930-","Landline","Craighead","Jonesboro","AR","Arkansas","72401","Central","35.835847","-90.623071"
"(501) 337-","Landline","Hot Spring","Malvern","AR","Arkansas","72104","Central","34.36975","-92.839331"
"(870) 887-","Landline","Nevada","Prescott","AR","Arkansas","71857","Central","33.776791","-93.289132"
"(870) 356-","Landline","Pike","Glenwood","AR","Arkansas","71943","Central","34.206025","-93.589297"
"(870) 629-","Landline","Crittenden","West Memphis","AR","Arkansas","72303","Central","35.137366","-90.285543"
"(501) 707-","Landline","Pulaski","Little Rock","AR","Arkansas","72217","Central","34.830158","-92.170174"
"(870) 894-","Landline","Lafayette","Bradley","AR","Arkansas","71826","Central","33.202695","-93.556966"
"(479) 848-","Landline","Washington","Morrow","AR","Arkansas","72749","Central","35.861658","-94.467398"
"(501) 244-","Landline","Pulaski","Little Rock","AR","Arkansas","72217","Central","34.830158","-92.170174"
"(870) 504-","Cell Number","Searcy","Marshall","AR","Arkansas","72650","Central","35.908133","-92.63861"
"(870) 429-","Landline","Newton","Western Grove","AR","Arkansas","72685","Central","36.098936","-92.961082"
"(870) 641-","Unknown","Fulton","Salem","AR","Arkansas","72576","Central","36.425836","-91.699502"
"(479) 261-","Unknown","Washington","Springdale","AR","Arkansas","72765","Central","36.172541","-94.153512"
"(501) 204-","Cell Number","Garland","Jessieville","AR","Arkansas","71949","Central","34.709408","-93.038231"
"(870) 832-","Landline","Sevier","Horatio","AR","Arkansas","71842","Central","34.004404","-94.255693"
"(479) 301-","Unknown","Washington","Fayetteville","AR","Arkansas","72702","Central","35.99403","-94.219977"
"(501) 362-","Landline","Cleburne","Heber Springs","AR","Arkansas","72543","Central","35.453106","-91.98883"
"(479) 202-","Landline","Benton","Rogers","AR","Arkansas","72757","Central","36.371981","-94.115649"
"(870) 853-","Landline","Ashley","Hamburg","AR","Arkansas","71646","Central","33.215895","-91.804371"
"(870) 418-","Unknown","Poinsett","Trumann","AR","Arkansas","72472","Central","35.588215","-90.561977"
"(501) 405-","Cell Number","Pulaski","Little Rock","AR","Arkansas","72217","Central","34.830158","-92.170174"
"(479) 761-","Landline","Washington","Morrow","AR","Arkansas","72749","Central","35.861658","-94.467398"
"(870) 446-","Landline","Newton","Jasper","AR","Arkansas","72641","Central","36.005808","-93.187651"
"(479) 271-","Landline","Benton","Bentonville","AR","Arkansas","72716","Central","36.299507","-93.956801"
"(479) 442-","Landline","Washington","Fayetteville","AR","Arkansas","72702","Central","35.99403","-94.219977"
"(870) 231-","Landline","Ouachita","Camden","AR","Arkansas","71711","Central","33.589009","-92.842649"
"(870) 636-","Cell Number","Crittenden","West Memphis","AR","Arkansas","72303","Central","35.137366","-90.285543"
"(870) 670-","Landline","Izard","Horseshoe Bend","AR","Arkansas","72512","Central","36.185457","-91.915187"
"(479) 822-","Landline","Benton","Sulphur Springs","AR","Arkansas","72768","Central","36.384794","-94.449942"
"(479) 409-","Cell Number","Washington","Fayetteville","AR","Arkansas","72702","Central","35.99403","-94.219977"
"(501) 286-","Unknown","Lonoke","Cabot","AR","Arkansas","72023","Central","34.826103","-91.931526"
"(870) 616-","Unknown","Craighead","Lake City","AR","Arkansas","72437","Central","35.824808","-90.510018"
"(479) 756-","Landline","Washington","Springdale","AR","Arkansas","72765","Central","36.172541","-94.153512"
"(501) 671-","Landline","Pulaski","Little Rock","AR","Arkansas","72217","Central","34.830158","-92.170174"
"(870) 201-","Cell Number","Jackson","Newport","AR","Arkansas","72112","Central","35.569278","-91.203951"
"(501) 353-","Landline","Pulaski","Little Rock","AR","Arkansas","72217","Central","34.830158","-92.170174"
"(870) 217-","Landline","Jackson","Newport","AR","Arkansas","72112","Central","35.569278","-91.203951"
"(501) 380-","Cell Number","White","Searcy","AR","Arkansas","72143","Central","35.243622","-91.731729"
"(501) 258-","Cell Number","Pulaski","Little Rock","AR","Arkansas","72217","Central","34.830158","-92.170174"
"(870) 347-","Landline","Woodruff","Augusta","AR","Arkansas","72006","Central","35.207566","-91.372792"
"(501) 592-","Landline","Van Buren","Scotland","AR","Arkansas","72141","Central","35.57727","-92.545572"
"(501) 618-","Landline","Pulaski","Little Rock","AR","Arkansas","72217","Central","34.830158","-92.170174"
"(479) 923-","Landline","Scott","Waldron","AR","Arkansas","72958","Central","34.908133","-94.089381"
"(870) 847-","Cell Number","Sharp","Cherokee Village","AR","Arkansas","72525","Central","36.295879","-91.488845"
"(870) 995-","Cell Number","Phillips","Helena","AR","Arkansas","72342","Central","34.45192","-90.751249"
"(501) 266-","Cell Number","Lonoke","Lonoke","AR","Arkansas","72086","Central","34.81247","-91.905399"
"(479) 856-","Landline","Washington","Fayetteville","AR","Arkansas","72702","Central","35.99403","-94.219977"
"(501) 364-","Landline","Pulaski","Little Rock","AR","Arkansas","72217","Central","34.830158","-92.170174"
"(501) 563-","Cell Number","Pulaski","Little Rock","AR","Arkansas","72217","Central","34.830158","-92.170174"
"(501) 390-","Cell Number","Pulaski","Little Rock","AR","Arkansas","72217","Central","34.830158","-92.170174"
"(870) 654-","Cell Number","Carroll","Berryville","AR","Arkansas","72616","Central","36.316779","-93.5616"
"(501) 766-","Cell Number","Pulaski","Little Rock","AR","Arkansas","72217","Central","34.830158","-92.170174"
"(479) 629-","Cell Number","Sebastian","Fort Smith","AR","Arkansas","72901","Central","35.231245","-94.339412"
"(870) 388-","Landline","Howard","Saratoga","AR","Arkansas","71859","Central","33.78127","-93.884355"
"(501) 231-","Cell Number","Pulaski","Little Rock","AR","Arkansas","72217","Central","34.830158","-92.170174"
"(870) 525-","Landline","Cross","Cherry Valley","AR","Arkansas","72324","Central","35.340002","-90.788851"
"(479) 205-","Landline","Washington","Springdale","AR","Arkansas","72765","Central","36.172541","-94.153512"
"(501) 600-","Unknown","Pulaski","Little Rock","AR","Arkansas","72217","Central","34.830158","-92.170174"
"(501) 295-","Unknown","Pulaski","Little Rock","AR","Arkansas","72217","Central","34.830158","-92.170174"
"(870) 404-","Cell Number","Baxter","Mountain Home","AR","Arkansas","72654","Central","36.23638","-92.372635"
"(501) 438-","Landline","Lonoke","Lonoke","AR","Arkansas","72086","Central","34.81247","-91.905399"
"(479) 576-","Landline","Yell","Ola","AR","Arkansas","72853","Central","35.030397","-93.303203"
"(870) 258-","Landline","Izard","Oxford","AR","Arkansas","72565","Central","36.064329","-91.944673"
"(501) 653-","Landline","Saline","Bryant","AR","Arkansas","72022","Central","34.612417","-92.493519"
"(870) 255-","Landline","Prairie","Hazen","AR","Arkansas","72064","Central","34.782306","-91.569612"
"(870) 583-","Landline","Howard","Umpire","AR","Arkansas","71971","Central","34.294469","-94.095969"
"(870) 587-","Cell Number","Cross","Wynne","AR","Arkansas","72396","Central","35.274844","-90.798946"
"(870) 359-","Unknown","Jefferson","Pine Bluff","AR","Arkansas","71603","Central","34.148699","-92.083653"
"(501) 723-","Landline","Van Buren","Shirley","AR","Arkansas","72153","Central","35.61711","-92.262595"
"(501) 517-","Cell Number","Pulaski","Little Rock","AR","Arkansas","72217","Central","34.830158","-92.170174"
"(479) 282-","Landline","Benton","Rogers","AR","Arkansas","72757","Central","36.371981","-94.115649"
"(870) 761-","Cell Number","Craighead","Jonesboro","AR","Arkansas","72401","Central","35.835847","-90.623071"
"(870) 538-","Landline","Chicot","Dermott","AR","Arkansas","71638","Central","33.470414","-91.394712"
"(501) 526-","Landline","Pulaski","Little Rock","AR","Arkansas","72217","Central","34.830158","-92.170174"
"(501) 241-","Landline","Pulaski","Jacksonville","AR","Arkansas","72076","Central","34.918774","-92.15149"
"(870) 768-","Landline","Lee","Moro","AR","Arkansas","72368","Central","34.791849","-90.935139"
"(870) 542-","Landline","Little River","Foreman","AR","Arkansas","71836","Central","33.734105","-94.37246"
"(870) 598-","Landline","Clay","Piggott","AR","Arkansas","72454","Central","36.378787","-90.313223"
"(479) 774-","Cell Number","Johnson","Clarksville","AR","Arkansas","72830","Central","35.473886","-93.516564"
"(479) 230-","Landline","Benton","Rogers","AR","Arkansas","72757","Central","36.371981","-94.115649"
"(870) 742-","Unknown","Union","Strong","AR","Arkansas","71765","Central","33.169586","-92.331829"
"(870) 632-","Cell Number","Chicot","Lake Village","AR","Arkansas","71653","Central","33.331905","-91.297702"
"(870) 244-","Cell Number","Crittenden","West Memphis","AR","Arkansas","72303","Central","35.137366","-90.285543"
"(870) 579-","Landline","Poinsett","Fisher","AR","Arkansas","72429","Central","35.503918","-90.944428"
"(479) 872-","Landline","Washington","Springdale","AR","Arkansas","72765","Central","36.172541","-94.153512"
"(479) 387-","Landline","Washington","Fayetteville","AR","Arkansas","72702","Central","35.99403","-94.219977"
"(870) 621-","Landline","Boone","Lead Hill","AR","Arkansas","72644","Central","36.384844","-93.003892"
"(479) 936-","Landline","Benton","Rogers","AR","Arkansas","72757","Central","36.371981","-94.115649"
"(870) 545-","Landline","Carroll","Green Forest","AR","Arkansas","72638","Central","36.310046","-93.57875"
"(479) 795-","Landline","Benton","Centerton","AR","Arkansas","72719","Central","36.328519","-94.366608"
"(479) 330-","Cell Number","Benton","Garfield","AR","Arkansas","72732","Central","36.365048","-94.184187"
"(501) 327-","Landline","Faulkner","Conway","AR","Arkansas","72032","Central","35.146446","-92.376466"
"(501) 309-","Cell Number","Pulaski","Little Rock","AR","Arkansas","72217","Central","34.830158","-92.170174"
"(501) 821-","Landline","Pulaski","Little Rock","AR","Arkansas","72217","Central","34.830158","-92.170174"
"(479) 846-","Landline","Washington","Prairie Grove","AR","Arkansas","72753","Central","35.927985","-94.317796"
"(501) 450-","Landline","Faulkner","Conway","AR","Arkansas","72032","Central","35.146446","-92.376466"
"(870) 502-","Landline","Jefferson","Pine Bluff","AR","Arkansas","71603","Central","34.148699","-92.083653"
"(479) 478-","Landline","Sebastian","Fort Smith","AR","Arkansas","72901","Central","35.231245","-94.339412"
"(501) 690-","Cell Number","Pulaski","Little Rock","AR","Arkansas","72217","Central","34.830158","-92.170174"
"(870) 550-","Cell Number","Jefferson","Pine Bluff","AR","Arkansas","71603","Central","34.148699","-92.083653"
"(870) 897-","Cell Number","Craighead","Jonesboro","AR","Arkansas","72401","Central","35.835847","-90.623071"
"(501) 236-","Landline","Hot Spring","Malvern","AR","Arkansas","72104","Central","34.36975","-92.839331"
"(479) 577-","Landline","Scott","Boles","AR","Arkansas","72926","Central","34.882558","-94.079724"
"(870) 625-","Landline","Fulton","Mammoth Spring","AR","Arkansas","72554","Central","36.492437","-91.546818"
"(870) 528-","Landline","Lawrence","Strawberry","AR","Arkansas","72469","Central","35.967306","-91.293503"
"(870) 264-","Landline","Independence","Batesville","AR","Arkansas","72503","Central","35.734617","-91.534303"
"(870) 207-","Unknown","Craighead","Jonesboro","AR","Arkansas","72401","Central","35.835847","-90.623071"
"(501) 374-","Landline","Pulaski","Little Rock","AR","Arkansas","72217","Central","34.830158","-92.170174"
"(870) 585-","Landline","Stone","Timbo","AR","Arkansas","72657","Central","35.91896","-92.127207"
"(870) 524-","Unknown","Columbia","Waldo","AR","Arkansas","71770","Central","33.350437","-93.302374"
"(870) 581-","Landline","Saint Francis","Palestine","AR","Arkansas","72372","Central","35.027132","-90.901168"
"(870) 872-","Cell Number","Jefferson","Pine Bluff","AR","Arkansas","71603","Central","34.148699","-92.083653"
"(870) 251-","Landline","Independence","Desha","AR","Arkansas","72527","Central","35.726232","-91.603429"
"(501) 470-","Landline","Faulkner","Mayflower","AR","Arkansas","72106","Central","34.963658","-92.423585"
"(870) 826-","Cell Number","Hempstead","Hope","AR","Arkansas","71802","Central","33.765584","-93.559162"
"(870) 845-","Landline","Howard","Nashville","AR","Arkansas","71852","Central","34.024903","-93.942206"
"(870) 254-","Landline","Dallas","Carthage","AR","Arkansas","71725","Central","34.101037","-92.516827"
"(870) 604-","Landline","Fulton","Salem","AR","Arkansas","72576","Central","36.425836","-91.699502"
"(479) 262-","Unknown","Crawford","Van Buren","AR","Arkansas","72957","Central","35.494412","-94.318648"
"(870) 566-","Landline","Clay","Rector","AR","Arkansas","72461","Central","36.310788","-90.329565"
"(501) 837-","Cell Number","Pulaski","Little Rock","AR","Arkansas","72217","Central","34.830158","-92.170174"
"(479) 252-","Cell Number","Sebastian","Greenwood","AR","Arkansas","72936","Central","35.181209","-94.206011"
"(501) 847-","Landline","Saline","Bryant","AR","Arkansas","72022","Central","34.612417","-92.493519"
"(870) 298-","Landline","Lee","Marianna","AR","Arkansas","72360","Central","34.768479","-90.783138"
"(870) 307-","Landline","Independence","Batesville","AR","Arkansas","72503","Central","35.734617","-91.534303"
"(870) 656-","Cell Number","Baxter","Mountain Home","AR","Arkansas","72654","Central","36.23638","-92.372635"
"(479) 270-","Unknown","Benton","Rogers","AR","Arkansas","72757","Central","36.371981","-94.115649"
"(870) 786-","Landline","Ouachita","Stephens","AR","Arkansas","71764","Central","33.46053","-93.011863"
"(870) 335-","Landline","Greene","Paragould","AR","Arkansas","72451","Central","36.11635","-90.525077"
"(870) 829-","Landline","Phillips","Marvell","AR","Arkansas","72366","Central","34.5334","-90.954242"
"(501) 209-","Cell Number","Garland","Jessieville","AR","Arkansas","71949","Central","34.709408","-93.038231"
"(479) 355-","Cell Number","Yell","Danville","AR","Arkansas","72833","Central","35.052818","-93.381315"
"(870) 781-","Landline","Craighead","Bay","AR","Arkansas","72411","Central","35.810496","-90.641731"
"(479) 431-","Landline","Sebastian","Fort Smith","AR","Arkansas","72901","Central","35.231245","-94.339412"
"(479) 223-","Cell Number","Pope","Russellville","AR","Arkansas","72802","Central","35.306683","-93.071219"
"(870) 946-","Landline","Arkansas","De Witt","AR","Arkansas","72042","Central","34.2746","-91.414442"
"(870) 835-","Cell Number","Jefferson","Pine Bluff","AR","Arkansas","71603","Central","34.148699","-92.083653"
"(870) 317-","Cell Number","Saint Francis","Forrest City","AR","Arkansas","72335","Central","35.026272","-90.859555"
"(501) 519-","Cell Number","Pulaski","Little Rock","AR","Arkansas","72217","Central","34.830158","-92.170174"
"(479) 369-","Landline","Crawford","Mountainburg","AR","Arkansas","72946","Central","35.64644","-94.149687"
"(870) 405-","Cell Number","Baxter","Mountain Home","AR","Arkansas","72654","Central","36.23638","-92.372635"
"(479) 877-","Cell Number","Benton","Rogers","AR","Arkansas","72757","Central","36.371981","-94.115649"
"(870) 500-","Cell Number","Ashley","Crossett","AR","Arkansas","71635","Central","33.180855","-91.806256"
"(479) 695-","Landline","Washington","Fayetteville","AR","Arkansas","72702","Central","35.99403","-94.219977"
"(870) 706-","Cell Number","Baxter","Mountain Home","AR","Arkansas","72654","Central","36.23638","-92.372635"
"(501) 324-","Landline","Pulaski","Little Rock","AR","Arkansas","72217","Central","34.830158","-92.170174"
"(870) 425-","Landline","Baxter","Mountain Home","AR","Arkansas","72654","Central","36.23638","-92.372635"
"(501) 414-","Unknown","Pulaski","Little Rock","AR","Arkansas","72217","Central","34.830158","-92.170174"
"(870) 481-","Landline","Baxter","Midway","AR","Arkansas","72651","Central","36.37792","-92.474246"
"(870) 416-","Landline","Boone","Harrison","AR","Arkansas","72601","Central","36.295086","-93.092861"
"(870) 277-","Landline","Independence","Batesville","AR","Arkansas","72503","Central","35.734617","-91.534303"
"(479) 929-","Landline","Crawford","Natural Dam","AR","Arkansas","72948","Central","35.680583","-94.404185"
"(501) 642-","Landline","Pulaski","Little Rock","AR","Arkansas","72217","Central","34.830158","-92.170174"
"(870) 704-","Landline","Boone","Harrison","AR","Arkansas","72601","Central","36.295086","-93.092861"
"(479) 967-","Landline","Pope","Russellville","AR","Arkansas","72802","Central","35.306683","-93.071219"
"(501) 375-","Landline","Pulaski","Little Rock","AR","Arkansas","72217","Central","34.830158","-92.170174"
"(501) 557-","Landline","Saline","Bauxite","AR","Arkansas","72011","Central","34.509071","-92.482828"
"(479) 986-","Landline","Benton","Rogers","AR","Arkansas","72757","Central","36.371981","-94.115649"
"(479) 644-","Cell Number","Benton","Rogers","AR","Arkansas","72757","Central","36.371981","-94.115649"
"(870) 814-","Cell Number","Jefferson","Pine Bluff","AR","Arkansas","71603","Central","34.148699","-92.083653"
"(479) 201-","Landline","Sebastian","Fort Smith","AR","Arkansas","72901","Central","35.231245","-94.339412"
"(479) 268-","Landline","Benton","Bentonville","AR","Arkansas","72716","Central","36.299507","-93.956801"
"(870) 828-","Cell Number","Pike","Glenwood","AR","Arkansas","71943","Central","34.206025","-93.589297"
"(870) 548-","Landline","Arkansas","Gillett","AR","Arkansas","72055","Central","34.126257","-91.347993"
"(870) 297-","Landline","Izard","Calico Rock","AR","Arkansas","72519","Central","36.178897","-92.129961"
"(501) 305-","Landline","White","Searcy","AR","Arkansas","72143","Central","35.243622","-91.731729"
"(501) 477-","Landline","Conway","Morrilton","AR","Arkansas","72110","Central","35.169237","-92.817379"
"(479) 476-","Landline","Yell","Havana","AR","Arkansas","72842","Central","35.030397","-93.303203"
"(501) 987-","Landline","Pulaski","Jacksonville","AR","Arkansas","72076","Central","34.918774","-92.15149"
"(870) 541-","Landline","Jefferson","Pine Bluff","AR","Arkansas","71603","Central","34.148699","-92.083653"
"(870) 578-","Landline","Poinsett","Harrisburg","AR","Arkansas","72432","Central","35.575374","-90.791023"
"(870) 651-","Landline","Marion","Flippin","AR","Arkansas","72634","Central","36.317483","-92.595011"
"(501) 654-","Landline","Van Buren","Bee Branch","AR","Arkansas","72013","Central","35.404671","-92.4808"
"(501) 316-","Landline","Saline","Bryant","AR","Arkansas","72022","Central","34.612417","-92.493519"
"(870) 939-","Unknown","Jefferson","Pine Bluff","AR","Arkansas","71603","Central","34.148699","-92.083653"
"(870) 360-","Landline","Saint Francis","Hughes","AR","Arkansas","72348","Central","34.959855","-90.564357"
"(870) 365-","Landline","Boone","Harrison","AR","Arkansas","72601","Central","36.295086","-93.092861"
"(501) 722-","Landline","Saline","Traskwood","AR","Arkansas","72167","Central","34.469233","-92.658212"
"(501) 250-","Landline","Cleburne","Heber Springs","AR","Arkansas","72543","Central","35.453106","-91.98883"
"(870) 810-","Cell Number","Randolph","Pocahontas","AR","Arkansas","72455","Central","36.324042","-91.084748"
"(501) 565-","Landline","Pulaski","Little Rock","AR","Arkansas","72217","Central","34.830158","-92.170174"
"(501) 505-","Landline","Faulkner","Conway","AR","Arkansas","72032","Central","35.146446","-92.376466"
"(870) 886-","Landline","Lawrence","Walnut Ridge","AR","Arkansas","72476","Central","36.042979","-90.998707"
"(501) 771-","Landline","Pulaski","Little Rock","AR","Arkansas","72217","Central","34.830158","-92.170174"
"(501) 748-","Landline","Pulaski","Maumelle","AR","Arkansas","72113","Central","34.857241","-92.390298"
"(479) 631-","Landline","Benton","Rogers","AR","Arkansas","72757","Central","36.371981","-94.115649"
"(479) 718-","Landline","Washington","Fayetteville","AR","Arkansas","72702","Central","35.99403","-94.219977"
"(870) 514-","Cell Number","Crittenden","West Memphis","AR","Arkansas","72303","Central","35.137366","-90.285543"
"(870) 334-","Landline","Montgomery","Norman","AR","Arkansas","71960","Central","34.474709","-93.669613"
"(870) 809-","Cell Number","Lawrence","Walnut Ridge","AR","Arkansas","72476","Central","36.042979","-90.998707"
"(870) 592-","Cell Number","Jefferson","Pine Bluff","AR","Arkansas","71603","Central","34.148699","-92.083653"
"(501) 905-","Landline","Pulaski","Little Rock","AR","Arkansas","72217","Central","34.830158","-92.170174"
"(501) 391-","Landline","Perry","Perryville","AR","Arkansas","72126","Central","35.025904","-92.786535"
"(501) 844-","Landline","Hot Spring","Malvern","AR","Arkansas","72104","Central","34.36975","-92.839331"
"(501) 288-","Cell Number","White","Beebe","AR","Arkansas","72012","Central","35.173395","-91.808393"
"(870) 885-","Cell Number","Ouachita","Bearden","AR","Arkansas","71720","Central","33.715918","-92.844808"
"(501) 940-","Cell Number","Pulaski","Little Rock","AR","Arkansas","72217","Central","34.830158","-92.170174"
"(501) 612-","Cell Number","Pulaski","Little Rock","AR","Arkansas","72217","Central","34.830158","-92.170174"
"(501) 232-","Cell Number","White","Beebe","AR","Arkansas","72012","Central","35.173395","-91.808393"
"(501) 666-","Landline","Pulaski","Little Rock","AR","Arkansas","72217","Central","34.830158","-92.170174"
"(870) 902-","Landline","Drew","Monticello","AR","Arkansas","71656","Central","33.590601","-91.732829"
"(501) 256-","Cell Number","Pulaski","Little Rock","AR","Arkansas","72217","Central","34.830158","-92.170174"
"(870) 594-","Landline","Saint Francis","Forrest City","AR","Arkansas","72335","Central","35.026272","-90.859555"
"(479) 619-","Landline","Benton","Rogers","AR","Arkansas","72757","Central","36.371981","-94.115649"
"(501) 291-","Unknown","Pulaski","Little Rock","AR","Arkansas","72217","Central","34.830158","-92.170174"
"(870) 838-","Cell Number","Mississippi","Blytheville","AR","Arkansas","72316","Central","35.694942","-89.966819"
"(870) 767-","Landline","Jackson","Tuckerman","AR","Arkansas","72473","Central","35.71528","-91.173296"
"(479) 325-","Unknown","Madison","Huntsville","AR","Arkansas","72740","Central","36.028046","-93.778748"
"(501) 372-","Landline","Pulaski","Little Rock","AR","Arkansas","72217","Central","34.830158","-92.170174"
"(870) 247-","Landline","Jefferson","Pine Bluff","AR","Arkansas","71603","Central","34.148699","-92.083653"
"(870) 750-","Cell Number","Izard","Horseshoe Bend","AR","Arkansas","72512","Central","36.185457","-91.915187"
"(870) 544-","Landline","Clay","Pollard","AR","Arkansas","72456","Central","36.38157","-90.375252"
"(870) 559-","Landline","Crittenden","Marion","AR","Arkansas","72364","Central","35.174997","-90.294424"
"(870) 965-","Landline","Baxter","Norfork","AR","Arkansas","72659","Central","36.23638","-92.372635"
"(870) 842-","Cell Number","Monroe","Holly Grove","AR","Arkansas","72069","Central","34.598059","-91.183945"
"(870) 259-","Landline","Clay","Knobel","AR","Arkansas","72435","Central","36.360817","-90.472819"
"(501) 727-","Landline","Perry","Adona","AR","Arkansas","72001","Central","34.943809","-92.923191"
"(479) 789-","Landline","Madison","Hindsville","AR","Arkansas","72738","Central","36.033601","-93.704255"
"(479) 705-","Landline","Johnson","Clarksville","AR","Arkansas","72830","Central","35.473886","-93.516564"
"(870) 325-","Landline","Cleveland","Rison","AR","Arkansas","71665","Central","33.900651","-92.131777"
"(501) 245-","Cell Number","Pulaski","Little Rock","AR","Arkansas","72217","Central","34.830158","-92.170174"
"(870) 672-","Landline","Arkansas","Stuttgart","AR","Arkansas","72160","Central","34.387577","-91.419955"
"(479) 293-","Landline","Pope","London","AR","Arkansas","72847","Central","35.368118","-93.244365"
"(870) 998-","Landline","Prairie","Biscoe","AR","Arkansas","72017","Central","34.785525","-91.573785"
"(870) 664-","Cell Number","Jackson","Newport","AR","Arkansas","72112","Central","35.569278","-91.203951"
"(870) 361-","Landline","Greene","Paragould","AR","Arkansas","72451","Central","36.11635","-90.525077"
"(501) 223-","Landline","Pulaski","Little Rock","AR","Arkansas","72217","Central","34.830158","-92.170174"
"(479) 969-","Landline","Logan","Magazine","AR","Arkansas","72943","Central","35.182673","-93.812592"
"(479) 357-","Cell Number","Sebastian","Greenwood","AR","Arkansas","72936","Central","35.181209","-94.206011"
"(870) 948-","Landline","Cleburne","Prim","AR","Arkansas","72130","Central","35.667434","-92.093319"
"(501) 310-","Cell Number","Pulaski","Little Rock","AR","Arkansas","72217","Central","34.830158","-92.170174"
"(870) 780-","Landline","Mississippi","Blytheville","AR","Arkansas","72316","Central","35.694942","-89.966819"
"(479) 259-","Unknown","Sebastian","Fort Smith","AR","Arkansas","72901","Central","35.231245","-94.339412"
"(870) 395-","Landline","Jefferson","Pine Bluff","AR","Arkansas","71603","Central","34.148699","-92.083653"
"(870) 268-","Landline","Craighead","Jonesboro","AR","Arkansas","72401","Central","35.835847","-90.623071"
"(870) 633-","Landline","Saint Francis","Forrest City","AR","Arkansas","72335","Central","35.026272","-90.859555"
"(501) 492-","Landline","Pulaski","Little Rock","AR","Arkansas","72217","Central","34.830158","-92.170174"
"(870) 516-","Unknown","Craighead","Monette","AR","Arkansas","72447","Central","35.909972","-90.347446"
"(479) 713-","Landline","Washington","Fayetteville","AR","Arkansas","72702","Central","35.99403","-94.219977"
"(870) 503-","Cell Number","Jackson","Newport","AR","Arkansas","72112","Central","35.569278","-91.203951"
"(501) 270-","Cell Number","Cleburne","Heber Springs","AR","Arkansas","72543","Central","35.453106","-91.98883"
"(870) 321-","Cell Number","Baxter","Mountain Home","AR","Arkansas","72654","Central","36.23638","-92.372635"
"(870) 791-","Cell Number","Ouachita","Camden","AR","Arkansas","71711","Central","33.589009","-92.842649"
"(870) 527-","Landline","Monroe","Brinkley","AR","Arkansas","72021","Central","34.883421","-91.194574"
"(870) 935-","Landline","Craighead","Jonesboro","AR","Arkansas","72401","Central","35.835847","-90.623071"
"(501) 660-","Landline","Pulaski","Little Rock","AR","Arkansas","72217","Central","34.830158","-92.170174"
"(501) 630-","Landline","Pulaski","Little Rock","AR","Arkansas","72217","Central","34.830158","-92.170174"
"(501) 429-","Landline","Cleburne","Heber Springs","AR","Arkansas","72543","Central","35.453106","-91.98883"
"(501) 636-","Landline","Pulaski","Little Rock","AR","Arkansas","72217","Central","34.830158","-92.170174"
"(870) 515-","Cell Number","Jefferson","Pine Bluff","AR","Arkansas","71603","Central","34.148699","-92.083653"
"(479) 890-","Landline","Pope","Russellville","AR","Arkansas","72802","Central","35.306683","-93.071219"
"(501) 339-","Landline","Faulkner","Conway","AR","Arkansas","72032","Central","35.146446","-92.376466"
"(870) 210-","Cell Number","Clark","Arkadelphia","AR","Arkansas","71999","Central","34.055486","-93.189406"
"(479) 763-","Landline","Sebastian","Fort Smith","AR","Arkansas","72901","Central","35.231245","-94.339412"
"(501) 683-","Landline","Pulaski","Little Rock","AR","Arkansas","72217","Central","34.830158","-92.170174"
"(479) 466-","Cell Number","Washington","Fayetteville","AR","Arkansas","72702","Central","35.99403","-94.219977"
"(479) 232-","Landline","Madison","Witter","AR","Arkansas","72776","Central","36.033601","-93.704255"
"(870) 837-","Landline","Ouachita","Camden","AR","Arkansas","71711","Central","33.589009","-92.842649"
"(870) 510-","Cell Number","Jefferson","Pine Bluff","AR","Arkansas","71603","Central","34.148699","-92.083653"
"(501) 352-","Cell Number","Pulaski","Little Rock","AR","Arkansas","72217","Central","34.830158","-92.170174"
"(870) 401-","Landline","Baxter","Mountain Home","AR","Arkansas","72654","Central","36.23638","-92.372635"
"(479) 857-","Cell Number","Pope","Russellville","AR","Arkansas","72802","Central","35.306683","-93.071219"
"(870) 310-","Cell Number","Union","El Dorado","AR","Arkansas","71731","Central","33.198024","-92.52891"
"(479) 263-","Cell Number","Washington","Fayetteville","AR","Arkansas","72702","Central","35.99403","-94.219977"
"(479) 419-","Landline","Washington","Fayetteville","AR","Arkansas","72702","Central","35.99403","-94.219977"
"(501) 212-","Landline","Pulaski","Little Rock","AR","Arkansas","72217","Central","34.830158","-92.170174"
"(479) 502-","Cell Number","Washington","Fayetteville","AR","Arkansas","72702","Central","35.99403","-94.219977"
"(870) 850-","Landline","Jefferson","Pine Bluff","AR","Arkansas","71603","Central","34.148699","-92.083653"
"(501) 401-","Landline","Pulaski","Little Rock","AR","Arkansas","72217","Central","34.830158","-92.170174"
"(479) 561-","Cell Number","Sebastian","Fort Smith","AR","Arkansas","72901","Central","35.231245","-94.339412"
"(501) 773-","Cell Number","Pulaski","Little Rock","AR","Arkansas","72217","Central","34.830158","-92.170174"
"(870) 509-","Unknown","Arkansas","De Witt","AR","Arkansas","72042","Central","34.2746","-91.414442"
"(501) 220-","Landline","Pulaski","Little Rock","AR","Arkansas","72217","Central","34.830158","-92.170174"
"(870) 281-","Cell Number","Miller","Texarkana","AR","Arkansas","71854","Central","33.431043","-93.876485"
"(870) 699-","Landline","Grant","Prattsville","AR","Arkansas","72129","Central","34.31491","-92.539414"
"(501) 594-","Landline","Saline","Paron","AR","Arkansas","72122","Central","34.738557","-92.785514"
"(479) 947-","Landline","Logan","Magazine","AR","Arkansas","72943","Central","35.182673","-93.812592"
"(870) 877-","Landline","Desha","Mc Gehee","AR","Arkansas","71666","Central","33.818318","-91.214054"
"(479) 206-","Cell Number","Logan","Booneville","AR","Arkansas","72927","Central","35.19356","-93.930763"
"(870) 369-","Landline","Union","El Dorado","AR","Arkansas","71731","Central","33.198024","-92.52891"
"(870) 253-","Landline","Craighead","Jonesboro","AR","Arkansas","72401","Central","35.835847","-90.623071"
"(870) 992-","Landline","Arkansas","Almyra","AR","Arkansas","72003","Central","34.38443","-91.392364"
"(501) 530-","Cell Number","White","Bald Knob","AR","Arkansas","72010","Central","35.331399","-91.520754"
"(870) 879-","Landline","Jefferson","Pine Bluff","AR","Arkansas","71603","Central","34.148699","-92.083653"
"(870) 603-","Unknown","Poinsett","Fisher","AR","Arkansas","72429","Central","35.503918","-90.944428"
"(501) 643-","Landline","Pulaski","Little Rock","AR","Arkansas","72217","Central","34.830158","-92.170174"
"(501) 442-","Cell Number","Pulaski","Little Rock","AR","Arkansas","72217","Central","34.830158","-92.170174"
"(501) 714-","Cell Number","Pulaski","Little Rock","AR","Arkansas","72217","Central","34.830158","-92.170174"
"(870) 612-","Landline","Independence","Batesville","AR","Arkansas","72503","Central","35.734617","-91.534303"
"(870) 620-","Unknown","Baxter","Lakeview","AR","Arkansas","72642","Central","36.372572","-92.494857"
"(870) 874-","Landline","Hempstead","Blevins","AR","Arkansas","71825","Central","33.882525","-93.621434"
"(501) 851-","Landline","Pulaski","Maumelle","AR","Arkansas","72113","Central","34.857241","-92.390298"
"(870) 381-","Landline","Little River","Winthrop","AR","Arkansas","71866","Central","33.857142","-94.3748"
"(870) 487-","Landline","Poinsett","Tyronza","AR","Arkansas","72386","Central","35.49813","-90.397619"
"(501) 605-","Landline","Lonoke","Cabot","AR","Arkansas","72023","Central","34.826103","-91.931526"
"(501) 447-","Landline","Pulaski","Little Rock","AR","Arkansas","72217","Central","34.830158","-92.170174"
"(870) 403-","Landline","Clark","Arkadelphia","AR","Arkansas","71999","Central","34.055486","-93.189406"
"(501) 434-","Cell Number","White","Mc Rae","AR","Arkansas","72102","Central","35.246445","-91.848847"
"(870) 472-","Cell Number","Ouachita","Camden","AR","Arkansas","71711","Central","33.589009","-92.842649"
"(870) 319-","Cell Number","Monroe","Brinkley","AR","Arkansas","72021","Central","34.883421","-91.194574"
"(870) 263-","Landline","Lincoln","Gould","AR","Arkansas","71643","Central","34.024648","-91.626178"
"(479) 381-","Cell Number","Washington","Fayetteville","AR","Arkansas","72702","Central","35.99403","-94.219977"
"(870) 400-","Landline","Crittenden","West Memphis","AR","Arkansas","72303","Central","35.137366","-90.285543"
"(479) 294-","Unknown","Washington","West Fork","AR","Arkansas","72774","Central","35.98025","-94.198446"
"(870) 482-","Landline","Craighead","Caraway","AR","Arkansas","72419","Central","35.767307","-90.338001"
"(870) 372-","Cell Number","Monroe","Clarendon","AR","Arkansas","72029","Central","34.745361","-91.247509"
"(479) 295-","Unknown","Benton","Bentonville","AR","Arkansas","72716","Central","36.299507","-93.956801"
"(870) 513-","Landline","Montgomery","Oden","AR","Arkansas","71966","Central","34.542995","-93.66463"
"(870) 947-","Cell Number","Ouachita","Stephens","AR","Arkansas","71764","Central","33.46053","-93.011863"
"(501) 629-","Landline","Pulaski","Little Rock","AR","Arkansas","72217","Central","34.830158","-92.170174"
"(870) 861-","Landline","Newton","Ponca","AR","Arkansas","72670","Central","35.924868","-93.232298"
"(870) 473-","Landline","Ashley","Wilmot","AR","Arkansas","71676","Central","33.151992","-91.559968"
"(479) 880-","Landline","Pope","Russellville","AR","Arkansas","72802","Central","35.306683","-93.071219"
"(501) 652-","Cell Number","Conway","Morrilton","AR","Arkansas","72110","Central","35.169237","-92.817379"
"(870) 778-","Unknown","Baxter","Gassville","AR","Arkansas","72635","Central","36.318799","-92.487866"
"(870) 329-","Cell Number","Jefferson","Pine Bluff","AR","Arkansas","71603","Central","34.148699","-92.083653"
"(479) 684-","Landline","Washington","Fayetteville","AR","Arkansas","72702","Central","35.99403","-94.219977"
"(479) 284-","Landline","Pope","Hector","AR","Arkansas","72843","Central","35.549856","-92.961624"
"(479) 365-","Unknown","Washington","Springdale","AR","Arkansas","72765","Central","36.172541","-94.153512"
"(870) 560-","Cell Number","Jefferson","Pine Bluff","AR","Arkansas","71603","Central","34.148699","-92.083653"
"(501) 483-","Landline","Pulaski","Little Rock","AR","Arkansas","72217","Central","34.830158","-92.170174"
"(501) 485-","Landline","Pulaski","Little Rock","AR","Arkansas","72217","Central","34.830158","-92.170174"
"(870) 220-","Landline","Dallas","Fordyce","AR","Arkansas","71742","Central","33.935138","-92.610536"
"(870) 484-","Landline","Grant","Sheridan","AR","Arkansas","72150","Central","34.306936","-92.398709"
"(870) 794-","Landline","Jefferson","Pine Bluff","AR","Arkansas","71603","Central","34.148699","-92.083653"
"(479) 298-","Landline","Benton","Sulphur Springs","AR","Arkansas","72768","Central","36.384794","-94.449942"
"(870) 245-","Landline","Clark","Arkadelphia","AR","Arkansas","71999","Central","34.055486","-93.189406"
"(870) 694-","Landline","Columbia","Taylor","AR","Arkansas","71861","Central","33.112208","-93.322254"
"(479) 497-","Landline","Johnson","Coal Hill","AR","Arkansas","72832","Central","35.430098","-93.672986"
"(870) 569-","Landline","Independence","Batesville","AR","Arkansas","72503","Central","35.734617","-91.534303"
"(870) 223-","Landline","Pike","Glenwood","AR","Arkansas","71943","Central","34.206025","-93.589297"
"(870) 468-","Landline","Monroe","Clarendon","AR","Arkansas","72029","Central","34.745361","-91.247509"
"(479) 385-","Landline","Polk","Mena","AR","Arkansas","71953","Central","34.503699","-94.194756"
"(870) 972-","Landline","Craighead","Jonesboro","AR","Arkansas","72401","Central","35.835847","-90.623071"
"(870) 424-","Landline","Baxter","Mountain Home","AR","Arkansas","72654","Central","36.23638","-92.372635"
"(870) 221-","Landline","Greene","Paragould","AR","Arkansas","72451","Central","36.11635","-90.525077"
"(870) 366-","Landline","Dallas","Sparkman","AR","Arkansas","71763","Central","33.914288","-92.853193"
"(870) 923-","Cell Number","Hempstead","Hope","AR","Arkansas","71802","Central","33.765584","-93.559162"
"(479) 635-","Landline","Logan","Ratcliff","AR","Arkansas","72951","Central","35.291693","-93.889921"
"(870) 232-","Landline","Howard","Nashville","AR","Arkansas","71852","Central","34.024903","-93.942206"
"(479) 736-","Landline","Benton","Gentry","AR","Arkansas","72734","Central","36.288541","-94.435512"
"(479) 216-","Cell Number","Polk","Mena","AR","Arkansas","71953","Central","34.503699","-94.194756"
"(870) 978-","Landline","Baxter","Gamaliel","AR","Arkansas","72537","Central","36.42957","-92.325688"
"(870) 618-","Unknown","Mississippi","Blytheville","AR","Arkansas","72316","Central","35.694942","-89.966819"
"(870) 698-","Landline","Independence","Batesville","AR","Arkansas","72503","Central","35.734617","-91.534303"
"(501) 568-","Landline","Pulaski","Little Rock","AR","Arkansas","72217","Central","34.830158","-92.170174"
"(501) 225-","Landline","Pulaski","Little Rock","AR","Arkansas","72217","Central","34.830158","-92.170174"
"(870) 299-","Cell Number","Columbia","Magnolia","AR","Arkansas","71754","Central","33.242571","-93.22996"
"(479) 264-","Cell Number","Pope","Russellville","AR","Arkansas","72802","Central","35.306683","-93.071219"
"(501) 991-","Landline","Garland","Royal","AR","Arkansas","71968","Central","34.514125","-93.282723"
"(870) 293-","Cell Number","Clark","Arkadelphia","AR","Arkansas","71999","Central","34.055486","-93.189406"
"(501) 906-","Landline","Pulaski","Little Rock","AR","Arkansas","72217","Central","34.830158","-92.170174"
"(501) 955-","Landline","Pulaski","Little Rock","AR","Arkansas","72217","Central","34.830158","-92.170174"
"(501) 392-","Landline","Pulaski","Little Rock","AR","Arkansas","72217","Central","34.830158","-92.170174"
"(479) 468-","Landline","Franklin","Altus","AR","Arkansas","72821","Central","35.434638","-93.759811"
"(870) 937-","Landline","Randolph","Warm Springs","AR","Arkansas","72478","Central","36.44533","-91.054035"
"(870) 526-","Landline","Mississippi","Osceola","AR","Arkansas","72370","Central","35.646832","-90.094653"
"(870) 707-","Landline","Baxter","Henderson","AR","Arkansas","72544","Central","36.410457","-92.195113"
"(501) 645-","Cell Number","Conway","Morrilton","AR","Arkansas","72110","Central","35.169237","-92.817379"
"(501) 285-","Cell Number","Lonoke","England","AR","Arkansas","72046","Central","34.759526","-91.846164"
"(501) 759-","Landline","Perry","Bigelow","AR","Arkansas","72016","Central","34.968975","-92.626882"
"(870) 434-","Landline","Newton","Mount Judea","AR","Arkansas","72655","Central","35.940667","-93.065393"
"(870) 871-","Landline","Nevada","Rosston","AR","Arkansas","71858","Central","33.70082","-93.294126"
"(501) 604-","Landline","Pulaski","Little Rock","AR","Arkansas","72217","Central","34.830158","-92.170174"
"(501) 897-","Landline","Pulaski","Little Rock","AR","Arkansas","72217","Central","34.830158","-92.170174"
"(501) 634-","Landline","Pulaski","Little Rock","AR","Arkansas","72217","Central","34.830158","-92.170174"
"(501) 941-","Landline","Lonoke","Cabot","AR","Arkansas","72023","Central","34.826103","-91.931526"
"(870) 622-","Landline","Mississippi","Osceola","AR","Arkansas","72370","Central","35.646832","-90.094653"
"(870) 822-","Cell Number","Mississippi","Osceola","AR","Arkansas","72370","Central","35.646832","-90.094653"
"(501) 912-","Cell Number","Pulaski","Little Rock","AR","Arkansas","72217","Central","34.830158","-92.170174"
"(870) 746-","Landline","Stone","Timbo","AR","Arkansas","72657","Central","35.91896","-92.127207"
"(501) 458-","Landline","Hot Spring","Malvern","AR","Arkansas","72104","Central","34.36975","-92.839331"
"(479) 226-","Landline","Sebastian","Fort Smith","AR","Arkansas","72901","Central","35.231245","-94.339412"
"(501) 201-","Cell Number","White","Bradford","AR","Arkansas","72020","Central","35.380014","-91.525309"
"(870) 593-","Landline","Poinsett","Marked Tree","AR","Arkansas","72365","Central","35.531267","-90.43642"
"(870) 762-","Landline","Mississippi","Blytheville","AR","Arkansas","72316","Central","35.694942","-89.966819"
"(479) 246-","Landline","Benton","Rogers","AR","Arkansas","72757","Central","36.371981","-94.115649"
"(870) 836-","Landline","Ouachita","Camden","AR","Arkansas","71711","Central","33.589009","-92.842649"
"(870) 531-","Landline","Mississippi","Etowah","AR","Arkansas","72428","Central","35.733677","-90.183815"
"(870) 219-","Cell Number","Craighead","Jonesboro","AR","Arkansas","72401","Central","35.835847","-90.623071"
"(870) 904-","Cell Number","Columbia","Magnolia","AR","Arkansas","71754","Central","33.242571","-93.22996"
"(870) 596-","Landline","Ouachita","Stephens","AR","Arkansas","71764","Central","33.46053","-93.011863"
"(870) 572-","Landline","Phillips","Helena","AR","Arkansas","72342","Central","34.45192","-90.751249"
"(870) 713-","Landline","Sharp","Hardy","AR","Arkansas","72542","Central","36.178441","-91.481669"
"(501) 299-","Unknown","White","Kensett","AR","Arkansas","72082","Central","35.14574","-91.847466"
"(870) 697-","Landline","Cross","Hickory Ridge","AR","Arkansas","72347","Central","35.358936","-90.958977"
"(479) 443-","Landline","Washington","Fayetteville","AR","Arkansas","72702","Central","35.99403","-94.219977"
"(479) 571-","Landline","Washington","Fayetteville","AR","Arkansas","72702","Central","35.99403","-94.219977"
"(501) 889-","Landline","Perry","Perryville","AR","Arkansas","72126","Central","35.025904","-92.786535"
"(501) 635-","Landline","Pulaski","Little Rock","AR","Arkansas","72217","Central","34.830158","-92.170174"
"(870) 384-","Cell Number","Sharp","Cave City","AR","Arkansas","72521","Central","35.948292","-91.5317"
"(479) 886-","Cell Number","Pope","Russellville","AR","Arkansas","72802","Central","35.306683","-93.071219"
"(870) 880-","Cell Number","Woodruff","Mc Crory","AR","Arkansas","72101","Central","35.259987","-91.219846"
"(479) 648-","Landline","Sebastian","Fort Smith","AR","Arkansas","72901","Central","35.231245","-94.339412"
"(870) 590-","Unknown","Union","Smackover","AR","Arkansas","71762","Central","33.194725","-92.523809"
"(870) 588-","Landline","Cross","Cherry Valley","AR","Arkansas","72324","Central","35.340002","-90.788851"
"(870) 983-","Landline","Hempstead","Washington","AR","Arkansas","71862","Central","33.776095","-93.713625"
"(501) 275-","Landline","Lonoke","England","AR","Arkansas","72046","Central","34.759526","-91.846164"
"(870) 926-","Cell Number","Craighead","Jonesboro","AR","Arkansas","72401","Central","35.835847","-90.623071"
"(870) 420-","Landline","Newton","Compton","AR","Arkansas","72624","Central","35.924868","-93.232298"
"(870) 394-","Landline","Crittenden","West Memphis","AR","Arkansas","72303","Central","35.137366","-90.285543"
"(479) 225-","Cell Number","Washington","Fayetteville","AR","Arkansas","72702","Central","35.99403","-94.219977"
"(501) 239-","Cell Number","White","Beebe","AR","Arkansas","72012","Central","35.173395","-91.808393"
"(870) 635-","Cell Number","Crittenden","West Memphis","AR","Arkansas","72303","Central","35.137366","-90.285543"
"(870) 931-","Landline","Craighead","Jonesboro","AR","Arkansas","72401","Central","35.835847","-90.623071"
"(501) 377-","Landline","Pulaski","Little Rock","AR","Arkansas","72217","Central","34.830158","-92.170174"
"(870) 857-","Landline","Clay","Corning","AR","Arkansas","72422","Central","36.379467","-90.538667"
"(870) 357-","Landline","Lincoln","Star City","AR","Arkansas","71667","Central","33.999462","-91.709308"
"(501) 548-","Landline","Faulkner","Conway","AR","Arkansas","72032","Central","35.146446","-92.376466"
"(870) 285-","Landline","Pike","Murfreesboro","AR","Arkansas","71958","Central","34.050402","-93.75435"
"(501) 691-","Cell Number","Cleburne","Heber Springs","AR","Arkansas","72543","Central","35.453106","-91.98883"
"(479) 227-","Cell Number","Scott","Waldron","AR","Arkansas","72958","Central","34.908133","-94.089381"
"(870) 323-","Cell Number","Clay","Corning","AR","Arkansas","72422","Central","36.379467","-90.538667"
"(479) 782-","Landline","Sebastian","Fort Smith","AR","Arkansas","72901","Central","35.231245","-94.339412"
"(870) 458-","Landline","Fulton","Viola","AR","Arkansas","72583","Central","36.392508","-91.93942"
"(870) 227-","Landline","Monroe","Roe","AR","Arkansas","72134","Central","34.670187","-91.224126"
"(501) 673-","Landline","Pulaski","Little Rock","AR","Arkansas","72217","Central","34.830158","-92.170174"
"(870) 447-","Landline","Searcy","Leslie","AR","Arkansas","72645","Central","35.835751","-92.554222"
"(870) 741-","Landline","Boone","Harrison","AR","Arkansas","72601","Central","36.295086","-93.092861"
"(501) 284-","Cell Number","White","Judsonia","AR","Arkansas","72081","Central","35.39438","-91.758198"
"(479) 291-","Landline","Benton","Maysville","AR","Arkansas","72747","Central","36.391882","-94.583717"
"(501) 753-","Landline","Pulaski","Little Rock","AR","Arkansas","72217","Central","34.830158","-92.170174"
"(870) 436-","Landline","Boone","Lead Hill","AR","Arkansas","72644","Central","36.384844","-93.003892"
"(870) 823-","Landline","Crittenden","Marion","AR","Arkansas","72364","Central","35.174997","-90.294424"
"(870) 674-","Landline","Arkansas","Stuttgart","AR","Arkansas","72160","Central","34.387577","-91.419955"
"(870) 437-","Landline","Boone","Alpena","AR","Arkansas","72611","Central","36.310814","-93.252276"
"(479) 229-","Landline","Yell","Dardanelle","AR","Arkansas","72834","Central","35.235025","-93.184774"
"(479) 717-","Landline","Washington","Springdale","AR","Arkansas","72765","Central","36.172541","-94.153512"
"(479) 841-","Cell Number","Washington","Fayetteville","AR","Arkansas","72702","Central","35.99403","-94.219977"
"(870) 718-","Cell Number","Jefferson","Pine Bluff","AR","Arkansas","71603","Central","34.148699","-92.083653"
"(501) 371-","Landline","Pulaski","Little Rock","AR","Arkansas","72217","Central","34.830158","-92.170174"
"(870) 261-","Landline","Saint Francis","Forrest City","AR","Arkansas","72335","Central","35.026272","-90.859555"
"(501) 699-","Unknown","Van Buren","Scotland","AR","Arkansas","72141","Central","35.57727","-92.545572"
"(501) 251-","Unknown","Pulaski","Little Rock","AR","Arkansas","72217","Central","34.830158","-92.170174"
"(870) 565-","Landline","Greene","Paragould","AR","Arkansas","72451","Central","36.11635","-90.525077"
"(501) 556-","Landline","White","Rose Bud","AR","Arkansas","72137","Central","35.281826","-91.855634"
"(870) 561-","Landline","Mississippi","Manila","AR","Arkansas","72442","Central","35.843919","-90.1806"
"(479) 903-","Cell Number","Benton","Rogers","AR","Arkansas","72757","Central","36.371981","-94.115649"
"(501) 486-","Landline","Pulaski","Little Rock","AR","Arkansas","72217","Central","34.830158","-92.170174"
"(870) 864-","Landline","Union","El Dorado","AR","Arkansas","71731","Central","33.198024","-92.52891"
"(870) 663-","Landline","Jefferson","Pine Bluff","AR","Arkansas","71603","Central","34.148699","-92.083653"
"(870) 776-","Landline","Mississippi","Blytheville","AR","Arkansas","72316","Central","35.694942","-89.966819"
"(479) 289-","Unknown","Sebastian","Fort Smith","AR","Arkansas","72901","Central","35.231245","-94.339412"
"(870) 735-","Landline","Crittenden","West Memphis","AR","Arkansas","72303","Central","35.137366","-90.285543"
"(501) 347-","Cell Number","Pulaski","Little Rock","AR","Arkansas","72217","Central","34.830158","-92.170174"
"(501) 803-","Landline","Pulaski","Maumelle","AR","Arkansas","72113","Central","34.857241","-92.390298"
"(479) 356-","Landline","Pope","Russellville","AR","Arkansas","72802","Central","35.306683","-93.071219"
"(870) 308-","Cell Number","Drew","Monticello","AR","Arkansas","71656","Central","33.590601","-91.732829"
"(501) 614-","Landline","Pulaski","Little Rock","AR","Arkansas","72217","Central","34.830158","-92.170174"
"(870) 717-","Cell Number","Jefferson","Wabbaseka","AR","Arkansas","72175","Central","34.348461","-91.862772"
"(479) 471-","Landline","Crawford","Van Buren","AR","Arkansas","72957","Central","35.494412","-94.318648"
"(479) 235-","Landline","Sebastian","Fort Smith","AR","Arkansas","72901","Central","35.231245","-94.339412"
"(501) 764-","Landline","Faulkner","Conway","AR","Arkansas","72032","Central","35.146446","-92.376466"
"(870) 346-","Landline","Izard","Mount Pleasant","AR","Arkansas","72561","Central","35.961824","-91.819741"
"(870) 917-","Landline","Grant","Sheridan","AR","Arkansas","72150","Central","34.306936","-92.398709"
"(479) 267-","Landline","Washington","Farmington","AR","Arkansas","72730","Central","36.081641","-94.209785"
"(870) 417-","Landline","Chicot","Lake Village","AR","Arkansas","71653","Central","33.331905","-91.297702"
"(479) 636-","Landline","Benton","Rogers","AR","Arkansas","72757","Central","36.371981","-94.115649"
"(870) 492-","Landline","Baxter","Henderson","AR","Arkansas","72544","Central","36.410457","-92.195113"
"(870) 269-","Landline","Stone","Mountain View","AR","Arkansas","72560","Central","35.820825","-92.038894"
"(870) 852-","Landline","Poinsett","Tyronza","AR","Arkansas","72386","Central","35.49813","-90.397619"
"(501) 325-","Landline","Pulaski","Little Rock","AR","Arkansas","72217","Central","34.830158","-92.170174"
"(870) 536-","Landline","Jefferson","Pine Bluff","AR","Arkansas","71603","Central","34.148699","-92.083653"
"(870) 599-","Landline","Union","Junction City","AR","Arkansas","71749","Central","33.16579","-92.768091"
"(870) 785-","Landline","Independence","Oil Trough","AR","Arkansas","72564","Central","35.59985","-91.475445"
"(501) 697-","Cell Number","Faulkner","Conway","AR","Arkansas","72032","Central","35.146446","-92.376466"
"(479) 725-","Landline","Washington","Springdale","AR","Arkansas","72765","Central","36.172541","-94.153512"
"(479) 784-","Landline","Sebastian","Fort Smith","AR","Arkansas","72901","Central","35.231245","-94.339412"
"(501) 891-","Cell Number","Pulaski","Little Rock","AR","Arkansas","72217","Central","34.830158","-92.170174"
"(870) 363-","Landline","Stone","Fox","AR","Arkansas","72051","Central","35.91896","-92.127207"
"(870) 490-","Cell Number","Montgomery","Mount Ida","AR","Arkansas","71957","Central","34.550661","-93.585206"
"(870) 480-","Landline","Carroll","Berryville","AR","Arkansas","72616","Central","36.316779","-93.5616"
"(870) 406-","Cell Number","Clark","Gurdon","AR","Arkansas","71743","Central","33.930011","-93.129994"
"(501) 985-","Landline","Pulaski","Jacksonville","AR","Arkansas","72076","Central","34.918774","-92.15149"
"(479) 464-","Landline","Benton","Bentonville","AR","Arkansas","72716","Central","36.299507","-93.956801"
"(501) 235-","Landline","Pulaski","Little Rock","AR","Arkansas","72217","Central","34.830158","-92.170174"
"(501) 628-","Landline","Lonoke","Cabot","AR","Arkansas","72023","Central","34.826103","-91.931526"
"(501) 615-","Landline","Pulaski","Little Rock","AR","Arkansas","72217","Central","34.830158","-92.170174"
"(501) 457-","Landline","Pulaski","Jacksonville","AR","Arkansas","72076","Central","34.918774","-92.15149"
"(870) 448-","Landline","Searcy","Marshall","AR","Arkansas","72650","Central","35.908133","-92.63861"
"(501) 757-","Unknown","Van Buren","Clinton","AR","Arkansas","72031","Central","35.568709","-92.41875"
"(479) 751-","Landline","Washington","Springdale","AR","Arkansas","72765","Central","36.172541","-94.153512"
"(501) 388-","Cell Number","White","Searcy","AR","Arkansas","72143","Central","35.243622","-91.731729"
"(501) 765-","Cell Number","Pulaski","Little Rock","AR","Arkansas","72217","Central","34.830158","-92.170174"
"(501) 455-","Landline","Pulaski","Little Rock","AR","Arkansas","72217","Central","34.830158","-92.170174"
"(501) 831-","Cell Number","Pulaski","Little Rock","AR","Arkansas","72217","Central","34.830158","-92.170174"
"(870) 703-","Cell Number","Hempstead","Hope","AR","Arkansas","71802","Central","33.765584","-93.559162"
"(501) 737-","Unknown","Pulaski","Scott","AR","Arkansas","72142","Central","34.670904","-92.152336"
"(479) 800-","Unknown","Washington","Fayetteville","AR","Arkansas","72702","Central","35.99403","-94.219977"
"(870) 677-","Cell Number","Union","El Dorado","AR","Arkansas","71731","Central","33.198024","-92.52891"
"(870) 602-","Unknown","Nevada","Prescott","AR","Arkansas","71857","Central","33.776791","-93.289132"
"(479) 667-","Landline","Franklin","Ozark","AR","Arkansas","72949","Central","35.405649","-93.909428"
"(501) 823-","Landline","Pulaski","Little Rock","AR","Arkansas","72217","Central","34.830158","-92.170174"
"(479) 444-","Landline","Washington","Fayetteville","AR","Arkansas","72702","Central","35.99403","-94.219977"
"(870) 200-","Landline","Howard","Nashville","AR","Arkansas","71852","Central","34.024903","-93.942206"
"(479) 934-","Landline","Logan","Subiaco","AR","Arkansas","72865","Central","35.315285","-93.599117"
"(501) 246-","Landline","Pulaski","Little Rock","AR","Arkansas","72217","Central","34.830158","-92.170174"
"(870) 315-","Cell Number","Union","El Dorado","AR","Arkansas","71731","Central","33.198024","-92.52891"
"(870) 702-","Landline","Crittenden","West Memphis","AR","Arkansas","72303","Central","35.137366","-90.285543"
"(870) 295-","Landline","Lee","Marianna","AR","Arkansas","72360","Central","34.768479","-90.783138"
"(501) 344-","Landline","White","Bradford","AR","Arkansas","72020","Central","35.380014","-91.525309"
"(479) 757-","Landline","Washington","Springdale","AR","Arkansas","72765","Central","36.172541","-94.153512"
"(479) 313-","Cell Number","Washington","Fayetteville","AR","Arkansas","72702","Central","35.99403","-94.219977"
"(479) 238-","Landline","Benton","Siloam Springs","AR","Arkansas","72761","Central","36.21791","-94.383778"
"(870) 597-","Landline","Greene","Marmaduke","AR","Arkansas","72443","Central","36.156146","-90.39974"
"(479) 844-","Unknown","Washington","Springdale","AR","Arkansas","72765","Central","36.172541","-94.153512"
"(870) 628-","Landline","Lincoln","Star City","AR","Arkansas","71667","Central","33.999462","-91.709308"
"(501) 334-","Cell Number","White","Searcy","AR","Arkansas","72143","Central","35.243622","-91.731729"
"(501) 482-","Landline","Pulaski","Little Rock","AR","Arkansas","72217","Central","34.830158","-92.170174"
"(870) 301-","Landline","Little River","Ashdown","AR","Arkansas","71822","Central","33.704625","-94.130221"
"(870) 557-","Cell Number","Howard","Nashville","AR","Arkansas","71852","Central","34.024903","-93.942206"
"(501) 269-","Cell Number","Faulkner","Conway","AR","Arkansas","72032","Central","35.146446","-92.376466"
"(501) 644-","Landline","Pulaski","Little Rock","AR","Arkansas","72217","Central","34.830158","-92.170174"
"(479) 418-","Landline","Benton","Bentonville","AR","Arkansas","72716","Central","36.299507","-93.956801"
"(870) 966-","Landline","Sharp","Williford","AR","Arkansas","72482","Central","36.285559","-91.355691"
"(501) 226-","Cell Number","Garland","Jessieville","AR","Arkansas","71949","Central","34.709408","-93.038231"
"(501) 562-","Landline","Pulaski","Little Rock","AR","Arkansas","72217","Central","34.830158","-92.170174"
"(501) 384-","Landline","Hot Spring","Donaldson","AR","Arkansas","71941","Central","34.229869","-92.963796"
"(870) 609-","Unknown","Randolph","Pocahontas","AR","Arkansas","72455","Central","36.324042","-91.084748"
"(479) 242-","Landline","Sebastian","Fort Smith","AR","Arkansas","72901","Central","35.231245","-94.339412"
"(501) 202-","Landline","Pulaski","Little Rock","AR","Arkansas","72217","Central","34.830158","-92.170174"
"(870) 875-","Landline","Union","El Dorado","AR","Arkansas","71731","Central","33.198024","-92.52891"
"(501) 745-","Landline","Van Buren","Clinton","AR","Arkansas","72031","Central","35.568709","-92.41875"
"(479) 316-","Landline","Washington","Fayetteville","AR","Arkansas","72702","Central","35.99403","-94.219977"
"(870) 453-","Landline","Marion","Flippin","AR","Arkansas","72634","Central","36.317483","-92.595011"
"(479) 866-","Cell Number","Benton","Bentonville","AR","Arkansas","72716","Central","36.299507","-93.956801"
"(501) 257-","Landline","Pulaski","Little Rock","AR","Arkansas","72217","Central","34.830158","-92.170174"
"(870) 582-","Landline","Sevier","De Queen","AR","Arkansas","71832","Central","34.050929","-94.28072"
"(501) 954-","Landline","Pulaski","Little Rock","AR","Arkansas","72217","Central","34.830158","-92.170174"
"(870) 868-","Cell Number","Clark","Arkadelphia","AR","Arkansas","71999","Central","34.055486","-93.189406"
"(870) 784-","Cell Number","Sevier","De Queen","AR","Arkansas","71832","Central","34.050929","-94.28072"
"(501) 852-","Landline","Faulkner","Conway","AR","Arkansas","72032","Central","35.146446","-92.376466"
"(870) 431-","Landline","Baxter","Lakeview","AR","Arkansas","72642","Central","36.372572","-92.494857"
"(501) 943-","Landline","Pulaski","Little Rock","AR","Arkansas","72217","Central","34.830158","-92.170174"
"(870) 485-","Landline","Jackson","Swifton","AR","Arkansas","72471","Central","35.817646","-91.092685"
"(870) 355-","Landline","Chicot","Eudora","AR","Arkansas","71640","Central","33.148807","-91.310103"
"(870) 691-","Landline","Miller","Doddridge","AR","Arkansas","71834","Central","33.441724","-94.023737"
"(501) 432-","Landline","Perry","Casa","AR","Arkansas","72025","Central","34.943809","-92.923191"
"(501) 726-","Landline","White","Mc Rae","AR","Arkansas","72102","Central","35.246445","-91.848847"
"(870) 540-","Landline","Jefferson","Pine Bluff","AR","Arkansas","71603","Central","34.148699","-92.083653"
"(870) 498-","Landline","Ouachita","Camden","AR","Arkansas","71711","Central","33.589009","-92.842649"
"(501) 603-","Landline","Pulaski","Little Rock","AR","Arkansas","72217","Central","34.830158","-92.170174"
"(479) 212-","Cell Number","Benton","Decatur","AR","Arkansas","72722","Central","36.321366","-94.462415"
"(870) 522-","Landline","Clay","Rector","AR","Arkansas","72461","Central","36.310788","-90.329565"
"(479) 849-","Cell Number","Logan","Booneville","AR","Arkansas","72927","Central","35.19356","-93.930763"
"(870) 748-","Landline","Union","El Dorado","AR","Arkansas","71731","Central","33.198024","-92.52891"
"(479) 637-","Landline","Scott","Waldron","AR","Arkansas","72958","Central","34.908133","-94.089381"
"(870) 929-","Unknown","Carroll","Berryville","AR","Arkansas","72616","Central","36.316779","-93.5616"
"(479) 582-","Landline","Washington","Fayetteville","AR","Arkansas","72702","Central","35.99403","-94.219977"
"(870) 841-","Unknown","Searcy","Marshall","AR","Arkansas","72650","Central","35.908133","-92.63861"
"(870) 488-","Landline","Baxter","Henderson","AR","Arkansas","72544","Central","36.410457","-92.195113"
"(501) 229-","Cell Number","Hot Spring","Malvern","AR","Arkansas","72104","Central","34.36975","-92.839331"
"(501) 467-","Landline","Hot Spring","Malvern","AR","Arkansas","72104","Central","34.36975","-92.839331"
"(501) 333-","Landline","Saline","Paron","AR","Arkansas","72122","Central","34.738557","-92.785514"
"(870) 276-","Landline","Clay","Success","AR","Arkansas","72470","Central","36.429663","-90.692099"
"(501) 534-","Landline","Pulaski","Little Rock","AR","Arkansas","72217","Central","34.830158","-92.170174"
"(870) 564-","Landline","Mississippi","Manila","AR","Arkansas","72442","Central","35.843919","-90.1806"
"(870) 312-","Cell Number","Union","El Dorado","AR","Arkansas","71731","Central","33.198024","-92.52891"
"(479) 824-","Landline","Washington","Lincoln","AR","Arkansas","72744","Central","35.935038","-94.362211"
"(479) 220-","Cell Number","Benton","Siloam Springs","AR","Arkansas","72761","Central","36.21791","-94.383778"
"(479) 665-","Landline","Madison","Kingston","AR","Arkansas","72742","Central","36.033601","-93.704255"
"(479) 922-","Landline","Crawford","Van Buren","AR","Arkansas","72957","Central","35.494412","-94.318648"
"(479) 970-","Cell Number","Pope","Russellville","AR","Arkansas","72802","Central","35.306683","-93.071219"
"(870) 570-","Unknown","Mississippi","Manila","AR","Arkansas","72442","Central","35.843919","-90.1806"
"(501) 533-","Landline","Pulaski","Little Rock","AR","Arkansas","72217","Central","34.830158","-92.170174"
"(479) 675-","Landline","Logan","Booneville","AR","Arkansas","72927","Central","35.19356","-93.930763"
"(479) 266-","Landline","Washington","Farmington","AR","Arkansas","72730","Central","36.081641","-94.209785"
"(870) 260-","Cell Number","Clark","Arkadelphia","AR","Arkansas","71999","Central","34.055486","-93.189406"
"(870) 449-","Landline","Marion","Yellville","AR","Arkansas","72687","Central","36.254905","-92.688068"
"(870) 543-","Landline","Jefferson","Pine Bluff","AR","Arkansas","71603","Central","34.148699","-92.083653"
"(501) 373-","Landline","Pulaski","Little Rock","AR","Arkansas","72217","Central","34.830158","-92.170174"
"(501) 399-","Landline","Pulaski","Little Rock","AR","Arkansas","72217","Central","34.830158","-92.170174"
"(479) 427-","Cell Number","Benton","Siloam Springs","AR","Arkansas","72761","Central","36.21791","-94.383778"
"(870) 331-","Cell Number","Hempstead","Hope","AR","Arkansas","71802","Central","33.765584","-93.559162"
"(501) 744-","Cell Number","Pulaski","Little Rock","AR","Arkansas","72217","Central","34.830158","-92.170174"
"(870) 558-","Unknown","Sharp","Ash Flat","AR","Arkansas","72513","Central","36.234637","-91.568849"
"(501) 240-","Cell Number","Pulaski","Little Rock","AR","Arkansas","72217","Central","34.830158","-92.170174"
"(870) 235-","Landline","Columbia","Magnolia","AR","Arkansas","71754","Central","33.242571","-93.22996"
"(479) 522-","Cell Number","Sebastian","Fort Smith","AR","Arkansas","72901","Central","35.231245","-94.339412"
"(870) 738-","Landline","Craighead","Jonesboro","AR","Arkansas","72401","Central","35.835847","-90.623071"
"(501) 621-","Landline","Pulaski","Little Rock","AR","Arkansas","72217","Central","34.830158","-92.170174"
"(501) 665-","Landline","Pulaski","Little Rock","AR","Arkansas","72217","Central","34.830158","-92.170174"
"(479) 643-","Landline","Washington","Elkins","AR","Arkansas","72727","Central","35.972331","-93.997572"
"(501) 416-","Cell Number","Pulaski","Little Rock","AR","Arkansas","72217","Central","34.830158","-92.170174"
"(501) 648-","Landline","Pulaski","Little Rock","AR","Arkansas","72217","Central","34.830158","-92.170174"
"(501) 332-","Landline","Hot Spring","Malvern","AR","Arkansas","72104","Central","34.36975","-92.839331"
"(870) 454-","Cell Number","Columbia","Camden","AR","Arkansas","71711","Central","33.589009","-92.842649"
"(501) 662-","Landline","Perry","Perry","AR","Arkansas","72125","Central","35.044346","-92.795821"
"(870) 552-","Landline","Lonoke","Carlisle","AR","Arkansas","72024","Central","34.7309","-91.75149"
"(479) 549-","Landline","Benton","Siloam Springs","AR","Arkansas","72761","Central","36.21791","-94.383778"
"(870) 289-","Landline","Sevier","Lockesburg","AR","Arkansas","71846","Central","33.967541","-94.194636"
"(479) 437-","Landline","Polk","Mena","AR","Arkansas","71953","Central","34.503699","-94.194756"
"(870) 745-","Cell Number","Columbia","Magnolia","AR","Arkansas","71754","Central","33.242571","-93.22996"
"(870) 265-","Landline","Chicot","Lake Village","AR","Arkansas","71653","Central","33.331905","-91.297702"
"(870) 943-","Landline","Union","Huttig","AR","Arkansas","71747","Central","33.164568","-92.393701"
"(870) 358-","Landline","Poinsett","Marked Tree","AR","Arkansas","72365","Central","35.531267","-90.43642"
"(501) 454-","Cell Number","Pulaski","Little Rock","AR","Arkansas","72217","Central","34.830158","-92.170174"
"(501) 551-","Cell Number","Pulaski","Little Rock","AR","Arkansas","72217","Central","34.830158","-92.170174"
"(479) 973-","Landline","Washington","Fayetteville","AR","Arkansas","72702","Central","35.99403","-94.219977"
"(479) 438-","Cell Number","Logan","Paris","AR","Arkansas","72855","Central","35.274106","-93.615999"
"(479) 306-","Landline","Washington","Springdale","AR","Arkansas","72765","Central","36.172541","-94.153512"
"(870) 324-","Cell Number","Clay","Piggott","AR","Arkansas","72454","Central","36.378787","-90.313223"
"(479) 968-","Landline","Pope","Russellville","AR","Arkansas","72802","Central","35.306683","-93.071219"
"(870) 302-","Landline","Baxter","Mountain Home","AR","Arkansas","72654","Central","36.23638","-92.372635"
"(870) 648-","Cell Number","Miller","Texarkana","AR","Arkansas","71854","Central","33.431043","-93.876485"
"(870) 644-","Landline","Desha","Watson","AR","Arkansas","71674","Central","33.905202","-91.279828"
"(870) 239-","Landline","Greene","Paragould","AR","Arkansas","72451","Central","36.11635","-90.525077"
"(870) 650-","Cell Number","Poinsett","Trumann","AR","Arkansas","72472","Central","35.588215","-90.561977"
"(870) 820-","Cell Number","Bradley","Warren","AR","Arkansas","71671","Central","33.573602","-92.097852"
"(479) 845-","Landline","Benton","Bentonville","AR","Arkansas","72716","Central","36.299507","-93.956801"
"(870) 693-","Landline","Columbia","Waldo","AR","Arkansas","71770","Central","33.350437","-93.302374"
"(479) 236-","Cell Number","Washington","Fayetteville","AR","Arkansas","72702","Central","35.99403","-94.219977"
"(479) 422-","Cell Number","Washington","Fayetteville","AR","Arkansas","72702","Central","35.99403","-94.219977"
"(870) 345-","Cell Number","Clark","Arkadelphia","AR","Arkansas","71999","Central","34.055486","-93.189406"
"(870) 772-","Landline","Miller","Texarkana","AR","Arkansas","71854","Central","33.431043","-93.876485"
"(479) 310-","Unknown","Crawford","Alma","AR","Arkansas","72921","Central","35.479157","-94.193334"
"(870) 237-","Landline","Craighead","Lake City","AR","Arkansas","72437","Central","35.824808","-90.510018"
"(479) 559-","Landline","Madison","Huntsville","AR","Arkansas","72740","Central","36.028046","-93.778748"
"(870) 783-","Unknown","Clay","Rector","AR","Arkansas","72461","Central","36.310788","-90.329565"
"(479) 426-","Landline","Benton","Rogers","AR","Arkansas","72757","Central","36.371981","-94.115649"
"(870) 477-","Landline","Craighead","Cash","AR","Arkansas","72421","Central","35.795933","-90.963448"
"(501) 279-","Landline","White","Searcy","AR","Arkansas","72143","Central","35.243622","-91.731729"
"(479) 737-","Landline","Madison","Huntsville","AR","Arkansas","72740","Central","36.028046","-93.778748"
"(870) 775-","Landline","Miller","Texarkana","AR","Arkansas","71854","Central","33.431043","-93.876485"
"(870) 724-","Unknown","Clark","Gurdon","AR","Arkansas","71743","Central","33.930011","-93.129994"
"(479) 769-","Cell Number","Sebastian","Fort Smith","AR","Arkansas","72901","Central","35.231245","-94.339412"
"(501) 358-","Cell Number","Faulkner","Conway","AR","Arkansas","72032","Central","35.146446","-92.376466"
"(870) 456-","Cell Number","Arkansas","Stuttgart","AR","Arkansas","72160","Central","34.387577","-91.419955"
"(501) 733-","Cell Number","Faulkner","Conway","AR","Arkansas","72032","Central","35.146446","-92.376466"
"(870) 393-","Landline","Independence","Newark","AR","Arkansas","72562","Central","35.732409","-91.42517"
"(501) 646-","Landline","Pulaski","Little Rock","AR","Arkansas","72217","Central","34.830158","-92.170174"
"(870) 924-","Landline","Union","Junction City","AR","Arkansas","71749","Central","33.16579","-92.768091"
"(870) 318-","Cell Number","Cross","Cherry Valley","AR","Arkansas","72324","Central","35.340002","-90.788851"
"(870) 827-","Landline","Phillips","Elaine","AR","Arkansas","72333","Central","34.311793","-90.893927"
"(870) 631-","Cell Number","Clay","Corning","AR","Arkansas","72422","Central","36.379467","-90.538667"
"(479) 333-","Unknown","Washington","Springdale","AR","Arkansas","72765","Central","36.172541","-94.153512"
"(870) 608-","Unknown","Ouachita","Bearden","AR","Arkansas","71720","Central","33.715918","-92.844808"
"(479) 752-","Landline","Benton","Decatur","AR","Arkansas","72722","Central","36.321366","-94.462415"
"(501) 304-","Cell Number","Hot Spring","Malvern","AR","Arkansas","72104","Central","34.36975","-92.839331"
"(870) 754-","Unknown","Boone","Harrison","AR","Arkansas","72601","Central","36.295086","-93.092861"
"(479) 621-","Landline","Benton","Rogers","AR","Arkansas","72757","Central","36.371981","-94.115649"
"(479) 452-","Landline","Sebastian","Fort Smith","AR","Arkansas","72901","Central","35.231245","-94.339412"
"(501) 915-","Landline","Garland","Jessieville","AR","Arkansas","71949","Central","34.709408","-93.038231"
"(870) 653-","Landline","Miller","Fouke","AR","Arkansas","71837","Central","33.261629","-93.886621"
"(479) 787-","Landline","Benton","Gravette","AR","Arkansas","72736","Central","36.381245","-94.471388"
"(870) 782-","Landline","Pike","Glenwood","AR","Arkansas","71943","Central","34.206025","-93.589297"
"(501) 281-","Landline","White","Searcy","AR","Arkansas","72143","Central","35.243622","-91.731729"
"(479) 254-","Landline","Benton","Bentonville","AR","Arkansas","72716","Central","36.299507","-93.956801"
"(870) 883-","Cell Number","Grant","Sheridan","AR","Arkansas","72150","Central","34.306936","-92.398709"
"(870) 423-","Landline","Carroll","Berryville","AR","Arkansas","72616","Central","36.316779","-93.5616"
"(870) 250-","Cell Number","Dallas","Fordyce","AR","Arkansas","71742","Central","33.935138","-92.610536"
"(501) 786-","Cell Number","Pulaski","Little Rock","AR","Arkansas","72217","Central","34.830158","-92.170174"
"(870) 410-","Cell Number","Mississippi","Wilson","AR","Arkansas","72395","Central","35.63816","-90.043135"
"(501) 984-","Landline","Garland","Jessieville","AR","Arkansas","71949","Central","34.709408","-93.038231"
"(870) 225-","Cell Number","Crittenden","West Memphis","AR","Arkansas","72303","Central","35.137366","-90.285543"
"(870) 549-","Cell Number","Mississippi","Osceola","AR","Arkansas","72370","Central","35.646832","-90.094653"
"(870) 279-","Cell Number","Sevier","De Queen","AR","Arkansas","71832","Central","34.050929","-94.28072"
"(870) 949-","Cell Number","Columbia","Magnolia","AR","Arkansas","71754","Central","33.242571","-93.22996"
"(870) 617-","Unknown","Clark","Arkadelphia","AR","Arkansas","71999","Central","34.055486","-93.189406"
"(870) 630-","Landline","Saint Francis","Forrest City","AR","Arkansas","72335","Central","35.026272","-90.859555"
"(501) 323-","Landline","White","Griffithville","AR","Arkansas","72060","Central","35.113187","-91.606092"
"(479) 997-","Landline","Crawford","Mulberry","AR","Arkansas","72947","Central","35.565805","-94.124776"
"(501) 944-","Cell Number","Pulaski","Little Rock","AR","Arkansas","72217","Central","34.830158","-92.170174"
"(870) 273-","Cell Number","Craighead","Jonesboro","AR","Arkansas","72401","Central","35.835847","-90.623071"
"(501) 589-","Landline","Cleburne","Quitman","AR","Arkansas","72131","Central","35.449492","-92.151804"
"(870) 494-","Landline","Saint Francis","Forrest City","AR","Arkansas","72335","Central","35.026272","-90.859555"
"(870) 248-","Landline","Randolph","Pocahontas","AR","Arkansas","72455","Central","36.324042","-91.084748"
"(870) 862-","Landline","Union","El Dorado","AR","Arkansas","71731","Central","33.198024","-92.52891"
"(501) 354-","Landline","Conway","Morrilton","AR","Arkansas","72110","Central","35.169237","-92.817379"
"(870) 743-","Landline","Boone","Harrison","AR","Arkansas","72601","Central","36.295086","-93.092861"
"(870) 563-","Landline","Mississippi","Osceola","AR","Arkansas","72370","Central","35.646832","-90.094653"
"(870) 859-","Landline","Columbia","Taylor","AR","Arkansas","71861","Central","33.112208","-93.322254"
"(870) 773-","Landline","Miller","Texarkana","AR","Arkansas","71854","Central","33.431043","-93.876485"
"(870) 294-","Landline","Newton","Pelsor","AR","Arkansas","72856","Central","35.617231","-93.034092"
"(479) 224-","Landline","Benton","Centerton","AR","Arkansas","72719","Central","36.328519","-94.366608"
"(479) 527-","Landline","Washington","Fayetteville","AR","Arkansas","72702","Central","35.99403","-94.219977"
"(479) 303-","Landline","Washington","Springdale","AR","Arkansas","72765","Central","36.172541","-94.153512"
"(479) 256-","Cell Number","Benton","Rogers","AR","Arkansas","72757","Central","36.371981","-94.115649"
"(870) 667-","Landline","Little River","Ashdown","AR","Arkansas","71822","Central","33.704625","-94.130221"
"(479) 861-","Landline","Benton","Siloam Springs","AR","Arkansas","72761","Central","36.21791","-94.383778"
"(479) 938-","Landline","Logan","Scranton","AR","Arkansas","72863","Central","35.344745","-93.53721"
"(870) 519-","Cell Number","Saint Francis","Forrest City","AR","Arkansas","72335","Central","35.026272","-90.859555"
"(870) 574-","Landline","Ouachita","Camden","AR","Arkansas","71711","Central","33.589009","-92.842649"
"(479) 616-","Landline","Benton","Rogers","AR","Arkansas","72757","Central","36.371981","-94.115649"
"(479) 709-","Landline","Sebastian","Fort Smith","AR","Arkansas","72901","Central","35.231245","-94.339412"
"(501) 230-","Cell Number","White","Searcy","AR","Arkansas","72143","Central","35.243622","-91.731729"
"(870) 547-","Landline","Columbia","Emerson","AR","Arkansas","71740","Central","33.112106","-93.203998"
"(870) 229-","Landline","Ashley","Crossett","AR","Arkansas","71635","Central","33.180855","-91.806256"
"(870) 491-","Landline","Baxter","Henderson","AR","Arkansas","72544","Central","36.410457","-92.195113"
"(501) 396-","Landline","Pulaski","Little Rock","AR","Arkansas","72217","Central","34.830158","-92.170174"
"(501) 320-","Landline","Pulaski","Little Rock","AR","Arkansas","72217","Central","34.830158","-92.170174"
"(479) 750-","Landline","Washington","Springdale","AR","Arkansas","72765","Central","36.172541","-94.153512"
"(501) 205-","Landline","Faulkner","Conway","AR","Arkansas","72032","Central","35.146446","-92.376466"
"(479) 595-","Landline","Washington","Fayetteville","AR","Arkansas","72702","Central","35.99403","-94.219977"
"(501) 658-","Cell Number","Pulaski","Little Rock","AR","Arkansas","72217","Central","34.830158","-92.170174"
