"Prefix","Usage","County","City","ShortState","LongState","Zip","Timezone","Latitude","Longitude"
"(928) 781-","Landline","Apache","Chinle","AZ","Arizona","86503","(UTC-7)","36.527297","-109.691925"
"(928) 292-","Unknown","Greenlee","Clifton","AZ","Arizona","85533","(UTC-7)","32.991251","-109.255872"
"(520) 820-","Cell Number","Pima","Tucson","AZ","Arizona","85732","(UTC-7)","32.084775","-110.71225"
"(602) 486-","Cell Number","Maricopa","Phoenix","AZ","Arizona","85006","(UTC-7)","33.276539","-112.18717"
"(602) 268-","Landline","Maricopa","Phoenix","AZ","Arizona","85006","(UTC-7)","33.276539","-112.18717"
"(602) 791-","Cell Number","Maricopa","Phoenix","AZ","Arizona","85006","(UTC-7)","33.276539","-112.18717"
"(602) 312-","Cell Number","Maricopa","Phoenix","AZ","Arizona","85006","(UTC-7)","33.276539","-112.18717"
"(602) 908-","Cell Number","Maricopa","Phoenix","AZ","Arizona","85006","(UTC-7)","33.276539","-112.18717"
"(928) 637-","Landline","Coconino","Williams","AZ","Arizona","86046","(UTC-7)","35.915563","-112.366031"
"(520) 455-","Landline","Santa Cruz","Nogales","AZ","Arizona","85621","(UTC-7)","31.46327","-110.8819"
"(928) 963-","Cell Number","Yavapai","Sedona","AZ","Arizona","86351","(UTC-7)","35.032371","-111.684752"
"(602) 295-","Cell Number","Maricopa","Phoenix","AZ","Arizona","85006","(UTC-7)","33.276539","-112.18717"
"(602) 384-","Landline","Maricopa","Phoenix","AZ","Arizona","85006","(UTC-7)","33.276539","-112.18717"
"(928) 667-","Landline","La Paz","Parker","AZ","Arizona","85344","(UTC-7)","33.967712","-114.268073"
"(928) 640-","Cell Number","Coconino","Marble Canyon","AZ","Arizona","86036","(UTC-7)","36.922976","-111.449889"
"(602) 208-","Landline","Maricopa","Phoenix","AZ","Arizona","85006","(UTC-7)","33.276539","-112.18717"
"(928) 230-","Cell Number","Mohave","Lake Havasu City","AZ","Arizona","86406","(UTC-7)","34.756714","-114.11897"
"(520) 282-","Unknown","Pima","Tucson","AZ","Arizona","85732","(UTC-7)","32.084775","-110.71225"
"(928) 632-","Landline","Yavapai","Dewey","AZ","Arizona","86327","(UTC-7)","34.55652","-112.284396"
"(602) 817-","Landline","Maricopa","Phoenix","AZ","Arizona","85006","(UTC-7)","33.276539","-112.18717"
"(928) 722-","Landline","Yuma","Somerton","AZ","Arizona","85350","(UTC-7)","32.612408","-114.606214"
"(602) 861-","Landline","Maricopa","Phoenix","AZ","Arizona","85006","(UTC-7)","33.276539","-112.18717"
"(480) 768-","Landline","Maricopa","Tempe","AZ","Arizona","85281","(UTC-7)","33.432844","-111.927219"
"(602) 753-","Unknown","Maricopa","Phoenix","AZ","Arizona","85006","(UTC-7)","33.276539","-112.18717"
"(480) 610-","Landline","Maricopa","Mesa","AZ","Arizona","85202","(UTC-7)","33.393484","-111.804513"
"(602) 707-","Landline","Maricopa","Phoenix","AZ","Arizona","85006","(UTC-7)","33.276539","-112.18717"
"(928) 526-","Landline","Coconino","Flagstaff","AZ","Arizona","86018","(UTC-7)","35.256347","-111.95003"
"(520) 449-","Cell Number","Pima","Tucson","AZ","Arizona","85732","(UTC-7)","32.084775","-110.71225"
"(928) 332-","Landline","Navajo","Heber","AZ","Arizona","85928","(UTC-7)","34.40998","-110.588287"
"(520) 903-","Landline","Pima","Tucson","AZ","Arizona","85732","(UTC-7)","32.084775","-110.71225"
"(602) 864-","Landline","Maricopa","Phoenix","AZ","Arizona","85006","(UTC-7)","33.276539","-112.18717"
"(602) 220-","Landline","Maricopa","Phoenix","AZ","Arizona","85006","(UTC-7)","33.276539","-112.18717"
"(602) 523-","Landline","Maricopa","Phoenix","AZ","Arizona","85006","(UTC-7)","33.276539","-112.18717"
"(928) 768-","Landline","Mohave","Mohave Valley","AZ","Arizona","86440","(UTC-7)","35.0524","-114.245399"
"(602) 254-","Landline","Maricopa","Phoenix","AZ","Arizona","85006","(UTC-7)","33.276539","-112.18717"
"(520) 454-","Unknown","Cochise","Sierra Vista","AZ","Arizona","85650","(UTC-7)","31.489157","-110.215304"
"(480) 890-","Landline","Maricopa","Mesa","AZ","Arizona","85202","(UTC-7)","33.393484","-111.804513"
"(602) 755-","Unknown","Maricopa","Phoenix","AZ","Arizona","85006","(UTC-7)","33.276539","-112.18717"
"(928) 691-","Cell Number","Coconino","Marble Canyon","AZ","Arizona","86036","(UTC-7)","36.922976","-111.449889"
"(928) 774-","Landline","Coconino","Flagstaff","AZ","Arizona","86018","(UTC-7)","35.256347","-111.95003"
"(602) 594-","Landline","Maricopa","Phoenix","AZ","Arizona","85006","(UTC-7)","33.276539","-112.18717"
"(520) 843-","Landline","Pima","Tucson","AZ","Arizona","85732","(UTC-7)","32.084775","-110.71225"
"(602) 608-","Cell Number","Maricopa","Phoenix","AZ","Arizona","85006","(UTC-7)","33.276539","-112.18717"
"(520) 377-","Landline","Santa Cruz","Nogales","AZ","Arizona","85621","(UTC-7)","31.46327","-110.8819"
"(928) 693-","Cell Number","Coconino","Marble Canyon","AZ","Arizona","86036","(UTC-7)","36.922976","-111.449889"
"(520) 288-","Unknown","Pima","Tucson","AZ","Arizona","85732","(UTC-7)","32.084775","-110.71225"
"(520) 803-","Landline","Cochise","Sierra Vista","AZ","Arizona","85650","(UTC-7)","31.489157","-110.215304"
"(602) 304-","Landline","Maricopa","Phoenix","AZ","Arizona","85006","(UTC-7)","33.276539","-112.18717"
"(602) 441-","Landline","Maricopa","Phoenix","AZ","Arizona","85006","(UTC-7)","33.276539","-112.18717"
"(520) 289-","Unknown","Pima","Tucson","AZ","Arizona","85732","(UTC-7)","32.084775","-110.71225"
"(520) 405-","Cell Number","Pima","Tucson","AZ","Arizona","85732","(UTC-7)","32.084775","-110.71225"
"(602) 787-","Landline","Maricopa","Phoenix","AZ","Arizona","85006","(UTC-7)","33.276539","-112.18717"
"(928) 875-","Landline","Coconino","Fredonia","AZ","Arizona","86022","(UTC-7)","36.96649","-112.524696"
"(602) 418-","Cell Number","Maricopa","Phoenix","AZ","Arizona","85006","(UTC-7)","33.276539","-112.18717"
"(520) 358-","Cell Number","Pima","Tucson","AZ","Arizona","85732","(UTC-7)","32.084775","-110.71225"
"(480) 984-","Landline","Pinal","Mesa","AZ","Arizona","85202","(UTC-7)","33.393484","-111.804513"
"(520) 270-","Cell Number","Pima","Tucson","AZ","Arizona","85732","(UTC-7)","32.084775","-110.71225"
"(928) 927-","Landline","La Paz","Cibola","AZ","Arizona","85328","(UTC-7)","33.672255","-114.03215"
"(520) 579-","Landline","Pima","Tucson","AZ","Arizona","85732","(UTC-7)","32.084775","-110.71225"
"(602) 690-","Cell Number","Maricopa","Phoenix","AZ","Arizona","85006","(UTC-7)","33.276539","-112.18717"
"(602) 228-","Cell Number","Maricopa","Phoenix","AZ","Arizona","85006","(UTC-7)","33.276539","-112.18717"
"(520) 329-","Unknown","Pima","Tucson","AZ","Arizona","85732","(UTC-7)","32.084775","-110.71225"
"(520) 594-","Landline","Pima","Tucson","AZ","Arizona","85732","(UTC-7)","32.084775","-110.71225"
"(602) 741-","Cell Number","Maricopa","Phoenix","AZ","Arizona","85006","(UTC-7)","33.276539","-112.18717"
"(602) 371-","Landline","Maricopa","Phoenix","AZ","Arizona","85006","(UTC-7)","33.276539","-112.18717"
"(520) 794-","Landline","Pima","Tucson","AZ","Arizona","85732","(UTC-7)","32.084775","-110.71225"
"(602) 229-","Landline","Maricopa","Phoenix","AZ","Arizona","85006","(UTC-7)","33.276539","-112.18717"
"(480) 346-","Landline","Maricopa","Scottsdale","AZ","Arizona","85271","(UTC-7)","33.276539","-112.18717"
"(480) 699-","Landline","Maricopa","Chandler","AZ","Arizona","85224","(UTC-7)","33.298461","-111.85062"
"(520) 333-","Unknown","Pima","Tucson","AZ","Arizona","85732","(UTC-7)","32.084775","-110.71225"
"(602) 431-","Landline","Maricopa","Phoenix","AZ","Arizona","85006","(UTC-7)","33.276539","-112.18717"
"(602) 319-","Cell Number","Maricopa","Phoenix","AZ","Arizona","85006","(UTC-7)","33.276539","-112.18717"
"(480) 458-","Landline","Maricopa","Tempe","AZ","Arizona","85281","(UTC-7)","33.432844","-111.927219"
"(602) 510-","Cell Number","Maricopa","Phoenix","AZ","Arizona","85006","(UTC-7)","33.276539","-112.18717"
"(520) 621-","Landline","Pima","Tucson","AZ","Arizona","85732","(UTC-7)","32.084775","-110.71225"
"(602) 719-","Landline","Maricopa","Phoenix","AZ","Arizona","85006","(UTC-7)","33.276539","-112.18717"
"(928) 213-","Landline","Coconino","Flagstaff","AZ","Arizona","86018","(UTC-7)","35.256347","-111.95003"
"(928) 488-","Cell Number","Yuma","Yuma","AZ","Arizona","85364","(UTC-7)","32.615305","-114.648722"
"(520) 904-","Cell Number","Pima","Tucson","AZ","Arizona","85732","(UTC-7)","32.084775","-110.71225"
"(520) 777-","Landline","Pima","Tucson","AZ","Arizona","85732","(UTC-7)","32.084775","-110.71225"
"(480) 354-","Landline","Pinal","Mesa","AZ","Arizona","85202","(UTC-7)","33.393484","-111.804513"
"(928) 646-","Landline","Yavapai","Cottonwood","AZ","Arizona","86326","(UTC-7)","34.643596","-112.043547"
"(928) 858-","Landline","Mohave","Peach Springs","AZ","Arizona","86434","(UTC-7)","35.540361","-113.415346"
"(602) 569-","Landline","Maricopa","Phoenix","AZ","Arizona","85006","(UTC-7)","33.276539","-112.18717"
"(480) 358-","Landline","Pinal","Mesa","AZ","Arizona","85202","(UTC-7)","33.393484","-111.804513"
"(928) 271-","Unknown","Yuma","Yuma","AZ","Arizona","85364","(UTC-7)","32.615305","-114.648722"
"(520) 730-","Cell Number","Pima","Tucson","AZ","Arizona","85732","(UTC-7)","32.084775","-110.71225"
"(928) 273-","Cell Number","Yavapai","Prescott","AZ","Arizona","86303","(UTC-7)","34.49579","-112.378309"
"(520) 829-","Landline","Pima","Tucson","AZ","Arizona","85732","(UTC-7)","32.084775","-110.71225"
"(520) 488-","Cell Number","Pima","Tucson","AZ","Arizona","85732","(UTC-7)","32.084775","-110.71225"
"(623) 487-","Landline","Maricopa","Glendale","AZ","Arizona","85318","(UTC-7)","33.276539","-112.18717"
"(928) 462-","Landline","Gila","Payson","AZ","Arizona","85541","(UTC-7)","33.864471","-111.075088"
"(602) 512-","Landline","Maricopa","Phoenix","AZ","Arizona","85006","(UTC-7)","33.276539","-112.18717"
"(602) 243-","Landline","Maricopa","Phoenix","AZ","Arizona","85006","(UTC-7)","33.276539","-112.18717"
"(602) 258-","Landline","Maricopa","Phoenix","AZ","Arizona","85006","(UTC-7)","33.276539","-112.18717"
"(480) 969-","Landline","Maricopa","Mesa","AZ","Arizona","85202","(UTC-7)","33.393484","-111.804513"
"(520) 307-","Cell Number","Pima","Tucson","AZ","Arizona","85732","(UTC-7)","32.084775","-110.71225"
"(928) 353-","Landline","Coconino","Marble Canyon","AZ","Arizona","86036","(UTC-7)","36.922976","-111.449889"
"(602) 851-","Cell Number","Maricopa","Phoenix","AZ","Arizona","85006","(UTC-7)","33.276539","-112.18717"
"(928) 468-","Landline","Gila","Payson","AZ","Arizona","85541","(UTC-7)","33.864471","-111.075088"
"(602) 839-","Unknown","Maricopa","Phoenix","AZ","Arizona","85006","(UTC-7)","33.276539","-112.18717"
"(480) 539-","Landline","Maricopa","Mesa","AZ","Arizona","85202","(UTC-7)","33.393484","-111.804513"
"(602) 392-","Landline","Maricopa","Phoenix","AZ","Arizona","85006","(UTC-7)","33.276539","-112.18717"
"(928) 595-","Cell Number","Gila","Payson","AZ","Arizona","85541","(UTC-7)","33.864471","-111.075088"
"(480) 515-","Landline","Maricopa","Scottsdale","AZ","Arizona","85271","(UTC-7)","33.276539","-112.18717"
"(520) 668-","Landline","Pima","Tucson","AZ","Arizona","85732","(UTC-7)","32.084775","-110.71225"
"(928) 333-","Landline","Apache","Springerville","AZ","Arizona","85938","(UTC-7)","34.118938","-109.285553"
"(623) 825-","Landline","Maricopa","Peoria","AZ","Arizona","85345","(UTC-7)","33.276539","-112.18717"
"(602) 678-","Landline","Maricopa","Phoenix","AZ","Arizona","85006","(UTC-7)","33.276539","-112.18717"
"(623) 386-","Landline","Maricopa","Arlington","AZ","Arizona","85322","(UTC-7)","33.276539","-112.18717"
"(623) 393-","Landline","Maricopa","Arlington","AZ","Arizona","85322","(UTC-7)","33.276539","-112.18717"
"(602) 464-","Unknown","Maricopa","Phoenix","AZ","Arizona","85006","(UTC-7)","33.276539","-112.18717"
"(520) 760-","Landline","Pima","Tucson","AZ","Arizona","85732","(UTC-7)","32.084775","-110.71225"
"(602) 460-","Cell Number","Maricopa","Phoenix","AZ","Arizona","85006","(UTC-7)","33.276539","-112.18717"
"(602) 863-","Landline","Maricopa","Phoenix","AZ","Arizona","85006","(UTC-7)","33.276539","-112.18717"
"(480) 821-","Landline","Maricopa","Chandler","AZ","Arizona","85224","(UTC-7)","33.298461","-111.85062"
"(928) 392-","Cell Number","Yavapai","Prescott","AZ","Arizona","86303","(UTC-7)","34.49579","-112.378309"
"(928) 925-","Cell Number","Yavapai","Prescott","AZ","Arizona","86303","(UTC-7)","34.49579","-112.378309"
"(928) 487-","Unknown","Gila","Globe","AZ","Arizona","85502","(UTC-7)","33.421919","-110.81268"
"(602) 521-","Landline","Maricopa","Phoenix","AZ","Arizona","85006","(UTC-7)","33.276539","-112.18717"
"(520) 619-","Cell Number","Santa Cruz","Nogales","AZ","Arizona","85621","(UTC-7)","31.46327","-110.8819"
"(520) 824-","Landline","Cochise","Pearce","AZ","Arizona","85625","(UTC-7)","31.766243","-109.896053"
"(928) 777-","Landline","Yavapai","Prescott","AZ","Arizona","86303","(UTC-7)","34.49579","-112.378309"
"(602) 695-","Cell Number","Maricopa","Phoenix","AZ","Arizona","85006","(UTC-7)","33.276539","-112.18717"
"(928) 328-","Landline","Yuma","Yuma","AZ","Arizona","85364","(UTC-7)","32.615305","-114.648722"
"(928) 697-","Landline","Apache","Chinle","AZ","Arizona","86503","(UTC-7)","36.527297","-109.691925"
"(520) 351-","Landline","Pima","Tucson","AZ","Arizona","85732","(UTC-7)","32.084775","-110.71225"
"(480) 897-","Landline","Maricopa","Tempe","AZ","Arizona","85281","(UTC-7)","33.432844","-111.927219"
"(928) 242-","Cell Number","Navajo","Pinetop","AZ","Arizona","85935","(UTC-7)","34.141314","-109.935556"
"(520) 540-","Cell Number","Pima","Tucson","AZ","Arizona","85732","(UTC-7)","32.084775","-110.71225"
"(602) 993-","Landline","Maricopa","Phoenix","AZ","Arizona","85006","(UTC-7)","33.276539","-112.18717"
"(520) 201-","Landline","Pinal","San Manuel","AZ","Arizona","85631","(UTC-7)","32.620892","-110.599242"
"(520) 901-","Landline","Pima","Tucson","AZ","Arizona","85732","(UTC-7)","32.084775","-110.71225"
"(928) 639-","Landline","Yavapai","Cottonwood","AZ","Arizona","86326","(UTC-7)","34.643596","-112.043547"
"(520) 880-","Landline","Pima","Tucson","AZ","Arizona","85732","(UTC-7)","32.084775","-110.71225"
"(928) 317-","Landline","Yuma","Yuma","AZ","Arizona","85364","(UTC-7)","32.615305","-114.648722"
"(480) 629-","Landline","Maricopa","Mesa","AZ","Arizona","85202","(UTC-7)","33.393484","-111.804513"
"(520) 441-","Unknown","Pima","Tucson","AZ","Arizona","85732","(UTC-7)","32.084775","-110.71225"
"(928) 750-","Unknown","Yuma","Yuma","AZ","Arizona","85364","(UTC-7)","32.615305","-114.648722"
"(480) 419-","Landline","Maricopa","Scottsdale","AZ","Arizona","85271","(UTC-7)","33.276539","-112.18717"
"(602) 474-","Landline","Maricopa","Phoenix","AZ","Arizona","85006","(UTC-7)","33.276539","-112.18717"
"(602) 635-","Landline","Maricopa","Phoenix","AZ","Arizona","85006","(UTC-7)","33.276539","-112.18717"
"(602) 567-","Landline","Maricopa","Phoenix","AZ","Arizona","85006","(UTC-7)","33.276539","-112.18717"
"(602) 396-","Cell Number","Maricopa","Phoenix","AZ","Arizona","85006","(UTC-7)","33.276539","-112.18717"
"(520) 940-","Cell Number","Pima","Tucson","AZ","Arizona","85732","(UTC-7)","32.084775","-110.71225"
"(602) 995-","Landline","Maricopa","Phoenix","AZ","Arizona","85006","(UTC-7)","33.276539","-112.18717"
"(602) 589-","Landline","Maricopa","Phoenix","AZ","Arizona","85006","(UTC-7)","33.276539","-112.18717"
"(928) 899-","Cell Number","Yavapai","Prescott","AZ","Arizona","86303","(UTC-7)","34.49579","-112.378309"
"(928) 422-","Landline","Mohave","Peach Springs","AZ","Arizona","86434","(UTC-7)","35.540361","-113.415346"
"(602) 200-","Landline","Maricopa","Phoenix","AZ","Arizona","85006","(UTC-7)","33.276539","-112.18717"
"(602) 409-","Landline","Maricopa","Phoenix","AZ","Arizona","85006","(UTC-7)","33.276539","-112.18717"
"(928) 871-","Landline","Apache","Ganado","AZ","Arizona","86505","(UTC-7)","35.237487","-109.52295"
"(520) 887-","Landline","Pima","Tucson","AZ","Arizona","85732","(UTC-7)","32.084775","-110.71225"
"(623) 882-","Landline","Maricopa","Goodyear","AZ","Arizona","85338","(UTC-7)","33.276539","-112.18717"
"(602) 758-","Cell Number","Maricopa","Phoenix","AZ","Arizona","85006","(UTC-7)","33.276539","-112.18717"
"(602) 457-","Unknown","Maricopa","Phoenix","AZ","Arizona","85006","(UTC-7)","33.276539","-112.18717"
"(928) 424-","Landline","Graham","Safford","AZ","Arizona","85548","(UTC-7)","32.797009","-109.752196"
"(602) 213-","Landline","Maricopa","Phoenix","AZ","Arizona","85006","(UTC-7)","33.276539","-112.18717"
"(520) 209-","Landline","Pima","Tucson","AZ","Arizona","85732","(UTC-7)","32.084775","-110.71225"
"(520) 239-","Landline","Pima","Tucson","AZ","Arizona","85732","(UTC-7)","32.084775","-110.71225"
"(520) 841-","Cell Number","Santa Cruz","Nogales","AZ","Arizona","85621","(UTC-7)","31.46327","-110.8819"
"(928) 556-","Landline","Coconino","Flagstaff","AZ","Arizona","86018","(UTC-7)","35.256347","-111.95003"
"(480) 850-","Landline","Maricopa","Scottsdale","AZ","Arizona","85271","(UTC-7)","33.276539","-112.18717"
"(602) 494-","Landline","Maricopa","Phoenix","AZ","Arizona","85006","(UTC-7)","33.276539","-112.18717"
"(520) 724-","Unknown","Pima","Tucson","AZ","Arizona","85732","(UTC-7)","32.084775","-110.71225"
"(520) 244-","Cell Number","Cochise","Sierra Vista","AZ","Arizona","85650","(UTC-7)","31.489157","-110.215304"
"(928) 988-","Unknown","Yuma","Yuma","AZ","Arizona","85364","(UTC-7)","32.615305","-114.648722"
"(602) 271-","Landline","Maricopa","Phoenix","AZ","Arizona","85006","(UTC-7)","33.276539","-112.18717"
"(602) 458-","Landline","Maricopa","Phoenix","AZ","Arizona","85006","(UTC-7)","33.276539","-112.18717"
"(928) 554-","Landline","Yavapai","Camp Verde","AZ","Arizona","86322","(UTC-7)","34.569687","-111.809798"
"(928) 797-","Cell Number","Coconino","Tonalea","AZ","Arizona","86044","(UTC-7)","35.630842","-112.052427"
"(602) 397-","Cell Number","Maricopa","Phoenix","AZ","Arizona","85006","(UTC-7)","33.276539","-112.18717"
"(520) 570-","Landline","Pima","Tucson","AZ","Arizona","85732","(UTC-7)","32.084775","-110.71225"
"(602) 263-","Landline","Maricopa","Phoenix","AZ","Arizona","85006","(UTC-7)","33.276539","-112.18717"
"(520) 823-","Landline","Santa Cruz","Tumacacori","AZ","Arizona","85640","(UTC-7)","31.616167","-111.051279"
"(928) 442-","Landline","Yavapai","Prescott","AZ","Arizona","86303","(UTC-7)","34.49579","-112.378309"
"(520) 290-","Landline","Pima","Tucson","AZ","Arizona","85732","(UTC-7)","32.084775","-110.71225"
"(520) 792-","Landline","Pima","Tucson","AZ","Arizona","85732","(UTC-7)","32.084775","-110.71225"
"(602) 747-","Landline","Maricopa","Phoenix","AZ","Arizona","85006","(UTC-7)","33.276539","-112.18717"
"(480) 357-","Landline","Pinal","Mesa","AZ","Arizona","85202","(UTC-7)","33.393484","-111.804513"
"(602) 237-","Landline","Maricopa","Phoenix","AZ","Arizona","85006","(UTC-7)","33.276539","-112.18717"
"(928) 308-","Cell Number","Yavapai","Prescott","AZ","Arizona","86303","(UTC-7)","34.49579","-112.378309"
"(520) 313-","Cell Number","Santa Cruz","Nogales","AZ","Arizona","85621","(UTC-7)","31.46327","-110.8819"
"(623) 214-","Landline","Maricopa","Surprise","AZ","Arizona","85374","(UTC-7)","33.276539","-112.18717"
"(602) 476-","Landline","Maricopa","Phoenix","AZ","Arizona","85006","(UTC-7)","33.276539","-112.18717"
"(602) 574-","Cell Number","Maricopa","Phoenix","AZ","Arizona","85006","(UTC-7)","33.276539","-112.18717"
"(520) 254-","Landline","Cochise","Willcox","AZ","Arizona","85643","(UTC-7)","32.07005","-109.886546"
"(928) 613-","Cell Number","Navajo","Winslow","AZ","Arizona","86047","(UTC-7)","34.633764","-110.35061"
"(602) 710-","Cell Number","Maricopa","Phoenix","AZ","Arizona","85006","(UTC-7)","33.276539","-112.18717"
"(602) 485-","Landline","Maricopa","Phoenix","AZ","Arizona","85006","(UTC-7)","33.276539","-112.18717"
"(928) 428-","Landline","Graham","Safford","AZ","Arizona","85548","(UTC-7)","32.797009","-109.752196"
"(602) 576-","Cell Number","Maricopa","Phoenix","AZ","Arizona","85006","(UTC-7)","33.276539","-112.18717"
"(602) 209-","Cell Number","Maricopa","Phoenix","AZ","Arizona","85006","(UTC-7)","33.276539","-112.18717"
"(520) 297-","Landline","Pima","Tucson","AZ","Arizona","85732","(UTC-7)","32.084775","-110.71225"
"(602) 404-","Landline","Maricopa","Phoenix","AZ","Arizona","85006","(UTC-7)","33.276539","-112.18717"
"(602) 406-","Landline","Maricopa","Phoenix","AZ","Arizona","85006","(UTC-7)","33.276539","-112.18717"
"(602) 724-","Landline","Maricopa","Phoenix","AZ","Arizona","85006","(UTC-7)","33.276539","-112.18717"
"(928) 773-","Landline","Coconino","Flagstaff","AZ","Arizona","86018","(UTC-7)","35.256347","-111.95003"
"(480) 985-","Landline","Maricopa","Mesa","AZ","Arizona","85202","(UTC-7)","33.393484","-111.804513"
"(602) 305-","Landline","Maricopa","Phoenix","AZ","Arizona","85006","(UTC-7)","33.276539","-112.18717"
"(602) 809-","Cell Number","Maricopa","Phoenix","AZ","Arizona","85006","(UTC-7)","33.276539","-112.18717"
"(520) 558-","Landline","Cochise","San Simon","AZ","Arizona","85632","(UTC-7)","31.880077","-109.754263"
"(602) 285-","Landline","Maricopa","Phoenix","AZ","Arizona","85006","(UTC-7)","33.276539","-112.18717"
"(602) 247-","Unknown","Maricopa","Phoenix","AZ","Arizona","85006","(UTC-7)","33.276539","-112.18717"
"(520) 538-","Landline","Cochise","Sierra Vista","AZ","Arizona","85650","(UTC-7)","31.489157","-110.215304"
"(623) 979-","Landline","Maricopa","Glendale","AZ","Arizona","85318","(UTC-7)","33.276539","-112.18717"
"(928) 550-","Cell Number","Yuma","Somerton","AZ","Arizona","85350","(UTC-7)","32.612408","-114.606214"
"(602) 617-","Cell Number","Maricopa","Phoenix","AZ","Arizona","85006","(UTC-7)","33.276539","-112.18717"
"(520) 987-","Cell Number","Santa Cruz","Nogales","AZ","Arizona","85621","(UTC-7)","31.46327","-110.8819"
"(602) 503-","Unknown","Maricopa","Phoenix","AZ","Arizona","85006","(UTC-7)","33.276539","-112.18717"
"(602) 822-","Landline","Maricopa","Phoenix","AZ","Arizona","85006","(UTC-7)","33.276539","-112.18717"
"(928) 737-","Landline","Apache","Chinle","AZ","Arizona","86503","(UTC-7)","36.527297","-109.691925"
"(520) 337-","Unknown","Cochise","Willcox","AZ","Arizona","85643","(UTC-7)","32.07005","-109.886546"
"(520) 228-","Landline","Pima","Tucson","AZ","Arizona","85732","(UTC-7)","32.084775","-110.71225"
"(520) 784-","Landline","Pima","Tucson","AZ","Arizona","85732","(UTC-7)","32.084775","-110.71225"
"(928) 535-","Landline","Navajo","Heber","AZ","Arizona","85928","(UTC-7)","34.40998","-110.588287"
"(520) 551-","Cell Number","Pima","Tucson","AZ","Arizona","85732","(UTC-7)","32.084775","-110.71225"
"(602) 424-","Landline","Maricopa","Phoenix","AZ","Arizona","85006","(UTC-7)","33.276539","-112.18717"
"(602) 729-","Cell Number","Maricopa","Phoenix","AZ","Arizona","85006","(UTC-7)","33.276539","-112.18717"
"(928) 287-","Unknown","Yuma","Yuma","AZ","Arizona","85364","(UTC-7)","32.615305","-114.648722"
"(602) 238-","Landline","Maricopa","Phoenix","AZ","Arizona","85006","(UTC-7)","33.276539","-112.18717"
"(520) 561-","Cell Number","Pima","Tucson","AZ","Arizona","85732","(UTC-7)","32.084775","-110.71225"
"(928) 479-","Landline","Gila","Roosevelt","AZ","Arizona","85545","(UTC-7)","33.614316","-111.005928"
"(520) 323-","Landline","Pima","Tucson","AZ","Arizona","85732","(UTC-7)","32.084775","-110.71225"
"(623) 566-","Landline","Maricopa","Peoria","AZ","Arizona","85345","(UTC-7)","33.276539","-112.18717"
"(520) 382-","Landline","Pima","Tucson","AZ","Arizona","85732","(UTC-7)","32.084775","-110.71225"
"(928) 583-","Landline","Yavapai","Chino Valley","AZ","Arizona","86323","(UTC-7)","34.755208","-112.171623"
"(602) 276-","Landline","Maricopa","Phoenix","AZ","Arizona","85006","(UTC-7)","33.276539","-112.18717"
"(480) 830-","Landline","Maricopa","Mesa","AZ","Arizona","85202","(UTC-7)","33.393484","-111.804513"
"(602) 447-","Landline","Maricopa","Phoenix","AZ","Arizona","85006","(UTC-7)","33.276539","-112.18717"
"(928) 300-","Cell Number","Yavapai","Cottonwood","AZ","Arizona","86326","(UTC-7)","34.643596","-112.043547"
"(480) 724-","Landline","Maricopa","Chandler","AZ","Arizona","85224","(UTC-7)","33.298461","-111.85062"
"(520) 258-","Landline","Pima","Tucson","AZ","Arizona","85732","(UTC-7)","32.084775","-110.71225"
"(928) 539-","Landline","Yuma","Yuma","AZ","Arizona","85364","(UTC-7)","32.615305","-114.648722"
"(520) 320-","Landline","Pima","Tucson","AZ","Arizona","85732","(UTC-7)","32.084775","-110.71225"
"(480) 813-","Landline","Maricopa","Mesa","AZ","Arizona","85202","(UTC-7)","33.393484","-111.804513"
"(602) 590-","Landline","Maricopa","Phoenix","AZ","Arizona","85006","(UTC-7)","33.276539","-112.18717"
"(520) 907-","Cell Number","Pima","Tucson","AZ","Arizona","85732","(UTC-7)","32.084775","-110.71225"
"(928) 275-","Unknown","Gila","Globe","AZ","Arizona","85502","(UTC-7)","33.421919","-110.81268"
"(928) 432-","Unknown","Graham","Safford","AZ","Arizona","85548","(UTC-7)","32.797009","-109.752196"
"(602) 535-","Unknown","Maricopa","Phoenix","AZ","Arizona","85006","(UTC-7)","33.276539","-112.18717"
"(928) 916-","Cell Number","La Paz","Cibola","AZ","Arizona","85328","(UTC-7)","33.672255","-114.03215"
"(520) 740-","Landline","Pima","Tucson","AZ","Arizona","85732","(UTC-7)","32.084775","-110.71225"
"(520) 591-","Cell Number","Pima","Tucson","AZ","Arizona","85732","(UTC-7)","32.084775","-110.71225"
"(602) 640-","Landline","Maricopa","Phoenix","AZ","Arizona","85006","(UTC-7)","33.276539","-112.18717"
"(928) 203-","Landline","Yavapai","Sedona","AZ","Arizona","86351","(UTC-7)","35.032371","-111.684752"
"(520) 303-","Unknown","Pima","Tucson","AZ","Arizona","85732","(UTC-7)","32.084775","-110.71225"
"(928) 567-","Landline","Yavapai","Camp Verde","AZ","Arizona","86322","(UTC-7)","34.569687","-111.809798"
"(602) 750-","Cell Number","Maricopa","Phoenix","AZ","Arizona","85006","(UTC-7)","33.276539","-112.18717"
"(602) 224-","Landline","Maricopa","Phoenix","AZ","Arizona","85006","(UTC-7)","33.276539","-112.18717"
"(480) 219-","Landline","Maricopa","Chandler","AZ","Arizona","85224","(UTC-7)","33.298461","-111.85062"
"(602) 881-","Cell Number","Maricopa","Phoenix","AZ","Arizona","85006","(UTC-7)","33.276539","-112.18717"
"(520) 806-","Landline","Pima","Tucson","AZ","Arizona","85732","(UTC-7)","32.084775","-110.71225"
"(480) 812-","Landline","Maricopa","Chandler","AZ","Arizona","85224","(UTC-7)","33.298461","-111.85062"
"(520) 694-","Landline","Pima","Tucson","AZ","Arizona","85732","(UTC-7)","32.084775","-110.71225"
"(928) 728-","Landline","Apache","Chinle","AZ","Arizona","86503","(UTC-7)","36.527297","-109.691925"
"(480) 373-","Landline","Pinal","Mesa","AZ","Arizona","85202","(UTC-7)","33.393484","-111.804513"
"(602) 380-","Cell Number","Maricopa","Phoenix","AZ","Arizona","85006","(UTC-7)","33.276539","-112.18717"
"(602) 663-","Cell Number","Maricopa","Phoenix","AZ","Arizona","85006","(UTC-7)","33.276539","-112.18717"
"(928) 659-","Landline","Apache","Teec Nos Pos","AZ","Arizona","86514","(UTC-7)","35.237487","-109.52295"
"(602) 292-","Cell Number","Maricopa","Phoenix","AZ","Arizona","85006","(UTC-7)","33.276539","-112.18717"
"(602) 219-","Landline","Maricopa","Phoenix","AZ","Arizona","85006","(UTC-7)","33.276539","-112.18717"
"(520) 780-","Cell Number","Pima","Tucson","AZ","Arizona","85732","(UTC-7)","32.084775","-110.71225"
"(602) 557-","Unknown","Maricopa","Phoenix","AZ","Arizona","85006","(UTC-7)","33.276539","-112.18717"
"(520) 703-","Cell Number","Pima","Tucson","AZ","Arizona","85732","(UTC-7)","32.084775","-110.71225"
"(520) 629-","Landline","Pima","Tucson","AZ","Arizona","85732","(UTC-7)","32.084775","-110.71225"
"(480) 723-","Landline","Maricopa","Chandler","AZ","Arizona","85224","(UTC-7)","33.298461","-111.85062"
"(520) 574-","Landline","Pima","Tucson","AZ","Arizona","85732","(UTC-7)","32.084775","-110.71225"
"(928) 614-","Cell Number","Coconino","Marble Canyon","AZ","Arizona","86036","(UTC-7)","36.922976","-111.449889"
"(602) 313-","Landline","Maricopa","Phoenix","AZ","Arizona","85006","(UTC-7)","33.276539","-112.18717"
"(520) 221-","Cell Number","Cochise","Benson","AZ","Arizona","85602","(UTC-7)","32.035885","-110.262611"
"(928) 202-","Landline","Yavapai","Cornville","AZ","Arizona","86325","(UTC-7)","34.735388","-111.927746"
"(520) 459-","Landline","Cochise","Sierra Vista","AZ","Arizona","85650","(UTC-7)","31.489157","-110.215304"
"(602) 289-","Cell Number","Maricopa","Phoenix","AZ","Arizona","85006","(UTC-7)","33.276539","-112.18717"
"(602) 232-","Landline","Maricopa","Phoenix","AZ","Arizona","85006","(UTC-7)","33.276539","-112.18717"
"(602) 405-","Cell Number","Maricopa","Phoenix","AZ","Arizona","85006","(UTC-7)","33.276539","-112.18717"
"(928) 788-","Landline","Mohave","Mohave Valley","AZ","Arizona","86440","(UTC-7)","35.0524","-114.245399"
"(480) 883-","Landline","Maricopa","Chandler","AZ","Arizona","85224","(UTC-7)","33.298461","-111.85062"
"(602) 532-","Landline","Maricopa","Phoenix","AZ","Arizona","85006","(UTC-7)","33.276539","-112.18717"
"(520) 393-","Landline","Pima","Green Valley","AZ","Arizona","85622","(UTC-7)","31.853334","-110.932803"
"(602) 280-","Landline","Maricopa","Phoenix","AZ","Arizona","85006","(UTC-7)","33.276539","-112.18717"
"(928) 284-","Landline","Yavapai","Sedona","AZ","Arizona","86351","(UTC-7)","35.032371","-111.684752"
"(602) 306-","Landline","Maricopa","Phoenix","AZ","Arizona","85006","(UTC-7)","33.276539","-112.18717"
"(602) 885-","Cell Number","Maricopa","Phoenix","AZ","Arizona","85006","(UTC-7)","33.276539","-112.18717"
"(602) 377-","Cell Number","Maricopa","Phoenix","AZ","Arizona","85006","(UTC-7)","33.276539","-112.18717"
"(928) 687-","Landline","Greenlee","Clifton","AZ","Arizona","85533","(UTC-7)","32.991251","-109.255872"
"(520) 392-","Unknown","Pima","Tucson","AZ","Arizona","85732","(UTC-7)","32.084775","-110.71225"
"(520) 262-","Unknown","Pima","Tucson","AZ","Arizona","85732","(UTC-7)","32.084775","-110.71225"
"(928) 759-","Landline","Yavapai","Prescott Valley","AZ","Arizona","86312","(UTC-7)","34.668291","-112.307777"
"(602) 387-","Landline","Maricopa","Phoenix","AZ","Arizona","85006","(UTC-7)","33.276539","-112.18717"
"(480) 301-","Landline","Maricopa","Scottsdale","AZ","Arizona","85271","(UTC-7)","33.276539","-112.18717"
"(520) 340-","Unknown","Santa Cruz","Nogales","AZ","Arizona","85621","(UTC-7)","31.46327","-110.8819"
"(520) 686-","Cell Number","Cochise","Benson","AZ","Arizona","85602","(UTC-7)","32.035885","-110.262611"
"(602) 548-","Landline","Maricopa","Phoenix","AZ","Arizona","85006","(UTC-7)","33.276539","-112.18717"
"(928) 793-","Landline","Gila","Globe","AZ","Arizona","85502","(UTC-7)","33.421919","-110.81268"
"(520) 879-","Landline","Pima","Tucson","AZ","Arizona","85732","(UTC-7)","32.084775","-110.71225"
"(623) 832-","Unknown","Maricopa","Sun City","AZ","Arizona","85373","(UTC-7)","33.276539","-112.18717"
"(520) 751-","Landline","Pima","Tucson","AZ","Arizona","85732","(UTC-7)","32.084775","-110.71225"
"(480) 345-","Landline","Maricopa","Tempe","AZ","Arizona","85281","(UTC-7)","33.432844","-111.927219"
"(602) 725-","Cell Number","Maricopa","Phoenix","AZ","Arizona","85006","(UTC-7)","33.276539","-112.18717"
"(520) 336-","Unknown","Pima","Tucson","AZ","Arizona","85732","(UTC-7)","32.084775","-110.71225"
"(602) 627-","Landline","Maricopa","Phoenix","AZ","Arizona","85006","(UTC-7)","33.276539","-112.18717"
"(520) 291-","Cell Number","Pima","Tucson","AZ","Arizona","85732","(UTC-7)","32.084775","-110.71225"
"(602) 246-","Landline","Maricopa","Phoenix","AZ","Arizona","85006","(UTC-7)","33.276539","-112.18717"
"(602) 502-","Cell Number","Maricopa","Phoenix","AZ","Arizona","85006","(UTC-7)","33.276539","-112.18717"
"(928) 564-","Landline","Mohave","Meadview","AZ","Arizona","86444","(UTC-7)","35.982167","-114.077519"
"(602) 448-","Cell Number","Maricopa","Phoenix","AZ","Arizona","85006","(UTC-7)","33.276539","-112.18717"
"(520) 590-","Cell Number","Cochise","Douglas","AZ","Arizona","85607","(UTC-7)","31.604081","-109.866187"
"(520) 481-","Cell Number","Pima","Tucson","AZ","Arizona","85732","(UTC-7)","32.084775","-110.71225"
"(602) 400-","Cell Number","Maricopa","Phoenix","AZ","Arizona","85006","(UTC-7)","33.276539","-112.18717"
"(520) 349-","Cell Number","Pima","Tucson","AZ","Arizona","85732","(UTC-7)","32.084775","-110.71225"
"(520) 886-","Landline","Pima","Tucson","AZ","Arizona","85732","(UTC-7)","32.084775","-110.71225"
"(602) 636-","Landline","Maricopa","Phoenix","AZ","Arizona","85006","(UTC-7)","33.276539","-112.18717"
"(602) 375-","Landline","Maricopa","Phoenix","AZ","Arizona","85006","(UTC-7)","33.276539","-112.18717"
"(480) 523-","Landline","Maricopa","Mesa","AZ","Arizona","85202","(UTC-7)","33.393484","-111.804513"
"(520) 622-","Landline","Pima","Tucson","AZ","Arizona","85732","(UTC-7)","32.084775","-110.71225"
"(520) 403-","Cell Number","Pima","Tucson","AZ","Arizona","85732","(UTC-7)","32.084775","-110.71225"
"(928) 634-","Landline","Yavapai","Cottonwood","AZ","Arizona","86326","(UTC-7)","34.643596","-112.043547"
"(928) 515-","Unknown","Yavapai","Prescott","AZ","Arizona","86303","(UTC-7)","34.49579","-112.378309"
"(520) 770-","Landline","Pima","Tucson","AZ","Arizona","85732","(UTC-7)","32.084775","-110.71225"
"(520) 861-","Cell Number","Pima","Tucson","AZ","Arizona","85732","(UTC-7)","32.084775","-110.71225"
"(520) 576-","Landline","Pima","Tucson","AZ","Arizona","85732","(UTC-7)","32.084775","-110.71225"
"(520) 318-","Landline","Pima","Tucson","AZ","Arizona","85732","(UTC-7)","32.084775","-110.71225"
"(602) 479-","Landline","Maricopa","Phoenix","AZ","Arizona","85006","(UTC-7)","33.276539","-112.18717"
"(520) 417-","Landline","Cochise","Sierra Vista","AZ","Arizona","85650","(UTC-7)","31.489157","-110.215304"
"(928) 642-","Landline","Yavapai","Mayer","AZ","Arizona","86333","(UTC-7)","34.414534","-112.163493"
"(480) 538-","Landline","Maricopa","Scottsdale","AZ","Arizona","85271","(UTC-7)","33.276539","-112.18717"
"(602) 522-","Landline","Maricopa","Phoenix","AZ","Arizona","85006","(UTC-7)","33.276539","-112.18717"
"(520) 513-","Landline","Pima","Tucson","AZ","Arizona","85732","(UTC-7)","32.084775","-110.71225"
"(928) 772-","Landline","Yavapai","Prescott Valley","AZ","Arizona","86312","(UTC-7)","34.668291","-112.307777"
"(602) 429-","Unknown","Maricopa","Phoenix","AZ","Arizona","85006","(UTC-7)","33.276539","-112.18717"
"(602) 579-","Cell Number","Maricopa","Phoenix","AZ","Arizona","85006","(UTC-7)","33.276539","-112.18717"
"(520) 888-","Landline","Pima","Tucson","AZ","Arizona","85732","(UTC-7)","32.084775","-110.71225"
"(520) 314-","Unknown","Pima","Tucson","AZ","Arizona","85732","(UTC-7)","32.084775","-110.71225"
"(602) 415-","Landline","Maricopa","Phoenix","AZ","Arizona","85006","(UTC-7)","33.276539","-112.18717"
"(602) 513-","Cell Number","Maricopa","Phoenix","AZ","Arizona","85006","(UTC-7)","33.276539","-112.18717"
"(480) 835-","Landline","Maricopa","Mesa","AZ","Arizona","85202","(UTC-7)","33.393484","-111.804513"
"(928) 282-","Landline","Yavapai","Sedona","AZ","Arizona","86351","(UTC-7)","35.032371","-111.684752"
"(602) 364-","Landline","Maricopa","Phoenix","AZ","Arizona","85006","(UTC-7)","33.276539","-112.18717"
"(928) 859-","Landline","La Paz","Salome","AZ","Arizona","85348","(UTC-7)","33.64797","-113.662489"
"(520) 867-","Cell Number","Pima","Tucson","AZ","Arizona","85732","(UTC-7)","32.084775","-110.71225"
"(480) 786-","Landline","Maricopa","Chandler","AZ","Arizona","85224","(UTC-7)","33.298461","-111.85062"
"(520) 975-","Cell Number","Pima","Tucson","AZ","Arizona","85732","(UTC-7)","32.084775","-110.71225"
"(520) 394-","Landline","Santa Cruz","Nogales","AZ","Arizona","85621","(UTC-7)","31.46327","-110.8819"
"(928) 530-","Cell Number","Mohave","Kingman","AZ","Arizona","86437","(UTC-7)","35.605301","-113.642712"
"(928) 220-","Cell Number","Coconino","Flagstaff","AZ","Arizona","86018","(UTC-7)","35.256347","-111.95003"
"(480) 715-","Landline","Maricopa","Chandler","AZ","Arizona","85224","(UTC-7)","33.298461","-111.85062"
"(520) 259-","Landline","Pima","Tucson","AZ","Arizona","85732","(UTC-7)","32.084775","-110.71225"
"(928) 532-","Landline","Navajo","Show Low","AZ","Arizona","85902","(UTC-7)","34.298092","-110.035185"
"(602) 277-","Landline","Maricopa","Phoenix","AZ","Arizona","85006","(UTC-7)","33.276539","-112.18717"
"(602) 242-","Landline","Maricopa","Phoenix","AZ","Arizona","85006","(UTC-7)","33.276539","-112.18717"
"(480) 844-","Landline","Maricopa","Mesa","AZ","Arizona","85202","(UTC-7)","33.393484","-111.804513"
"(480) 473-","Landline","Maricopa","Scottsdale","AZ","Arizona","85271","(UTC-7)","33.276539","-112.18717"
"(602) 870-","Landline","Maricopa","Phoenix","AZ","Arizona","85006","(UTC-7)","33.276539","-112.18717"
"(928) 854-","Landline","Mohave","Lake Havasu City","AZ","Arizona","86406","(UTC-7)","34.756714","-114.11897"
"(928) 245-","Cell Number","Apache","Springerville","AZ","Arizona","85938","(UTC-7)","34.118938","-109.285553"
"(602) 358-","Landline","Maricopa","Phoenix","AZ","Arizona","85006","(UTC-7)","33.276539","-112.18717"
"(928) 276-","Unknown","Yuma","Yuma","AZ","Arizona","85364","(UTC-7)","32.615305","-114.648722"
"(928) 846-","Cell Number","Mohave","Lake Havasu City","AZ","Arizona","86406","(UTC-7)","34.756714","-114.11897"
"(928) 726-","Landline","Yuma","Yuma","AZ","Arizona","85364","(UTC-7)","32.615305","-114.648722"
"(928) 551-","Unknown","Apache","Springerville","AZ","Arizona","85938","(UTC-7)","34.118938","-109.285553"
"(602) 843-","Landline","Maricopa","Phoenix","AZ","Arizona","85006","(UTC-7)","33.276539","-112.18717"
"(928) 537-","Landline","Navajo","Show Low","AZ","Arizona","85902","(UTC-7)","34.298092","-110.035185"
"(602) 605-","Landline","Maricopa","Phoenix","AZ","Arizona","85006","(UTC-7)","33.276539","-112.18717"
"(602) 717-","Cell Number","Maricopa","Phoenix","AZ","Arizona","85006","(UTC-7)","33.276539","-112.18717"
"(928) 376-","Landline","Yuma","Yuma","AZ","Arizona","85364","(UTC-7)","32.615305","-114.648722"
"(602) 372-","Landline","Maricopa","Phoenix","AZ","Arizona","85006","(UTC-7)","33.276539","-112.18717"
"(602) 223-","Landline","Maricopa","Phoenix","AZ","Arizona","85006","(UTC-7)","33.276539","-112.18717"
"(520) 603-","Cell Number","Pima","Tucson","AZ","Arizona","85732","(UTC-7)","32.084775","-110.71225"
"(928) 770-","Landline","Mohave","Mohave Valley","AZ","Arizona","86440","(UTC-7)","35.0524","-114.245399"
"(602) 438-","Landline","Maricopa","Phoenix","AZ","Arizona","85006","(UTC-7)","33.276539","-112.18717"
"(602) 300-","Cell Number","Maricopa","Phoenix","AZ","Arizona","85006","(UTC-7)","33.276539","-112.18717"
"(480) 292-","Cell Number","Maricopa","Chandler","AZ","Arizona","85224","(UTC-7)","33.298461","-111.85062"
"(602) 765-","Landline","Maricopa","Phoenix","AZ","Arizona","85006","(UTC-7)","33.276539","-112.18717"
"(480) 831-","Landline","Maricopa","Tempe","AZ","Arizona","85281","(UTC-7)","33.432844","-111.927219"
"(602) 472-","Landline","Maricopa","Phoenix","AZ","Arizona","85006","(UTC-7)","33.276539","-112.18717"
"(928) 783-","Landline","Yuma","Yuma","AZ","Arizona","85364","(UTC-7)","32.615305","-114.648722"
"(928) 343-","Landline","Yuma","Yuma","AZ","Arizona","85364","(UTC-7)","32.615305","-114.648722"
"(520) 361-","Landline","Pima","Sells","AZ","Arizona","85634","(UTC-7)","31.974033","-110.702027"
"(602) 919-","Cell Number","Maricopa","Phoenix","AZ","Arizona","85006","(UTC-7)","33.276539","-112.18717"
"(480) 635-","Landline","Maricopa","Mesa","AZ","Arizona","85202","(UTC-7)","33.393484","-111.804513"
"(602) 653-","Cell Number","Maricopa","Phoenix","AZ","Arizona","85006","(UTC-7)","33.276539","-112.18717"
"(520) 557-","Cell Number","Pima","Tucson","AZ","Arizona","85732","(UTC-7)","32.084775","-110.71225"
"(520) 720-","Landline","Cochise","Saint David","AZ","Arizona","85630","(UTC-7)","31.891828","-110.170442"
"(602) 207-","Landline","Maricopa","Phoenix","AZ","Arizona","85006","(UTC-7)","33.276539","-112.18717"
"(928) 523-","Landline","Coconino","Flagstaff","AZ","Arizona","86018","(UTC-7)","35.256347","-111.95003"
"(602) 568-","Cell Number","Maricopa","Phoenix","AZ","Arizona","85006","(UTC-7)","33.276539","-112.18717"
"(602) 997-","Landline","Maricopa","Phoenix","AZ","Arizona","85006","(UTC-7)","33.276539","-112.18717"
"(520) 837-","Landline","Pima","Tucson","AZ","Arizona","85732","(UTC-7)","32.084775","-110.71225"
"(928) 263-","Unknown","Mohave","Kingman","AZ","Arizona","86437","(UTC-7)","35.605301","-113.642712"
"(602) 776-","Landline","Maricopa","Phoenix","AZ","Arizona","85006","(UTC-7)","33.276539","-112.18717"
"(928) 387-","Unknown","Graham","Safford","AZ","Arizona","85548","(UTC-7)","32.797009","-109.752196"
"(520) 322-","Landline","Pima","Tucson","AZ","Arizona","85732","(UTC-7)","32.084775","-110.71225"
"(602) 256-","Landline","Maricopa","Phoenix","AZ","Arizona","85006","(UTC-7)","33.276539","-112.18717"
"(602) 274-","Landline","Maricopa","Phoenix","AZ","Arizona","85006","(UTC-7)","33.276539","-112.18717"
"(928) 764-","Landline","Mohave","Lake Havasu City","AZ","Arizona","86406","(UTC-7)","34.756714","-114.11897"
"(602) 980-","Cell Number","Maricopa","Phoenix","AZ","Arizona","85006","(UTC-7)","33.276539","-112.18717"
"(520) 285-","Landline","Santa Cruz","Nogales","AZ","Arizona","85621","(UTC-7)","31.46327","-110.8819"
"(520) 489-","Landline","Pima","Tucson","AZ","Arizona","85732","(UTC-7)","32.084775","-110.71225"
"(928) 734-","Landline","Navajo","Winslow","AZ","Arizona","86047","(UTC-7)","34.633764","-110.35061"
"(602) 769-","Cell Number","Maricopa","Phoenix","AZ","Arizona","85006","(UTC-7)","33.276539","-112.18717"
"(602) 818-","Cell Number","Maricopa","Phoenix","AZ","Arizona","85006","(UTC-7)","33.276539","-112.18717"
"(480) 247-","Cell Number","Maricopa","Chandler","AZ","Arizona","85224","(UTC-7)","33.298461","-111.85062"
"(480) 728-","Landline","Maricopa","Chandler","AZ","Arizona","85224","(UTC-7)","33.298461","-111.85062"
"(928) 402-","Landline","Gila","Globe","AZ","Arizona","85502","(UTC-7)","33.421919","-110.81268"
"(520) 368-","Unknown","Cochise","Douglas","AZ","Arizona","85607","(UTC-7)","31.604081","-109.866187"
"(520) 360-","Cell Number","Pima","Tucson","AZ","Arizona","85732","(UTC-7)","32.084775","-110.71225"
"(623) 583-","Landline","Maricopa","Sun City","AZ","Arizona","85373","(UTC-7)","33.276539","-112.18717"
"(928) 662-","Landline","La Paz","Parker","AZ","Arizona","85344","(UTC-7)","33.967712","-114.268073"
"(928) 279-","Cell Number","Mohave","Kingman","AZ","Arizona","86437","(UTC-7)","35.605301","-113.642712"
"(928) 592-","Landline","Yavapai","Rimrock","AZ","Arizona","86335","(UTC-7)","34.64161","-111.796517"
"(602) 996-","Landline","Maricopa","Phoenix","AZ","Arizona","85006","(UTC-7)","33.276539","-112.18717"
"(602) 341-","Cell Number","Maricopa","Phoenix","AZ","Arizona","85006","(UTC-7)","33.276539","-112.18717"
"(928) 810-","Landline","Apache","Ganado","AZ","Arizona","86505","(UTC-7)","35.237487","-109.52295"
"(602) 488-","Cell Number","Maricopa","Phoenix","AZ","Arizona","85006","(UTC-7)","33.276539","-112.18717"
"(520) 845-","Landline","Cochise","San Simon","AZ","Arizona","85632","(UTC-7)","31.880077","-109.754263"
"(520) 546-","Landline","Pima","Tucson","AZ","Arizona","85732","(UTC-7)","32.084775","-110.71225"
"(520) 324-","Landline","Pima","Tucson","AZ","Arizona","85732","(UTC-7)","32.084775","-110.71225"
"(602) 772-","Unknown","Maricopa","Phoenix","AZ","Arizona","85006","(UTC-7)","33.276539","-112.18717"
"(602) 542-","Landline","Maricopa","Phoenix","AZ","Arizona","85006","(UTC-7)","33.276539","-112.18717"
"(602) 331-","Landline","Maricopa","Phoenix","AZ","Arizona","85006","(UTC-7)","33.276539","-112.18717"
"(602) 267-","Landline","Maricopa","Phoenix","AZ","Arizona","85006","(UTC-7)","33.276539","-112.18717"
"(602) 241-","Landline","Maricopa","Phoenix","AZ","Arizona","85006","(UTC-7)","33.276539","-112.18717"
"(520) 988-","Cell Number","Santa Cruz","Nogales","AZ","Arizona","85621","(UTC-7)","31.46327","-110.8819"
"(520) 344-","Unknown","Pima","Tucson","AZ","Arizona","85732","(UTC-7)","32.084775","-110.71225"
"(602) 681-","Landline","Maricopa","Phoenix","AZ","Arizona","85006","(UTC-7)","33.276539","-112.18717"
"(602) 648-","Landline","Maricopa","Phoenix","AZ","Arizona","85006","(UTC-7)","33.276539","-112.18717"
"(520) 981-","Cell Number","Pima","Tucson","AZ","Arizona","85732","(UTC-7)","32.084775","-110.71225"
"(602) 701-","Cell Number","Maricopa","Phoenix","AZ","Arizona","85006","(UTC-7)","33.276539","-112.18717"
"(928) 686-","Landline","Navajo","Winslow","AZ","Arizona","86047","(UTC-7)","34.633764","-110.35061"
"(602) 439-","Landline","Maricopa","Phoenix","AZ","Arizona","85006","(UTC-7)","33.276539","-112.18717"
"(480) 437-","Landline","Maricopa","Cave Creek","AZ","Arizona","85327","(UTC-7)","33.276539","-112.18717"
"(602) 798-","Landline","Maricopa","Phoenix","AZ","Arizona","85006","(UTC-7)","33.276539","-112.18717"
"(520) 799-","Landline","Pima","Tucson","AZ","Arizona","85732","(UTC-7)","32.084775","-110.71225"
"(928) 580-","Cell Number","Yuma","Yuma","AZ","Arizona","85364","(UTC-7)","32.615305","-114.648722"
"(602) 347-","Landline","Maricopa","Phoenix","AZ","Arizona","85006","(UTC-7)","33.276539","-112.18717"
"(602) 210-","Cell Number","Maricopa","Phoenix","AZ","Arizona","85006","(UTC-7)","33.276539","-112.18717"
"(602) 261-","Landline","Maricopa","Phoenix","AZ","Arizona","85006","(UTC-7)","33.276539","-112.18717"
"(480) 558-","Landline","Maricopa","Mesa","AZ","Arizona","85202","(UTC-7)","33.393484","-111.804513"
"(928) 717-","Landline","Yavapai","Prescott","AZ","Arizona","86303","(UTC-7)","34.49579","-112.378309"
"(602) 443-","Landline","Maricopa","Phoenix","AZ","Arizona","85006","(UTC-7)","33.276539","-112.18717"
"(520) 842-","Landline","Santa Cruz","Nogales","AZ","Arizona","85621","(UTC-7)","31.46327","-110.8819"
"(520) 284-","Unknown","Pima","Tucson","AZ","Arizona","85732","(UTC-7)","32.084775","-110.71225"
"(480) 733-","Landline","Maricopa","Mesa","AZ","Arizona","85202","(UTC-7)","33.393484","-111.804513"
"(928) 730-","Unknown","Apache","Ganado","AZ","Arizona","86505","(UTC-7)","35.237487","-109.52295"
"(520) 741-","Landline","Pima","Tucson","AZ","Arizona","85732","(UTC-7)","32.084775","-110.71225"
"(602) 423-","Cell Number","Maricopa","Phoenix","AZ","Arizona","85006","(UTC-7)","33.276539","-112.18717"
"(602) 339-","Cell Number","Maricopa","Phoenix","AZ","Arizona","85006","(UTC-7)","33.276539","-112.18717"
"(520) 816-","Cell Number","Pima","Tucson","AZ","Arizona","85732","(UTC-7)","32.084775","-110.71225"
"(928) 542-","Cell Number","Mohave","Bullhead City","AZ","Arizona","86427","(UTC-7)","35.00429","-114.581228"
"(602) 652-","Landline","Maricopa","Phoenix","AZ","Arizona","85006","(UTC-7)","33.276539","-112.18717"
"(928) 359-","Landline","Greenlee","Duncan","AZ","Arizona","85534","(UTC-7)","32.881003","-109.215723"
"(928) 729-","Landline","Apache","Ganado","AZ","Arizona","86505","(UTC-7)","35.237487","-109.52295"
"(928) 677-","Landline","Apache","Chinle","AZ","Arizona","86503","(UTC-7)","36.527297","-109.691925"
"(602) 401-","Landline","Maricopa","Phoenix","AZ","Arizona","85006","(UTC-7)","33.276539","-112.18717"
"(602) 324-","Landline","Maricopa","Phoenix","AZ","Arizona","85006","(UTC-7)","33.276539","-112.18717"
"(928) 216-","Cell Number","La Paz","Parker","AZ","Arizona","85344","(UTC-7)","33.967712","-114.268073"
"(520) 249-","Cell Number","Cochise","Sierra Vista","AZ","Arizona","85650","(UTC-7)","31.489157","-110.215304"
"(928) 280-","Unknown","Apache","Ganado","AZ","Arizona","86505","(UTC-7)","35.237487","-109.52295"
"(602) 673-","Cell Number","Maricopa","Phoenix","AZ","Arizona","85006","(UTC-7)","33.276539","-112.18717"
"(602) 867-","Landline","Maricopa","Phoenix","AZ","Arizona","85006","(UTC-7)","33.276539","-112.18717"
"(602) 926-","Landline","Maricopa","Phoenix","AZ","Arizona","85006","(UTC-7)","33.276539","-112.18717"
"(602) 367-","Cell Number","Maricopa","Phoenix","AZ","Arizona","85006","(UTC-7)","33.276539","-112.18717"
"(928) 920-","Cell Number","Yuma","Yuma","AZ","Arizona","85364","(UTC-7)","32.615305","-114.648722"
"(520) 670-","Landline","Pima","Tucson","AZ","Arizona","85732","(UTC-7)","32.084775","-110.71225"
"(602) 595-","Landline","Maricopa","Phoenix","AZ","Arizona","85006","(UTC-7)","33.276539","-112.18717"
"(602) 604-","Landline","Maricopa","Phoenix","AZ","Arizona","85006","(UTC-7)","33.276539","-112.18717"
"(480) 641-","Landline","Maricopa","Mesa","AZ","Arizona","85202","(UTC-7)","33.393484","-111.804513"
"(602) 953-","Landline","Maricopa","Phoenix","AZ","Arizona","85006","(UTC-7)","33.276539","-112.18717"
"(480) 833-","Landline","Maricopa","Mesa","AZ","Arizona","85202","(UTC-7)","33.393484","-111.804513"
"(602) 749-","Landline","Maricopa","Phoenix","AZ","Arizona","85006","(UTC-7)","33.276539","-112.18717"
"(928) 715-","Cell Number","Mohave","Kingman","AZ","Arizona","86437","(UTC-7)","35.605301","-113.642712"
"(928) 315-","Unknown","Yuma","Somerton","AZ","Arizona","85350","(UTC-7)","32.612408","-114.606214"
"(602) 507-","Unknown","Maricopa","Phoenix","AZ","Arizona","85006","(UTC-7)","33.276539","-112.18717"
"(602) 651-","Landline","Maricopa","Phoenix","AZ","Arizona","85006","(UTC-7)","33.276539","-112.18717"
"(928) 638-","Landline","Coconino","Grand Canyon","AZ","Arizona","86023","(UTC-7)","35.942057","-112.130937"
"(480) 659-","Landline","Maricopa","Chandler","AZ","Arizona","85224","(UTC-7)","33.298461","-111.85062"
"(520) 327-","Landline","Pima","Tucson","AZ","Arizona","85732","(UTC-7)","32.084775","-110.71225"
"(928) 401-","Unknown","Coconino","Tonalea","AZ","Arizona","86044","(UTC-7)","35.630842","-112.052427"
"(602) 771-","Landline","Maricopa","Phoenix","AZ","Arizona","85006","(UTC-7)","33.276539","-112.18717"
"(520) 822-","Landline","Pima","Tucson","AZ","Arizona","85732","(UTC-7)","32.084775","-110.71225"
"(520) 225-","Landline","Pima","Tucson","AZ","Arizona","85732","(UTC-7)","32.084775","-110.71225"
"(602) 686-","Cell Number","Maricopa","Phoenix","AZ","Arizona","85006","(UTC-7)","33.276539","-112.18717"
"(480) 451-","Landline","Maricopa","Scottsdale","AZ","Arizona","85271","(UTC-7)","33.276539","-112.18717"
"(520) 375-","Landline","Santa Cruz","Nogales","AZ","Arizona","85621","(UTC-7)","31.46327","-110.8819"
"(520) 364-","Landline","Cochise","Douglas","AZ","Arizona","85607","(UTC-7)","31.604081","-109.866187"
"(480) 802-","Landline","Maricopa","Chandler","AZ","Arizona","85224","(UTC-7)","33.298461","-111.85062"
"(623) 584-","Landline","Maricopa","Surprise","AZ","Arizona","85374","(UTC-7)","33.276539","-112.18717"
"(928) 782-","Landline","Yuma","Yuma","AZ","Arizona","85364","(UTC-7)","32.615305","-114.648722"
"(602) 796-","Cell Number","Maricopa","Phoenix","AZ","Arizona","85006","(UTC-7)","33.276539","-112.18717"
"(602) 774-","Unknown","Maricopa","Phoenix","AZ","Arizona","85006","(UTC-7)","33.276539","-112.18717"
"(928) 302-","Unknown","Mohave","Lake Havasu City","AZ","Arizona","86406","(UTC-7)","34.756714","-114.11897"
"(520) 791-","Landline","Pima","Tucson","AZ","Arizona","85732","(UTC-7)","32.084775","-110.71225"
"(602) 810-","Cell Number","Maricopa","Phoenix","AZ","Arizona","85006","(UTC-7)","33.276539","-112.18717"
"(928) 303-","Cell Number","Mohave","Kingman","AZ","Arizona","86437","(UTC-7)","35.605301","-113.642712"
"(602) 354-","Landline","Maricopa","Phoenix","AZ","Arizona","85006","(UTC-7)","33.276539","-112.18717"
"(602) 322-","Landline","Maricopa","Phoenix","AZ","Arizona","85006","(UTC-7)","33.276539","-112.18717"
"(520) 378-","Landline","Cochise","Sierra Vista","AZ","Arizona","85650","(UTC-7)","31.489157","-110.215304"
"(480) 755-","Landline","Maricopa","Tempe","AZ","Arizona","85281","(UTC-7)","33.432844","-111.927219"
"(520) 399-","Landline","Pima","Green Valley","AZ","Arizona","85622","(UTC-7)","31.853334","-110.932803"
"(520) 630-","Cell Number","Santa Cruz","Nogales","AZ","Arizona","85621","(UTC-7)","31.46327","-110.8819"
"(602) 634-","Landline","Maricopa","Phoenix","AZ","Arizona","85006","(UTC-7)","33.276539","-112.18717"
"(480) 512-","Landline","Maricopa","Mesa","AZ","Arizona","85202","(UTC-7)","33.393484","-111.804513"
"(928) 309-","Cell Number","Apache","Ganado","AZ","Arizona","86505","(UTC-7)","35.237487","-109.52295"
"(928) 304-","Unknown","Yuma","Yuma","AZ","Arizona","85364","(UTC-7)","32.615305","-114.648722"
"(602) 751-","Cell Number","Maricopa","Phoenix","AZ","Arizona","85006","(UTC-7)","33.276539","-112.18717"
"(520) 872-","Landline","Pima","Tucson","AZ","Arizona","85732","(UTC-7)","32.084775","-110.71225"
"(602) 553-","Landline","Maricopa","Phoenix","AZ","Arizona","85006","(UTC-7)","33.276539","-112.18717"
"(928) 566-","Landline","Mohave","Lake Havasu City","AZ","Arizona","86406","(UTC-7)","34.756714","-114.11897"
"(928) 517-","Cell Number","Gila","Payson","AZ","Arizona","85541","(UTC-7)","33.864471","-111.075088"
"(602) 904-","Cell Number","Maricopa","Phoenix","AZ","Arizona","85006","(UTC-7)","33.276539","-112.18717"
"(480) 924-","Landline","Maricopa","Mesa","AZ","Arizona","85202","(UTC-7)","33.393484","-111.804513"
"(520) 385-","Landline","Pinal","San Manuel","AZ","Arizona","85631","(UTC-7)","32.620892","-110.599242"
"(602) 349-","Cell Number","Maricopa","Phoenix","AZ","Arizona","85006","(UTC-7)","33.276539","-112.18717"
"(520) 797-","Landline","Pima","Tucson","AZ","Arizona","85732","(UTC-7)","32.084775","-110.71225"
"(928) 446-","Cell Number","Yuma","Yuma","AZ","Arizona","85364","(UTC-7)","32.615305","-114.648722"
"(480) 838-","Landline","Maricopa","Tempe","AZ","Arizona","85281","(UTC-7)","33.432844","-111.927219"
"(480) 668-","Landline","Maricopa","Mesa","AZ","Arizona","85202","(UTC-7)","33.393484","-111.804513"
"(928) 606-","Cell Number","Coconino","Flagstaff","AZ","Arizona","86018","(UTC-7)","35.256347","-111.95003"
"(520) 678-","Cell Number","Cochise","Willcox","AZ","Arizona","85643","(UTC-7)","32.07005","-109.886546"
"(602) 248-","Landline","Maricopa","Phoenix","AZ","Arizona","85006","(UTC-7)","33.276539","-112.18717"
"(520) 618-","Landline","Pima","Tucson","AZ","Arizona","85732","(UTC-7)","32.084775","-110.71225"
"(480) 279-","Landline","Maricopa","Higley","AZ","Arizona","85236","(UTC-7)","33.299317","-111.69546"
"(602) 952-","Landline","Maricopa","Phoenix","AZ","Arizona","85006","(UTC-7)","33.276539","-112.18717"
"(602) 913-","Cell Number","Maricopa","Phoenix","AZ","Arizona","85006","(UTC-7)","33.276539","-112.18717"
"(928) 527-","Landline","Coconino","Flagstaff","AZ","Arizona","86018","(UTC-7)","35.256347","-111.95003"
"(602) 453-","Landline","Maricopa","Phoenix","AZ","Arizona","85006","(UTC-7)","33.276539","-112.18717"
"(520) 247-","Cell Number","Pima","Tucson","AZ","Arizona","85732","(UTC-7)","32.084775","-110.71225"
"(602) 709-","Landline","Maricopa","Phoenix","AZ","Arizona","85006","(UTC-7)","33.276539","-112.18717"
"(928) 941-","Cell Number","Yuma","Yuma","AZ","Arizona","85364","(UTC-7)","32.615305","-114.648722"
"(928) 672-","Landline","Coconino","Marble Canyon","AZ","Arizona","86036","(UTC-7)","36.922976","-111.449889"
"(520) 748-","Landline","Pima","Tucson","AZ","Arizona","85732","(UTC-7)","32.084775","-110.71225"
"(928) 755-","Landline","Apache","Ganado","AZ","Arizona","86505","(UTC-7)","35.237487","-109.52295"
"(928) 253-","Landline","Yavapai","Prescott","AZ","Arizona","86303","(UTC-7)","34.49579","-112.378309"
"(602) 482-","Landline","Maricopa","Phoenix","AZ","Arizona","85006","(UTC-7)","33.276539","-112.18717"
"(520) 419-","Cell Number","Pima","Tucson","AZ","Arizona","85732","(UTC-7)","32.084775","-110.71225"
"(928) 249-","Cell Number","Mohave","Peach Springs","AZ","Arizona","86434","(UTC-7)","35.540361","-113.415346"
"(520) 206-","Landline","Pima","Tucson","AZ","Arizona","85732","(UTC-7)","32.084775","-110.71225"
"(520) 407-","Landline","Pima","Tucson","AZ","Arizona","85732","(UTC-7)","32.084775","-110.71225"
"(520) 477-","Unknown","Pima","Tucson","AZ","Arizona","85732","(UTC-7)","32.084775","-110.71225"
"(602) 233-","Landline","Maricopa","Phoenix","AZ","Arizona","85006","(UTC-7)","33.276539","-112.18717"
"(520) 468-","Unknown","Pima","Tucson","AZ","Arizona","85732","(UTC-7)","32.084775","-110.71225"
"(602) 540-","Cell Number","Maricopa","Phoenix","AZ","Arizona","85006","(UTC-7)","33.276539","-112.18717"
"(520) 232-","Landline","Pima","Tucson","AZ","Arizona","85732","(UTC-7)","32.084775","-110.71225"
"(928) 727-","Cell Number","Mohave","Kingman","AZ","Arizona","86437","(UTC-7)","35.605301","-113.642712"
"(520) 883-","Landline","Pima","Tucson","AZ","Arizona","85732","(UTC-7)","32.084775","-110.71225"
"(602) 389-","Landline","Maricopa","Phoenix","AZ","Arizona","85006","(UTC-7)","33.276539","-112.18717"
"(602) 541-","Cell Number","Maricopa","Phoenix","AZ","Arizona","85006","(UTC-7)","33.276539","-112.18717"
"(520) 446-","Cell Number","Pima","Tucson","AZ","Arizona","85732","(UTC-7)","32.084775","-110.71225"
"(520) 445-","Unknown","Pima","Tucson","AZ","Arizona","85732","(UTC-7)","32.084775","-110.71225"
"(520) 384-","Landline","Cochise","Willcox","AZ","Arizona","85643","(UTC-7)","32.07005","-109.886546"
"(928) 215-","Cell Number","Greenlee","Clifton","AZ","Arizona","85533","(UTC-7)","32.991251","-109.255872"
"(520) 465-","Cell Number","Pima","Tucson","AZ","Arizona","85732","(UTC-7)","32.084775","-110.71225"
"(520) 212-","Landline","Pima","Tucson","AZ","Arizona","85732","(UTC-7)","32.084775","-110.71225"
"(480) 767-","Landline","Maricopa","Scottsdale","AZ","Arizona","85271","(UTC-7)","33.276539","-112.18717"
"(928) 643-","Landline","Coconino","Fredonia","AZ","Arizona","86022","(UTC-7)","36.96649","-112.524696"
"(602) 466-","Landline","Maricopa","Phoenix","AZ","Arizona","85006","(UTC-7)","33.276539","-112.18717"
"(602) 550-","Cell Number","Maricopa","Phoenix","AZ","Arizona","85006","(UTC-7)","33.276539","-112.18717"
"(520) 805-","Landline","Cochise","Douglas","AZ","Arizona","85607","(UTC-7)","31.604081","-109.866187"
"(520) 469-","Landline","Pima","Tucson","AZ","Arizona","85732","(UTC-7)","32.084775","-110.71225"
"(480) 575-","Landline","Maricopa","Cave Creek","AZ","Arizona","85327","(UTC-7)","33.276539","-112.18717"
"(623) 328-","Landline","Maricopa","Arlington","AZ","Arizona","85322","(UTC-7)","33.276539","-112.18717"
"(602) 920-","Cell Number","Maricopa","Phoenix","AZ","Arizona","85006","(UTC-7)","33.276539","-112.18717"
"(602) 281-","Landline","Maricopa","Phoenix","AZ","Arizona","85006","(UTC-7)","33.276539","-112.18717"
"(602) 738-","Cell Number","Maricopa","Phoenix","AZ","Arizona","85006","(UTC-7)","33.276539","-112.18717"
"(520) 406-","Cell Number","Pima","Tucson","AZ","Arizona","85732","(UTC-7)","32.084775","-110.71225"
"(520) 818-","Landline","Pima","Tucson","AZ","Arizona","85732","(UTC-7)","32.084775","-110.71225"
"(602) 299-","Cell Number","Maricopa","Phoenix","AZ","Arizona","85006","(UTC-7)","33.276539","-112.18717"
"(928) 769-","Landline","Mohave","Peach Springs","AZ","Arizona","86434","(UTC-7)","35.540361","-113.415346"
"(602) 333-","Landline","Maricopa","Phoenix","AZ","Arizona","85006","(UTC-7)","33.276539","-112.18717"
"(602) 538-","Cell Number","Maricopa","Phoenix","AZ","Arizona","85006","(UTC-7)","33.276539","-112.18717"
"(520) 260-","Cell Number","Pima","Tucson","AZ","Arizona","85732","(UTC-7)","32.084775","-110.71225"
"(520) 264-","Landline","Santa Cruz","Nogales","AZ","Arizona","85621","(UTC-7)","31.46327","-110.8819"
"(480) 832-","Landline","Maricopa","Mesa","AZ","Arizona","85202","(UTC-7)","33.393484","-111.804513"
"(602) 298-","Landline","Maricopa","Phoenix","AZ","Arizona","85006","(UTC-7)","33.276539","-112.18717"
"(602) 203-","Cell Number","Maricopa","Phoenix","AZ","Arizona","85006","(UTC-7)","33.276539","-112.18717"
"(928) 460-","Cell Number","Coconino","Fredonia","AZ","Arizona","86022","(UTC-7)","36.96649","-112.524696"
"(480) 898-","Landline","Maricopa","Mesa","AZ","Arizona","85202","(UTC-7)","33.393484","-111.804513"
"(520) 731-","Landline","Pima","Tucson","AZ","Arizona","85732","(UTC-7)","32.084775","-110.71225"
"(602) 903-","Cell Number","Maricopa","Phoenix","AZ","Arizona","85006","(UTC-7)","33.276539","-112.18717"
"(480) 892-","Landline","Maricopa","Mesa","AZ","Arizona","85202","(UTC-7)","33.393484","-111.804513"
"(928) 478-","Landline","Gila","Payson","AZ","Arizona","85541","(UTC-7)","33.864471","-111.075088"
"(602) 586-","Landline","Maricopa","Phoenix","AZ","Arizona","85006","(UTC-7)","33.276539","-112.18717"
"(520) 514-","Landline","Pima","Tucson","AZ","Arizona","85732","(UTC-7)","32.084775","-110.71225"
"(928) 283-","Landline","Coconino","Marble Canyon","AZ","Arizona","86036","(UTC-7)","36.922976","-111.449889"
"(520) 516-","Cell Number","Pima","Tucson","AZ","Arizona","85732","(UTC-7)","32.084775","-110.71225"
"(480) 488-","Landline","Maricopa","Cave Creek","AZ","Arizona","85327","(UTC-7)","33.276539","-112.18717"
"(520) 884-","Landline","Pima","Tucson","AZ","Arizona","85732","(UTC-7)","32.084775","-110.71225"
"(928) 363-","Unknown","Gila","Payson","AZ","Arizona","85541","(UTC-7)","33.864471","-111.075088"
"(928) 522-","Landline","Coconino","Flagstaff","AZ","Arizona","86018","(UTC-7)","35.256347","-111.95003"
"(602) 348-","Cell Number","Maricopa","Phoenix","AZ","Arizona","85006","(UTC-7)","33.276539","-112.18717"
"(602) 801-","Landline","Maricopa","Phoenix","AZ","Arizona","85006","(UTC-7)","33.276539","-112.18717"
"(602) 768-","Cell Number","Maricopa","Phoenix","AZ","Arizona","85006","(UTC-7)","33.276539","-112.18717"
"(602) 644-","Landline","Maricopa","Phoenix","AZ","Arizona","85006","(UTC-7)","33.276539","-112.18717"
"(928) 657-","Landline","Navajo","Winslow","AZ","Arizona","86047","(UTC-7)","34.633764","-110.35061"
"(928) 608-","Landline","Coconino","Marble Canyon","AZ","Arizona","86036","(UTC-7)","36.922976","-111.449889"
"(602) 351-","Landline","Maricopa","Phoenix","AZ","Arizona","85006","(UTC-7)","33.276539","-112.18717"
"(480) 497-","Landline","Maricopa","Mesa","AZ","Arizona","85202","(UTC-7)","33.393484","-111.804513"
"(602) 283-","Landline","Maricopa","Phoenix","AZ","Arizona","85006","(UTC-7)","33.276539","-112.18717"
"(602) 628-","Cell Number","Maricopa","Phoenix","AZ","Arizona","85006","(UTC-7)","33.276539","-112.18717"
"(928) 341-","Landline","Yuma","Yuma","AZ","Arizona","85364","(UTC-7)","32.615305","-114.648722"
"(602) 365-","Landline","Maricopa","Phoenix","AZ","Arizona","85006","(UTC-7)","33.276539","-112.18717"
"(520) 334-","Unknown","Pima","Tucson","AZ","Arizona","85732","(UTC-7)","32.084775","-110.71225"
"(928) 855-","Landline","Mohave","Lake Havasu City","AZ","Arizona","86406","(UTC-7)","34.756714","-114.11897"
"(602) 989-","Cell Number","Maricopa","Phoenix","AZ","Arizona","85006","(UTC-7)","33.276539","-112.18717"
"(602) 539-","Unknown","Maricopa","Phoenix","AZ","Arizona","85006","(UTC-7)","33.276539","-112.18717"
"(928) 241-","Cell Number","Navajo","Holbrook","AZ","Arizona","86025","(UTC-7)","34.776828","-110.089544"
"(520) 519-","Landline","Pima","Tucson","AZ","Arizona","85732","(UTC-7)","32.084775","-110.71225"
"(602) 245-","Cell Number","Maricopa","Phoenix","AZ","Arizona","85006","(UTC-7)","33.276539","-112.18717"
"(602) 329-","Cell Number","Maricopa","Phoenix","AZ","Arizona","85006","(UTC-7)","33.276539","-112.18717"
"(602) 916-","Landline","Maricopa","Phoenix","AZ","Arizona","85006","(UTC-7)","33.276539","-112.18717"
"(520) 955-","Cell Number","Pima","Tucson","AZ","Arizona","85732","(UTC-7)","32.084775","-110.71225"
"(520) 255-","Cell Number","Cochise","Sierra Vista","AZ","Arizona","85650","(UTC-7)","31.489157","-110.215304"
"(520) 909-","Cell Number","Pima","Tucson","AZ","Arizona","85732","(UTC-7)","32.084775","-110.71225"
"(623) 878-","Landline","Maricopa","Glendale","AZ","Arizona","85318","(UTC-7)","33.276539","-112.18717"
"(602) 896-","Landline","Maricopa","Phoenix","AZ","Arizona","85006","(UTC-7)","33.276539","-112.18717"
"(928) 505-","Landline","Mohave","Lake Havasu City","AZ","Arizona","86406","(UTC-7)","34.756714","-114.11897"
"(928) 448-","Landline","Coconino","Fredonia","AZ","Arizona","86022","(UTC-7)","36.96649","-112.524696"
"(928) 575-","Landline","La Paz","Mohave Valley","AZ","Arizona","86440","(UTC-7)","35.0524","-114.245399"
"(602) 465-","Cell Number","Maricopa","Phoenix","AZ","Arizona","85006","(UTC-7)","33.276539","-112.18717"
"(602) 445-","Landline","Maricopa","Phoenix","AZ","Arizona","85006","(UTC-7)","33.276539","-112.18717"
"(520) 296-","Landline","Pima","Tucson","AZ","Arizona","85732","(UTC-7)","32.084775","-110.71225"
"(602) 697-","Cell Number","Maricopa","Phoenix","AZ","Arizona","85006","(UTC-7)","33.276539","-112.18717"
"(520) 744-","Landline","Pima","Tucson","AZ","Arizona","85732","(UTC-7)","32.084775","-110.71225"
"(602) 578-","Cell Number","Maricopa","Phoenix","AZ","Arizona","85006","(UTC-7)","33.276539","-112.18717"
"(520) 895-","Landline","Pima","Tucson","AZ","Arizona","85732","(UTC-7)","32.084775","-110.71225"
"(520) 932-","Cell Number","Pima","Tucson","AZ","Arizona","85732","(UTC-7)","32.084775","-110.71225"
"(623) 815-","Landline","Maricopa","Sun City","AZ","Arizona","85373","(UTC-7)","33.276539","-112.18717"
"(480) 926-","Landline","Maricopa","Mesa","AZ","Arizona","85202","(UTC-7)","33.393484","-111.804513"
"(602) 360-","Cell Number","Maricopa","Phoenix","AZ","Arizona","85006","(UTC-7)","33.276539","-112.18717"
"(623) 546-","Landline","Maricopa","Surprise","AZ","Arizona","85374","(UTC-7)","33.276539","-112.18717"
"(520) 807-","Landline","Pima","Tucson","AZ","Arizona","85732","(UTC-7)","32.084775","-110.71225"
"(928) 259-","Unknown","Yuma","Yuma","AZ","Arizona","85364","(UTC-7)","32.615305","-114.648722"
"(623) 853-","Landline","Maricopa","Litchfield Park","AZ","Arizona","85340","(UTC-7)","33.276539","-112.18717"
"(928) 237-","Cell Number","Yavapai","Prescott","AZ","Arizona","86303","(UTC-7)","34.49579","-112.378309"
"(480) 380-","Landline","Pinal","Mesa","AZ","Arizona","85202","(UTC-7)","33.393484","-111.804513"
"(928) 654-","Landline","Apache","Ganado","AZ","Arizona","86505","(UTC-7)","35.237487","-109.52295"
"(520) 704-","Unknown","Pima","Tucson","AZ","Arizona","85732","(UTC-7)","32.084775","-110.71225"
"(928) 736-","Landline","Apache","Ganado","AZ","Arizona","86505","(UTC-7)","35.237487","-109.52295"
"(602) 977-","Landline","Maricopa","Phoenix","AZ","Arizona","85006","(UTC-7)","33.276539","-112.18717"
"(480) 464-","Landline","Maricopa","Mesa","AZ","Arizona","85202","(UTC-7)","33.393484","-111.804513"
"(520) 623-","Landline","Pima","Tucson","AZ","Arizona","85732","(UTC-7)","32.084775","-110.71225"
"(520) 584-","Landline","Pima","Tucson","AZ","Arizona","85732","(UTC-7)","32.084775","-110.71225"
"(602) 597-","Landline","Maricopa","Phoenix","AZ","Arizona","85006","(UTC-7)","33.276539","-112.18717"
"(623) 776-","Landline","Maricopa","Glendale","AZ","Arizona","85318","(UTC-7)","33.276539","-112.18717"
"(928) 679-","Landline","Coconino","Flagstaff","AZ","Arizona","86018","(UTC-7)","35.256347","-111.95003"
"(602) 720-","Landline","Maricopa","Phoenix","AZ","Arizona","85006","(UTC-7)","33.276539","-112.18717"
"(602) 683-","Landline","Maricopa","Phoenix","AZ","Arizona","85006","(UTC-7)","33.276539","-112.18717"
"(520) 860-","Cell Number","Santa Cruz","Nogales","AZ","Arizona","85621","(UTC-7)","31.46327","-110.8819"
"(602) 225-","Landline","Maricopa","Phoenix","AZ","Arizona","85006","(UTC-7)","33.276539","-112.18717"
"(623) 932-","Landline","Maricopa","Goodyear","AZ","Arizona","85338","(UTC-7)","33.276539","-112.18717"
"(602) 820-","Cell Number","Maricopa","Phoenix","AZ","Arizona","85006","(UTC-7)","33.276539","-112.18717"
"(480) 722-","Landline","Maricopa","Chandler","AZ","Arizona","85224","(UTC-7)","33.298461","-111.85062"
"(928) 425-","Landline","Gila","Globe","AZ","Arizona","85502","(UTC-7)","33.421919","-110.81268"
"(928) 635-","Landline","Coconino","Williams","AZ","Arizona","86046","(UTC-7)","35.915563","-112.366031"
"(602) 588-","Landline","Maricopa","Phoenix","AZ","Arizona","85006","(UTC-7)","33.276539","-112.18717"
"(928) 301-","Cell Number","Yavapai","Cottonwood","AZ","Arizona","86326","(UTC-7)","34.643596","-112.043547"
"(928) 209-","Cell Number","Coconino","Page","AZ","Arizona","86040","(UTC-7)","36.910804","-111.502009"
"(602) 318-","Cell Number","Maricopa","Phoenix","AZ","Arizona","85006","(UTC-7)","33.276539","-112.18717"
"(480) 820-","Landline","Maricopa","Tempe","AZ","Arizona","85281","(UTC-7)","33.432844","-111.927219"
"(928) 754-","Landline","Mohave","Bullhead City","AZ","Arizona","86427","(UTC-7)","35.00429","-114.581228"
"(602) 399-","Cell Number","Maricopa","Phoenix","AZ","Arizona","85006","(UTC-7)","33.276539","-112.18717"
"(520) 298-","Landline","Pima","Tucson","AZ","Arizona","85732","(UTC-7)","32.084775","-110.71225"
"(928) 345-","Landline","Yuma","Yuma","AZ","Arizona","85364","(UTC-7)","32.615305","-114.648722"
"(480) 777-","Landline","Maricopa","Tempe","AZ","Arizona","85281","(UTC-7)","33.432844","-111.927219"
"(480) 644-","Landline","Maricopa","Mesa","AZ","Arizona","85202","(UTC-7)","33.393484","-111.804513"
"(602) 743-","Cell Number","Maricopa","Phoenix","AZ","Arizona","85006","(UTC-7)","33.276539","-112.18717"
"(520) 498-","Landline","Pima","Tucson","AZ","Arizona","85732","(UTC-7)","32.084775","-110.71225"
"(602) 669-","Cell Number","Maricopa","Phoenix","AZ","Arizona","85006","(UTC-7)","33.276539","-112.18717"
"(928) 338-","Landline","Navajo","Pinetop","AZ","Arizona","85935","(UTC-7)","34.141314","-109.935556"
"(602) 255-","Landline","Maricopa","Phoenix","AZ","Arizona","85006","(UTC-7)","33.276539","-112.18717"
"(602) 845-","Unknown","Maricopa","Phoenix","AZ","Arizona","85006","(UTC-7)","33.276539","-112.18717"
"(520) 749-","Landline","Pima","Tucson","AZ","Arizona","85732","(UTC-7)","32.084775","-110.71225"
"(623) 643-","Landline","Maricopa","Glendale","AZ","Arizona","85318","(UTC-7)","33.276539","-112.18717"
"(520) 335-","Unknown","Pima","Tucson","AZ","Arizona","85732","(UTC-7)","32.084775","-110.71225"
"(602) 973-","Landline","Maricopa","Phoenix","AZ","Arizona","85006","(UTC-7)","33.276539","-112.18717"
"(928) 645-","Landline","Coconino","Marble Canyon","AZ","Arizona","86036","(UTC-7)","36.922976","-111.449889"
"(602) 332-","Cell Number","Maricopa","Phoenix","AZ","Arizona","85006","(UTC-7)","33.276539","-112.18717"
"(602) 262-","Landline","Maricopa","Phoenix","AZ","Arizona","85006","(UTC-7)","33.276539","-112.18717"
"(602) 770-","Cell Number","Maricopa","Phoenix","AZ","Arizona","85006","(UTC-7)","33.276539","-112.18717"
"(602) 407-","Landline","Maricopa","Phoenix","AZ","Arizona","85006","(UTC-7)","33.276539","-112.18717"
"(480) 585-","Landline","Maricopa","Scottsdale","AZ","Arizona","85271","(UTC-7)","33.276539","-112.18717"
"(928) 204-","Landline","Yavapai","Sedona","AZ","Arizona","86351","(UTC-7)","35.032371","-111.684752"
"(602) 369-","Cell Number","Maricopa","Phoenix","AZ","Arizona","85006","(UTC-7)","33.276539","-112.18717"
"(602) 378-","Landline","Maricopa","Phoenix","AZ","Arizona","85006","(UTC-7)","33.276539","-112.18717"
"(520) 452-","Landline","Cochise","Sierra Vista","AZ","Arizona","85650","(UTC-7)","31.489157","-110.215304"
"(623) 977-","Landline","Maricopa","Sun City","AZ","Arizona","85373","(UTC-7)","33.276539","-112.18717"
"(520) 295-","Landline","Pima","Tucson","AZ","Arizona","85732","(UTC-7)","32.084775","-110.71225"
"(480) 891-","Landline","Maricopa","Mesa","AZ","Arizona","85202","(UTC-7)","33.393484","-111.804513"
"(602) 723-","Cell Number","Maricopa","Phoenix","AZ","Arizona","85006","(UTC-7)","33.276539","-112.18717"
"(928) 636-","Landline","Yavapai","Chino Valley","AZ","Arizona","86323","(UTC-7)","34.755208","-112.171623"
"(520) 980-","Cell Number","Santa Cruz","Nogales","AZ","Arizona","85621","(UTC-7)","31.46327","-110.8819"
"(928) 310-","Cell Number","Coconino","Flagstaff","AZ","Arizona","86018","(UTC-7)","35.256347","-111.95003"
"(520) 732-","Cell Number","Cochise","Sierra Vista","AZ","Arizona","85650","(UTC-7)","31.489157","-110.215304"
"(928) 902-","Cell Number","Apache","Ganado","AZ","Arizona","86505","(UTC-7)","35.237487","-109.52295"
"(602) 797-","Landline","Maricopa","Phoenix","AZ","Arizona","85006","(UTC-7)","33.276539","-112.18717"
"(520) 850-","Cell Number","Pima","Tucson","AZ","Arizona","85732","(UTC-7)","32.084775","-110.71225"
"(520) 387-","Landline","Pima","Ajo","AZ","Arizona","85321","(UTC-7)","31.970131","-111.890713"
"(520) 203-","Landline","Pima","Tucson","AZ","Arizona","85732","(UTC-7)","32.084775","-110.71225"
"(928) 264-","Unknown","Mohave","Mohave Valley","AZ","Arizona","86440","(UTC-7)","35.0524","-114.245399"
"(602) 506-","Landline","Maricopa","Phoenix","AZ","Arizona","85006","(UTC-7)","33.276539","-112.18717"
"(520) 696-","Landline","Pima","Tucson","AZ","Arizona","85732","(UTC-7)","32.084775","-110.71225"
"(928) 735-","Landline","Apache","Greer","AZ","Arizona","85927","(UTC-7)","35.237487","-109.52295"
"(602) 531-","Cell Number","Maricopa","Phoenix","AZ","Arizona","85006","(UTC-7)","33.276539","-112.18717"
"(520) 881-","Landline","Pima","Tucson","AZ","Arizona","85732","(UTC-7)","32.084775","-110.71225"
"(602) 754-","Landline","Maricopa","Phoenix","AZ","Arizona","85006","(UTC-7)","33.276539","-112.18717"
"(602) 253-","Landline","Maricopa","Phoenix","AZ","Arizona","85006","(UTC-7)","33.276539","-112.18717"
"(520) 331-","Cell Number","Pima","Tucson","AZ","Arizona","85732","(UTC-7)","32.084775","-110.71225"
"(602) 221-","Landline","Maricopa","Phoenix","AZ","Arizona","85006","(UTC-7)","33.276539","-112.18717"
"(602) 662-","Cell Number","Maricopa","Phoenix","AZ","Arizona","85006","(UTC-7)","33.276539","-112.18717"
"(520) 310-","Cell Number","Coconino","Tucson","AZ","Arizona","85732","(UTC-7)","32.084775","-110.71225"
"(928) 373-","Landline","Yuma","Yuma","AZ","Arizona","85364","(UTC-7)","32.615305","-114.648722"
"(623) 524-","Unknown","Maricopa","Surprise","AZ","Arizona","85374","(UTC-7)","33.276539","-112.18717"
"(602) 388-","Landline","Maricopa","Phoenix","AZ","Arizona","85006","(UTC-7)","33.276539","-112.18717"
"(928) 713-","Cell Number","Yavapai","Prescott","AZ","Arizona","86303","(UTC-7)","34.49579","-112.378309"
"(602) 278-","Landline","Maricopa","Phoenix","AZ","Arizona","85006","(UTC-7)","33.276539","-112.18717"
"(928) 739-","Landline","Navajo","Show Low","AZ","Arizona","85902","(UTC-7)","34.298092","-110.035185"
"(602) 449-","Unknown","Maricopa","Phoenix","AZ","Arizona","85006","(UTC-7)","33.276539","-112.18717"
"(480) 614-","Landline","Maricopa","Scottsdale","AZ","Arizona","85271","(UTC-7)","33.276539","-112.18717"
"(602) 416-","Landline","Maricopa","Phoenix","AZ","Arizona","85006","(UTC-7)","33.276539","-112.18717"
"(602) 398-","Cell Number","Maricopa","Phoenix","AZ","Arizona","85006","(UTC-7)","33.276539","-112.18717"
"(602) 467-","Landline","Maricopa","Phoenix","AZ","Arizona","85006","(UTC-7)","33.276539","-112.18717"
"(928) 414-","Cell Number","Navajo","Holbrook","AZ","Arizona","86025","(UTC-7)","34.776828","-110.089544"
"(480) 396-","Landline","Maricopa","Mesa","AZ","Arizona","85202","(UTC-7)","33.393484","-111.804513"
"(602) 222-","Landline","Maricopa","Phoenix","AZ","Arizona","85006","(UTC-7)","33.276539","-112.18717"
"(602) 954-","Landline","Maricopa","Phoenix","AZ","Arizona","85006","(UTC-7)","33.276539","-112.18717"
"(602) 239-","Landline","Maricopa","Phoenix","AZ","Arizona","85006","(UTC-7)","33.276539","-112.18717"
"(602) 852-","Landline","Maricopa","Phoenix","AZ","Arizona","85006","(UTC-7)","33.276539","-112.18717"
"(928) 377-","Cell Number","Mohave","Kingman","AZ","Arizona","86437","(UTC-7)","35.605301","-113.642712"
"(520) 487-","Landline","Pinal","Mammoth","AZ","Arizona","85618","(UTC-7)","32.703898","-110.69592"
"(602) 235-","Landline","Maricopa","Phoenix","AZ","Arizona","85006","(UTC-7)","33.276539","-112.18717"
"(520) 586-","Landline","Cochise","Benson","AZ","Arizona","85602","(UTC-7)","32.035885","-110.262611"
"(480) 981-","Landline","Maricopa","Mesa","AZ","Arizona","85202","(UTC-7)","33.393484","-111.804513"
"(602) 702-","Cell Number","Maricopa","Phoenix","AZ","Arizona","85006","(UTC-7)","33.276539","-112.18717"
"(602) 495-","Landline","Maricopa","Phoenix","AZ","Arizona","85006","(UTC-7)","33.276539","-112.18717"
"(928) 771-","Landline","Yavapai","Prescott","AZ","Arizona","86303","(UTC-7)","34.49579","-112.378309"
"(602) 373-","Cell Number","Maricopa","Phoenix","AZ","Arizona","85006","(UTC-7)","33.276539","-112.18717"
"(928) 306-","Cell Number","Navajo","Show Low","AZ","Arizona","85902","(UTC-7)","34.298092","-110.035185"
"(602) 910-","Cell Number","Maricopa","Phoenix","AZ","Arizona","85006","(UTC-7)","33.276539","-112.18717"
"(928) 897-","Cell Number","Mohave","Kingman","AZ","Arizona","86437","(UTC-7)","35.605301","-113.642712"
"(480) 834-","Landline","Maricopa","Mesa","AZ","Arizona","85202","(UTC-7)","33.393484","-111.804513"
"(520) 954-","Cell Number","Pima","Tucson","AZ","Arizona","85732","(UTC-7)","32.084775","-110.71225"
"(602) 826-","Cell Number","Maricopa","Phoenix","AZ","Arizona","85006","(UTC-7)","33.276539","-112.18717"
"(520) 216-","Cell Number","Santa Cruz","Nogales","AZ","Arizona","85621","(UTC-7)","31.46327","-110.8819"
"(602) 288-","Landline","Maricopa","Phoenix","AZ","Arizona","85006","(UTC-7)","33.276539","-112.18717"
"(602) 376-","Cell Number","Maricopa","Phoenix","AZ","Arizona","85006","(UTC-7)","33.276539","-112.18717"
"(602) 639-","Cell Number","Maricopa","Phoenix","AZ","Arizona","85006","(UTC-7)","33.276539","-112.18717"
"(602) 468-","Landline","Maricopa","Phoenix","AZ","Arizona","85006","(UTC-7)","33.276539","-112.18717"
"(928) 458-","Cell Number","Yavapai","Prescott","AZ","Arizona","86303","(UTC-7)","34.49579","-112.378309"
"(602) 708-","Cell Number","Maricopa","Phoenix","AZ","Arizona","85006","(UTC-7)","33.276539","-112.18717"
"(602) 528-","Landline","Maricopa","Phoenix","AZ","Arizona","85006","(UTC-7)","33.276539","-112.18717"
"(602) 501-","Cell Number","Maricopa","Phoenix","AZ","Arizona","85006","(UTC-7)","33.276539","-112.18717"
"(602) 231-","Landline","Maricopa","Phoenix","AZ","Arizona","85006","(UTC-7)","33.276539","-112.18717"
"(602) 496-","Landline","Maricopa","Phoenix","AZ","Arizona","85006","(UTC-7)","33.276539","-112.18717"
"(480) 324-","Landline","Maricopa","Mesa","AZ","Arizona","85202","(UTC-7)","33.393484","-111.804513"
"(602) 659-","Landline","Maricopa","Phoenix","AZ","Arizona","85006","(UTC-7)","33.276539","-112.18717"
"(520) 471-","Cell Number","Pima","Tucson","AZ","Arizona","85732","(UTC-7)","32.084775","-110.71225"
"(602) 504-","Landline","Maricopa","Phoenix","AZ","Arizona","85006","(UTC-7)","33.276539","-112.18717"
"(602) 412-","Landline","Maricopa","Phoenix","AZ","Arizona","85006","(UTC-7)","33.276539","-112.18717"
"(602) 999-","Cell Number","Maricopa","Phoenix","AZ","Arizona","85006","(UTC-7)","33.276539","-112.18717"
"(602) 633-","Unknown","Maricopa","Phoenix","AZ","Arizona","85006","(UTC-7)","33.276539","-112.18717"
"(480) 837-","Landline","Maricopa","Fountain Hills","AZ","Arizona","85269","(UTC-7)","33.276539","-112.18717"
"(520) 571-","Landline","Pima","Tucson","AZ","Arizona","85732","(UTC-7)","32.084775","-110.71225"
"(602) 334-","Landline","Maricopa","Phoenix","AZ","Arizona","85006","(UTC-7)","33.276539","-112.18717"
"(928) 607-","Cell Number","Coconino","Flagstaff","AZ","Arizona","86018","(UTC-7)","35.256347","-111.95003"
"(928) 210-","Cell Number","Yuma","Yuma","AZ","Arizona","85364","(UTC-7)","32.615305","-114.648722"
"(602) 739-","Cell Number","Maricopa","Phoenix","AZ","Arizona","85006","(UTC-7)","33.276539","-112.18717"
"(928) 474-","Landline","Gila","Payson","AZ","Arizona","85541","(UTC-7)","33.864471","-111.075088"
"(520) 690-","Landline","Pima","Tucson","AZ","Arizona","85732","(UTC-7)","32.084775","-110.71225"
"(480) 860-","Landline","Maricopa","Scottsdale","AZ","Arizona","85271","(UTC-7)","33.276539","-112.18717"
"(602) 393-","Landline","Maricopa","Phoenix","AZ","Arizona","85006","(UTC-7)","33.276539","-112.18717"
"(928) 475-","Landline","Gila","Peridot","AZ","Arizona","85542","(UTC-7)","33.741518","-110.860653"
"(520) 766-","Landline","Cochise","Willcox","AZ","Arizona","85643","(UTC-7)","32.07005","-109.886546"
"(520) 219-","Landline","Pima","Tucson","AZ","Arizona","85732","(UTC-7)","32.084775","-110.71225"
"(602) 599-","Landline","Maricopa","Phoenix","AZ","Arizona","85006","(UTC-7)","33.276539","-112.18717"
"(480) 456-","Landline","Maricopa","Tempe","AZ","Arizona","85281","(UTC-7)","33.432844","-111.927219"
"(520) 721-","Landline","Pima","Tucson","AZ","Arizona","85732","(UTC-7)","32.084775","-110.71225"
"(520) 437-","Unknown","Pima","Tucson","AZ","Arizona","85732","(UTC-7)","32.084775","-110.71225"
"(928) 809-","Unknown","Apache","Ganado","AZ","Arizona","86505","(UTC-7)","35.237487","-109.52295"
"(480) 855-","Landline","Maricopa","Chandler","AZ","Arizona","85224","(UTC-7)","33.298461","-111.85062"
"(520) 743-","Landline","Pima","Tucson","AZ","Arizona","85732","(UTC-7)","32.084775","-110.71225"
"(602) 252-","Landline","Maricopa","Phoenix","AZ","Arizona","85006","(UTC-7)","33.276539","-112.18717"
"(602) 687-","Landline","Maricopa","Phoenix","AZ","Arizona","85006","(UTC-7)","33.276539","-112.18717"
"(928) 821-","Cell Number","Yavapai","Sedona","AZ","Arizona","86351","(UTC-7)","35.032371","-111.684752"
"(928) 892-","Cell Number","Navajo","Show Low","AZ","Arizona","85902","(UTC-7)","34.298092","-110.035185"
"(520) 844-","Landline","Pima","Tucson","AZ","Arizona","85732","(UTC-7)","32.084775","-110.71225"
"(928) 649-","Landline","Yavapai","Cottonwood","AZ","Arizona","86326","(UTC-7)","34.643596","-112.043547"
"(602) 689-","Cell Number","Maricopa","Phoenix","AZ","Arizona","85006","(UTC-7)","33.276539","-112.18717"
"(928) 434-","Cell Number","Navajo","Show Low","AZ","Arizona","85902","(UTC-7)","34.298092","-110.035185"
"(602) 956-","Landline","Maricopa","Phoenix","AZ","Arizona","85006","(UTC-7)","33.276539","-112.18717"
"(602) 459-","Landline","Maricopa","Phoenix","AZ","Arizona","85006","(UTC-7)","33.276539","-112.18717"
"(928) 420-","Cell Number","Yavapai","Prescott","AZ","Arizona","86303","(UTC-7)","34.49579","-112.378309"
"(602) 266-","Landline","Maricopa","Phoenix","AZ","Arizona","85006","(UTC-7)","33.276539","-112.18717"
"(602) 821-","Cell Number","Maricopa","Phoenix","AZ","Arizona","85006","(UTC-7)","33.276539","-112.18717"
"(520) 628-","Landline","Pima","Tucson","AZ","Arizona","85732","(UTC-7)","32.084775","-110.71225"
"(602) 286-","Landline","Maricopa","Phoenix","AZ","Arizona","85006","(UTC-7)","33.276539","-112.18717"
"(602) 721-","Cell Number","Maricopa","Phoenix","AZ","Arizona","85006","(UTC-7)","33.276539","-112.18717"
"(623) 974-","Landline","Maricopa","Sun City","AZ","Arizona","85373","(UTC-7)","33.276539","-112.18717"
"(602) 705-","Cell Number","Maricopa","Phoenix","AZ","Arizona","85006","(UTC-7)","33.276539","-112.18717"
"(602) 718-","Landline","Maricopa","Phoenix","AZ","Arizona","85006","(UTC-7)","33.276539","-112.18717"
"(602) 868-","Cell Number","Maricopa","Phoenix","AZ","Arizona","85006","(UTC-7)","33.276539","-112.18717"
"(623) 975-","Landline","Maricopa","Surprise","AZ","Arizona","85374","(UTC-7)","33.276539","-112.18717"
"(602) 759-","Unknown","Maricopa","Phoenix","AZ","Arizona","85006","(UTC-7)","33.276539","-112.18717"
"(480) 895-","Landline","Maricopa","Chandler","AZ","Arizona","85224","(UTC-7)","33.298461","-111.85062"
"(480) 633-","Landline","Maricopa","Mesa","AZ","Arizona","85202","(UTC-7)","33.393484","-111.804513"
"(520) 549-","Cell Number","Pima","Tucson","AZ","Arizona","85732","(UTC-7)","32.084775","-110.71225"
"(928) 681-","Landline","Mohave","Kingman","AZ","Arizona","86437","(UTC-7)","35.605301","-113.642712"
"(520) 321-","Landline","Pima","Tucson","AZ","Arizona","85732","(UTC-7)","32.084775","-110.71225"
"(520) 398-","Landline","Santa Cruz","Tubac","AZ","Arizona","85646","(UTC-7)","31.593758","-111.066245"
"(602) 696-","Cell Number","Maricopa","Phoenix","AZ","Arizona","85006","(UTC-7)","33.276539","-112.18717"
"(480) 986-","Landline","Pinal","Mesa","AZ","Arizona","85202","(UTC-7)","33.393484","-111.804513"
"(602) 516-","Unknown","Maricopa","Phoenix","AZ","Arizona","85006","(UTC-7)","33.276539","-112.18717"
"(602) 357-","Landline","Maricopa","Phoenix","AZ","Arizona","85006","(UTC-7)","33.276539","-112.18717"
"(928) 358-","Unknown","Navajo","Pinetop","AZ","Arizona","85935","(UTC-7)","34.141314","-109.935556"
"(520) 265-","Cell Number","Cochise","Benson","AZ","Arizona","85602","(UTC-7)","32.035885","-110.262611"
"(602) 534-","Landline","Maricopa","Phoenix","AZ","Arizona","85006","(UTC-7)","33.276539","-112.18717"
"(602) 906-","Landline","Maricopa","Phoenix","AZ","Arizona","85006","(UTC-7)","33.276539","-112.18717"
"(928) 767-","Landline","Mohave","Dolan Springs","AZ","Arizona","86441","(UTC-7)","35.269759","-114.243188"
"(602) 827-","Unknown","Maricopa","Phoenix","AZ","Arizona","85006","(UTC-7)","33.276539","-112.18717"
"(480) 899-","Landline","Maricopa","Chandler","AZ","Arizona","85224","(UTC-7)","33.298461","-111.85062"
"(480) 792-","Landline","Maricopa","Chandler","AZ","Arizona","85224","(UTC-7)","33.298461","-111.85062"
"(602) 478-","Cell Number","Maricopa","Phoenix","AZ","Arizona","85006","(UTC-7)","33.276539","-112.18717"
"(602) 573-","Cell Number","Maricopa","Phoenix","AZ","Arizona","85006","(UTC-7)","33.276539","-112.18717"
"(602) 547-","Landline","Maricopa","Phoenix","AZ","Arizona","85006","(UTC-7)","33.276539","-112.18717"
"(520) 663-","Landline","Pima","Tucson","AZ","Arizona","85732","(UTC-7)","32.084775","-110.71225"
"(520) 529-","Landline","Pima","Tucson","AZ","Arizona","85732","(UTC-7)","32.084775","-110.71225"
"(602) 794-","Landline","Maricopa","Phoenix","AZ","Arizona","85006","(UTC-7)","33.276539","-112.18717"
"(602) 526-","Cell Number","Maricopa","Phoenix","AZ","Arizona","85006","(UTC-7)","33.276539","-112.18717"
"(928) 305-","Landline","Yuma","Yuma","AZ","Arizona","85364","(UTC-7)","32.615305","-114.648722"
"(602) 307-","Landline","Maricopa","Phoenix","AZ","Arizona","85006","(UTC-7)","33.276539","-112.18717"
"(602) 444-","Landline","Maricopa","Phoenix","AZ","Arizona","85006","(UTC-7)","33.276539","-112.18717"
"(602) 430-","Cell Number","Maricopa","Phoenix","AZ","Arizona","85006","(UTC-7)","33.276539","-112.18717"
"(602) 713-","Landline","Maricopa","Phoenix","AZ","Arizona","85006","(UTC-7)","33.276539","-112.18717"
"(602) 616-","Cell Number","Maricopa","Phoenix","AZ","Arizona","85006","(UTC-7)","33.276539","-112.18717"
"(928) 525-","Landline","Coconino","Flagstaff","AZ","Arizona","86018","(UTC-7)","35.256347","-111.95003"
"(520) 533-","Landline","Cochise","Sierra Vista","AZ","Arizona","85650","(UTC-7)","31.489157","-110.215304"
"(602) 417-","Landline","Maricopa","Phoenix","AZ","Arizona","85006","(UTC-7)","33.276539","-112.18717"
"(520) 408-","Landline","Pima","Tucson","AZ","Arizona","85732","(UTC-7)","32.084775","-110.71225"
"(602) 624-","Landline","Maricopa","Phoenix","AZ","Arizona","85006","(UTC-7)","33.276539","-112.18717"
"(520) 761-","Landline","Santa Cruz","Nogales","AZ","Arizona","85621","(UTC-7)","31.46327","-110.8819"
"(602) 328-","Landline","Maricopa","Phoenix","AZ","Arizona","85006","(UTC-7)","33.276539","-112.18717"
"(480) 854-","Landline","Maricopa","Mesa","AZ","Arizona","85202","(UTC-7)","33.393484","-111.804513"
"(602) 282-","Landline","Maricopa","Phoenix","AZ","Arizona","85006","(UTC-7)","33.276539","-112.18717"
"(480) 664-","Landline","Maricopa","Chandler","AZ","Arizona","85224","(UTC-7)","33.298461","-111.85062"
"(602) 309-","Cell Number","Maricopa","Phoenix","AZ","Arizona","85006","(UTC-7)","33.276539","-112.18717"
"(602) 234-","Landline","Maricopa","Phoenix","AZ","Arizona","85006","(UTC-7)","33.276539","-112.18717"
"(602) 793-","Cell Number","Maricopa","Phoenix","AZ","Arizona","85006","(UTC-7)","33.276539","-112.18717"
"(480) 657-","Landline","Maricopa","Scottsdale","AZ","Arizona","85271","(UTC-7)","33.276539","-112.18717"
"(602) 682-","Landline","Maricopa","Phoenix","AZ","Arizona","85006","(UTC-7)","33.276539","-112.18717"
"(520) 218-","Landline","Pima","Tucson","AZ","Arizona","85732","(UTC-7)","32.084775","-110.71225"
"(928) 247-","Unknown","Yuma","Yuma","AZ","Arizona","85364","(UTC-7)","32.615305","-114.648722"
"(602) 272-","Landline","Maricopa","Phoenix","AZ","Arizona","85006","(UTC-7)","33.276539","-112.18717"
"(520) 924-","Landline","Santa Cruz","Nogales","AZ","Arizona","85621","(UTC-7)","31.46327","-110.8819"
"(928) 627-","Landline","Yuma","Somerton","AZ","Arizona","85350","(UTC-7)","32.612408","-114.606214"
"(602) 454-","Landline","Maricopa","Phoenix","AZ","Arizona","85006","(UTC-7)","33.276539","-112.18717"
"(602) 571-","Cell Number","Maricopa","Phoenix","AZ","Arizona","85006","(UTC-7)","33.276539","-112.18717"
"(602) 660-","Cell Number","Maricopa","Phoenix","AZ","Arizona","85006","(UTC-7)","33.276539","-112.18717"
"(520) 432-","Landline","Cochise","Bisbee","AZ","Arizona","85603","(UTC-7)","31.445577","-109.819216"
"(520) 747-","Landline","Pima","Tucson","AZ","Arizona","85732","(UTC-7)","32.084775","-110.71225"
"(602) 490-","Landline","Maricopa","Phoenix","AZ","Arizona","85006","(UTC-7)","33.276539","-112.18717"
"(520) 847-","Landline","Cochise","San Simon","AZ","Arizona","85632","(UTC-7)","31.880077","-109.754263"
"(623) 412-","Landline","Maricopa","Glendale","AZ","Arizona","85318","(UTC-7)","33.276539","-112.18717"
"(520) 631-","Cell Number","Pima","Tucson","AZ","Arizona","85732","(UTC-7)","32.084775","-110.71225"
"(928) 738-","Landline","Apache","Ganado","AZ","Arizona","86505","(UTC-7)","35.237487","-109.52295"
"(520) 342-","Unknown","Pima","Tucson","AZ","Arizona","85732","(UTC-7)","32.084775","-110.71225"
"(602) 631-","Landline","Maricopa","Phoenix","AZ","Arizona","85006","(UTC-7)","33.276539","-112.18717"
"(480) 857-","Landline","Maricopa","Chandler","AZ","Arizona","85224","(UTC-7)","33.298461","-111.85062"
"(602) 340-","Landline","Maricopa","Phoenix","AZ","Arizona","85006","(UTC-7)","33.276539","-112.18717"
"(602) 308-","Landline","Maricopa","Phoenix","AZ","Arizona","85006","(UTC-7)","33.276539","-112.18717"
"(928) 863-","Cell Number","Coconino","Flagstaff","AZ","Arizona","86018","(UTC-7)","35.256347","-111.95003"
"(520) 877-","Landline","Pima","Tucson","AZ","Arizona","85732","(UTC-7)","32.084775","-110.71225"
"(480) 545-","Landline","Maricopa","Mesa","AZ","Arizona","85202","(UTC-7)","33.393484","-111.804513"
"(602) 475-","Cell Number","Maricopa","Phoenix","AZ","Arizona","85006","(UTC-7)","33.276539","-112.18717"
"(480) 471-","Landline","Maricopa","Mesa","AZ","Arizona","85202","(UTC-7)","33.393484","-111.804513"
"(928) 344-","Landline","Yuma","Yuma","AZ","Arizona","85364","(UTC-7)","32.615305","-114.648722"
"(602) 613-","Cell Number","Maricopa","Phoenix","AZ","Arizona","85006","(UTC-7)","33.276539","-112.18717"
"(928) 779-","Landline","Coconino","Flagstaff","AZ","Arizona","86018","(UTC-7)","35.256347","-111.95003"
"(520) 508-","Cell Number","Cochise","Willcox","AZ","Arizona","85643","(UTC-7)","32.07005","-109.886546"
"(928) 342-","Landline","Yuma","Yuma","AZ","Arizona","85364","(UTC-7)","32.615305","-114.648722"
"(602) 386-","Landline","Maricopa","Phoenix","AZ","Arizona","85006","(UTC-7)","33.276539","-112.18717"
"(520) 240-","Cell Number","Pima","Tucson","AZ","Arizona","85732","(UTC-7)","32.084775","-110.71225"
"(928) 763-","Landline","Mohave","Bullhead City","AZ","Arizona","86427","(UTC-7)","35.00429","-114.581228"
"(602) 789-","Landline","Maricopa","Phoenix","AZ","Arizona","85006","(UTC-7)","33.276539","-112.18717"
"(480) 461-","Landline","Maricopa","Mesa","AZ","Arizona","85202","(UTC-7)","33.393484","-111.804513"
"(602) 622-","Cell Number","Maricopa","Phoenix","AZ","Arizona","85006","(UTC-7)","33.276539","-112.18717"
"(928) 652-","Landline","Apache","Ganado","AZ","Arizona","86505","(UTC-7)","35.237487","-109.52295"
"(602) 565-","Cell Number","Maricopa","Phoenix","AZ","Arizona","85006","(UTC-7)","33.276539","-112.18717"
"(520) 746-","Landline","Pima","Tucson","AZ","Arizona","85732","(UTC-7)","32.084775","-110.71225"
"(520) 577-","Landline","Pima","Tucson","AZ","Arizona","85732","(UTC-7)","32.084775","-110.71225"
"(928) 503-","Cell Number","Yuma","Yuma","AZ","Arizona","85364","(UTC-7)","32.615305","-114.648722"
"(520) 531-","Landline","Pima","Tucson","AZ","Arizona","85732","(UTC-7)","32.084775","-110.71225"
"(928) 379-","Cell Number","Yavapai","Prescott","AZ","Arizona","86303","(UTC-7)","34.49579","-112.378309"
"(520) 626-","Landline","Pima","Tucson","AZ","Arizona","85732","(UTC-7)","32.084775","-110.71225"
"(520) 304-","Cell Number","Pima","Tucson","AZ","Arizona","85732","(UTC-7)","32.084775","-110.71225"
"(520) 229-","Landline","Pima","Tucson","AZ","Arizona","85732","(UTC-7)","32.084775","-110.71225"
"(928) 565-","Landline","Mohave","Golden Valley","AZ","Arizona","86413","(UTC-7)","35.30024","-114.221531"
"(520) 319-","Landline","Pima","Tucson","AZ","Arizona","85732","(UTC-7)","32.084775","-110.71225"
"(602) 385-","Landline","Maricopa","Phoenix","AZ","Arizona","85006","(UTC-7)","33.276539","-112.18717"
"(928) 857-","Landline","La Paz","Cibola","AZ","Arizona","85328","(UTC-7)","33.672255","-114.03215"
"(520) 727-","Cell Number","Cochise","Douglas","AZ","Arizona","85607","(UTC-7)","31.604081","-109.866187"
"(520) 869-","Cell Number","Pima","Tucson","AZ","Arizona","85732","(UTC-7)","32.084775","-110.71225"
"(520) 745-","Landline","Pima","Tucson","AZ","Arizona","85732","(UTC-7)","32.084775","-110.71225"
"(928) 910-","Cell Number","Yavapai","Prescott","AZ","Arizona","86303","(UTC-7)","34.49579","-112.378309"
"(480) 964-","Landline","Maricopa","Mesa","AZ","Arizona","85202","(UTC-7)","33.393484","-111.804513"
"(602) 629-","Landline","Maricopa","Phoenix","AZ","Arizona","85006","(UTC-7)","33.276539","-112.18717"
"(602) 402-","Cell Number","Maricopa","Phoenix","AZ","Arizona","85006","(UTC-7)","33.276539","-112.18717"
"(602) 620-","Cell Number","Maricopa","Phoenix","AZ","Arizona","85006","(UTC-7)","33.276539","-112.18717"
"(520) 495-","Landline","Pima","Tucson","AZ","Arizona","85732","(UTC-7)","32.084775","-110.71225"
"(928) 369-","Landline","Navajo","Pinetop","AZ","Arizona","85935","(UTC-7)","34.141314","-109.935556"
"(928) 753-","Landline","Mohave","Kingman","AZ","Arizona","86437","(UTC-7)","35.605301","-113.642712"
"(602) 650-","Landline","Maricopa","Phoenix","AZ","Arizona","85006","(UTC-7)","33.276539","-112.18717"
"(602) 561-","Cell Number","Maricopa","Phoenix","AZ","Arizona","85006","(UTC-7)","33.276539","-112.18717"
"(602) 408-","Landline","Maricopa","Phoenix","AZ","Arizona","85006","(UTC-7)","33.276539","-112.18717"
"(480) 789-","Landline","Maricopa","Chandler","AZ","Arizona","85224","(UTC-7)","33.298461","-111.85062"
"(602) 685-","Landline","Maricopa","Phoenix","AZ","Arizona","85006","(UTC-7)","33.276539","-112.18717"
"(520) 808-","Cell Number","Pima","Tucson","AZ","Arizona","85732","(UTC-7)","32.084775","-110.71225"
"(928) 812-","Cell Number","Gila","Globe","AZ","Arizona","85502","(UTC-7)","33.421919","-110.81268"
"(602) 763-","Cell Number","Maricopa","Phoenix","AZ","Arizona","85006","(UTC-7)","33.276539","-112.18717"
"(928) 951-","Cell Number","Gila","Payson","AZ","Arizona","85541","(UTC-7)","33.864471","-111.075088"
"(928) 380-","Cell Number","Coconino","Flagstaff","AZ","Arizona","86018","(UTC-7)","35.256347","-111.95003"
"(520) 870-","Cell Number","Pima","Tucson","AZ","Arizona","85732","(UTC-7)","32.084775","-110.71225"
"(520) 205-","Landline","Pima","Tucson","AZ","Arizona","85732","(UTC-7)","32.084775","-110.71225"
"(928) 851-","Landline","La Paz","Parker","AZ","Arizona","85344","(UTC-7)","33.967712","-114.268073"
"(602) 859-","Cell Number","Maricopa","Phoenix","AZ","Arizona","85006","(UTC-7)","33.276539","-112.18717"
"(602) 658-","Cell Number","Maricopa","Phoenix","AZ","Arizona","85006","(UTC-7)","33.276539","-112.18717"
"(623) 561-","Landline","Maricopa","Peoria","AZ","Arizona","85345","(UTC-7)","33.276539","-112.18717"
"(928) 205-","Cell Number","Navajo","Show Low","AZ","Arizona","85902","(UTC-7)","34.298092","-110.035185"
"(928) 765-","Landline","Yavapai","Bagdad","AZ","Arizona","86321","(UTC-7)","34.583624","-113.164742"
"(602) 630-","Landline","Maricopa","Phoenix","AZ","Arizona","85006","(UTC-7)","33.276539","-112.18717"
"(602) 353-","Landline","Maricopa","Phoenix","AZ","Arizona","85006","(UTC-7)","33.276539","-112.18717"
"(928) 347-","Landline","Mohave","Meadview","AZ","Arizona","86444","(UTC-7)","35.982167","-114.077519"
"(928) 412-","Cell Number","Mohave","Lake Havasu City","AZ","Arizona","86406","(UTC-7)","34.756714","-114.11897"
"(602) 773-","Landline","Maricopa","Phoenix","AZ","Arizona","85006","(UTC-7)","33.276539","-112.18717"
"(520) 226-","Landline","Cochise","Sierra Vista","AZ","Arizona","85650","(UTC-7)","31.489157","-110.215304"
"(928) 725-","Landline","Apache","Chinle","AZ","Arizona","86503","(UTC-7)","36.527297","-109.691925"
"(520) 566-","Cell Number","Pima","Tucson","AZ","Arizona","85732","(UTC-7)","32.084775","-110.71225"
"(928) 541-","Landline","Yavapai","Prescott","AZ","Arizona","86303","(UTC-7)","34.49579","-112.378309"
"(602) 259-","Cell Number","Maricopa","Phoenix","AZ","Arizona","85006","(UTC-7)","33.276539","-112.18717"
"(480) 730-","Landline","Maricopa","Tempe","AZ","Arizona","85281","(UTC-7)","33.432844","-111.927219"
"(602) 452-","Landline","Maricopa","Phoenix","AZ","Arizona","85006","(UTC-7)","33.276539","-112.18717"
"(602) 865-","Landline","Maricopa","Phoenix","AZ","Arizona","85006","(UTC-7)","33.276539","-112.18717"
"(928) 416-","Cell Number","Yuma","Yuma","AZ","Arizona","85364","(UTC-7)","32.615305","-114.648722"
"(520) 648-","Landline","Pima","Green Valley","AZ","Arizona","85622","(UTC-7)","31.853334","-110.932803"
"(480) 503-","Landline","Maricopa","Mesa","AZ","Arizona","85202","(UTC-7)","33.393484","-111.804513"
"(928) 444-","Landline","Mohave","Bullhead City","AZ","Arizona","86427","(UTC-7)","35.00429","-114.581228"
"(520) 662-","Landline","Pima","Tucson","AZ","Arizona","85732","(UTC-7)","32.084775","-110.71225"
"(602) 356-","Cell Number","Maricopa","Phoenix","AZ","Arizona","85006","(UTC-7)","33.276539","-112.18717"
"(520) 547-","Landline","Pima","Tucson","AZ","Arizona","85732","(UTC-7)","32.084775","-110.71225"
"(520) 326-","Landline","Pima","Tucson","AZ","Arizona","85732","(UTC-7)","32.084775","-110.71225"
"(520) 544-","Landline","Pima","Tucson","AZ","Arizona","85732","(UTC-7)","32.084775","-110.71225"
"(520) 891-","Cell Number","Pima","Tucson","AZ","Arizona","85732","(UTC-7)","32.084775","-110.71225"
"(602) 955-","Landline","Maricopa","Phoenix","AZ","Arizona","85006","(UTC-7)","33.276539","-112.18717"
"(602) 327-","Cell Number","Maricopa","Phoenix","AZ","Arizona","85006","(UTC-7)","33.276539","-112.18717"
"(520) 410-","Landline","Pima","Tucson","AZ","Arizona","85732","(UTC-7)","32.084775","-110.71225"
"(928) 853-","Cell Number","Coconino","Flagstaff","AZ","Arizona","86018","(UTC-7)","35.256347","-111.95003"
"(602) 290-","Cell Number","Maricopa","Phoenix","AZ","Arizona","85006","(UTC-7)","33.276539","-112.18717"
"(928) 706-","Cell Number","Mohave","Lake Havasu City","AZ","Arizona","86406","(UTC-7)","34.756714","-114.11897"
"(602) 302-","Landline","Maricopa","Phoenix","AZ","Arizona","85006","(UTC-7)","33.276539","-112.18717"
"(602) 403-","Cell Number","Maricopa","Phoenix","AZ","Arizona","85006","(UTC-7)","33.276539","-112.18717"
"(928) 454-","Landline","Yuma","Dateland","AZ","Arizona","85333","(UTC-7)","32.825705","-113.525199"
"(602) 537-","Landline","Maricopa","Phoenix","AZ","Arizona","85006","(UTC-7)","33.276539","-112.18717"
"(602) 212-","Landline","Maricopa","Phoenix","AZ","Arizona","85006","(UTC-7)","33.276539","-112.18717"
"(928) 477-","Landline","Coconino","Happy Jack","AZ","Arizona","86024","(UTC-7)","35.630842","-112.052427"
"(623) 935-","Landline","Maricopa","Litchfield Park","AZ","Arizona","85340","(UTC-7)","33.276539","-112.18717"
"(602) 799-","Cell Number","Maricopa","Phoenix","AZ","Arizona","85006","(UTC-7)","33.276539","-112.18717"
"(602) 484-","Landline","Maricopa","Phoenix","AZ","Arizona","85006","(UTC-7)","33.276539","-112.18717"
"(520) 458-","Landline","Cochise","Sierra Vista","AZ","Arizona","85650","(UTC-7)","31.489157","-110.215304"
"(602) 471-","Cell Number","Maricopa","Phoenix","AZ","Arizona","85006","(UTC-7)","33.276539","-112.18717"
"(602) 270-","Landline","Maricopa","Phoenix","AZ","Arizona","85006","(UTC-7)","33.276539","-112.18717"
"(602) 368-","Landline","Maricopa","Phoenix","AZ","Arizona","85006","(UTC-7)","33.276539","-112.18717"
"(928) 486-","Cell Number","Mohave","Lake Havasu City","AZ","Arizona","86406","(UTC-7)","34.756714","-114.11897"
"(602) 761-","Cell Number","Maricopa","Phoenix","AZ","Arizona","85006","(UTC-7)","33.276539","-112.18717"
"(480) 752-","Landline","Maricopa","Tempe","AZ","Arizona","85281","(UTC-7)","33.432844","-111.927219"
"(480) 807-","Landline","Maricopa","Mesa","AZ","Arizona","85202","(UTC-7)","33.393484","-111.804513"
"(928) 612-","Cell Number","Coconino","Marble Canyon","AZ","Arizona","86036","(UTC-7)","36.922976","-111.449889"
"(520) 917-","Landline","Pima","Tucson","AZ","Arizona","85732","(UTC-7)","32.084775","-110.71225"
"(602) 470-","Landline","Maricopa","Phoenix","AZ","Arizona","85006","(UTC-7)","33.276539","-112.18717"
"(928) 775-","Landline","Yavapai","Prescott Valley","AZ","Arizona","86312","(UTC-7)","34.668291","-112.307777"
"(928) 923-","Landline","La Paz","Cibola","AZ","Arizona","85328","(UTC-7)","33.672255","-114.03215"
"(602) 456-","Unknown","Maricopa","Phoenix","AZ","Arizona","85006","(UTC-7)","33.276539","-112.18717"
"(602) 572-","Unknown","Maricopa","Phoenix","AZ","Arizona","85006","(UTC-7)","33.276539","-112.18717"
"(602) 249-","Landline","Maricopa","Phoenix","AZ","Arizona","85006","(UTC-7)","33.276539","-112.18717"
"(602) 978-","Landline","Maricopa","Phoenix","AZ","Arizona","85006","(UTC-7)","33.276539","-112.18717"
"(520) 362-","Landline","Pima","Ajo","AZ","Arizona","85321","(UTC-7)","31.970131","-111.890713"
"(520) 220-","Cell Number","Cochise","Sierra Vista","AZ","Arizona","85650","(UTC-7)","31.489157","-110.215304"
"(602) 672-","Cell Number","Maricopa","Phoenix","AZ","Arizona","85006","(UTC-7)","33.276539","-112.18717"
"(602) 543-","Landline","Maricopa","Phoenix","AZ","Arizona","85006","(UTC-7)","33.276539","-112.18717"
"(602) 614-","Cell Number","Maricopa","Phoenix","AZ","Arizona","85006","(UTC-7)","33.276539","-112.18717"
"(602) 374-","Landline","Maricopa","Phoenix","AZ","Arizona","85006","(UTC-7)","33.276539","-112.18717"
"(520) 293-","Landline","Pima","Tucson","AZ","Arizona","85732","(UTC-7)","32.084775","-110.71225"
"(928) 348-","Landline","Graham","Safford","AZ","Arizona","85548","(UTC-7)","32.797009","-109.752196"
"(602) 323-","Landline","Maricopa","Phoenix","AZ","Arizona","85006","(UTC-7)","33.276539","-112.18717"
"(602) 420-","Landline","Maricopa","Phoenix","AZ","Arizona","85006","(UTC-7)","33.276539","-112.18717"
"(602) 703-","Cell Number","Maricopa","Phoenix","AZ","Arizona","85006","(UTC-7)","33.276539","-112.18717"
"(602) 335-","Landline","Maricopa","Phoenix","AZ","Arizona","85006","(UTC-7)","33.276539","-112.18717"
"(520) 236-","Landline","Cochise","Sierra Vista","AZ","Arizona","85650","(UTC-7)","31.489157","-110.215304"
"(520) 325-","Landline","Pima","Tucson","AZ","Arizona","85732","(UTC-7)","32.084775","-110.71225"
"(602) 240-","Landline","Maricopa","Phoenix","AZ","Arizona","85006","(UTC-7)","33.276539","-112.18717"
"(602) 366-","Landline","Maricopa","Phoenix","AZ","Arizona","85006","(UTC-7)","33.276539","-112.18717"
"(602) 469-","Cell Number","Maricopa","Phoenix","AZ","Arizona","85006","(UTC-7)","33.276539","-112.18717"
"(602) 577-","Cell Number","Maricopa","Phoenix","AZ","Arizona","85006","(UTC-7)","33.276539","-112.18717"
"(928) 651-","Cell Number","Graham","Safford","AZ","Arizona","85548","(UTC-7)","32.797009","-109.752196"
"(602) 889-","Landline","Maricopa","Phoenix","AZ","Arizona","85006","(UTC-7)","33.276539","-112.18717"
"(602) 670-","Cell Number","Maricopa","Phoenix","AZ","Arizona","85006","(UTC-7)","33.276539","-112.18717"
"(602) 345-","Unknown","Maricopa","Phoenix","AZ","Arizona","85006","(UTC-7)","33.276539","-112.18717"
"(928) 314-","Landline","Yuma","Yuma","AZ","Arizona","85364","(UTC-7)","32.615305","-114.648722"
"(520) 885-","Landline","Pima","Tucson","AZ","Arizona","85732","(UTC-7)","32.084775","-110.71225"
"(520) 237-","Cell Number","Pima","Tucson","AZ","Arizona","85732","(UTC-7)","32.084775","-110.71225"
"(928) 656-","Landline","Apache","Teec Nos Pos","AZ","Arizona","86514","(UTC-7)","35.237487","-109.52295"
"(520) 434-","Landline","Pima","Tucson","AZ","Arizona","85732","(UTC-7)","32.084775","-110.71225"
"(602) 866-","Landline","Maricopa","Phoenix","AZ","Arizona","85006","(UTC-7)","33.276539","-112.18717"
"(928) 334-","Landline","Navajo","Pinetop","AZ","Arizona","85935","(UTC-7)","34.141314","-109.935556"
"(623) 523-","Landline","Maricopa","Sun City","AZ","Arizona","85373","(UTC-7)","33.276539","-112.18717"
"(602) 436-","Landline","Maricopa","Phoenix","AZ","Arizona","85006","(UTC-7)","33.276539","-112.18717"
"(928) 669-","Landline","La Paz","Parker","AZ","Arizona","85344","(UTC-7)","33.967712","-114.268073"
"(602) 391-","Cell Number","Maricopa","Phoenix","AZ","Arizona","85006","(UTC-7)","33.276539","-112.18717"
"(602) 383-","Landline","Maricopa","Phoenix","AZ","Arizona","85006","(UTC-7)","33.276539","-112.18717"
"(602) 564-","Landline","Maricopa","Phoenix","AZ","Arizona","85006","(UTC-7)","33.276539","-112.18717"
"(520) 638-","Unknown","Pima","Tucson","AZ","Arizona","85732","(UTC-7)","32.084775","-110.71225"
"(602) 489-","Cell Number","Maricopa","Phoenix","AZ","Arizona","85006","(UTC-7)","33.276539","-112.18717"
"(480) 963-","Landline","Maricopa","Chandler","AZ","Arizona","85224","(UTC-7)","33.298461","-111.85062"
"(520) 931-","Cell Number","Pima","Tucson","AZ","Arizona","85732","(UTC-7)","32.084775","-110.71225"
"(928) 865-","Landline","Greenlee","Clifton","AZ","Arizona","85533","(UTC-7)","32.991251","-109.255872"
"(480) 551-","Landline","Maricopa","Scottsdale","AZ","Arizona","85271","(UTC-7)","33.276539","-112.18717"
"(520) 275-","Cell Number","Pima","Tucson","AZ","Arizona","85732","(UTC-7)","32.084775","-110.71225"
"(602) 618-","Cell Number","Maricopa","Phoenix","AZ","Arizona","85006","(UTC-7)","33.276539","-112.18717"
"(602) 330-","Cell Number","Maricopa","Phoenix","AZ","Arizona","85006","(UTC-7)","33.276539","-112.18717"
"(928) 862-","Cell Number","Yavapai","Cornville","AZ","Arizona","86325","(UTC-7)","34.735388","-111.927746"
"(602) 646-","Cell Number","Maricopa","Phoenix","AZ","Arizona","85006","(UTC-7)","33.276539","-112.18717"
"(928) 704-","Landline","Mohave","Bullhead City","AZ","Arizona","86427","(UTC-7)","35.00429","-114.581228"
"(520) 301-","Unknown","Pima","Tucson","AZ","Arizona","85732","(UTC-7)","32.084775","-110.71225"
"(480) 816-","Landline","Maricopa","Fountain Hills","AZ","Arizona","85269","(UTC-7)","33.276539","-112.18717"
"(520) 722-","Landline","Pima","Tucson","AZ","Arizona","85732","(UTC-7)","32.084775","-110.71225"
"(602) 492-","Unknown","Maricopa","Phoenix","AZ","Arizona","85006","(UTC-7)","33.276539","-112.18717"
"(928) 399-","Cell Number","Yavapai","Cornville","AZ","Arizona","86325","(UTC-7)","34.735388","-111.927746"
"(602) 575-","Landline","Maricopa","Phoenix","AZ","Arizona","85006","(UTC-7)","33.276539","-112.18717"
"(602) 301-","Cell Number","Maricopa","Phoenix","AZ","Arizona","85006","(UTC-7)","33.276539","-112.18717"
"(520) 559-","Cell Number","Cochise","Sierra Vista","AZ","Arizona","85650","(UTC-7)","31.489157","-110.215304"
"(623) 925-","Landline","Maricopa","Goodyear","AZ","Arizona","85338","(UTC-7)","33.276539","-112.18717"
"(602) 647-","Cell Number","Maricopa","Phoenix","AZ","Arizona","85006","(UTC-7)","33.276539","-112.18717"
"(480) 321-","Landline","Maricopa","Mesa","AZ","Arizona","85202","(UTC-7)","33.393484","-111.804513"
"(520) 308-","Unknown","Pima","Tucson","AZ","Arizona","85732","(UTC-7)","32.084775","-110.71225"
"(928) 335-","Landline","Navajo","Pinetop","AZ","Arizona","85935","(UTC-7)","34.141314","-109.935556"
"(480) 325-","Landline","Maricopa","Mesa","AZ","Arizona","85202","(UTC-7)","33.393484","-111.804513"
"(928) 961-","Cell Number","Gila","Globe","AZ","Arizona","85502","(UTC-7)","33.421919","-110.81268"
"(602) 760-","Landline","Maricopa","Phoenix","AZ","Arizona","85006","(UTC-7)","33.276539","-112.18717"
"(602) 446-","Cell Number","Maricopa","Phoenix","AZ","Arizona","85006","(UTC-7)","33.276539","-112.18717"
"(520) 615-","Landline","Pima","Tucson","AZ","Arizona","85732","(UTC-7)","32.084775","-110.71225"
"(480) 732-","Landline","Maricopa","Chandler","AZ","Arizona","85224","(UTC-7)","33.298461","-111.85062"
"(928) 581-","Cell Number","Yuma","Yuma","AZ","Arizona","85364","(UTC-7)","32.615305","-114.648722"
"(928) 472-","Landline","Gila","Payson","AZ","Arizona","85541","(UTC-7)","33.864471","-111.075088"
"(602) 882-","Cell Number","Maricopa","Phoenix","AZ","Arizona","85006","(UTC-7)","33.276539","-112.18717"
"(520) 266-","Cell Number","Cochise","Sierra Vista","AZ","Arizona","85650","(UTC-7)","31.489157","-110.215304"
"(928) 473-","Landline","Gila","Miami","AZ","Arizona","85539","(UTC-7)","33.528204","-110.966562"
"(928) 313-","Cell Number","Navajo","Holbrook","AZ","Arizona","86025","(UTC-7)","34.776828","-110.089544"
"(928) 367-","Landline","Navajo","Pinetop","AZ","Arizona","85935","(UTC-7)","34.141314","-109.935556"
"(623) 933-","Landline","Maricopa","Sun City","AZ","Arizona","85373","(UTC-7)","33.276539","-112.18717"
"(602) 250-","Landline","Maricopa","Phoenix","AZ","Arizona","85006","(UTC-7)","33.276539","-112.18717"
"(520) 573-","Landline","Pima","Tucson","AZ","Arizona","85732","(UTC-7)","32.084775","-110.71225"
"(520) 889-","Landline","Pima","Tucson","AZ","Arizona","85732","(UTC-7)","32.084775","-110.71225"
"(623) 486-","Landline","Maricopa","Glendale","AZ","Arizona","85318","(UTC-7)","33.276539","-112.18717"
"(928) 699-","Cell Number","Coconino","Flagstaff","AZ","Arizona","86018","(UTC-7)","35.256347","-111.95003"
"(928) 388-","Cell Number","Yuma","Yuma","AZ","Arizona","85364","(UTC-7)","32.615305","-114.648722"
"(928) 778-","Landline","Yavapai","Prescott","AZ","Arizona","86303","(UTC-7)","34.49579","-112.378309"
"(520) 742-","Landline","Pima","Tucson","AZ","Arizona","85732","(UTC-7)","32.084775","-110.71225"
"(602) 692-","Cell Number","Maricopa","Phoenix","AZ","Arizona","85006","(UTC-7)","33.276539","-112.18717"
"(480) 502-","Landline","Maricopa","Scottsdale","AZ","Arizona","85271","(UTC-7)","33.276539","-112.18717"
"(480) 632-","Landline","Maricopa","Mesa","AZ","Arizona","85202","(UTC-7)","33.393484","-111.804513"
"(602) 202-","Cell Number","Maricopa","Phoenix","AZ","Arizona","85006","(UTC-7)","33.276539","-112.18717"
"(520) 873-","Landline","Pima","Tucson","AZ","Arizona","85732","(UTC-7)","32.084775","-110.71225"
"(480) 654-","Landline","Maricopa","Mesa","AZ","Arizona","85202","(UTC-7)","33.393484","-111.804513"
"(602) 216-","Landline","Maricopa","Phoenix","AZ","Arizona","85006","(UTC-7)","33.276539","-112.18717"
"(480) 655-","Landline","Maricopa","Mesa","AZ","Arizona","85202","(UTC-7)","33.393484","-111.804513"
"(602) 828-","Cell Number","Maricopa","Phoenix","AZ","Arizona","85006","(UTC-7)","33.276539","-112.18717"
"(928) 814-","Cell Number","Coconino","Flagstaff","AZ","Arizona","86018","(UTC-7)","35.256347","-111.95003"
"(520) 906-","Cell Number","Pima","Tucson","AZ","Arizona","85732","(UTC-7)","32.084775","-110.71225"
"(602) 226-","Landline","Maricopa","Phoenix","AZ","Arizona","85006","(UTC-7)","33.276539","-112.18717"
"(520) 294-","Landline","Pima","Tucson","AZ","Arizona","85732","(UTC-7)","32.084775","-110.71225"
"(602) 530-","Landline","Maricopa","Phoenix","AZ","Arizona","85006","(UTC-7)","33.276539","-112.18717"
"(602) 735-","Landline","Maricopa","Phoenix","AZ","Arizona","85006","(UTC-7)","33.276539","-112.18717"
"(480) 836-","Landline","Maricopa","Fountain Hills","AZ","Arizona","85269","(UTC-7)","33.276539","-112.18717"
"(480) 773-","Landline","Maricopa","Chandler","AZ","Arizona","85224","(UTC-7)","33.298461","-111.85062"
"(602) 342-","Cell Number","Maricopa","Phoenix","AZ","Arizona","85006","(UTC-7)","33.276539","-112.18717"
"(928) 701-","Cell Number","Gila","Globe","AZ","Arizona","85502","(UTC-7)","33.421919","-110.81268"
"(480) 342-","Landline","Maricopa","Scottsdale","AZ","Arizona","85271","(UTC-7)","33.276539","-112.18717"
"(928) 214-","Landline","Coconino","Flagstaff","AZ","Arizona","86018","(UTC-7)","35.256347","-111.95003"
"(520) 793-","Cell Number","Pima","Tucson","AZ","Arizona","85732","(UTC-7)","32.084775","-110.71225"
"(602) 201-","Cell Number","Maricopa","Phoenix","AZ","Arizona","85006","(UTC-7)","33.276539","-112.18717"
"(602) 217-","Landline","Maricopa","Phoenix","AZ","Arizona","85006","(UTC-7)","33.276539","-112.18717"
"(602) 296-","Landline","Maricopa","Phoenix","AZ","Arizona","85006","(UTC-7)","33.276539","-112.18717"
"(520) 762-","Landline","Pima","Vail","AZ","Arizona","85641","(UTC-7)","32.002669","-110.705269"
"(602) 549-","Cell Number","Maricopa","Phoenix","AZ","Arizona","85006","(UTC-7)","33.276539","-112.18717"
"(602) 938-","Landline","Maricopa","Phoenix","AZ","Arizona","85006","(UTC-7)","33.276539","-112.18717"
"(480) 615-","Landline","Maricopa","Mesa","AZ","Arizona","85202","(UTC-7)","33.393484","-111.804513"
"(928) 789-","Landline","Coconino","Flagstaff","AZ","Arizona","86018","(UTC-7)","35.256347","-111.95003"
"(928) 409-","Cell Number","Navajo","Heber","AZ","Arizona","85928","(UTC-7)","34.40998","-110.588287"
"(602) 265-","Landline","Maricopa","Phoenix","AZ","Arizona","85006","(UTC-7)","33.276539","-112.18717"
"(602) 514-","Landline","Maricopa","Phoenix","AZ","Arizona","85006","(UTC-7)","33.276539","-112.18717"
"(520) 400-","Cell Number","Pima","Tucson","AZ","Arizona","85732","(UTC-7)","32.084775","-110.71225"
"(602) 862-","Landline","Maricopa","Phoenix","AZ","Arizona","85006","(UTC-7)","33.276539","-112.18717"
"(480) 513-","Landline","Maricopa","Scottsdale","AZ","Arizona","85271","(UTC-7)","33.276539","-112.18717"
"(480) 584-","Unknown","Maricopa","Chandler","AZ","Arizona","85224","(UTC-7)","33.298461","-111.85062"
"(928) 368-","Landline","Navajo","Pinetop","AZ","Arizona","85935","(UTC-7)","34.141314","-109.935556"
"(480) 782-","Landline","Maricopa","Chandler","AZ","Arizona","85224","(UTC-7)","33.298461","-111.85062"
"(480) 314-","Landline","Maricopa","Scottsdale","AZ","Arizona","85271","(UTC-7)","33.276539","-112.18717"
"(520) 470-","Cell Number","Santa Cruz","Nogales","AZ","Arizona","85621","(UTC-7)","31.46327","-110.8819"
"(520) 609-","Cell Number","Pima","Tucson","AZ","Arizona","85732","(UTC-7)","32.084775","-110.71225"
"(928) 218-","Cell Number","Mohave","Meadview","AZ","Arizona","86444","(UTC-7)","35.982167","-114.077519"
"(602) 876-","Landline","Maricopa","Phoenix","AZ","Arizona","85006","(UTC-7)","33.276539","-112.18717"
"(520) 269-","Unknown","Pima","Tucson","AZ","Arizona","85732","(UTC-7)","32.084775","-110.71225"
"(480) 756-","Landline","Maricopa","Tempe","AZ","Arizona","85281","(UTC-7)","33.432844","-111.927219"
"(928) 698-","Landline","Coconino","Marble Canyon","AZ","Arizona","86036","(UTC-7)","36.922976","-111.449889"
"(602) 463-","Cell Number","Maricopa","Phoenix","AZ","Arizona","85006","(UTC-7)","33.276539","-112.18717"
"(602) 381-","Landline","Maricopa","Phoenix","AZ","Arizona","85006","(UTC-7)","33.276539","-112.18717"
"(520) 339-","Unknown","Pima","Tucson","AZ","Arizona","85732","(UTC-7)","32.084775","-110.71225"
"(480) 827-","Landline","Maricopa","Mesa","AZ","Arizona","85202","(UTC-7)","33.393484","-111.804513"
"(602) 260-","Landline","Maricopa","Phoenix","AZ","Arizona","85006","(UTC-7)","33.276539","-112.18717"
"(928) 286-","Landline","Yavapai","Sedona","AZ","Arizona","86351","(UTC-7)","35.032371","-111.684752"
"(520) 401-","Cell Number","Pima","Tucson","AZ","Arizona","85732","(UTC-7)","32.084775","-110.71225"
"(928) 429-","Unknown","Apache","Teec Nos Pos","AZ","Arizona","86514","(UTC-7)","35.237487","-109.52295"
"(602) 519-","Landline","Maricopa","Phoenix","AZ","Arizona","85006","(UTC-7)","33.276539","-112.18717"
"(602) 688-","Cell Number","Maricopa","Phoenix","AZ","Arizona","85006","(UTC-7)","33.276539","-112.18717"
"(602) 297-","Landline","Maricopa","Phoenix","AZ","Arizona","85006","(UTC-7)","33.276539","-112.18717"
"(623) 376-","Landline","Maricopa","Peoria","AZ","Arizona","85345","(UTC-7)","33.276539","-112.18717"
"(928) 206-","Cell Number","Apache","Ganado","AZ","Arizona","86505","(UTC-7)","35.237487","-109.52295"
"(928) 239-","Cell Number","Yavapai","Cornville","AZ","Arizona","86325","(UTC-7)","34.735388","-111.927746"
"(520) 575-","Landline","Pima","Tucson","AZ","Arizona","85732","(UTC-7)","32.084775","-110.71225"
"(928) 852-","Landline","Yavapai","Cornville","AZ","Arizona","86325","(UTC-7)","34.735388","-111.927746"
"(602) 680-","Cell Number","Maricopa","Phoenix","AZ","Arizona","85006","(UTC-7)","33.276539","-112.18717"
"(602) 957-","Landline","Maricopa","Phoenix","AZ","Arizona","85006","(UTC-7)","33.276539","-112.18717"
"(602) 732-","Unknown","Maricopa","Phoenix","AZ","Arizona","85006","(UTC-7)","33.276539","-112.18717"
"(928) 792-","Landline","Graham","Safford","AZ","Arizona","85548","(UTC-7)","32.797009","-109.752196"
"(602) 294-","Landline","Maricopa","Phoenix","AZ","Arizona","85006","(UTC-7)","33.276539","-112.18717"
"(623) 537-","Landline","Maricopa","Peoria","AZ","Arizona","85345","(UTC-7)","33.276539","-112.18717"
"(520) 234-","Landline","Pima","Tucson","AZ","Arizona","85732","(UTC-7)","32.084775","-110.71225"
"(602) 606-","Landline","Maricopa","Phoenix","AZ","Arizona","85006","(UTC-7)","33.276539","-112.18717"
"(602) 273-","Landline","Maricopa","Phoenix","AZ","Arizona","85006","(UTC-7)","33.276539","-112.18717"
"(602) 437-","Landline","Maricopa","Phoenix","AZ","Arizona","85006","(UTC-7)","33.276539","-112.18717"
"(520) 625-","Landline","Pima","Green Valley","AZ","Arizona","85622","(UTC-7)","31.853334","-110.932803"
"(928) 521-","Cell Number","Navajo","Show Low","AZ","Arizona","85902","(UTC-7)","34.298092","-110.035185"
"(480) 917-","Landline","Maricopa","Chandler","AZ","Arizona","85224","(UTC-7)","33.298461","-111.85062"
"(520) 572-","Landline","Pima","Tucson","AZ","Arizona","85732","(UTC-7)","32.084775","-110.71225"
"(602) 499-","Cell Number","Maricopa","Phoenix","AZ","Arizona","85006","(UTC-7)","33.276539","-112.18717"
"(602) 370-","Cell Number","Maricopa","Phoenix","AZ","Arizona","85006","(UTC-7)","33.276539","-112.18717"
"(623) 876-","Landline","Maricopa","Sun City","AZ","Arizona","85373","(UTC-7)","33.276539","-112.18717"
"(520) 443-","Unknown","Pima","Tucson","AZ","Arizona","85732","(UTC-7)","32.084775","-110.71225"
"(602) 943-","Landline","Maricopa","Phoenix","AZ","Arizona","85006","(UTC-7)","33.276539","-112.18717"
"(520) 261-","Unknown","Pima","Tucson","AZ","Arizona","85732","(UTC-7)","32.084775","-110.71225"
"(602) 314-","Unknown","Maricopa","Phoenix","AZ","Arizona","85006","(UTC-7)","33.276539","-112.18717"
"(602) 621-","Cell Number","Maricopa","Phoenix","AZ","Arizona","85006","(UTC-7)","33.276539","-112.18717"
"(602) 316-","Cell Number","Maricopa","Phoenix","AZ","Arizona","85006","(UTC-7)","33.276539","-112.18717"
"(928) 229-","Cell Number","Navajo","Snowflake","AZ","Arizona","85937","(UTC-7)","34.521702","-110.110981"
"(928) 708-","Landline","Yavapai","Prescott","AZ","Arizona","86303","(UTC-7)","34.49579","-112.378309"
"(602) 748-","Landline","Maricopa","Phoenix","AZ","Arizona","85006","(UTC-7)","33.276539","-112.18717"
"(928) 864-","Landline","Coconino","Flagstaff","AZ","Arizona","86018","(UTC-7)","35.256347","-111.95003"
"(480) 412-","Unknown","Maricopa","Mesa","AZ","Arizona","85202","(UTC-7)","33.393484","-111.804513"
"(480) 491-","Landline","Maricopa","Tempe","AZ","Arizona","85281","(UTC-7)","33.432844","-111.927219"
"(623) 544-","Landline","Maricopa","Surprise","AZ","Arizona","85374","(UTC-7)","33.276539","-112.18717"
"(602) 509-","Cell Number","Maricopa","Phoenix","AZ","Arizona","85006","(UTC-7)","33.276539","-112.18717"
"(520) 642-","Landline","Cochise","Elfrida","AZ","Arizona","85610","(UTC-7)","31.737711","-109.622175"
"(602) 498-","Cell Number","Maricopa","Phoenix","AZ","Arizona","85006","(UTC-7)","33.276539","-112.18717"
"(928) 528-","Cell Number","Navajo","Show Low","AZ","Arizona","85902","(UTC-7)","34.298092","-110.035185"
"(520) 798-","Landline","Pima","Tucson","AZ","Arizona","85732","(UTC-7)","32.084775","-110.71225"
"(520) 930-","Cell Number","Pima","Tucson","AZ","Arizona","85732","(UTC-7)","32.084775","-110.71225"
"(602) 336-","Landline","Maricopa","Phoenix","AZ","Arizona","85006","(UTC-7)","33.276539","-112.18717"
"(928) 533-","Cell Number","Yavapai","Prescott","AZ","Arizona","86303","(UTC-7)","34.49579","-112.378309"
"(928) 716-","Cell Number","Mohave","Kingman","AZ","Arizona","86437","(UTC-7)","35.605301","-113.642712"
"(480) 962-","Landline","Maricopa","Mesa","AZ","Arizona","85202","(UTC-7)","33.393484","-111.804513"
"(520) 396-","Unknown","Pima","Tucson","AZ","Arizona","85732","(UTC-7)","32.084775","-110.71225"
"(520) 512-","Landline","Pima","Tucson","AZ","Arizona","85732","(UTC-7)","32.084775","-110.71225"
"(602) 918-","Cell Number","Maricopa","Phoenix","AZ","Arizona","85006","(UTC-7)","33.276539","-112.18717"
"(928) 226-","Landline","Coconino","Flagstaff","AZ","Arizona","86018","(UTC-7)","35.256347","-111.95003"
"(602) 788-","Landline","Maricopa","Phoenix","AZ","Arizona","85006","(UTC-7)","33.276539","-112.18717"
"(928) 207-","Cell Number","Navajo","Show Low","AZ","Arizona","85902","(UTC-7)","34.298092","-110.035185"
"(602) 814-","Unknown","Maricopa","Phoenix","AZ","Arizona","85006","(UTC-7)","33.276539","-112.18717"
"(602) 722-","Cell Number","Maricopa","Phoenix","AZ","Arizona","85006","(UTC-7)","33.276539","-112.18717"
"(602) 214-","Cell Number","Maricopa","Phoenix","AZ","Arizona","85006","(UTC-7)","33.276539","-112.18717"
"(928) 978-","Cell Number","Gila","Payson","AZ","Arizona","85541","(UTC-7)","33.864471","-111.075088"
"(928) 269-","Landline","Yuma","Yuma","AZ","Arizona","85364","(UTC-7)","32.615305","-114.648722"
"(602) 626-","Landline","Maricopa","Phoenix","AZ","Arizona","85006","(UTC-7)","33.276539","-112.18717"
"(928) 467-","Landline","Gila","Roosevelt","AZ","Arizona","85545","(UTC-7)","33.614316","-111.005928"
"(928) 288-","Landline","Navajo","Holbrook","AZ","Arizona","86025","(UTC-7)","34.776828","-110.089544"
"(602) 677-","Cell Number","Maricopa","Phoenix","AZ","Arizona","85006","(UTC-7)","33.276539","-112.18717"
"(602) 914-","Landline","Maricopa","Phoenix","AZ","Arizona","85006","(UTC-7)","33.276539","-112.18717"
"(520) 664-","Landline","Pima","Tucson","AZ","Arizona","85732","(UTC-7)","32.084775","-110.71225"
"(602) 716-","Landline","Maricopa","Phoenix","AZ","Arizona","85006","(UTC-7)","33.276539","-112.18717"
"(520) 383-","Landline","Pima","Sells","AZ","Arizona","85634","(UTC-7)","31.974033","-110.702027"
"(520) 826-","Landline","Cochise","Pearce","AZ","Arizona","85625","(UTC-7)","31.766243","-109.896053"
"(928) 297-","Unknown","Navajo","Holbrook","AZ","Arizona","86025","(UTC-7)","34.776828","-110.089544"
"(602) 533-","Landline","Maricopa","Phoenix","AZ","Arizona","85006","(UTC-7)","33.276539","-112.18717"
"(602) 570-","Cell Number","Maricopa","Phoenix","AZ","Arizona","85006","(UTC-7)","33.276539","-112.18717"
"(928) 552-","Cell Number","Graham","Safford","AZ","Arizona","85548","(UTC-7)","32.797009","-109.752196"
"(602) 527-","Cell Number","Maricopa","Phoenix","AZ","Arizona","85006","(UTC-7)","33.276539","-112.18717"
"(602) 684-","Cell Number","Maricopa","Phoenix","AZ","Arizona","85006","(UTC-7)","33.276539","-112.18717"
"(520) 281-","Landline","Santa Cruz","Nogales","AZ","Arizona","85621","(UTC-7)","31.46327","-110.8819"
"(623) 972-","Landline","Maricopa","Sun City","AZ","Arizona","85373","(UTC-7)","33.276539","-112.18717"
"(602) 674-","Landline","Maricopa","Phoenix","AZ","Arizona","85006","(UTC-7)","33.276539","-112.18717"
"(928) 856-","Cell Number","Coconino","Fredonia","AZ","Arizona","86022","(UTC-7)","36.96649","-112.524696"
"(602) 215-","Cell Number","Maricopa","Phoenix","AZ","Arizona","85006","(UTC-7)","33.276539","-112.18717"
"(602) 264-","Landline","Maricopa","Phoenix","AZ","Arizona","85006","(UTC-7)","33.276539","-112.18717"
"(520) 695-","Landline","Pima","Tucson","AZ","Arizona","85732","(UTC-7)","32.084775","-110.71225"
"(602) 205-","Cell Number","Maricopa","Phoenix","AZ","Arizona","85006","(UTC-7)","33.276539","-112.18717"
"(602) 508-","Landline","Maricopa","Phoenix","AZ","Arizona","85006","(UTC-7)","33.276539","-112.18717"
"(602) 204-","Cell Number","Maricopa","Phoenix","AZ","Arizona","85006","(UTC-7)","33.276539","-112.18717"
"(480) 988-","Landline","Maricopa","Higley","AZ","Arizona","85236","(UTC-7)","33.299317","-111.69546"
"(928) 451-","Cell Number","Yavapai","Cornville","AZ","Arizona","86325","(UTC-7)","34.735388","-111.927746"
"(602) 744-","Landline","Maricopa","Phoenix","AZ","Arizona","85006","(UTC-7)","33.276539","-112.18717"
"(602) 871-","Cell Number","Maricopa","Phoenix","AZ","Arizona","85006","(UTC-7)","33.276539","-112.18717"
"(602) 909-","Cell Number","Maricopa","Phoenix","AZ","Arizona","85006","(UTC-7)","33.276539","-112.18717"
"(602) 291-","Cell Number","Maricopa","Phoenix","AZ","Arizona","85006","(UTC-7)","33.276539","-112.18717"
"(520) 578-","Landline","Pima","Tucson","AZ","Arizona","85732","(UTC-7)","32.084775","-110.71225"
"(520) 834-","Landline","Pima","Tucson","AZ","Arizona","85732","(UTC-7)","32.084775","-110.71225"
"(623) 773-","Landline","Maricopa","Glendale","AZ","Arizona","85318","(UTC-7)","33.276539","-112.18717"
"(520) 429-","Cell Number","Pima","Tucson","AZ","Arizona","85732","(UTC-7)","32.084775","-110.71225"
"(520) 312-","Cell Number","Pima","Tucson","AZ","Arizona","85732","(UTC-7)","32.084775","-110.71225"
"(520) 204-","Landline","Pima","Tucson","AZ","Arizona","85732","(UTC-7)","32.084775","-110.71225"
"(602) 487-","Cell Number","Maricopa","Phoenix","AZ","Arizona","85006","(UTC-7)","33.276539","-112.18717"
"(928) 688-","Landline","Apache","Ganado","AZ","Arizona","86505","(UTC-7)","35.237487","-109.52295"
"(520) 227-","Cell Number","Cochise","Sierra Vista","AZ","Arizona","85650","(UTC-7)","31.489157","-110.215304"
"(602) 338-","Landline","Maricopa","Phoenix","AZ","Arizona","85006","(UTC-7)","33.276539","-112.18717"
"(520) 878-","Landline","Pima","Tucson","AZ","Arizona","85732","(UTC-7)","32.084775","-110.71225"
"(602) 656-","Cell Number","Maricopa","Phoenix","AZ","Arizona","85006","(UTC-7)","33.276539","-112.18717"
"(602) 942-","Landline","Maricopa","Phoenix","AZ","Arizona","85006","(UTC-7)","33.276539","-112.18717"
"(520) 409-","Cell Number","Pima","Tucson","AZ","Arizona","85732","(UTC-7)","32.084775","-110.71225"
"(928) 819-","Landline","Yuma","Yuma","AZ","Arizona","85364","(UTC-7)","32.615305","-114.648722"
"(602) 745-","Landline","Maricopa","Phoenix","AZ","Arizona","85006","(UTC-7)","33.276539","-112.18717"
"(928) 718-","Landline","Mohave","Kingman","AZ","Arizona","86437","(UTC-7)","35.605301","-113.642712"
"(602) 287-","Landline","Maricopa","Phoenix","AZ","Arizona","85006","(UTC-7)","33.276539","-112.18717"
"(928) 970-","Cell Number","Gila","Payson","AZ","Arizona","85541","(UTC-7)","33.864471","-111.075088"
"(928) 714-","Landline","Coconino","Flagstaff","AZ","Arizona","86018","(UTC-7)","35.256347","-111.95003"
"(928) 349-","Unknown","Apache","Chinle","AZ","Arizona","86503","(UTC-7)","36.527297","-109.691925"
"(602) 310-","Landline","Maricopa","Phoenix","AZ","Arizona","85006","(UTC-7)","33.276539","-112.18717"
"(928) 457-","Unknown","Navajo","Snowflake","AZ","Arizona","85937","(UTC-7)","34.521702","-110.110981"
"(602) 275-","Landline","Maricopa","Phoenix","AZ","Arizona","85006","(UTC-7)","33.276539","-112.18717"
"(602) 728-","Landline","Maricopa","Phoenix","AZ","Arizona","85006","(UTC-7)","33.276539","-112.18717"
"(928) 757-","Landline","Mohave","Kingman","AZ","Arizona","86437","(UTC-7)","35.605301","-113.642712"
"(602) 379-","Landline","Maricopa","Phoenix","AZ","Arizona","85006","(UTC-7)","33.276539","-112.18717"
"(602) 625-","Cell Number","Maricopa","Phoenix","AZ","Arizona","85006","(UTC-7)","33.276539","-112.18717"
"(480) 353-","Landline","Maricopa","Mesa","AZ","Arizona","85202","(UTC-7)","33.393484","-111.804513"
"(928) 724-","Landline","Apache","Chinle","AZ","Arizona","86503","(UTC-7)","36.527297","-109.691925"
"(602) 518-","Cell Number","Maricopa","Phoenix","AZ","Arizona","85006","(UTC-7)","33.276539","-112.18717"
"(520) 750-","Landline","Pima","Tucson","AZ","Arizona","85732","(UTC-7)","32.084775","-110.71225"
"(623) 572-","Landline","Maricopa","Peoria","AZ","Arizona","85345","(UTC-7)","33.276539","-112.18717"
"(602) 434-","Cell Number","Maricopa","Phoenix","AZ","Arizona","85006","(UTC-7)","33.276539","-112.18717"
"(520) 505-","Unknown","Pima","Tucson","AZ","Arizona","85732","(UTC-7)","32.084775","-110.71225"
"(602) 432-","Cell Number","Maricopa","Phoenix","AZ","Arizona","85006","(UTC-7)","33.276539","-112.18717"
"(928) 346-","Landline","Mohave","Mohave Valley","AZ","Arizona","86440","(UTC-7)","35.0524","-114.245399"
"(928) 354-","Landline","Coconino","Happy Jack","AZ","Arizona","86024","(UTC-7)","35.630842","-112.052427"
"(928) 633-","Landline","Yavapai","Bagdad","AZ","Arizona","86321","(UTC-7)","34.583624","-113.164742"
"(602) 740-","Cell Number","Maricopa","Phoenix","AZ","Arizona","85006","(UTC-7)","33.276539","-112.18717"
"(928) 658-","Landline","Apache","Teec Nos Pos","AZ","Arizona","86514","(UTC-7)","35.237487","-109.52295"
"(480) 726-","Landline","Maricopa","Chandler","AZ","Arizona","85224","(UTC-7)","33.298461","-111.85062"
"(520) 253-","Cell Number","Cochise","Willcox","AZ","Arizona","85643","(UTC-7)","32.07005","-109.886546"
"(623) 334-","Landline","Maricopa","Glendale","AZ","Arizona","85318","(UTC-7)","33.276539","-112.18717"
"(928) 445-","Landline","Yavapai","Prescott","AZ","Arizona","86303","(UTC-7)","34.49579","-112.378309"
"(602) 637-","Cell Number","Maricopa","Phoenix","AZ","Arizona","85006","(UTC-7)","33.276539","-112.18717"
"(602) 645-","Cell Number","Maricopa","Phoenix","AZ","Arizona","85006","(UTC-7)","33.276539","-112.18717"
"(602) 284-","Cell Number","Maricopa","Phoenix","AZ","Arizona","85006","(UTC-7)","33.276539","-112.18717"
"(928) 828-","Landline","Graham","Thatcher","AZ","Arizona","85552","(UTC-7)","32.850436","-109.746133"
"(928) 329-","Landline","Yuma","Yuma","AZ","Arizona","85364","(UTC-7)","32.615305","-114.648722"
"(520) 444-","Cell Number","Pima","Tucson","AZ","Arizona","85732","(UTC-7)","32.084775","-110.71225"
"(480) 814-","Landline","Maricopa","Chandler","AZ","Arizona","85224","(UTC-7)","33.298461","-111.85062"
"(520) 248-","Cell Number","Pima","Tucson","AZ","Arizona","85732","(UTC-7)","32.084775","-110.71225"
"(928) 339-","Landline","Apache","Alpine","AZ","Arizona","85920","(UTC-7)","34.177052","-109.240647"
"(928) 890-","Cell Number","Coconino","Flagstaff","AZ","Arizona","86018","(UTC-7)","35.256347","-111.95003"
"(520) 302-","Unknown","Pima","Tucson","AZ","Arizona","85732","(UTC-7)","32.084775","-110.71225"
"(602) 321-","Cell Number","Maricopa","Phoenix","AZ","Arizona","85006","(UTC-7)","33.276539","-112.18717"
"(602) 442-","Landline","Maricopa","Phoenix","AZ","Arizona","85006","(UTC-7)","33.276539","-112.18717"
"(520) 874-","Landline","Pima","Tucson","AZ","Arizona","85732","(UTC-7)","32.084775","-110.71225"
"(602) 337-","Landline","Maricopa","Phoenix","AZ","Arizona","85006","(UTC-7)","33.276539","-112.18717"
"(520) 388-","Landline","Pima","Tucson","AZ","Arizona","85732","(UTC-7)","32.084775","-110.71225"
"(602) 757-","Cell Number","Maricopa","Phoenix","AZ","Arizona","85006","(UTC-7)","33.276539","-112.18717"
"(602) 764-","Landline","Maricopa","Phoenix","AZ","Arizona","85006","(UTC-7)","33.276539","-112.18717"
"(520) 786-","Cell Number","Pima","Tucson","AZ","Arizona","85732","(UTC-7)","32.084775","-110.71225"
"(928) 680-","Landline","Mohave","Lake Havasu City","AZ","Arizona","86406","(UTC-7)","34.756714","-114.11897"
"(480) 775-","Landline","Maricopa","Tempe","AZ","Arizona","85281","(UTC-7)","33.432844","-111.927219"
"(602) 944-","Landline","Maricopa","Phoenix","AZ","Arizona","85006","(UTC-7)","33.276539","-112.18717"
"(602) 227-","Landline","Maricopa","Phoenix","AZ","Arizona","85006","(UTC-7)","33.276539","-112.18717"
"(602) 515-","Landline","Maricopa","Phoenix","AZ","Arizona","85006","(UTC-7)","33.276539","-112.18717"
"(520) 825-","Landline","Pima","Tucson","AZ","Arizona","85732","(UTC-7)","32.084775","-110.71225"
"(602) 823-","Cell Number","Maricopa","Phoenix","AZ","Arizona","85006","(UTC-7)","33.276539","-112.18717"
"(928) 577-","Landline","Mohave","Mohave Valley","AZ","Arizona","86440","(UTC-7)","35.0524","-114.245399"
"(602) 395-","Landline","Maricopa","Phoenix","AZ","Arizona","85006","(UTC-7)","33.276539","-112.18717"
"(520) 733-","Landline","Pima","Tucson","AZ","Arizona","85732","(UTC-7)","32.084775","-110.71225"
"(520) 456-","Landline","Cochise","Huachuca City","AZ","Arizona","85616","(UTC-7)","31.606087","-110.248009"
"(602) 790-","Cell Number","Maricopa","Phoenix","AZ","Arizona","85006","(UTC-7)","33.276539","-112.18717"
"(520) 404-","Cell Number","Pima","Tucson","AZ","Arizona","85732","(UTC-7)","32.084775","-110.71225"
"(928) 236-","Cell Number","Coconino","Flagstaff","AZ","Arizona","86018","(UTC-7)","35.256347","-111.95003"
"(602) 694-","Cell Number","Maricopa","Phoenix","AZ","Arizona","85006","(UTC-7)","33.276539","-112.18717"
"(928) 675-","Unknown","Apache","Chinle","AZ","Arizona","86503","(UTC-7)","36.527297","-109.691925"
"(602) 840-","Landline","Maricopa","Phoenix","AZ","Arizona","85006","(UTC-7)","33.276539","-112.18717"
"(602) 525-","Cell Number","Maricopa","Phoenix","AZ","Arizona","85006","(UTC-7)","33.276539","-112.18717"
"(520) 620-","Landline","Pima","Tucson","AZ","Arizona","85732","(UTC-7)","32.084775","-110.71225"
"(602) 477-","Landline","Maricopa","Phoenix","AZ","Arizona","85006","(UTC-7)","33.276539","-112.18717"
"(928) 224-","Landline","Navajo","Winslow","AZ","Arizona","86047","(UTC-7)","34.633764","-110.35061"
"(602) 440-","Landline","Maricopa","Phoenix","AZ","Arizona","85006","(UTC-7)","33.276539","-112.18717"
"(602) 714-","Cell Number","Maricopa","Phoenix","AZ","Arizona","85006","(UTC-7)","33.276539","-112.18717"
"(602) 808-","Landline","Maricopa","Phoenix","AZ","Arizona","85006","(UTC-7)","33.276539","-112.18717"
"(602) 352-","Landline","Maricopa","Phoenix","AZ","Arizona","85006","(UTC-7)","33.276539","-112.18717"
"(602) 762-","Cell Number","Maricopa","Phoenix","AZ","Arizona","85006","(UTC-7)","33.276539","-112.18717"
"(520) 287-","Landline","Santa Cruz","Nogales","AZ","Arizona","85621","(UTC-7)","31.46327","-110.8819"
"(602) 841-","Landline","Maricopa","Phoenix","AZ","Arizona","85006","(UTC-7)","33.276539","-112.18717"
"(520) 790-","Landline","Pima","Tucson","AZ","Arizona","85732","(UTC-7)","32.084775","-110.71225"
"(602) 433-","Landline","Maricopa","Phoenix","AZ","Arizona","85006","(UTC-7)","33.276539","-112.18717"
"(602) 544-","Landline","Maricopa","Phoenix","AZ","Arizona","85006","(UTC-7)","33.276539","-112.18717"
"(602) 664-","Landline","Maricopa","Phoenix","AZ","Arizona","85006","(UTC-7)","33.276539","-112.18717"
"(928) 594-","Cell Number","Navajo","Pinetop","AZ","Arizona","85935","(UTC-7)","34.141314","-109.935556"
"(602) 269-","Landline","Maricopa","Phoenix","AZ","Arizona","85006","(UTC-7)","33.276539","-112.18717"
"(928) 404-","Landline","Mohave","Bullhead City","AZ","Arizona","86427","(UTC-7)","35.00429","-114.581228"
"(602) 558-","Cell Number","Maricopa","Phoenix","AZ","Arizona","85006","(UTC-7)","33.276539","-112.18717"
"(602) 414-","Landline","Maricopa","Phoenix","AZ","Arizona","85006","(UTC-7)","33.276539","-112.18717"
"(520) 839-","Cell Number","Santa Cruz","Nogales","AZ","Arizona","85621","(UTC-7)","31.46327","-110.8819"
"(602) 390-","Cell Number","Maricopa","Phoenix","AZ","Arizona","85006","(UTC-7)","33.276539","-112.18717"
"(928) 940-","Unknown","Navajo","Pinetop","AZ","Arizona","85935","(UTC-7)","34.141314","-109.935556"
"(520) 507-","Cell Number","Cochise","Willcox","AZ","Arizona","85643","(UTC-7)","32.07005","-109.886546"
"(480) 661-","Landline","Maricopa","Scottsdale","AZ","Arizona","85271","(UTC-7)","33.276539","-112.18717"
"(602) 326-","Cell Number","Maricopa","Phoenix","AZ","Arizona","85006","(UTC-7)","33.276539","-112.18717"
"(928) 322-","Cell Number","Graham","Safford","AZ","Arizona","85548","(UTC-7)","32.797009","-109.752196"
"(602) 410-","Cell Number","Maricopa","Phoenix","AZ","Arizona","85006","(UTC-7)","33.276539","-112.18717"
"(520) 241-","Cell Number","Pima","Tucson","AZ","Arizona","85732","(UTC-7)","32.084775","-110.71225"
"(520) 235-","Cell Number","Pima","Tucson","AZ","Arizona","85732","(UTC-7)","32.084775","-110.71225"
"(520) 245-","Cell Number","Pima","Tucson","AZ","Arizona","85732","(UTC-7)","32.084775","-110.71225"
"(520) 223-","Landline","Santa Cruz","Nogales","AZ","Arizona","85621","(UTC-7)","31.46327","-110.8819"
"(520) 267-","Landline","Cochise","Sierra Vista","AZ","Arizona","85650","(UTC-7)","31.489157","-110.215304"
"(928) 272-","Landline","Coconino","Williams","AZ","Arizona","86046","(UTC-7)","35.915563","-112.366031"
"(520) 918-","Landline","Pima","Tucson","AZ","Arizona","85732","(UTC-7)","32.084775","-110.71225"
"(928) 235-","Unknown","Graham","Safford","AZ","Arizona","85548","(UTC-7)","32.797009","-109.752196"
"(928) 787-","Landline","Apache","Chinle","AZ","Arizona","86503","(UTC-7)","36.527297","-109.691925"
"(480) 649-","Landline","Maricopa","Mesa","AZ","Arizona","85202","(UTC-7)","33.393484","-111.804513"
"(928) 598-","Cell Number","Yavapai","Sedona","AZ","Arizona","86351","(UTC-7)","35.032371","-111.684752"
"(602) 244-","Landline","Maricopa","Phoenix","AZ","Arizona","85006","(UTC-7)","33.276539","-112.18717"
"(520) 440-","Cell Number","Pima","Tucson","AZ","Arizona","85732","(UTC-7)","32.084775","-110.71225"
"(520) 515-","Landline","Cochise","Sierra Vista","AZ","Arizona","85650","(UTC-7)","31.489157","-110.215304"
"(602) 251-","Landline","Maricopa","Phoenix","AZ","Arizona","85006","(UTC-7)","33.276539","-112.18717"
"(928) 815-","Unknown","Apache","Ganado","AZ","Arizona","86505","(UTC-7)","35.237487","-109.52295"
"(602) 236-","Landline","Maricopa","Phoenix","AZ","Arizona","85006","(UTC-7)","33.276539","-112.18717"
"(602) 427-","Landline","Maricopa","Phoenix","AZ","Arizona","85006","(UTC-7)","33.276539","-112.18717"
"(602) 361-","Cell Number","Maricopa","Phoenix","AZ","Arizona","85006","(UTC-7)","33.276539","-112.18717"
"(520) 457-","Landline","Cochise","Tombstone","AZ","Arizona","85638","(UTC-7)","31.67106","-110.076564"
"(602) 450-","Cell Number","Maricopa","Phoenix","AZ","Arizona","85006","(UTC-7)","33.276539","-112.18717"
"(520) 300-","Unknown","Pima","Tucson","AZ","Arizona","85732","(UTC-7)","32.084775","-110.71225"
"(480) 344-","Landline","Maricopa","Scottsdale","AZ","Arizona","85271","(UTC-7)","33.276539","-112.18717"
"(520) 305-","Unknown","Pima","Tucson","AZ","Arizona","85732","(UTC-7)","32.084775","-110.71225"
"(602) 643-","Landline","Maricopa","Phoenix","AZ","Arizona","85006","(UTC-7)","33.276539","-112.18717"
"(928) 673-","Landline","Coconino","Marble Canyon","AZ","Arizona","86036","(UTC-7)","36.922976","-111.449889"
"(928) 536-","Landline","Navajo","Snowflake","AZ","Arizona","85937","(UTC-7)","34.521702","-110.110981"
"(602) 279-","Landline","Maricopa","Phoenix","AZ","Arizona","85006","(UTC-7)","33.276539","-112.18717"
"(928) 692-","Landline","Mohave","Kingman","AZ","Arizona","86437","(UTC-7)","35.605301","-113.642712"
"(520) 309-","Landline","Pima","Tucson","AZ","Arizona","85732","(UTC-7)","32.084775","-110.71225"
"(928) 514-","Unknown","Mohave","Bullhead City","AZ","Arizona","86427","(UTC-7)","35.00429","-114.581228"
"(623) 362-","Landline","Maricopa","Peoria","AZ","Arizona","85345","(UTC-7)","33.276539","-112.18717"
"(928) 751-","Cell Number","Apache","Springerville","AZ","Arizona","85938","(UTC-7)","34.118938","-109.285553"
"(928) 274-","Cell Number","Yavapai","Sedona","AZ","Arizona","86351","(UTC-7)","35.032371","-111.684752"
"(602) 505-","Cell Number","Maricopa","Phoenix","AZ","Arizona","85006","(UTC-7)","33.276539","-112.18717"
"(602) 257-","Landline","Maricopa","Phoenix","AZ","Arizona","85006","(UTC-7)","33.276539","-112.18717"
"(520) 712-","Landline","Pima","Tucson","AZ","Arizona","85732","(UTC-7)","32.084775","-110.71225"
"(928) 776-","Landline","Yavapai","Prescott","AZ","Arizona","86303","(UTC-7)","34.49579","-112.378309"
"(602) 734-","Landline","Maricopa","Phoenix","AZ","Arizona","85006","(UTC-7)","33.276539","-112.18717"
"(928) 200-","Cell Number","Gila","Globe","AZ","Arizona","85502","(UTC-7)","33.421919","-110.81268"
"(480) 595-","Landline","Maricopa","Cave Creek","AZ","Arizona","85327","(UTC-7)","33.276539","-112.18717"
"(520) 812-","Unknown","Pima","Tucson","AZ","Arizona","85732","(UTC-7)","32.084775","-110.71225"
"(928) 653-","Landline","Apache","Teec Nos Pos","AZ","Arizona","86514","(UTC-7)","35.237487","-109.52295"
"(928) 674-","Landline","Apache","Chinle","AZ","Arizona","86503","(UTC-7)","36.527297","-109.691925"
"(928) 225-","Cell Number","Coconino","Flagstaff","AZ","Arizona","86018","(UTC-7)","35.256347","-111.95003"
"(480) 563-","Landline","Maricopa","Scottsdale","AZ","Arizona","85271","(UTC-7)","33.276539","-112.18717"
"(602) 382-","Landline","Maricopa","Phoenix","AZ","Arizona","85006","(UTC-7)","33.276539","-112.18717"
"(480) 218-","Landline","Maricopa","Mesa","AZ","Arizona","85202","(UTC-7)","33.393484","-111.804513"
"(520) 604-","Cell Number","Santa Cruz","Nogales","AZ","Arizona","85621","(UTC-7)","31.46327","-110.8819"
"(928) 848-","Cell Number","Yavapai","Prescott","AZ","Arizona","86303","(UTC-7)","34.49579","-112.378309"
"(928) 913-","Landline","Coconino","Flagstaff","AZ","Arizona","86018","(UTC-7)","35.256347","-111.95003"
"(602) 619-","Cell Number","Maricopa","Phoenix","AZ","Arizona","85006","(UTC-7)","33.276539","-112.18717"
"(602) 325-","Landline","Maricopa","Phoenix","AZ","Arizona","85006","(UTC-7)","33.276539","-112.18717"
"(602) 824-","Landline","Maricopa","Phoenix","AZ","Arizona","85006","(UTC-7)","33.276539","-112.18717"
"(928) 240-","Cell Number","Navajo","Heber","AZ","Arizona","85928","(UTC-7)","34.40998","-110.588287"
"(602) 413-","Cell Number","Maricopa","Phoenix","AZ","Arizona","85006","(UTC-7)","33.276539","-112.18717"
"(520) 299-","Landline","Pima","Tucson","AZ","Arizona","85732","(UTC-7)","32.084775","-110.71225"
"(928) 524-","Landline","Navajo","Holbrook","AZ","Arizona","86025","(UTC-7)","34.776828","-110.089544"
"(520) 397-","Landline","Santa Cruz","Nogales","AZ","Arizona","85621","(UTC-7)","31.46327","-110.8819"
"(602) 359-","Cell Number","Maricopa","Phoenix","AZ","Arizona","85006","(UTC-7)","33.276539","-112.18717"
"(602) 591-","Cell Number","Maricopa","Phoenix","AZ","Arizona","85006","(UTC-7)","33.276539","-112.18717"
"(623) 875-","Landline","Maricopa","Sun City","AZ","Arizona","85373","(UTC-7)","33.276539","-112.18717"
"(602) 455-","Landline","Maricopa","Phoenix","AZ","Arizona","85006","(UTC-7)","33.276539","-112.18717"
"(602) 435-","Cell Number","Maricopa","Phoenix","AZ","Arizona","85006","(UTC-7)","33.276539","-112.18717"
"(928) 238-","Cell Number","Gila","Payson","AZ","Arizona","85541","(UTC-7)","33.864471","-111.075088"
"(480) 413-","Landline","Maricopa","Tempe","AZ","Arizona","85281","(UTC-7)","33.432844","-111.927219"
"(520) 292-","Landline","Pima","Tucson","AZ","Arizona","85732","(UTC-7)","32.084775","-110.71225"
"(602) 803-","Cell Number","Maricopa","Phoenix","AZ","Arizona","85006","(UTC-7)","33.276539","-112.18717"
"(520) 243-","Landline","Pima","Tucson","AZ","Arizona","85732","(UTC-7)","32.084775","-110.71225"
"(928) 758-","Landline","Mohave","Bullhead City","AZ","Arizona","86427","(UTC-7)","35.00429","-114.581228"
"(602) 462-","Landline","Maricopa","Phoenix","AZ","Arizona","85006","(UTC-7)","33.276539","-112.18717"
"(520) 306-","Unknown","Pima","Tucson","AZ","Arizona","85732","(UTC-7)","32.084775","-110.71225"
"(928) 476-","Landline","Gila","Pine","AZ","Arizona","85544","(UTC-7)","34.320445","-111.396855"
"(928) 453-","Landline","Mohave","Lake Havasu City","AZ","Arizona","86406","(UTC-7)","34.756714","-114.11897"
"(602) 615-","Cell Number","Maricopa","Phoenix","AZ","Arizona","85006","(UTC-7)","33.276539","-112.18717"
"(480) 507-","Landline","Maricopa","Mesa","AZ","Arizona","85202","(UTC-7)","33.393484","-111.804513"
"(520) 272-","Cell Number","Pima","Tucson","AZ","Arizona","85732","(UTC-7)","32.084775","-110.71225"
"(520) 617-","Landline","Pima","Tucson","AZ","Arizona","85732","(UTC-7)","32.084775","-110.71225"
"(520) 896-","Landline","Pinal","Oracle","AZ","Arizona","85623","(UTC-7)","32.64213","-110.850082"
"(602) 746-","Cell Number","Maricopa","Phoenix","AZ","Arizona","85006","(UTC-7)","33.276539","-112.18717"
"(520) 545-","Landline","Pima","Tucson","AZ","Arizona","85732","(UTC-7)","32.084775","-110.71225"
"(928) 719-","Cell Number","Gila","Globe","AZ","Arizona","85502","(UTC-7)","33.421919","-110.81268"
"(520) 882-","Landline","Pima","Tucson","AZ","Arizona","85732","(UTC-7)","32.084775","-110.71225"
"(520) 908-","Landline","Pima","Tucson","AZ","Arizona","85732","(UTC-7)","32.084775","-110.71225"
"(520) 838-","Landline","Pima","Tucson","AZ","Arizona","85732","(UTC-7)","32.084775","-110.71225"
"(928) 208-","Landline","Mohave","Lake Havasu City","AZ","Arizona","86406","(UTC-7)","34.756714","-114.11897"
"(602) 315-","Cell Number","Maricopa","Phoenix","AZ","Arizona","85006","(UTC-7)","33.276539","-112.18717"
"(602) 766-","Landline","Maricopa","Phoenix","AZ","Arizona","85006","(UTC-7)","33.276539","-112.18717"
"(602) 992-","Landline","Maricopa","Phoenix","AZ","Arizona","85006","(UTC-7)","33.276539","-112.18717"
"(520) 366-","Landline","Cochise","Hereford","AZ","Arizona","85615","(UTC-7)","31.411921","-110.158573"
"(928) 707-","Cell Number","Coconino","Flagstaff","AZ","Arizona","86018","(UTC-7)","35.256347","-111.95003"
"(928) 386-","Cell Number","Navajo","Winslow","AZ","Arizona","86047","(UTC-7)","34.633764","-110.35061"
"(602) 712-","Landline","Maricopa","Phoenix","AZ","Arizona","85006","(UTC-7)","33.276539","-112.18717"
"(602) 665-","Landline","Maricopa","Phoenix","AZ","Arizona","85006","(UTC-7)","33.276539","-112.18717"
"(520) 490-","Cell Number","Pima","Tucson","AZ","Arizona","85732","(UTC-7)","32.084775","-110.71225"
"(480) 391-","Landline","Maricopa","Scottsdale","AZ","Arizona","85271","(UTC-7)","33.276539","-112.18717"
"(928) 502-","Cell Number","Yuma","Yuma","AZ","Arizona","85364","(UTC-7)","32.615305","-114.648722"
"(602) 912-","Landline","Maricopa","Phoenix","AZ","Arizona","85006","(UTC-7)","33.276539","-112.18717"
"(480) 224-","Landline","Maricopa","Chandler","AZ","Arizona","85224","(UTC-7)","33.298461","-111.85062"
"(520) 425-","Unknown","Pima","Tucson","AZ","Arizona","85732","(UTC-7)","32.084775","-110.71225"
"(928) 785-","Landline","Yuma","Wellton","AZ","Arizona","85356","(UTC-7)","32.693461","-114.156058"
"(520) 230-","Cell Number","Pima","Tucson","AZ","Arizona","85732","(UTC-7)","32.084775","-110.71225"
"(520) 624-","Landline","Pima","Tucson","AZ","Arizona","85732","(UTC-7)","32.084775","-110.71225"
"(520) 202-","Landline","Pima","Tucson","AZ","Arizona","85732","(UTC-7)","32.084775","-110.71225"
"(602) 559-","Cell Number","Maricopa","Phoenix","AZ","Arizona","85006","(UTC-7)","33.276539","-112.18717"
"(928) 243-","Cell Number","Navajo","Snowflake","AZ","Arizona","85937","(UTC-7)","34.521702","-110.110981"
"(602) 819-","Cell Number","Maricopa","Phoenix","AZ","Arizona","85006","(UTC-7)","33.276539","-112.18717"
"(480) 839-","Landline","Maricopa","Tempe","AZ","Arizona","85281","(UTC-7)","33.432844","-111.927219"
"(602) 792-","Landline","Maricopa","Phoenix","AZ","Arizona","85006","(UTC-7)","33.276539","-112.18717"
"(602) 493-","Landline","Maricopa","Phoenix","AZ","Arizona","85006","(UTC-7)","33.276539","-112.18717"
"(602) 593-","Landline","Maricopa","Phoenix","AZ","Arizona","85006","(UTC-7)","33.276539","-112.18717"
"(520) 795-","Landline","Pima","Tucson","AZ","Arizona","85732","(UTC-7)","32.084775","-110.71225"
"(928) 485-","Landline","Graham","Pima","AZ","Arizona","85543","(UTC-7)","32.878042","-109.775698"
"(602) 971-","Landline","Maricopa","Phoenix","AZ","Arizona","85006","(UTC-7)","33.276539","-112.18717"
"(928) 587-","Cell Number","Navajo","Winslow","AZ","Arizona","86047","(UTC-7)","34.633764","-110.35061"
"(928) 289-","Landline","Navajo","Winslow","AZ","Arizona","86047","(UTC-7)","34.633764","-110.35061"
"(928) 766-","Landline","Mohave","Topock","AZ","Arizona","86436","(UTC-7)","34.779071","-114.482571"
"(602) 781-","Cell Number","Maricopa","Phoenix","AZ","Arizona","85006","(UTC-7)","33.276539","-112.18717"
"(602) 923-","Landline","Maricopa","Phoenix","AZ","Arizona","85006","(UTC-7)","33.276539","-112.18717"
"(602) 218-","Landline","Maricopa","Phoenix","AZ","Arizona","85006","(UTC-7)","33.276539","-112.18717"
"(928) 965-","Cell Number","Greenlee","Clifton","AZ","Arizona","85533","(UTC-7)","32.991251","-109.255872"
"(602) 293-","Landline","Maricopa","Phoenix","AZ","Arizona","85006","(UTC-7)","33.276539","-112.18717"
"(602) 667-","Landline","Maricopa","Phoenix","AZ","Arizona","85006","(UTC-7)","33.276539","-112.18717"
"(520) 993-","Cell Number","Pima","Sells","AZ","Arizona","85634","(UTC-7)","31.974033","-110.702027"
"(928) 355-","Landline","Coconino","Marble Canyon","AZ","Arizona","86036","(UTC-7)","36.922976","-111.449889"
"(602) 778-","Landline","Maricopa","Phoenix","AZ","Arizona","85006","(UTC-7)","33.276539","-112.18717"
"(602) 524-","Cell Number","Maricopa","Phoenix","AZ","Arizona","85006","(UTC-7)","33.276539","-112.18717"
"(602) 206-","Cell Number","Maricopa","Phoenix","AZ","Arizona","85006","(UTC-7)","33.276539","-112.18717"
"(602) 230-","Landline","Maricopa","Phoenix","AZ","Arizona","85006","(UTC-7)","33.276539","-112.18717"
"(928) 336-","Landline","Yuma","Yuma","AZ","Arizona","85364","(UTC-7)","32.615305","-114.648722"
"(602) 355-","Landline","Maricopa","Phoenix","AZ","Arizona","85006","(UTC-7)","33.276539","-112.18717"
"(928) 660-","Cell Number","Coconino","Marble Canyon","AZ","Arizona","86036","(UTC-7)","36.922976","-111.449889"
"(602) 320-","Cell Number","Maricopa","Phoenix","AZ","Arizona","85006","(UTC-7)","33.276539","-112.18717"
"(602) 426-","Landline","Maricopa","Phoenix","AZ","Arizona","85006","(UTC-7)","33.276539","-112.18717"
"(928) 234-","Cell Number","Mohave","Bullhead City","AZ","Arizona","86427","(UTC-7)","35.00429","-114.581228"
"(520) 439-","Landline","Cochise","Sierra Vista","AZ","Arizona","85650","(UTC-7)","31.489157","-110.215304"
"(602) 679-","Cell Number","Maricopa","Phoenix","AZ","Arizona","85006","(UTC-7)","33.276539","-112.18717"
"(928) 919-","Cell Number","Yuma","Yuma","AZ","Arizona","85364","(UTC-7)","32.615305","-114.648722"
"(928) 830-","Cell Number","Yavapai","Prescott","AZ","Arizona","86303","(UTC-7)","34.49579","-112.378309"
"(602) 779-","Cell Number","Maricopa","Phoenix","AZ","Arizona","85006","(UTC-7)","33.276539","-112.18717"
"(602) 546-","Landline","Maricopa","Phoenix","AZ","Arizona","85006","(UTC-7)","33.276539","-112.18717"
"(602) 451-","Cell Number","Maricopa","Phoenix","AZ","Arizona","85006","(UTC-7)","33.276539","-112.18717"
"(520) 647-","Landline","Pima","Tucson","AZ","Arizona","85732","(UTC-7)","32.084775","-110.71225"
"(928) 443-","Landline","Yavapai","Prescott","AZ","Arizona","86303","(UTC-7)","34.49579","-112.378309"
"(602) 363-","Cell Number","Maricopa","Phoenix","AZ","Arizona","85006","(UTC-7)","33.276539","-112.18717"
