"Prefix","Usage","County","City","ShortState","LongState","Zip","Timezone","Latitude","Longitude"
"(303) 333-","Landline","Denver","Denver","CO","Colorado","80212","Mountain","39.768286","-105.049338"
"(303) 335-","Landline","Denver","Denver","CO","Colorado","80212","Mountain","39.768286","-105.049338"
"(719) 838-","Cell Number","Park","Fairplay","CO","Colorado","80440","Mountain","39.149","-105.885893"
"(303) 298-","Landline","Denver","Denver","CO","Colorado","80212","Mountain","39.768286","-105.049338"
"(970) 363-","Landline","Grand","Granby","CO","Colorado","80446","Mountain","40.073869","-105.928533"
"(303) 265-","Landline","Denver","Denver","CO","Colorado","80212","Mountain","39.768286","-105.049338"
"(719) 438-","Landline","Kiowa","Eads","CO","Colorado","81036","Mountain","38.440752","-102.554901"
"(303) 862-","Landline","Jefferson","Denver","CO","Colorado","80212","Mountain","39.768286","-105.049338"
"(303) 613-","Cell Number","Jefferson","Denver","CO","Colorado","80212","Mountain","39.768286","-105.049338"
"(719) 480-","Cell Number","Alamosa","Alamosa","CO","Colorado","81102","Mountain","37.476026","-105.881779"
"(303) 212-","Cell Number","Jefferson","Denver","CO","Colorado","80212","Mountain","39.768286","-105.049338"
"(303) 524-","Landline","Arapahoe","Denver","CO","Colorado","80212","Mountain","39.768286","-105.049338"
"(303) 676-","Landline","Arapahoe","Aurora","CO","Colorado","80018","Mountain","39.689487","-104.67982"
"(303) 883-","Cell Number","Jefferson","Denver","CO","Colorado","80212","Mountain","39.768286","-105.049338"
"(303) 569-","Landline","Clear Creek","Idaho Springs","CO","Colorado","80452","Mountain","39.706574","-105.541583"
"(719) 278-","Landline","El Paso","Colorado Springs","CO","Colorado","80995","Mountain","38.82469","-104.562027"
"(719) 497-","Landline","Las Animas","Trinidad","CO","Colorado","81082","Mountain","37.269059","-104.5038"
"(303) 482-","Landline","Jefferson","Denver","CO","Colorado","80212","Mountain","39.768286","-105.049338"
"(970) 650-","Landline","Montrose","Montrose","CO","Colorado","81401","Mountain","38.443069","-108.050689"
"(303) 336-","Landline","Denver","Denver","CO","Colorado","80212","Mountain","39.768286","-105.049338"
"(303) 590-","Landline","Denver","Denver","CO","Colorado","80212","Mountain","39.768286","-105.049338"
"(970) 929-","Landline","Gunnison","Somerset","CO","Colorado","81434","Mountain","38.988409","-107.231438"
"(303) 753-","Landline","Denver","Denver","CO","Colorado","80212","Mountain","39.768286","-105.049338"
"(303) 329-","Landline","Denver","Denver","CO","Colorado","80212","Mountain","39.768286","-105.049338"
"(970) 508-","Landline","La Plata","Durango","CO","Colorado","81301","Mountain","37.318364","-107.880367"
"(303) 372-","Landline","Denver","Denver","CO","Colorado","80212","Mountain","39.768286","-105.049338"
"(303) 557-","Landline","Jefferson","Aurora","CO","Colorado","80018","Mountain","39.689487","-104.67982"
"(719) 264-","Landline","El Paso","Colorado Springs","CO","Colorado","80995","Mountain","38.82469","-104.562027"
"(303) 345-","Landline","Denver","Denver","CO","Colorado","80212","Mountain","39.768286","-105.049338"
"(970) 886-","Landline","Logan","Crook","CO","Colorado","80726","Mountain","40.8523","-103.074727"
"(970) 386-","Landline","Washington","Woodrow","CO","Colorado","80757","Mountain","39.804985","-103.57521"
"(719) 523-","Landline","Baca","Springfield","CO","Colorado","81073","Mountain","37.371522","-102.677359"
"(719) 391-","Landline","El Paso","Colorado Springs","CO","Colorado","80995","Mountain","38.82469","-104.562027"
"(303) 879-","Cell Number","Jefferson","Denver","CO","Colorado","80212","Mountain","39.768286","-105.049338"
"(719) 380-","Landline","El Paso","Colorado Springs","CO","Colorado","80995","Mountain","38.82469","-104.562027"
"(303) 327-","Landline","Denver","Denver","CO","Colorado","80212","Mountain","39.768286","-105.049338"
"(970) 284-","Landline","Weld","La Salle","CO","Colorado","80645","Mountain","40.328185","-104.665639"
"(303) 504-","Landline","Denver","Denver","CO","Colorado","80212","Mountain","39.768286","-105.049338"
"(303) 658-","Cell Number","Jefferson","Denver","CO","Colorado","80212","Mountain","39.768286","-105.049338"
"(719) 686-","Landline","El Paso","Colorado Springs","CO","Colorado","80995","Mountain","38.82469","-104.562027"
"(970) 349-","Landline","Gunnison","Crested Butte","CO","Colorado","81225","Mountain","38.90056","-106.963148"
"(970) 695-","Unknown","Mesa","Mesa","CO","Colorado","81643","Mountain","39.14932","-108.169723"
"(303) 546-","Landline","Jefferson","Denver","CO","Colorado","80212","Mountain","39.768286","-105.049338"
"(303) 370-","Landline","Denver","Denver","CO","Colorado","80212","Mountain","39.768286","-105.049338"
"(303) 203-","Cell Number","Jefferson","Denver","CO","Colorado","80212","Mountain","39.768286","-105.049338"
"(303) 727-","Landline","Denver","Denver","CO","Colorado","80212","Mountain","39.768286","-105.049338"
"(303) 768-","Landline","Jefferson","Denver","CO","Colorado","80212","Mountain","39.768286","-105.049338"
"(719) 447-","Landline","El Paso","Colorado Springs","CO","Colorado","80995","Mountain","38.82469","-104.562027"
"(970) 497-","Landline","Montrose","Montrose","CO","Colorado","81401","Mountain","38.443069","-108.050689"
"(719) 564-","Landline","Pueblo","Pueblo","CO","Colorado","81002","Mountain","38.128626","-104.552299"
"(719) 491-","Cell Number","El Paso","Colorado Springs","CO","Colorado","80995","Mountain","38.82469","-104.562027"
"(303) 802-","Landline","Denver","Denver","CO","Colorado","80212","Mountain","39.768286","-105.049338"
"(719) 461-","Landline","Baca","Pritchett","CO","Colorado","81064","Mountain","37.272262","-102.914489"
"(719) 766-","Unknown","Pueblo","Pueblo","CO","Colorado","81002","Mountain","38.128626","-104.552299"
"(303) 564-","Cell Number","Jefferson","Denver","CO","Colorado","80212","Mountain","39.768286","-105.049338"
"(303) 843-","Landline","Denver","Denver","CO","Colorado","80212","Mountain","39.768286","-105.049338"
"(303) 287-","Landline","Denver","Denver","CO","Colorado","80212","Mountain","39.768286","-105.049338"
"(970) 448-","Landline","Phillips","Amherst","CO","Colorado","80721","Mountain","40.608363","-102.3582"
"(303) 850-","Landline","Denver","Denver","CO","Colorado","80212","Mountain","39.768286","-105.049338"
"(970) 384-","Landline","Garfield","Glenwood Springs","CO","Colorado","81601","Mountain","39.500281","-107.585235"
"(303) 587-","Cell Number","Jefferson","Denver","CO","Colorado","80212","Mountain","39.768286","-105.049338"
"(303) 276-","Landline","Jefferson","Denver","CO","Colorado","80212","Mountain","39.768286","-105.049338"
"(303) 619-","Cell Number","Jefferson","Denver","CO","Colorado","80212","Mountain","39.768286","-105.049338"
"(303) 938-","Landline","Jefferson","Denver","CO","Colorado","80212","Mountain","39.768286","-105.049338"
"(970) 758-","Cell Number","Grand","Granby","CO","Colorado","80446","Mountain","40.073869","-105.928533"
"(303) 797-","Landline","Jefferson","Denver","CO","Colorado","80212","Mountain","39.768286","-105.049338"
"(303) 419-","Cell Number","Jefferson","Denver","CO","Colorado","80212","Mountain","39.768286","-105.049338"
"(303) 744-","Landline","Denver","Denver","CO","Colorado","80212","Mountain","39.768286","-105.049338"
"(303) 845-","Landline","Boulder","Longmont","CO","Colorado","80502","Mountain","40.087835","-105.373507"
"(719) 659-","Cell Number","El Paso","Colorado Springs","CO","Colorado","80995","Mountain","38.82469","-104.562027"
"(719) 212-","Unknown","Cheyenne","Cheyenne Wells","CO","Colorado","80810","Mountain","38.827259","-102.411537"
"(719) 845-","Landline","Las Animas","Trinidad","CO","Colorado","81082","Mountain","37.269059","-104.5038"
"(970) 262-","Landline","Summit","Dillon","CO","Colorado","80435","Mountain","39.595212","-105.974117"
"(303) 726-","Cell Number","Jefferson","Denver","CO","Colorado","80212","Mountain","39.768286","-105.049338"
"(303) 762-","Landline","Denver","Denver","CO","Colorado","80212","Mountain","39.768286","-105.049338"
"(303) 778-","Landline","Denver","Denver","CO","Colorado","80212","Mountain","39.768286","-105.049338"
"(303) 922-","Landline","Denver","Denver","CO","Colorado","80212","Mountain","39.768286","-105.049338"
"(719) 738-","Landline","Huerfano","Walsenburg","CO","Colorado","81089","Mountain","37.646467","-104.779815"
"(719) 232-","Cell Number","El Paso","Colorado Springs","CO","Colorado","80995","Mountain","38.82469","-104.562027"
"(303) 290-","Landline","Denver","Denver","CO","Colorado","80212","Mountain","39.768286","-105.049338"
"(719) 496-","Landline","Alamosa","Alamosa","CO","Colorado","81102","Mountain","37.476026","-105.881779"
"(303) 813-","Landline","Denver","Denver","CO","Colorado","80212","Mountain","39.768286","-105.049338"
"(719) 739-","Landline","Prowers","Holly","CO","Colorado","81047","Mountain","37.956511","-102.335202"
"(303) 402-","Landline","Jefferson","Denver","CO","Colorado","80212","Mountain","39.768286","-105.049338"
"(719) 429-","Cell Number","Fremont","Canon City","CO","Colorado","81212","Mountain","38.477727","-105.507603"
"(970) 364-","Landline","Grand","Granby","CO","Colorado","80446","Mountain","40.073869","-105.928533"
"(303) 226-","Landline","Denver","Denver","CO","Colorado","80212","Mountain","39.768286","-105.049338"
"(303) 471-","Landline","Douglas","Littleton","CO","Colorado","80166","Mountain","39.738752","-104.408349"
"(303) 384-","Landline","Jefferson","Golden","CO","Colorado","80403","Mountain","39.829821","-105.270395"
"(303) 853-","Landline","Denver","Denver","CO","Colorado","80212","Mountain","39.768286","-105.049338"
"(303) 793-","Landline","Denver","Denver","CO","Colorado","80212","Mountain","39.768286","-105.049338"
"(970) 627-","Landline","Grand","Grand Lake","CO","Colorado","80447","Mountain","40.153982","-105.852209"
"(719) 244-","Landline","El Paso","Colorado Springs","CO","Colorado","80995","Mountain","38.82469","-104.562027"
"(970) 418-","Cell Number","Summit","Dillon","CO","Colorado","80435","Mountain","39.595212","-105.974117"
"(303) 525-","Cell Number","Jefferson","Denver","CO","Colorado","80212","Mountain","39.768286","-105.049338"
"(303) 222-","Landline","Denver","Denver","CO","Colorado","80212","Mountain","39.768286","-105.049338"
"(719) 248-","Cell Number","Pueblo","Pueblo","CO","Colorado","81002","Mountain","38.128626","-104.552299"
"(719) 684-","Landline","El Paso","Cascade","CO","Colorado","80809","Mountain","38.945534","-104.994972"
"(970) 823-","Unknown","Montrose","Olathe","CO","Colorado","81425","Mountain","38.497566","-108.078623"
"(303) 566-","Landline","Denver","Denver","CO","Colorado","80212","Mountain","39.768286","-105.049338"
"(970) 655-","Cell Number","Grand","Granby","CO","Colorado","80446","Mountain","40.073869","-105.928533"
"(719) 347-","Landline","El Paso","Calhan","CO","Colorado","80808","Mountain","38.94043","-104.282512"
"(970) 354-","Landline","Yuma","Idalia","CO","Colorado","80735","Mountain","39.816703","-102.426235"
"(970) 456-","Landline","Garfield","Glenwood Springs","CO","Colorado","81601","Mountain","39.500281","-107.585235"
"(303) 784-","Landline","Jefferson","Denver","CO","Colorado","80212","Mountain","39.768286","-105.049338"
"(303) 706-","Landline","Jefferson","Denver","CO","Colorado","80212","Mountain","39.768286","-105.049338"
"(303) 796-","Landline","Denver","Denver","CO","Colorado","80212","Mountain","39.768286","-105.049338"
"(303) 243-","Cell Number","Jefferson","Denver","CO","Colorado","80212","Mountain","39.768286","-105.049338"
"(719) 386-","Landline","El Paso","Colorado Springs","CO","Colorado","80995","Mountain","38.82469","-104.562027"
"(719) 560-","Landline","Pueblo","Pueblo","CO","Colorado","81002","Mountain","38.128626","-104.552299"
"(719) 473-","Landline","El Paso","Colorado Springs","CO","Colorado","80995","Mountain","38.82469","-104.562027"
"(719) 643-","Landline","Las Animas","Kim","CO","Colorado","81049","Mountain","37.33276","-103.373586"
"(970) 209-","Cell Number","Montrose","Montrose","CO","Colorado","81401","Mountain","38.443069","-108.050689"
"(970) 531-","Cell Number","Grand","Granby","CO","Colorado","80446","Mountain","40.073869","-105.928533"
"(303) 614-","Landline","Arapahoe","Aurora","CO","Colorado","80018","Mountain","39.689487","-104.67982"
"(970) 827-","Landline","Eagle","Vail","CO","Colorado","81658","Mountain","39.624171","-106.497314"
"(719) 267-","Landline","Crowley","Ordway","CO","Colorado","81034","Mountain","38.317851","-103.779959"
"(719) 216-","Landline","El Paso","Colorado Springs","CO","Colorado","80995","Mountain","38.82469","-104.562027"
"(303) 821-","Cell Number","Jefferson","Denver","CO","Colorado","80212","Mountain","39.768286","-105.049338"
"(970) 439-","Landline","Routt","Steamboat Springs","CO","Colorado","80488","Mountain","40.619661","-106.860746"
"(719) 942-","Landline","Fremont","Howard","CO","Colorado","81233","Mountain","38.410012","-105.769848"
"(303) 340-","Landline","Arapahoe","Aurora","CO","Colorado","80018","Mountain","39.689487","-104.67982"
"(719) 930-","Cell Number","El Paso","Colorado Springs","CO","Colorado","80995","Mountain","38.82469","-104.562027"
"(970) 946-","Cell Number","La Plata","Durango","CO","Colorado","81301","Mountain","37.318364","-107.880367"
"(970) 775-","Unknown","Larimer","Loveland","CO","Colorado","80537","Mountain","40.553704","-105.266415"
"(970) 790-","Landline","Eagle","Vail","CO","Colorado","81658","Mountain","39.624171","-106.497314"
"(303) 368-","Landline","Arapahoe","Aurora","CO","Colorado","80018","Mountain","39.689487","-104.67982"
"(303) 422-","Landline","Jefferson","Denver","CO","Colorado","80212","Mountain","39.768286","-105.049338"
"(303) 334-","Landline","Denver","Denver","CO","Colorado","80212","Mountain","39.768286","-105.049338"
"(970) 757-","Cell Number","Routt","Hayden","CO","Colorado","81639","Mountain","40.438195","-107.277181"
"(970) 358-","Landline","Yuma","Joes","CO","Colorado","80822","Mountain","39.959546","-102.500066"
"(303) 358-","Cell Number","Jefferson","Denver","CO","Colorado","80212","Mountain","39.768286","-105.049338"
"(303) 979-","Landline","Jefferson","Denver","CO","Colorado","80212","Mountain","39.768286","-105.049338"
"(303) 714-","Landline","Denver","Denver","CO","Colorado","80212","Mountain","39.768286","-105.049338"
"(719) 533-","Landline","El Paso","Colorado Springs","CO","Colorado","80995","Mountain","38.82469","-104.562027"
"(303) 255-","Landline","Adams","Denver","CO","Colorado","80212","Mountain","39.768286","-105.049338"
"(303) 912-","Cell Number","Jefferson","Denver","CO","Colorado","80212","Mountain","39.768286","-105.049338"
"(303) 623-","Landline","Denver","Denver","CO","Colorado","80212","Mountain","39.768286","-105.049338"
"(970) 724-","Landline","Grand","Kremmling","CO","Colorado","80459","Mountain","40.147681","-106.378296"
"(719) 672-","Landline","Costilla","San Luis","CO","Colorado","81152","Mountain","37.106599","-105.47813"
"(719) 628-","Landline","Rio Grande","Monte Vista","CO","Colorado","81144","Mountain","37.570515","-106.345624"
"(719) 531-","Landline","El Paso","Colorado Springs","CO","Colorado","80995","Mountain","38.82469","-104.562027"
"(303) 918-","Cell Number","Jefferson","Denver","CO","Colorado","80212","Mountain","39.768286","-105.049338"
"(719) 356-","Unknown","Kit Carson","Burlington","CO","Colorado","80807","Mountain","39.308966","-102.461287"
"(970) 362-","Landline","Yuma","Kirk","CO","Colorado","80824","Mountain","39.664421","-102.546469"
"(970) 854-","Landline","Phillips","Holyoke","CO","Colorado","80734","Mountain","40.587166","-102.272326"
"(970) 776-","Landline","Larimer","Loveland","CO","Colorado","80537","Mountain","40.553704","-105.266415"
"(970) 554-","Cell Number","Washington","Akron","CO","Colorado","80720","Mountain","40.073328","-103.202379"
"(719) 749-","Landline","El Paso","Peyton","CO","Colorado","80831","Mountain","38.984206","-104.526328"
"(303) 460-","Landline","Adams","Denver","CO","Colorado","80212","Mountain","39.768286","-105.049338"
"(303) 436-","Landline","Denver","Denver","CO","Colorado","80212","Mountain","39.768286","-105.049338"
"(303) 903-","Cell Number","Jefferson","Denver","CO","Colorado","80212","Mountain","39.768286","-105.049338"
"(970) 701-","Cell Number","Moffat","Craig","CO","Colorado","81626","Mountain","40.667669","-107.783276"
"(970) 874-","Landline","Delta","Delta","CO","Colorado","81416","Mountain","38.785768","-107.97078"
"(719) 282-","Landline","El Paso","Colorado Springs","CO","Colorado","80995","Mountain","38.82469","-104.562027"
"(303) 366-","Landline","Arapahoe","Aurora","CO","Colorado","80018","Mountain","39.689487","-104.67982"
"(719) 382-","Landline","El Paso","Fountain","CO","Colorado","80817","Mountain","38.663856","-104.652221"
"(719) 632-","Landline","El Paso","Colorado Springs","CO","Colorado","80995","Mountain","38.82469","-104.562027"
"(303) 819-","Cell Number","Jefferson","Denver","CO","Colorado","80212","Mountain","39.768286","-105.049338"
"(303) 884-","Cell Number","Jefferson","Denver","CO","Colorado","80212","Mountain","39.768286","-105.049338"
"(719) 274-","Landline","Conejos","La Jara","CO","Colorado","81140","Mountain","37.276566","-106.007989"
"(303) 800-","Landline","Jefferson","Denver","CO","Colorado","80212","Mountain","39.768286","-105.049338"
"(303) 534-","Landline","Denver","Denver","CO","Colorado","80212","Mountain","39.768286","-105.049338"
"(970) 675-","Landline","Rio Blanco","Rangely","CO","Colorado","81648","Mountain","39.936331","-108.650793"
"(970) 445-","Cell Number","Eagle","Vail","CO","Colorado","81658","Mountain","39.624171","-106.497314"
"(303) 373-","Landline","Denver","Denver","CO","Colorado","80212","Mountain","39.768286","-105.049338"
"(970) 904-","Cell Number","Eagle","Vail","CO","Colorado","81658","Mountain","39.624171","-106.497314"
"(719) 275-","Landline","Fremont","Canon City","CO","Colorado","81212","Mountain","38.477727","-105.507603"
"(719) 638-","Landline","El Paso","Colorado Springs","CO","Colorado","80995","Mountain","38.82469","-104.562027"
"(303) 492-","Landline","Jefferson","Denver","CO","Colorado","80212","Mountain","39.768286","-105.049338"
"(719) 225-","Unknown","Pueblo","Pueblo","CO","Colorado","81002","Mountain","38.128626","-104.552299"
"(303) 980-","Landline","Jefferson","Denver","CO","Colorado","80212","Mountain","39.768286","-105.049338"
"(303) 364-","Landline","Arapahoe","Aurora","CO","Colorado","80018","Mountain","39.689487","-104.67982"
"(719) 336-","Landline","Prowers","Lamar","CO","Colorado","81052","Mountain","37.955488","-102.436416"
"(303) 995-","Cell Number","Jefferson","Denver","CO","Colorado","80212","Mountain","39.768286","-105.049338"
"(719) 465-","Unknown","El Paso","Colorado Springs","CO","Colorado","80995","Mountain","38.82469","-104.562027"
"(303) 971-","Landline","Jefferson","Denver","CO","Colorado","80212","Mountain","39.768286","-105.049338"
"(970) 774-","Landline","Phillips","Haxtun","CO","Colorado","80731","Mountain","40.601383","-102.523842"
"(303) 451-","Landline","Adams","Denver","CO","Colorado","80212","Mountain","39.768286","-105.049338"
"(303) 588-","Cell Number","Jefferson","Denver","CO","Colorado","80212","Mountain","39.768286","-105.049338"
"(719) 253-","Landline","Pueblo","Pueblo","CO","Colorado","81002","Mountain","38.128626","-104.552299"
"(303) 323-","Landline","Denver","Denver","CO","Colorado","80212","Mountain","39.768286","-105.049338"
"(303) 865-","Landline","Denver","Denver","CO","Colorado","80212","Mountain","39.768286","-105.049338"
"(303) 503-","Cell Number","Jefferson","Denver","CO","Colorado","80212","Mountain","39.768286","-105.049338"
"(303) 638-","Cell Number","Jefferson","Denver","CO","Colorado","80212","Mountain","39.768286","-105.049338"
"(719) 285-","Landline","Fremont","Canon City","CO","Colorado","81212","Mountain","38.477727","-105.507603"
"(303) 550-","Cell Number","Jefferson","Denver","CO","Colorado","80212","Mountain","39.768286","-105.049338"
"(303) 997-","Landline","Jefferson","Denver","CO","Colorado","80212","Mountain","39.768286","-105.049338"
"(719) 522-","Landline","El Paso","Colorado Springs","CO","Colorado","80995","Mountain","38.82469","-104.562027"
"(719) 280-","Cell Number","El Paso","Colorado Springs","CO","Colorado","80995","Mountain","38.82469","-104.562027"
"(303) 254-","Landline","Adams","Denver","CO","Colorado","80212","Mountain","39.768286","-105.049338"
"(970) 467-","Cell Number","Morgan","Fort Morgan","CO","Colorado","80701","Mountain","40.262591","-103.847648"
"(303) 935-","Landline","Denver","Denver","CO","Colorado","80212","Mountain","39.768286","-105.049338"
"(970) 457-","Landline","Routt","Steamboat Springs","CO","Colorado","80488","Mountain","40.619661","-106.860746"
"(719) 378-","Landline","Alamosa","Hooper","CO","Colorado","81136","Mountain","37.699184","-105.873616"
"(303) 328-","Landline","Denver","Denver","CO","Colorado","80212","Mountain","39.768286","-105.049338"
"(303) 927-","Landline","Arapahoe","Denver","CO","Colorado","80212","Mountain","39.768286","-105.049338"
"(719) 541-","Landline","Elbert","Simla","CO","Colorado","80835","Mountain","39.208696","-104.070186"
"(303) 708-","Landline","Jefferson","Denver","CO","Colorado","80212","Mountain","39.768286","-105.049338"
"(970) 360-","Unknown","Yuma","Yuma","CO","Colorado","80759","Mountain","40.061817","-102.618522"
"(303) 934-","Landline","Denver","Denver","CO","Colorado","80212","Mountain","39.768286","-105.049338"
"(970) 578-","Unknown","Weld","Johnstown","CO","Colorado","80534","Mountain","40.320091","-104.867196"
"(719) 565-","Landline","Pueblo","Pueblo","CO","Colorado","81002","Mountain","38.128626","-104.552299"
"(303) 425-","Landline","Jefferson","Denver","CO","Colorado","80212","Mountain","39.768286","-105.049338"
"(970) 795-","Unknown","Weld","Windsor","CO","Colorado","80550","Mountain","40.307972","-104.942467"
"(970) 233-","Unknown","Mesa","Collbran","CO","Colorado","81624","Mountain","39.205633","-107.929135"
"(970) 469-","Unknown","Washington","Otis","CO","Colorado","80743","Mountain","40.163025","-103.042516"
"(970) 367-","Landline","Routt","Steamboat Springs","CO","Colorado","80488","Mountain","40.619661","-106.860746"
"(970) 205-","Landline","Pitkin","Aspen","CO","Colorado","81611","Mountain","39.169324","-106.776744"
"(970) 438-","Unknown","Mesa","Palisade","CO","Colorado","81526","Mountain","39.095369","-108.299254"
"(303) 866-","Landline","Denver","Denver","CO","Colorado","80212","Mountain","39.768286","-105.049338"
"(719) 436-","Landline","Kiowa","Haswell","CO","Colorado","81045","Mountain","38.440077","-103.130677"
"(303) 773-","Landline","Denver","Denver","CO","Colorado","80212","Mountain","39.768286","-105.049338"
"(719) 218-","Landline","El Paso","Colorado Springs","CO","Colorado","80995","Mountain","38.82469","-104.562027"
"(303) 246-","Cell Number","Denver","Denver","CO","Colorado","80212","Mountain","39.768286","-105.049338"
"(970) 735-","Landline","Weld","Stoneham","CO","Colorado","80754","Mountain","40.735758","-103.997391"
"(303) 352-","Landline","Denver","Denver","CO","Colorado","80212","Mountain","39.768286","-105.049338"
"(970) 864-","Landline","Montrose","Nucla","CO","Colorado","81424","Mountain","38.310689","-108.57669"
"(303) 431-","Landline","Jefferson","Denver","CO","Colorado","80212","Mountain","39.768286","-105.049338"
"(303) 787-","Landline","Denver","Denver","CO","Colorado","80212","Mountain","39.768286","-105.049338"
"(970) 339-","Landline","Weld","Greeley","CO","Colorado","80639","Mountain","40.399281","-104.70172"
"(303) 275-","Landline","Jefferson","Denver","CO","Colorado","80212","Mountain","39.768286","-105.049338"
"(719) 550-","Landline","El Paso","Colorado Springs","CO","Colorado","80995","Mountain","38.82469","-104.562027"
"(303) 209-","Landline","Denver","Denver","CO","Colorado","80212","Mountain","39.768286","-105.049338"
"(303) 863-","Landline","Denver","Denver","CO","Colorado","80212","Mountain","39.768286","-105.049338"
"(970) 653-","Landline","Eagle","Mc Coy","CO","Colorado","80463","Mountain","39.82712","-106.772151"
"(303) 956-","Cell Number","Weld","Fort Lupton","CO","Colorado","80621","Mountain","40.363977","-104.650827"
"(303) 644-","Landline","Adams","Bennett","CO","Colorado","80102","Mountain","39.869384","-104.458336"
"(970) 524-","Landline","Eagle","Gypsum","CO","Colorado","81637","Mountain","39.615505","-106.895722"
"(303) 604-","Landline","Jefferson","Denver","CO","Colorado","80212","Mountain","39.768286","-105.049338"
"(303) 656-","Cell Number","Jefferson","Denver","CO","Colorado","80212","Mountain","39.768286","-105.049338"
"(970) 516-","Unknown","Montezuma","Cortez","CO","Colorado","81321","Mountain","37.373594","-108.662826"
"(970) 539-","Cell Number","Weld","Greeley","CO","Colorado","80639","Mountain","40.399281","-104.70172"
"(303) 616-","Cell Number","Jefferson","Denver","CO","Colorado","80212","Mountain","39.768286","-105.049338"
"(719) 764-","Landline","Elbert","Agate","CO","Colorado","80101","Mountain","39.382335","-104.084781"
"(303) 426-","Landline","Adams","Denver","CO","Colorado","80212","Mountain","39.768286","-105.049338"
"(970) 425-","Landline","Garfield","Carbondale","CO","Colorado","81623","Mountain","39.476857","-107.38813"
"(719) 962-","Landline","Cheyenne","Kit Carson","CO","Colorado","80825","Mountain","38.827174","-102.598136"
"(303) 556-","Landline","Denver","Denver","CO","Colorado","80212","Mountain","39.768286","-105.049338"
"(303) 703-","Landline","Jefferson","Denver","CO","Colorado","80212","Mountain","39.768286","-105.049338"
"(970) 762-","Landline","Logan","Sterling","CO","Colorado","80751","Mountain","40.715081","-103.211191"
"(970) 565-","Landline","Montezuma","Cortez","CO","Colorado","81321","Mountain","37.373594","-108.662826"
"(719) 647-","Landline","Pueblo","Pueblo","CO","Colorado","81002","Mountain","38.128626","-104.552299"
"(303) 931-","Cell Number","Jefferson","Denver","CO","Colorado","80212","Mountain","39.768286","-105.049338"
"(719) 397-","Landline","Kit Carson","Burlington","CO","Colorado","80807","Mountain","39.308966","-102.461287"
"(970) 710-","Cell Number","Pitkin","Aspen","CO","Colorado","81611","Mountain","39.169324","-106.776744"
"(303) 812-","Landline","Denver","Denver","CO","Colorado","80212","Mountain","39.768286","-105.049338"
"(970) 247-","Landline","La Plata","Durango","CO","Colorado","81301","Mountain","37.318364","-107.880367"
"(303) 985-","Landline","Jefferson","Denver","CO","Colorado","80212","Mountain","39.768286","-105.049338"
"(719) 290-","Cell Number","El Paso","Colorado Springs","CO","Colorado","80995","Mountain","38.82469","-104.562027"
"(970) 716-","Unknown","Weld","Eaton","CO","Colorado","80615","Mountain","40.350055","-104.660412"
"(303) 570-","Cell Number","Jefferson","Denver","CO","Colorado","80212","Mountain","39.768286","-105.049338"
"(303) 901-","Cell Number","Jefferson","Denver","CO","Colorado","80212","Mountain","39.768286","-105.049338"
"(719) 237-","Cell Number","El Paso","Colorado Springs","CO","Colorado","80995","Mountain","38.82469","-104.562027"
"(719) 599-","Landline","El Paso","Colorado Springs","CO","Colorado","80995","Mountain","38.82469","-104.562027"
"(303) 967-","Landline","Denver","Denver","CO","Colorado","80212","Mountain","39.768286","-105.049338"
"(303) 357-","Landline","Denver","Denver","CO","Colorado","80212","Mountain","39.768286","-105.049338"
"(719) 306-","Unknown","El Paso","Colorado Springs","CO","Colorado","80995","Mountain","38.82469","-104.562027"
"(719) 570-","Landline","El Paso","Colorado Springs","CO","Colorado","80995","Mountain","38.82469","-104.562027"
"(719) 427-","Unknown","Lake","Leadville","CO","Colorado","80461","Mountain","39.21753","-106.35833"
"(303) 662-","Landline","Jefferson","Denver","CO","Colorado","80212","Mountain","39.768286","-105.049338"
"(719) 443-","Cell Number","El Paso","Colorado Springs","CO","Colorado","80995","Mountain","38.82469","-104.562027"
"(303) 943-","Cell Number","Jefferson","Denver","CO","Colorado","80212","Mountain","39.768286","-105.049338"
"(303) 316-","Landline","Jefferson","Denver","CO","Colorado","80212","Mountain","39.768286","-105.049338"
"(719) 342-","Cell Number","Kit Carson","Burlington","CO","Colorado","80807","Mountain","39.308966","-102.461287"
"(303) 261-","Landline","Adams","Aurora","CO","Colorado","80018","Mountain","39.689487","-104.67982"
"(719) 263-","Landline","Otero","Fowler","CO","Colorado","81039","Mountain","37.98146","-103.967799"
"(970) 859-","Landline","Montrose","Bedrock","CO","Colorado","81411","Mountain","38.34867","-108.937369"
"(970) 686-","Landline","Weld","Windsor","CO","Colorado","80550","Mountain","40.307972","-104.942467"
"(303) 325-","Landline","Denver","Denver","CO","Colorado","80212","Mountain","39.768286","-105.049338"
"(303) 233-","Landline","Jefferson","Denver","CO","Colorado","80212","Mountain","39.768286","-105.049338"
"(303) 294-","Landline","Denver","Denver","CO","Colorado","80212","Mountain","39.768286","-105.049338"
"(303) 529-","Cell Number","Jefferson","Denver","CO","Colorado","80212","Mountain","39.768286","-105.049338"
"(970) 371-","Cell Number","Weld","Greeley","CO","Colorado","80639","Mountain","40.399281","-104.70172"
"(303) 521-","Cell Number","Denver","Denver","CO","Colorado","80212","Mountain","39.768286","-105.049338"
"(719) 434-","Unknown","El Paso","Colorado Springs","CO","Colorado","80995","Mountain","38.82469","-104.562027"
"(719) 988-","Unknown","Huerfano","La Veta","CO","Colorado","81055","Mountain","37.511672","-105.057545"
"(719) 640-","Cell Number","El Paso","Colorado Springs","CO","Colorado","80995","Mountain","38.82469","-104.562027"
"(303) 999-","Unknown","Denver","Denver","CO","Colorado","80212","Mountain","39.768286","-105.049338"
"(303) 217-","Landline","Denver","Denver","CO","Colorado","80212","Mountain","39.768286","-105.049338"
"(303) 571-","Landline","Denver","Denver","CO","Colorado","80212","Mountain","39.768286","-105.049338"
"(303) 229-","Cell Number","Jefferson","Denver","CO","Colorado","80212","Mountain","39.768286","-105.049338"
"(303) 770-","Landline","Denver","Denver","CO","Colorado","80212","Mountain","39.768286","-105.049338"
"(719) 676-","Landline","Pueblo","Rye","CO","Colorado","81069","Mountain","37.936061","-104.874843"
"(719) 240-","Cell Number","Pueblo","Pueblo","CO","Colorado","81002","Mountain","38.128626","-104.552299"
"(970) 485-","Cell Number","Summit","Dillon","CO","Colorado","80435","Mountain","39.595212","-105.974117"
"(970) 427-","Landline","Morgan","Fort Morgan","CO","Colorado","80701","Mountain","40.262591","-103.847648"
"(303) 986-","Landline","Jefferson","Denver","CO","Colorado","80212","Mountain","39.768286","-105.049338"
"(303) 692-","Landline","Denver","Denver","CO","Colorado","80212","Mountain","39.768286","-105.049338"
"(303) 296-","Landline","Denver","Denver","CO","Colorado","80212","Mountain","39.768286","-105.049338"
"(970) 942-","Cell Number","Rio Blanco","Meeker","CO","Colorado","81641","Mountain","39.967864","-108.043592"
"(303) 635-","Landline","Adams","Denver","CO","Colorado","80212","Mountain","39.768286","-105.049338"
"(719) 271-","Cell Number","El Paso","Colorado Springs","CO","Colorado","80995","Mountain","38.82469","-104.562027"
"(303) 565-","Landline","Denver","Denver","CO","Colorado","80212","Mountain","39.768286","-105.049338"
"(303) 244-","Landline","Denver","Denver","CO","Colorado","80212","Mountain","39.768286","-105.049338"
"(303) 208-","Cell Number","Jefferson","Denver","CO","Colorado","80212","Mountain","39.768286","-105.049338"
"(970) 921-","Landline","Delta","Crawford","CO","Colorado","81415","Mountain","38.767652","-107.63089"
"(970) 324-","Landline","Weld","Greeley","CO","Colorado","80639","Mountain","40.399281","-104.70172"
"(303) 339-","Landline","Jefferson","Denver","CO","Colorado","80212","Mountain","39.768286","-105.049338"
"(970) 533-","Landline","Montezuma","Mancos","CO","Colorado","81328","Mountain","37.336041","-108.468364"
"(719) 315-","Landline","Fremont","Canon City","CO","Colorado","81212","Mountain","38.477727","-105.507603"
"(303) 648-","Landline","Jefferson","Denver","CO","Colorado","80212","Mountain","39.768286","-105.049338"
"(970) 393-","Cell Number","Eagle","Vail","CO","Colorado","81658","Mountain","39.624171","-106.497314"
"(303) 755-","Landline","Arapahoe","Aurora","CO","Colorado","80018","Mountain","39.689487","-104.67982"
"(719) 440-","Cell Number","El Paso","Colorado Springs","CO","Colorado","80995","Mountain","38.82469","-104.562027"
"(719) 375-","Unknown","El Paso","Colorado Springs","CO","Colorado","80995","Mountain","38.82469","-104.562027"
"(719) 226-","Landline","El Paso","Colorado Springs","CO","Colorado","80995","Mountain","38.82469","-104.562027"
"(970) 583-","Landline","Moffat","Slater","CO","Colorado","81653","Mountain","40.997896","-107.33877"
"(303) 998-","Landline","Jefferson","Denver","CO","Colorado","80212","Mountain","39.768286","-105.049338"
"(970) 414-","Landline","Yuma","Parachute","CO","Colorado","81635","Mountain","39.458498","-107.878874"
"(719) 432-","Landline","El Paso","Colorado Springs","CO","Colorado","80995","Mountain","38.82469","-104.562027"
"(303) 882-","Cell Number","Jefferson","Denver","CO","Colorado","80212","Mountain","39.768286","-105.049338"
"(970) 633-","Unknown","Ouray","Ridgway","CO","Colorado","81432","Mountain","38.177464","-107.72736"
"(970) 963-","Landline","Garfield","Carbondale","CO","Colorado","81623","Mountain","39.476857","-107.38813"
"(970) 455-","Landline","Summit","Dillon","CO","Colorado","80435","Mountain","39.595212","-105.974117"
"(719) 562-","Landline","Pueblo","Pueblo","CO","Colorado","81002","Mountain","38.128626","-104.552299"
"(303) 424-","Landline","Jefferson","Denver","CO","Colorado","80212","Mountain","39.768286","-105.049338"
"(719) 532-","Landline","El Paso","Colorado Springs","CO","Colorado","80995","Mountain","38.82469","-104.562027"
"(303) 541-","Landline","Jefferson","Denver","CO","Colorado","80212","Mountain","39.768286","-105.049338"
"(719) 482-","Landline","El Paso","Colorado Springs","CO","Colorado","80995","Mountain","38.82469","-104.562027"
"(303) 477-","Landline","Denver","Denver","CO","Colorado","80212","Mountain","39.768286","-105.049338"
"(719) 955-","Landline","El Paso","Colorado Springs","CO","Colorado","80995","Mountain","38.82469","-104.562027"
"(719) 573-","Landline","El Paso","Colorado Springs","CO","Colorado","80995","Mountain","38.82469","-104.562027"
"(303) 839-","Landline","Denver","Denver","CO","Colorado","80212","Mountain","39.768286","-105.049338"
"(970) 723-","Landline","Jackson","Walden","CO","Colorado","80480","Mountain","40.678825","-106.249045"
"(719) 886-","Landline","El Paso","Colorado Springs","CO","Colorado","80995","Mountain","38.82469","-104.562027"
"(970) 203-","Landline","Larimer","Loveland","CO","Colorado","80537","Mountain","40.553704","-105.266415"
"(303) 220-","Landline","Denver","Denver","CO","Colorado","80212","Mountain","39.768286","-105.049338"
"(719) 626-","Unknown","Chaffee","Salida","CO","Colorado","81201","Mountain","38.629119","-106.120582"
"(303) 288-","Landline","Denver","Denver","CO","Colorado","80212","Mountain","39.768286","-105.049338"
"(303) 586-","Unknown","Denver","Denver","CO","Colorado","80212","Mountain","39.768286","-105.049338"
"(970) 845-","Landline","Eagle","Vail","CO","Colorado","81658","Mountain","39.624171","-106.497314"
"(303) 689-","Landline","Denver","Denver","CO","Colorado","80212","Mountain","39.768286","-105.049338"
"(719) 596-","Landline","El Paso","Colorado Springs","CO","Colorado","80995","Mountain","38.82469","-104.562027"
"(303) 434-","Cell Number","Jefferson","Denver","CO","Colorado","80212","Mountain","39.768286","-105.049338"
"(303) 487-","Landline","Adams","Denver","CO","Colorado","80212","Mountain","39.768286","-105.049338"
"(719) 258-","Unknown","El Paso","Colorado Springs","CO","Colorado","80995","Mountain","38.82469","-104.562027"
"(303) 677-","Landline","Arapahoe","Aurora","CO","Colorado","80018","Mountain","39.689487","-104.67982"
"(303) 429-","Landline","Adams","Denver","CO","Colorado","80212","Mountain","39.768286","-105.049338"
"(970) 674-","Landline","Weld","Windsor","CO","Colorado","80550","Mountain","40.307972","-104.942467"
"(970) 872-","Landline","Delta","Hotchkiss","CO","Colorado","81419","Mountain","38.859973","-107.752349"
"(719) 207-","Cell Number","Chaffee","Salida","CO","Colorado","81201","Mountain","38.629119","-106.120582"
"(303) 605-","Landline","Denver","Denver","CO","Colorado","80212","Mountain","39.768286","-105.049338"
"(303) 951-","Landline","Denver","Denver","CO","Colorado","80212","Mountain","39.768286","-105.049338"
"(303) 743-","Landline","Arapahoe","Aurora","CO","Colorado","80018","Mountain","39.689487","-104.67982"
"(970) 385-","Landline","La Plata","Durango","CO","Colorado","81301","Mountain","37.318364","-107.880367"
"(303) 728-","Landline","Arapahoe","Denver","CO","Colorado","80212","Mountain","39.768286","-105.049338"
"(970) 378-","Landline","Weld","Greeley","CO","Colorado","80639","Mountain","40.399281","-104.70172"
"(719) 748-","Landline","Park","Lake George","CO","Colorado","80827","Mountain","38.980056","-105.514472"
"(303) 389-","Landline","Denver","Denver","CO","Colorado","80212","Mountain","39.768286","-105.049338"
"(970) 422-","Landline","La Plata","Durango","CO","Colorado","81301","Mountain","37.318364","-107.880367"
"(303) 526-","Landline","Jefferson","Golden","CO","Colorado","80403","Mountain","39.829821","-105.270395"
"(719) 383-","Landline","Otero","La Junta","CO","Colorado","81050","Mountain","37.954619","-103.664437"
"(303) 253-","Landline","Arapahoe","Denver","CO","Colorado","80212","Mountain","39.768286","-105.049338"
"(303) 262-","Landline","Denver","Denver","CO","Colorado","80212","Mountain","39.768286","-105.049338"
"(303) 949-","Cell Number","Denver","Denver","CO","Colorado","80212","Mountain","39.768286","-105.049338"
"(303) 960-","Cell Number","Jefferson","Denver","CO","Colorado","80212","Mountain","39.768286","-105.049338"
"(303) 608-","Landline","Denver","Denver","CO","Colorado","80212","Mountain","39.768286","-105.049338"
"(970) 319-","Cell Number","Garfield","Glenwood Springs","CO","Colorado","81601","Mountain","39.500281","-107.585235"
"(303) 507-","Cell Number","Jefferson","Denver","CO","Colorado","80212","Mountain","39.768286","-105.049338"
"(303) 669-","Cell Number","Jefferson","Denver","CO","Colorado","80212","Mountain","39.768286","-105.049338"
"(719) 331-","Cell Number","El Paso","Colorado Springs","CO","Colorado","80995","Mountain","38.82469","-104.562027"
"(303) 377-","Landline","Denver","Denver","CO","Colorado","80212","Mountain","39.768286","-105.049338"
"(719) 475-","Landline","El Paso","Colorado Springs","CO","Colorado","80995","Mountain","38.82469","-104.562027"
"(303) 499-","Landline","Jefferson","Denver","CO","Colorado","80212","Mountain","39.768286","-105.049338"
"(719) 353-","Unknown","Baca","Springfield","CO","Colorado","81073","Mountain","37.371522","-102.677359"
"(970) 308-","Cell Number","Larimer","Loveland","CO","Colorado","80537","Mountain","40.553704","-105.266415"
"(303) 383-","Landline","Denver","Denver","CO","Colorado","80212","Mountain","39.768286","-105.049338"
"(970) 379-","Cell Number","Garfield","Glenwood Springs","CO","Colorado","81601","Mountain","39.500281","-107.585235"
"(303) 595-","Landline","Denver","Denver","CO","Colorado","80212","Mountain","39.768286","-105.049338"
"(303) 748-","Cell Number","Jefferson","Denver","CO","Colorado","80212","Mountain","39.768286","-105.049338"
"(719) 882-","Unknown","Otero","Manzanola","CO","Colorado","81058","Mountain","38.082793","-103.885189"
"(303) 401-","Landline","Jefferson","Denver","CO","Colorado","80212","Mountain","39.768286","-105.049338"
"(970) 897-","Landline","Weld","Nunn","CO","Colorado","80648","Mountain","40.492804","-104.627586"
"(719) 674-","Unknown","Costilla","San Luis","CO","Colorado","81152","Mountain","37.106599","-105.47813"
"(303) 974-","Landline","Jefferson","Denver","CO","Colorado","80212","Mountain","39.768286","-105.049338"
"(970) 944-","Landline","Hinsdale","Lake City","CO","Colorado","81235","Mountain","38.026256","-107.276581"
"(719) 204-","Landline","Fremont","Canon City","CO","Colorado","81212","Mountain","38.477727","-105.507603"
"(719) 471-","Landline","El Paso","Colorado Springs","CO","Colorado","80995","Mountain","38.82469","-104.562027"
"(970) 676-","Unknown","Montezuma","Dolores","CO","Colorado","81323","Mountain","37.469333","-108.35245"
"(970) 680-","Landline","Weld","Platteville","CO","Colorado","80651","Mountain","40.217382","-104.712141"
"(970) 759-","Cell Number","La Plata","Durango","CO","Colorado","81301","Mountain","37.318364","-107.880367"
"(719) 385-","Landline","El Paso","Colorado Springs","CO","Colorado","80995","Mountain","38.82469","-104.562027"
"(303) 634-","Landline","Denver","Denver","CO","Colorado","80212","Mountain","39.768286","-105.049338"
"(719) 222-","Cell Number","El Paso","Colorado Springs","CO","Colorado","80995","Mountain","38.82469","-104.562027"
"(303) 838-","Landline","Jefferson","Denver","CO","Colorado","80212","Mountain","39.768286","-105.049338"
"(303) 889-","Landline","Denver","Denver","CO","Colorado","80212","Mountain","39.768286","-105.049338"
"(970) 579-","Unknown","Mesa","De Beque","CO","Colorado","81630","Mountain","39.292409","-108.210688"
"(303) 332-","Cell Number","Jefferson","Denver","CO","Colorado","80212","Mountain","39.768286","-105.049338"
"(719) 924-","Cell Number","Pueblo","Pueblo","CO","Colorado","81002","Mountain","38.128626","-104.552299"
"(303) 289-","Landline","Denver","Denver","CO","Colorado","80212","Mountain","39.768286","-105.049338"
"(303) 312-","Landline","Denver","Denver","CO","Colorado","80212","Mountain","39.768286","-105.049338"
"(719) 330-","Cell Number","El Paso","Colorado Springs","CO","Colorado","80995","Mountain","38.82469","-104.562027"
"(303) 664-","Landline","Jefferson","Denver","CO","Colorado","80212","Mountain","39.768286","-105.049338"
"(303) 933-","Landline","Jefferson","Denver","CO","Colorado","80212","Mountain","39.768286","-105.049338"
"(303) 355-","Landline","Denver","Denver","CO","Colorado","80212","Mountain","39.768286","-105.049338"
"(970) 947-","Landline","Garfield","Glenwood Springs","CO","Colorado","81601","Mountain","39.500281","-107.585235"
"(303) 509-","Cell Number","Jefferson","Denver","CO","Colorado","80212","Mountain","39.768286","-105.049338"
"(303) 240-","Cell Number","Jefferson","Denver","CO","Colorado","80212","Mountain","39.768286","-105.049338"
"(719) 209-","Cell Number","El Paso","Colorado Springs","CO","Colorado","80995","Mountain","38.82469","-104.562027"
"(303) 251-","Cell Number","Jefferson","Denver","CO","Colorado","80212","Mountain","39.768286","-105.049338"
"(303) 427-","Landline","Adams","Denver","CO","Colorado","80212","Mountain","39.768286","-105.049338"
"(970) 614-","Landline","Weld","La Salle","CO","Colorado","80645","Mountain","40.328185","-104.665639"
"(970) 943-","Landline","Gunnison","Gunnison","CO","Colorado","81230","Mountain","38.528323","-107.037294"
"(303) 946-","Cell Number","Jefferson","Denver","CO","Colorado","80212","Mountain","39.768286","-105.049338"
"(303) 612-","Cell Number","Jefferson","Denver","CO","Colorado","80212","Mountain","39.768286","-105.049338"
"(970) 574-","Cell Number","Moffat","Dinosaur","CO","Colorado","81633","Mountain","40.377031","-108.398991"
"(303) 957-","Landline","Jefferson","Denver","CO","Colorado","80212","Mountain","39.768286","-105.049338"
"(303) 581-","Landline","Jefferson","Denver","CO","Colorado","80212","Mountain","39.768286","-105.049338"
"(719) 579-","Landline","El Paso","Colorado Springs","CO","Colorado","80995","Mountain","38.82469","-104.562027"
"(970) 542-","Landline","Morgan","Fort Morgan","CO","Colorado","80701","Mountain","40.262591","-103.847648"
"(970) 788-","Unknown","La Plata","Ignacio","CO","Colorado","81137","Mountain","37.114844","-107.659745"
"(303) 445-","Landline","Jefferson","Denver","CO","Colorado","80212","Mountain","39.768286","-105.049338"
"(719) 772-","Unknown","El Paso","Colorado Springs","CO","Colorado","80995","Mountain","38.82469","-104.562027"
"(719) 859-","Cell Number","Las Animas","Trinidad","CO","Colorado","81082","Mountain","37.269059","-104.5038"
"(970) 703-","Landline","Weld","Platteville","CO","Colorado","80651","Mountain","40.217382","-104.712141"
"(303) 735-","Landline","Jefferson","Denver","CO","Colorado","80212","Mountain","39.768286","-105.049338"
"(303) 367-","Landline","Arapahoe","Aurora","CO","Colorado","80018","Mountain","39.689487","-104.67982"
"(303) 961-","Cell Number","Jefferson","Denver","CO","Colorado","80212","Mountain","39.768286","-105.049338"
"(970) 375-","Landline","La Plata","Durango","CO","Colorado","81301","Mountain","37.318364","-107.880367"
"(303) 984-","Landline","Jefferson","Denver","CO","Colorado","80212","Mountain","39.768286","-105.049338"
"(303) 528-","Cell Number","Jefferson","Denver","CO","Colorado","80212","Mountain","39.768286","-105.049338"
"(970) 239-","Landline","Ouray","Ridgway","CO","Colorado","81432","Mountain","38.177464","-107.72736"
"(303) 548-","Cell Number","Jefferson","Denver","CO","Colorado","80212","Mountain","39.768286","-105.049338"
"(719) 829-","Landline","Prowers","Wiley","CO","Colorado","81092","Mountain","38.189902","-102.705397"
"(303) 842-","Cell Number","Denver","Denver","CO","Colorado","80212","Mountain","39.768286","-105.049338"
"(303) 447-","Landline","Jefferson","Denver","CO","Colorado","80212","Mountain","39.768286","-105.049338"
"(719) 527-","Landline","El Paso","Colorado Springs","CO","Colorado","80995","Mountain","38.82469","-104.562027"
"(303) 444-","Landline","Jefferson","Denver","CO","Colorado","80212","Mountain","39.768286","-105.049338"
"(303) 463-","Landline","Jefferson","Denver","CO","Colorado","80212","Mountain","39.768286","-105.049338"
"(970) 660-","Landline","Weld","Johnstown","CO","Colorado","80534","Mountain","40.320091","-104.867196"
"(970) 478-","Unknown","Montrose","Redvale","CO","Colorado","81431","Mountain","38.192224","-108.415514"
"(719) 964-","Cell Number","El Paso","Colorado Springs","CO","Colorado","80995","Mountain","38.82469","-104.562027"
"(303) 207-","Cell Number","Jefferson","Denver","CO","Colorado","80212","Mountain","39.768286","-105.049338"
"(303) 376-","Landline","Denver","Denver","CO","Colorado","80212","Mountain","39.768286","-105.049338"
"(719) 662-","Unknown","Bent","Las Animas","CO","Colorado","81054","Mountain","37.923031","-103.088444"
"(719) 549-","Landline","Pueblo","Pueblo","CO","Colorado","81002","Mountain","38.128626","-104.552299"
"(303) 941-","Cell Number","Jefferson","Denver","CO","Colorado","80212","Mountain","39.768286","-105.049338"
"(970) 405-","Cell Number","Weld","Greeley","CO","Colorado","80639","Mountain","40.399281","-104.70172"
"(719) 572-","Landline","El Paso","Colorado Springs","CO","Colorado","80995","Mountain","38.82469","-104.562027"
"(303) 466-","Landline","Adams","Denver","CO","Colorado","80212","Mountain","39.768286","-105.049338"
"(970) 883-","Landline","La Plata","Ignacio","CO","Colorado","81137","Mountain","37.114844","-107.659745"
"(719) 246-","Unknown","El Paso","Colorado Springs","CO","Colorado","80995","Mountain","38.82469","-104.562027"
"(303) 277-","Landline","Jefferson","Golden","CO","Colorado","80403","Mountain","39.829821","-105.270395"
"(970) 881-","Landline","Larimer","Red Feather Lakes","CO","Colorado","80545","Mountain","40.610176","-105.638852"
"(970) 264-","Landline","Archuleta","Pagosa Springs","CO","Colorado","81147","Mountain","37.202251","-107.12619"
"(303) 388-","Landline","Denver","Denver","CO","Colorado","80212","Mountain","39.768286","-105.049338"
"(303) 913-","Cell Number","Jefferson","Denver","CO","Colorado","80212","Mountain","39.768286","-105.049338"
"(970) 826-","Landline","Moffat","Craig","CO","Colorado","81626","Mountain","40.667669","-107.783276"
"(719) 520-","Landline","El Paso","Colorado Springs","CO","Colorado","80995","Mountain","38.82469","-104.562027"
"(970) 388-","Cell Number","Weld","Windsor","CO","Colorado","80550","Mountain","40.307972","-104.942467"
"(719) 220-","Unknown","Las Animas","Branson","CO","Colorado","81027","Mountain","37.232444","-103.722865"
"(970) 739-","Cell Number","Montezuma","Cortez","CO","Colorado","81321","Mountain","37.373594","-108.662826"
"(303) 266-","Cell Number","Jefferson","Denver","CO","Colorado","80212","Mountain","39.768286","-105.049338"
"(970) 510-","Unknown","Garfield","Carbondale","CO","Colorado","81623","Mountain","39.476857","-107.38813"
"(303) 502-","Cell Number","Weld","Fort Lupton","CO","Colorado","80621","Mountain","40.363977","-104.650827"
"(719) 233-","Cell Number","El Paso","Colorado Springs","CO","Colorado","80995","Mountain","38.82469","-104.562027"
"(303) 505-","Cell Number","Jefferson","Denver","CO","Colorado","80212","Mountain","39.768286","-105.049338"
"(303) 878-","Cell Number","Jefferson","Denver","CO","Colorado","80212","Mountain","39.768286","-105.049338"
"(303) 280-","Landline","Adams","Denver","CO","Colorado","80212","Mountain","39.768286","-105.049338"
"(970) 557-","Landline","Grand","Granby","CO","Colorado","80446","Mountain","40.073869","-105.928533"
"(303) 982-","Landline","Jefferson","Golden","CO","Colorado","80403","Mountain","39.829821","-105.270395"
"(970) 624-","Unknown","Larimer","Loveland","CO","Colorado","80537","Mountain","40.553704","-105.266415"
"(719) 219-","Landline","El Paso","Colorado Springs","CO","Colorado","80995","Mountain","38.82469","-104.562027"
"(970) 572-","Unknown","Rio Blanco","Rangely","CO","Colorado","81648","Mountain","39.936331","-108.650793"
"(303) 309-","Landline","Jefferson","Denver","CO","Colorado","80212","Mountain","39.768286","-105.049338"
"(719) 667-","Landline","El Paso","Colorado Springs","CO","Colorado","80995","Mountain","38.82469","-104.562027"
"(303) 722-","Landline","Denver","Denver","CO","Colorado","80212","Mountain","39.768286","-105.049338"
"(719) 767-","Landline","Cheyenne","Cheyenne Wells","CO","Colorado","80810","Mountain","38.827259","-102.411537"
"(719) 540-","Landline","El Paso","Colorado Springs","CO","Colorado","80995","Mountain","38.82469","-104.562027"
"(719) 229-","Cell Number","El Paso","Colorado Springs","CO","Colorado","80995","Mountain","38.82469","-104.562027"
"(970) 808-","Unknown","Delta","Delta","CO","Colorado","81416","Mountain","38.785768","-107.97078"
"(303) 834-","Landline","Arapahoe","Longmont","CO","Colorado","80502","Mountain","40.087835","-105.373507"
"(303) 685-","Landline","Denver","Denver","CO","Colorado","80212","Mountain","39.768286","-105.049338"
"(970) 882-","Landline","Montezuma","Dolores","CO","Colorado","81323","Mountain","37.469333","-108.35245"
"(303) 963-","Landline","Denver","Denver","CO","Colorado","80212","Mountain","39.768286","-105.049338"
"(303) 421-","Landline","Jefferson","Denver","CO","Colorado","80212","Mountain","39.768286","-105.049338"
"(303) 580-","Cell Number","Jefferson","Denver","CO","Colorado","80212","Mountain","39.768286","-105.049338"
"(303) 535-","Landline","Weld","Fort Lupton","CO","Colorado","80621","Mountain","40.363977","-104.650827"
"(303) 715-","Landline","Denver","Denver","CO","Colorado","80212","Mountain","39.768286","-105.049338"
"(303) 620-","Landline","Denver","Denver","CO","Colorado","80212","Mountain","39.768286","-105.049338"
"(303) 331-","Landline","Denver","Denver","CO","Colorado","80212","Mountain","39.768286","-105.049338"
"(719) 439-","Cell Number","El Paso","Colorado Springs","CO","Colorado","80995","Mountain","38.82469","-104.562027"
"(303) 904-","Landline","Jefferson","Denver","CO","Colorado","80212","Mountain","39.768286","-105.049338"
"(719) 272-","Landline","El Paso","Colorado Springs","CO","Colorado","80995","Mountain","38.82469","-104.562027"
"(719) 554-","Landline","El Paso","Colorado Springs","CO","Colorado","80995","Mountain","38.82469","-104.562027"
"(303) 361-","Landline","Arapahoe","Aurora","CO","Colorado","80018","Mountain","39.689487","-104.67982"
"(970) 920-","Landline","Pitkin","Aspen","CO","Colorado","81611","Mountain","39.169324","-106.776744"
"(303) 775-","Cell Number","Boulder","Longmont","CO","Colorado","80502","Mountain","40.087835","-105.373507"
"(303) 628-","Landline","Denver","Denver","CO","Colorado","80212","Mountain","39.768286","-105.049338"
"(970) 259-","Landline","La Plata","Durango","CO","Colorado","81301","Mountain","37.318364","-107.880367"
"(719) 268-","Landline","El Paso","Colorado Springs","CO","Colorado","80995","Mountain","38.82469","-104.562027"
"(970) 570-","Cell Number","Montezuma","Cortez","CO","Colorado","81321","Mountain","37.373594","-108.662826"
"(719) 691-","Cell Number","Prowers","Wiley","CO","Colorado","81092","Mountain","38.189902","-102.705397"
"(303) 379-","Landline","Arapahoe","Denver","CO","Colorado","80212","Mountain","39.768286","-105.049338"
"(303) 513-","Cell Number","Jefferson","Denver","CO","Colorado","80212","Mountain","39.768286","-105.049338"
"(303) 871-","Landline","Denver","Denver","CO","Colorado","80212","Mountain","39.768286","-105.049338"
"(303) 661-","Landline","Jefferson","Denver","CO","Colorado","80212","Mountain","39.768286","-105.049338"
"(303) 733-","Landline","Denver","Denver","CO","Colorado","80212","Mountain","39.768286","-105.049338"
"(303) 872-","Landline","Denver","Denver","CO","Colorado","80212","Mountain","39.768286","-105.049338"
"(719) 729-","Landline","Kiowa","Sheridan Lake","CO","Colorado","81071","Mountain","38.441431","-102.604797"
"(719) 276-","Landline","Fremont","Canon City","CO","Colorado","81212","Mountain","38.477727","-105.507603"
"(970) 387-","Landline","Hinsdale","Lake City","CO","Colorado","81235","Mountain","38.026256","-107.276581"
"(719) 298-","Unknown","Alamosa","Alamosa","CO","Colorado","81102","Mountain","37.476026","-105.881779"
"(303) 483-","Landline","Denver","Denver","CO","Colorado","80212","Mountain","39.768286","-105.049338"
"(719) 485-","Landline","Pueblo","Beulah","CO","Colorado","81023","Mountain","38.127363","-104.63577"
"(303) 378-","Cell Number","Jefferson","Denver","CO","Colorado","80212","Mountain","39.768286","-105.049338"
"(719) 392-","Landline","El Paso","Colorado Springs","CO","Colorado","80995","Mountain","38.82469","-104.562027"
"(719) 334-","Cell Number","Pueblo","Pueblo","CO","Colorado","81002","Mountain","38.128626","-104.552299"
"(970) 515-","Landline","Weld","Greeley","CO","Colorado","80639","Mountain","40.399281","-104.70172"
"(303) 886-","Cell Number","Jefferson","Denver","CO","Colorado","80212","Mountain","39.768286","-105.049338"
"(303) 356-","Cell Number","Jefferson","Denver","CO","Colorado","80212","Mountain","39.768286","-105.049338"
"(303) 572-","Landline","Denver","Denver","CO","Colorado","80212","Mountain","39.768286","-105.049338"
"(970) 537-","Cell Number","Grand","Kremmling","CO","Colorado","80459","Mountain","40.147681","-106.378296"
"(303) 574-","Landline","Denver","Denver","CO","Colorado","80212","Mountain","39.768286","-105.049338"
"(303) 344-","Landline","Arapahoe","Aurora","CO","Colorado","80018","Mountain","39.689487","-104.67982"
"(303) 919-","Cell Number","Jefferson","Denver","CO","Colorado","80212","Mountain","39.768286","-105.049338"
"(719) 635-","Landline","El Paso","Colorado Springs","CO","Colorado","80995","Mountain","38.82469","-104.562027"
"(970) 202-","Cell Number","Larimer","Berthoud","CO","Colorado","80513","Mountain","40.530475","-105.321046"
"(719) 937-","Landline","Alamosa","Alamosa","CO","Colorado","81102","Mountain","37.476026","-105.881779"
"(303) 672-","Landline","Denver","Denver","CO","Colorado","80212","Mountain","39.768286","-105.049338"
"(303) 552-","Landline","Jefferson","Denver","CO","Colorado","80212","Mountain","39.768286","-105.049338"
"(303) 213-","Cell Number","Jefferson","Denver","CO","Colorado","80212","Mountain","39.768286","-105.049338"
"(719) 625-","Unknown","Otero","La Junta","CO","Colorado","81050","Mountain","37.954619","-103.664437"
"(303) 948-","Landline","Jefferson","Denver","CO","Colorado","80212","Mountain","39.768286","-105.049338"
"(719) 734-","Landline","Prowers","Holly","CO","Colorado","81047","Mountain","37.956511","-102.335202"
"(970) 612-","Landline","Larimer","Loveland","CO","Colorado","80537","Mountain","40.553704","-105.266415"
"(719) 655-","Landline","Saguache","Villa Grove","CO","Colorado","81155","Mountain","38.306022","-106.046577"
"(970) 564-","Landline","Montezuma","Cortez","CO","Colorado","81321","Mountain","37.373594","-108.662826"
"(719) 941-","Landline","Las Animas","Aguilar","CO","Colorado","81020","Mountain","37.381577","-104.653809"
"(719) 765-","Landline","Kit Carson","Flagler","CO","Colorado","80815","Mountain","39.32513","-102.783284"
"(719) 450-","Cell Number","El Paso","Colorado Springs","CO","Colorado","80995","Mountain","38.82469","-104.562027"
"(303) 783-","Landline","Denver","Denver","CO","Colorado","80212","Mountain","39.768286","-105.049338"
"(303) 237-","Landline","Jefferson","Denver","CO","Colorado","80212","Mountain","39.768286","-105.049338"
"(303) 318-","Landline","Denver","Denver","CO","Colorado","80212","Mountain","39.768286","-105.049338"
"(719) 239-","Cell Number","Chaffee","Salida","CO","Colorado","81201","Mountain","38.629119","-106.120582"
"(303) 789-","Landline","Denver","Denver","CO","Colorado","80212","Mountain","39.768286","-105.049338"
"(970) 316-","Cell Number","Ouray","Ridgway","CO","Colorado","81432","Mountain","38.177464","-107.72736"
"(719) 557-","Unknown","Pueblo","Pueblo","CO","Colorado","81002","Mountain","38.128626","-104.552299"
"(719) 980-","Cell Number","Otero","La Junta","CO","Colorado","81050","Mountain","37.954619","-103.664437"
"(303) 315-","Landline","Denver","Denver","CO","Colorado","80212","Mountain","39.768286","-105.049338"
"(303) 663-","Landline","Jefferson","Denver","CO","Colorado","80212","Mountain","39.768286","-105.049338"
"(303) 702-","Landline","Boulder","Longmont","CO","Colorado","80502","Mountain","40.087835","-105.373507"
"(303) 360-","Landline","Arapahoe","Aurora","CO","Colorado","80018","Mountain","39.689487","-104.67982"
"(970) 731-","Landline","Archuleta","Pagosa Springs","CO","Colorado","81147","Mountain","37.202251","-107.12619"
"(303) 704-","Landline","Denver","Denver","CO","Colorado","80212","Mountain","39.768286","-105.049338"
"(303) 470-","Landline","Douglas","Littleton","CO","Colorado","80166","Mountain","39.738752","-104.408349"
"(970) 875-","Landline","Routt","Steamboat Springs","CO","Colorado","80488","Mountain","40.619661","-106.860746"
"(719) 528-","Landline","El Paso","Colorado Springs","CO","Colorado","80995","Mountain","38.82469","-104.562027"
"(719) 200-","Cell Number","El Paso","Colorado Springs","CO","Colorado","80995","Mountain","38.82469","-104.562027"
"(970) 895-","Landline","Weld","Grover","CO","Colorado","80729","Mountain","40.820129","-104.168529"
"(719) 948-","Landline","Pueblo","Pueblo","CO","Colorado","81002","Mountain","38.128626","-104.552299"
"(970) 483-","Landline","Morgan","Wiggins","CO","Colorado","80654","Mountain","40.159839","-104.046791"
"(970) 350-","Landline","Weld","Greeley","CO","Colorado","80639","Mountain","40.399281","-104.70172"
"(719) 283-","Landline","Pueblo","Pueblo","CO","Colorado","81002","Mountain","38.128626","-104.552299"
"(303) 319-","Cell Number","Jefferson","Denver","CO","Colorado","80212","Mountain","39.768286","-105.049338"
"(303) 629-","Landline","Denver","Denver","CO","Colorado","80212","Mountain","39.768286","-105.049338"
"(303) 617-","Landline","Jefferson","Denver","CO","Colorado","80212","Mountain","39.768286","-105.049338"
"(719) 217-","Cell Number","El Paso","Colorado Springs","CO","Colorado","80995","Mountain","38.82469","-104.562027"
"(970) 381-","Cell Number","Weld","Greeley","CO","Colorado","80639","Mountain","40.399281","-104.70172"
"(970) 663-","Landline","Larimer","Loveland","CO","Colorado","80537","Mountain","40.553704","-105.266415"
"(303) 626-","Landline","Denver","Denver","CO","Colorado","80212","Mountain","39.768286","-105.049338"
"(303) 430-","Landline","Adams","Denver","CO","Colorado","80212","Mountain","39.768286","-105.049338"
"(719) 657-","Landline","Rio Grande","Del Norte","CO","Colorado","81132","Mountain","37.644684","-106.407311"
"(303) 343-","Landline","Arapahoe","Aurora","CO","Colorado","80018","Mountain","39.689487","-104.67982"
"(970) 580-","Cell Number","Logan","Sterling","CO","Colorado","80751","Mountain","40.715081","-103.211191"
"(970) 344-","Landline","Larimer","Berthoud","CO","Colorado","80513","Mountain","40.530475","-105.321046"
"(970) 476-","Landline","Eagle","Vail","CO","Colorado","81658","Mountain","39.624171","-106.497314"
"(303) 915-","Cell Number","Jefferson","Denver","CO","Colorado","80212","Mountain","39.768286","-105.049338"
"(719) 221-","Cell Number","Chaffee","Salida","CO","Colorado","81201","Mountain","38.629119","-106.120582"
"(719) 597-","Landline","El Paso","Colorado Springs","CO","Colorado","80995","Mountain","38.82469","-104.562027"
"(719) 469-","Cell Number","Otero","La Junta","CO","Colorado","81050","Mountain","37.954619","-103.664437"
"(303) 874-","Landline","Arapahoe","Englewood","CO","Colorado","80110","Mountain","39.648958","-104.973852"
"(719) 422-","Landline","Las Animas","Trinidad","CO","Colorado","81082","Mountain","37.269059","-104.5038"
"(303) 852-","Cell Number","Jefferson","Denver","CO","Colorado","80212","Mountain","39.768286","-105.049338"
"(719) 362-","Unknown","El Paso","Colorado Springs","CO","Colorado","80995","Mountain","38.82469","-104.562027"
"(719) 963-","Cell Number","El Paso","Colorado Springs","CO","Colorado","80995","Mountain","38.82469","-104.562027"
"(303) 274-","Landline","Jefferson","Denver","CO","Colorado","80212","Mountain","39.768286","-105.049338"
"(970) 235-","Unknown","Larimer","Estes Park","CO","Colorado","80517","Mountain","40.370748","-105.323971"
"(303) 848-","Landline","Boulder","Longmont","CO","Colorado","80502","Mountain","40.087835","-105.373507"
"(303) 516-","Landline","Jefferson","Denver","CO","Colorado","80212","Mountain","39.768286","-105.049338"
"(970) 290-","Cell Number","Larimer","Loveland","CO","Colorado","80537","Mountain","40.553704","-105.266415"
"(303) 313-","Landline","Denver","Denver","CO","Colorado","80212","Mountain","39.768286","-105.049338"
"(303) 510-","Cell Number","Jefferson","Denver","CO","Colorado","80212","Mountain","39.768286","-105.049338"
"(719) 388-","Landline","El Paso","Colorado Springs","CO","Colorado","80995","Mountain","38.82469","-104.562027"
"(719) 778-","Cell Number","Pueblo","Pueblo","CO","Colorado","81002","Mountain","38.128626","-104.552299"
"(970) 862-","Landline","Montrose","Cimarron","CO","Colorado","81220","Mountain","38.416326","-107.529303"
"(719) 624-","Unknown","Prowers","Holly","CO","Colorado","81047","Mountain","37.956511","-102.335202"
"(719) 974-","Unknown","Conejos","La Jara","CO","Colorado","81140","Mountain","37.276566","-106.007989"
"(970) 704-","Landline","Garfield","Carbondale","CO","Colorado","81623","Mountain","39.476857","-107.38813"
"(303) 988-","Landline","Jefferson","Denver","CO","Colorado","80212","Mountain","39.768286","-105.049338"
"(970) 968-","Landline","Summit","Breckenridge","CO","Colorado","80424","Mountain","39.475323","-106.022472"
"(303) 888-","Cell Number","Jefferson","Denver","CO","Colorado","80212","Mountain","39.768286","-105.049338"
"(970) 765-","Landline","Montrose","Montrose","CO","Colorado","81401","Mountain","38.443069","-108.050689"
"(719) 658-","Landline","Mineral","Creede","CO","Colorado","81130","Mountain","37.761293","-106.981852"
"(303) 752-","Landline","Arapahoe","Aurora","CO","Colorado","80018","Mountain","39.689487","-104.67982"
"(719) 645-","Unknown","El Paso","Colorado Springs","CO","Colorado","80995","Mountain","38.82469","-104.562027"
"(719) 740-","Cell Number","Lincoln","Limon","CO","Colorado","80828","Mountain","39.31654","-103.588908"
"(303) 890-","Cell Number","Jefferson","Denver","CO","Colorado","80212","Mountain","39.768286","-105.049338"
"(970) 648-","Unknown","Gunnison","Gunnison","CO","Colorado","81230","Mountain","38.528323","-107.037294"
"(970) 784-","Landline","Gunnison","Gunnison","CO","Colorado","81230","Mountain","38.528323","-107.037294"
"(970) 568-","Landline","Larimer","Wellington","CO","Colorado","80549","Mountain","40.795455","-105.085627"
"(970) 251-","Landline","Gunnison","Crested Butte","CO","Colorado","81225","Mountain","38.90056","-106.963148"
"(719) 364-","Unknown","El Paso","Colorado Springs","CO","Colorado","80995","Mountain","38.82469","-104.562027"
"(719) 210-","Cell Number","El Paso","Colorado Springs","CO","Colorado","80995","Mountain","38.82469","-104.562027"
"(970) 397-","Cell Number","Weld","Greeley","CO","Colorado","80639","Mountain","40.399281","-104.70172"
"(303) 972-","Landline","Jefferson","Denver","CO","Colorado","80212","Mountain","39.768286","-105.049338"
"(303) 291-","Landline","Denver","Denver","CO","Colorado","80212","Mountain","39.768286","-105.049338"
"(719) 524-","Landline","El Paso","Colorado Springs","CO","Colorado","80995","Mountain","38.82469","-104.562027"
"(303) 464-","Landline","Adams","Denver","CO","Colorado","80212","Mountain","39.768286","-105.049338"
"(303) 221-","Landline","Denver","Denver","CO","Colorado","80212","Mountain","39.768286","-105.049338"
"(303) 462-","Landline","Jefferson","Denver","CO","Colorado","80212","Mountain","39.768286","-105.049338"
"(303) 767-","Cell Number","Jefferson","Denver","CO","Colorado","80212","Mountain","39.768286","-105.049338"
"(719) 695-","Landline","Huerfano","Walsenburg","CO","Colorado","81089","Mountain","37.646467","-104.779815"
"(719) 345-","Unknown","Fremont","Canon City","CO","Colorado","81212","Mountain","38.477727","-105.507603"
"(303) 236-","Landline","Jefferson","Denver","CO","Colorado","80212","Mountain","39.768286","-105.049338"
"(970) 887-","Landline","Grand","Granby","CO","Colorado","80446","Mountain","40.073869","-105.928533"
"(719) 323-","Unknown","El Paso","Colorado Springs","CO","Colorado","80995","Mountain","38.82469","-104.562027"
"(303) 247-","Landline","Jefferson","Denver","CO","Colorado","80212","Mountain","39.768286","-105.049338"
"(303) 649-","Landline","Jefferson","Denver","CO","Colorado","80212","Mountain","39.768286","-105.049338"
"(303) 716-","Landline","Jefferson","Denver","CO","Colorado","80212","Mountain","39.768286","-105.049338"
"(303) 455-","Landline","Denver","Denver","CO","Colorado","80212","Mountain","39.768286","-105.049338"
"(719) 649-","Cell Number","El Paso","Colorado Springs","CO","Colorado","80995","Mountain","38.82469","-104.562027"
"(970) 317-","Unknown","La Plata","Durango","CO","Colorado","81301","Mountain","37.318364","-107.880367"
"(970) 437-","Landline","Weld","New Raymer","CO","Colorado","80742","Mountain","40.736271","-103.878656"
"(970) 667-","Landline","Larimer","Loveland","CO","Colorado","80537","Mountain","40.553704","-105.266415"
"(970) 514-","Unknown","Washington","Akron","CO","Colorado","80720","Mountain","40.073328","-103.202379"
"(303) 632-","Landline","Arapahoe","Denver","CO","Colorado","80212","Mountain","39.768286","-105.049338"
"(303) 480-","Landline","Denver","Denver","CO","Colorado","80212","Mountain","39.768286","-105.049338"
"(719) 252-","Cell Number","Pueblo","Pueblo","CO","Colorado","81002","Mountain","38.128626","-104.552299"
"(719) 931-","Cell Number","Prowers","Lamar","CO","Colorado","81052","Mountain","37.955488","-102.436416"
"(970) 799-","Cell Number","La Plata","Durango","CO","Colorado","81301","Mountain","37.318364","-107.880367"
"(303) 536-","Landline","Weld","Hudson","CO","Colorado","80642","Mountain","40.109353","-104.672306"
"(303) 824-","Landline","Arapahoe","Denver","CO","Colorado","80212","Mountain","39.768286","-105.049338"
"(719) 946-","Landline","Las Animas","Branson","CO","Colorado","81027","Mountain","37.232444","-103.722865"
"(970) 454-","Landline","Weld","Eaton","CO","Colorado","80615","Mountain","40.350055","-104.660412"
"(303) 405-","Landline","Denver","Denver","CO","Colorado","80212","Mountain","39.768286","-105.049338"
"(303) 766-","Landline","Jefferson","Denver","CO","Colorado","80212","Mountain","39.768286","-105.049338"
"(719) 760-","Cell Number","Lincoln","Limon","CO","Colorado","80828","Mountain","39.31654","-103.588908"
"(303) 978-","Landline","Jefferson","Denver","CO","Colorado","80212","Mountain","39.768286","-105.049338"
"(970) 281-","Cell Number","Grand","Granby","CO","Colorado","80446","Mountain","40.073869","-105.928533"
"(719) 745-","Unknown","Saguache","Saguache","CO","Colorado","81149","Mountain","38.181206","-106.351826"
"(970) 240-","Landline","Montrose","Montrose","CO","Colorado","81401","Mountain","38.443069","-108.050689"
"(970) 638-","Landline","Routt","Toponas","CO","Colorado","80479","Mountain","40.067609","-106.851718"
"(303) 603-","Landline","Denver","Denver","CO","Colorado","80212","Mountain","39.768286","-105.049338"
"(719) 538-","Landline","El Paso","Colorado Springs","CO","Colorado","80995","Mountain","38.82469","-104.562027"
"(970) 468-","Landline","Summit","Dillon","CO","Colorado","80435","Mountain","39.595212","-105.974117"
"(303) 713-","Landline","Denver","Denver","CO","Colorado","80212","Mountain","39.768286","-105.049338"
"(970) 923-","Landline","Pitkin","Aspen","CO","Colorado","81611","Mountain","39.169324","-106.776744"
"(719) 580-","Cell Number","Alamosa","Alamosa","CO","Colorado","81102","Mountain","37.476026","-105.881779"
"(970) 512-","Unknown","Dolores","Dove Creek","CO","Colorado","81324","Mountain","37.711532","-108.924334"
"(970) 450-","Landline","Rio Blanco","Rangely","CO","Colorado","81648","Mountain","39.936331","-108.650793"
"(303) 408-","Landline","Denver","Denver","CO","Colorado","80212","Mountain","39.768286","-105.049338"
"(970) 466-","Cell Number","Logan","Sterling","CO","Colorado","80751","Mountain","40.715081","-103.211191"
"(719) 544-","Landline","Pueblo","Pueblo","CO","Colorado","81002","Mountain","38.128626","-104.552299"
"(719) 631-","Unknown","Las Animas","Weston","CO","Colorado","81091","Mountain","37.190046","-104.795074"
"(303) 205-","Landline","Jefferson","Denver","CO","Colorado","80212","Mountain","39.768286","-105.049338"
"(719) 583-","Landline","Pueblo","Pueblo","CO","Colorado","81002","Mountain","38.128626","-104.552299"
"(719) 586-","Landline","Pueblo","Pueblo","CO","Colorado","81002","Mountain","38.128626","-104.552299"
"(303) 413-","Landline","Jefferson","Denver","CO","Colorado","80212","Mountain","39.768286","-105.049338"
"(303) 341-","Landline","Arapahoe","Aurora","CO","Colorado","80018","Mountain","39.689487","-104.67982"
"(303) 643-","Landline","Jefferson","Denver","CO","Colorado","80212","Mountain","39.768286","-105.049338"
"(970) 345-","Landline","Washington","Akron","CO","Colorado","80720","Mountain","40.073328","-103.202379"
"(970) 736-","Landline","Routt","Oak Creek","CO","Colorado","80467","Mountain","40.323272","-106.944274"
"(970) 406-","Cell Number","Summit","Dillon","CO","Colorado","80435","Mountain","39.595212","-105.974117"
"(719) 359-","Landline","El Paso","Colorado Springs","CO","Colorado","80995","Mountain","38.82469","-104.562027"
"(303) 732-","Landline","Weld","Keenesburg","CO","Colorado","80643","Mountain","40.085322","-104.506123"
"(970) 380-","Cell Number","Morgan","Fort Morgan","CO","Colorado","80701","Mountain","40.262591","-103.847648"
"(970) 269-","Cell Number","Moffat","Maybell","CO","Colorado","81640","Mountain","40.673756","-108.369943"
"(970) 398-","Cell Number","Archuleta","Pagosa Springs","CO","Colorado","81147","Mountain","37.202251","-107.12619"
"(303) 859-","Cell Number","Jefferson","Denver","CO","Colorado","80212","Mountain","39.768286","-105.049338"
"(303) 433-","Landline","Denver","Denver","CO","Colorado","80212","Mountain","39.768286","-105.049338"
"(303) 779-","Landline","Denver","Denver","CO","Colorado","80212","Mountain","39.768286","-105.049338"
"(719) 322-","Landline","El Paso","Fountain","CO","Colorado","80817","Mountain","38.663856","-104.652221"
"(303) 849-","Landline","Weld","Roggen","CO","Colorado","80652","Mountain","40.087777","-104.281976"
"(719) 393-","Landline","El Paso","Colorado Springs","CO","Colorado","80995","Mountain","38.82469","-104.562027"
"(303) 923-","Landline","Denver","Denver","CO","Colorado","80212","Mountain","39.768286","-105.049338"
"(303) 490-","Cell Number","Jefferson","Denver","CO","Colorado","80212","Mountain","39.768286","-105.049338"
"(970) 357-","Landline","Washington","Cope","CO","Colorado","80812","Mountain","39.684772","-102.99038"
"(303) 540-","Cell Number","Jefferson","Denver","CO","Colorado","80212","Mountain","39.768286","-105.049338"
"(303) 653-","Landline","Denver","Denver","CO","Colorado","80212","Mountain","39.768286","-105.049338"
"(303) 583-","Landline","Arapahoe","Denver","CO","Colorado","80212","Mountain","39.768286","-105.049338"
"(719) 363-","Unknown","Otero","La Junta","CO","Colorado","81050","Mountain","37.954619","-103.664437"
"(303) 321-","Landline","Denver","Denver","CO","Colorado","80212","Mountain","39.768286","-105.049338"
"(303) 968-","Landline","Denver","Denver","CO","Colorado","80212","Mountain","39.768286","-105.049338"
"(303) 820-","Landline","Denver","Denver","CO","Colorado","80212","Mountain","39.768286","-105.049338"
"(303) 867-","Landline","Jefferson","Denver","CO","Colorado","80212","Mountain","39.768286","-105.049338"
"(303) 245-","Landline","Jefferson","Denver","CO","Colorado","80212","Mountain","39.768286","-105.049338"
"(970) 586-","Landline","Larimer","Estes Park","CO","Colorado","80517","Mountain","40.370748","-105.323971"
"(303) 330-","Unknown","Denver","Denver","CO","Colorado","80212","Mountain","39.768286","-105.049338"
"(719) 293-","Landline","Lake","Leadville","CO","Colorado","80461","Mountain","39.21753","-106.35833"
"(303) 805-","Landline","Jefferson","Denver","CO","Colorado","80212","Mountain","39.768286","-105.049338"
"(970) 401-","Cell Number","Eagle","Vail","CO","Colorado","81658","Mountain","39.624171","-106.497314"
"(719) 671-","Cell Number","Pueblo","Pueblo","CO","Colorado","81002","Mountain","38.128626","-104.552299"
"(970) 763-","Landline","Eagle","Vail","CO","Colorado","81658","Mountain","39.624171","-106.497314"
"(719) 553-","Landline","Pueblo","Pueblo","CO","Colorado","81002","Mountain","38.128626","-104.552299"
"(303) 260-","Landline","Denver","Denver","CO","Colorado","80212","Mountain","39.768286","-105.049338"
"(719) 752-","Unknown","Baca","Two Buttes","CO","Colorado","81084","Mountain","37.521432","-102.433241"
"(719) 250-","Cell Number","Pueblo","Pueblo","CO","Colorado","81002","Mountain","38.128626","-104.552299"
"(303) 409-","Landline","Denver","Denver","CO","Colorado","80212","Mountain","39.768286","-105.049338"
"(303) 257-","Cell Number","Jefferson","Denver","CO","Colorado","80212","Mountain","39.768286","-105.049338"
"(303) 631-","Landline","Denver","Denver","CO","Colorado","80212","Mountain","39.768286","-105.049338"
"(719) 634-","Landline","El Paso","Colorado Springs","CO","Colorado","80995","Mountain","38.82469","-104.562027"
"(719) 577-","Landline","El Paso","Colorado Springs","CO","Colorado","80995","Mountain","38.82469","-104.562027"
"(719) 938-","Unknown","Conejos","Sanford","CO","Colorado","81151","Mountain","37.255221","-105.848097"
"(303) 554-","Landline","Jefferson","Denver","CO","Colorado","80212","Mountain","39.768286","-105.049338"
"(303) 742-","Landline","Denver","Denver","CO","Colorado","80212","Mountain","39.768286","-105.049338"
"(970) 431-","Unknown","Eagle","Gypsum","CO","Colorado","81637","Mountain","39.615505","-106.895722"
"(719) 428-","Unknown","El Paso","Colorado Springs","CO","Colorado","80995","Mountain","38.82469","-104.562027"
"(303) 549-","Cell Number","Jefferson","Denver","CO","Colorado","80212","Mountain","39.768286","-105.049338"
"(719) 826-","Unknown","Otero","Fowler","CO","Colorado","81039","Mountain","37.98146","-103.967799"
"(970) 333-","Cell Number","Summit","Dillon","CO","Colorado","80435","Mountain","39.595212","-105.974117"
"(719) 441-","Cell Number","El Paso","Colorado Springs","CO","Colorado","80995","Mountain","38.82469","-104.562027"
"(303) 602-","Landline","Denver","Denver","CO","Colorado","80212","Mountain","39.768286","-105.049338"
"(719) 425-","Unknown","El Paso","Colorado Springs","CO","Colorado","80995","Mountain","38.82469","-104.562027"
"(970) 480-","Landline","Larimer","Estes Park","CO","Colorado","80517","Mountain","40.370748","-105.323971"
"(303) 218-","Landline","Denver","Denver","CO","Colorado","80212","Mountain","39.768286","-105.049338"
"(303) 264-","Landline","Arapahoe","Denver","CO","Colorado","80212","Mountain","39.768286","-105.049338"
"(970) 748-","Landline","Eagle","Vail","CO","Colorado","81658","Mountain","39.624171","-106.497314"
"(719) 661-","Cell Number","El Paso","Colorado Springs","CO","Colorado","80995","Mountain","38.82469","-104.562027"
"(970) 521-","Landline","Logan","Sterling","CO","Colorado","80751","Mountain","40.715081","-103.211191"
"(719) 685-","Landline","El Paso","Manitou Springs","CO","Colorado","80829","Mountain","38.853366","-104.927452"
"(970) 798-","Unknown","Grand","Grand Lake","CO","Colorado","80447","Mountain","40.153982","-105.852209"
"(303) 393-","Landline","Denver","Denver","CO","Colorado","80212","Mountain","39.768286","-105.049338"
"(719) 846-","Landline","Las Animas","Trinidad","CO","Colorado","81082","Mountain","37.269059","-104.5038"
"(303) 394-","Landline","Denver","Denver","CO","Colorado","80212","Mountain","39.768286","-105.049338"
"(719) 563-","Cell Number","Baca","Springfield","CO","Colorado","81073","Mountain","37.371522","-102.677359"
"(970) 487-","Landline","Mesa","Collbran","CO","Colorado","81624","Mountain","39.205633","-107.929135"
"(970) 928-","Landline","Garfield","Glenwood Springs","CO","Colorado","81601","Mountain","39.500281","-107.585235"
"(970) 848-","Landline","Yuma","Yuma","CO","Colorado","80759","Mountain","40.061817","-102.618522"
"(719) 371-","Cell Number","Fremont","Canon City","CO","Colorado","81212","Mountain","38.477727","-105.507603"
"(970) 685-","Unknown","Larimer","Loveland","CO","Colorado","80537","Mountain","40.553704","-105.266415"
"(719) 689-","Landline","Teller","Cripple Creek","CO","Colorado","80813","Mountain","38.826084","-105.149874"
"(970) 673-","Landline","Weld","Greeley","CO","Colorado","80639","Mountain","40.399281","-104.70172"
"(303) 921-","Cell Number","Jefferson","Denver","CO","Colorado","80212","Mountain","39.768286","-105.049338"
"(303) 359-","Cell Number","Jefferson","Denver","CO","Colorado","80212","Mountain","39.768286","-105.049338"
"(719) 576-","Landline","El Paso","Colorado Springs","CO","Colorado","80995","Mountain","38.82469","-104.562027"
"(303) 423-","Landline","Jefferson","Denver","CO","Colorado","80212","Mountain","39.768286","-105.049338"
"(303) 514-","Cell Number","Jefferson","Denver","CO","Colorado","80212","Mountain","39.768286","-105.049338"
"(970) 588-","Landline","La Plata","Hesperus","CO","Colorado","81326","Mountain","37.205423","-108.138519"
"(303) 342-","Landline","Adams","Aurora","CO","Colorado","80018","Mountain","39.689487","-104.67982"
"(719) 445-","Unknown","El Paso","Colorado Springs","CO","Colorado","80995","Mountain","38.82469","-104.562027"
"(719) 571-","Unknown","El Paso","Colorado Springs","CO","Colorado","80995","Mountain","38.82469","-104.562027"
"(970) 540-","Landline","Delta","Delta","CO","Colorado","81416","Mountain","38.785768","-107.97078"
"(719) 329-","Landline","El Paso","Colorado Springs","CO","Colorado","80995","Mountain","38.82469","-104.562027"
"(719) 598-","Landline","El Paso","Colorado Springs","CO","Colorado","80995","Mountain","38.82469","-104.562027"
"(970) 785-","Landline","Weld","Platteville","CO","Colorado","80651","Mountain","40.217382","-104.712141"
"(970) 253-","Landline","Logan","Peetz","CO","Colorado","80747","Mountain","40.825442","-103.16182"
"(303) 347-","Landline","Jefferson","Denver","CO","Colorado","80212","Mountain","39.768286","-105.049338"
"(303) 987-","Landline","Jefferson","Denver","CO","Colorado","80212","Mountain","39.768286","-105.049338"
"(303) 841-","Landline","Jefferson","Denver","CO","Colorado","80212","Mountain","39.768286","-105.049338"
"(303) 517-","Cell Number","Jefferson","Denver","CO","Colorado","80212","Mountain","39.768286","-105.049338"
"(719) 622-","Landline","El Paso","Colorado Springs","CO","Colorado","80995","Mountain","38.82469","-104.562027"
"(970) 622-","Landline","Larimer","Loveland","CO","Colorado","80537","Mountain","40.553704","-105.266415"
"(970) 768-","Cell Number","Morgan","Fort Morgan","CO","Colorado","80701","Mountain","40.262591","-103.847648"
"(719) 235-","Landline","El Paso","Colorado Springs","CO","Colorado","80995","Mountain","38.82469","-104.562027"
"(719) 837-","Landline","Park","Hartsel","CO","Colorado","80449","Mountain","38.967262","-105.878811"
"(303) 308-","Landline","Denver","Denver","CO","Colorado","80212","Mountain","39.768286","-105.049338"
"(303) 678-","Landline","Boulder","Longmont","CO","Colorado","80502","Mountain","40.087835","-105.373507"
"(303) 880-","Cell Number","Jefferson","Denver","CO","Colorado","80212","Mountain","39.768286","-105.049338"
"(303) 324-","Cell Number","Jefferson","Denver","CO","Colorado","80212","Mountain","39.768286","-105.049338"
"(303) 990-","Unknown","Weld","Fort Lupton","CO","Colorado","80621","Mountain","40.363977","-104.650827"
"(303) 679-","Landline","Jefferson","Denver","CO","Colorado","80212","Mountain","39.768286","-105.049338"
"(303) 864-","Landline","Denver","Denver","CO","Colorado","80212","Mountain","39.768286","-105.049338"
"(719) 265-","Landline","El Paso","Colorado Springs","CO","Colorado","80995","Mountain","38.82469","-104.562027"
"(303) 600-","Landline","Arapahoe","Denver","CO","Colorado","80212","Mountain","39.768286","-105.049338"
"(970) 948-","Cell Number","Garfield","Glenwood Springs","CO","Colorado","81601","Mountain","39.500281","-107.585235"
"(303) 640-","Landline","Denver","Denver","CO","Colorado","80212","Mountain","39.768286","-105.049338"
"(719) 486-","Landline","Lake","Leadville","CO","Colorado","80461","Mountain","39.21753","-106.35833"
"(719) 390-","Landline","El Paso","Colorado Springs","CO","Colorado","80995","Mountain","38.82469","-104.562027"
"(303) 522-","Cell Number","Denver","Denver","CO","Colorado","80212","Mountain","39.768286","-105.049338"
"(303) 610-","Cell Number","Jefferson","Denver","CO","Colorado","80212","Mountain","39.768286","-105.049338"
"(303) 806-","Landline","Denver","Denver","CO","Colorado","80212","Mountain","39.768286","-105.049338"
"(719) 369-","Cell Number","Pueblo","Pueblo","CO","Colorado","81002","Mountain","38.128626","-104.552299"
"(303) 975-","Landline","Denver","Denver","CO","Colorado","80212","Mountain","39.768286","-105.049338"
"(719) 292-","Landline","Otero","La Junta","CO","Colorado","81050","Mountain","37.954619","-103.664437"
"(970) 547-","Landline","Summit","Breckenridge","CO","Colorado","80424","Mountain","39.475323","-106.022472"
"(303) 790-","Landline","Jefferson","Denver","CO","Colorado","80212","Mountain","39.768286","-105.049338"
"(970) 964-","Cell Number","Montrose","Montrose","CO","Colorado","81401","Mountain","38.443069","-108.050689"
"(303) 707-","Landline","Jefferson","Denver","CO","Colorado","80212","Mountain","39.768286","-105.049338"
"(970) 374-","Landline","Moffat","Dinosaur","CO","Colorado","81633","Mountain","40.377031","-108.398991"
"(719) 884-","Landline","El Paso","Colorado Springs","CO","Colorado","80995","Mountain","38.82469","-104.562027"
"(970) 764-","Landline","La Plata","Durango","CO","Colorado","81301","Mountain","37.318364","-107.880367"
"(303) 944-","Cell Number","Jefferson","Denver","CO","Colorado","80212","Mountain","39.768286","-105.049338"
"(303) 467-","Landline","Jefferson","Denver","CO","Colorado","80212","Mountain","39.768286","-105.049338"
"(970) 465-","Unknown","Eagle","Mc Coy","CO","Colorado","80463","Mountain","39.82712","-106.772151"
"(303) 905-","Cell Number","Jefferson","Denver","CO","Colorado","80212","Mountain","39.768286","-105.049338"
"(303) 808-","Cell Number","Jefferson","Denver","CO","Colorado","80212","Mountain","39.768286","-105.049338"
"(303) 508-","Cell Number","Jefferson","Denver","CO","Colorado","80212","Mountain","39.768286","-105.049338"
"(719) 839-","Cell Number","Park","Fairplay","CO","Colorado","80440","Mountain","39.149","-105.885893"
"(719) 442-","Landline","El Paso","Colorado Springs","CO","Colorado","80995","Mountain","38.82469","-104.562027"
"(303) 844-","Landline","Denver","Denver","CO","Colorado","80212","Mountain","39.768286","-105.049338"
"(719) 328-","Landline","El Paso","Colorado Springs","CO","Colorado","80995","Mountain","38.82469","-104.562027"
"(303) 338-","Landline","Arapahoe","Aurora","CO","Colorado","80018","Mountain","39.689487","-104.67982"
"(970) 734-","Cell Number","Routt","Steamboat Springs","CO","Colorado","80488","Mountain","40.619661","-106.860746"
"(970) 461-","Landline","Larimer","Loveland","CO","Colorado","80537","Mountain","40.553704","-105.266415"
"(303) 224-","Landline","Denver","Denver","CO","Colorado","80212","Mountain","39.768286","-105.049338"
"(719) 994-","Cell Number","Pueblo","Pueblo","CO","Colorado","81002","Mountain","38.128626","-104.552299"
"(970) 506-","Landline","Weld","Greeley","CO","Colorado","80639","Mountain","40.399281","-104.70172"
"(719) 890-","Cell Number","Huerfano","Walsenburg","CO","Colorado","81089","Mountain","37.646467","-104.779815"
"(719) 477-","Landline","El Paso","Colorado Springs","CO","Colorado","80995","Mountain","38.82469","-104.562027"
"(719) 310-","Cell Number","El Paso","Colorado Springs","CO","Colorado","80995","Mountain","38.82469","-104.562027"
"(719) 213-","Cell Number","El Paso","Colorado Springs","CO","Colorado","80995","Mountain","38.82469","-104.562027"
"(970) 576-","Cell Number","Weld","Greeley","CO","Colorado","80639","Mountain","40.399281","-104.70172"
"(303) 406-","Landline","Denver","Denver","CO","Colorado","80212","Mountain","39.768286","-105.049338"
"(303) 818-","Cell Number","Jefferson","Denver","CO","Colorado","80212","Mountain","39.768286","-105.049338"
"(303) 310-","Cell Number","Jefferson","Denver","CO","Colorado","80212","Mountain","39.768286","-105.049338"
"(719) 566-","Landline","Pueblo","Pueblo","CO","Colorado","81002","Mountain","38.128626","-104.552299"
"(303) 687-","Cell Number","Jefferson","Denver","CO","Colorado","80212","Mountain","39.768286","-105.049338"
"(303) 533-","Landline","Adams","Denver","CO","Colorado","80212","Mountain","39.768286","-105.049338"
"(719) 530-","Landline","Chaffee","Salida","CO","Colorado","81201","Mountain","38.629119","-106.120582"
"(303) 399-","Landline","Denver","Denver","CO","Colorado","80212","Mountain","39.768286","-105.049338"
"(303) 239-","Landline","Jefferson","Denver","CO","Colorado","80212","Mountain","39.768286","-105.049338"
"(303) 317-","Landline","Adams","Aurora","CO","Colorado","80018","Mountain","39.689487","-104.67982"
"(303) 346-","Landline","Douglas","Littleton","CO","Colorado","80166","Mountain","39.738752","-104.408349"
"(303) 292-","Landline","Denver","Denver","CO","Colorado","80212","Mountain","39.768286","-105.049338"
"(970) 238-","Unknown","La Plata","Hesperus","CO","Colorado","81326","Mountain","37.205423","-108.138519"
"(303) 828-","Landline","Jefferson","Denver","CO","Colorado","80212","Mountain","39.768286","-105.049338"
"(303) 241-","Cell Number","Jefferson","Denver","CO","Colorado","80212","Mountain","39.768286","-105.049338"
"(303) 607-","Landline","Denver","Denver","CO","Colorado","80212","Mountain","39.768286","-105.049338"
"(303) 542-","Landline","Denver","Denver","CO","Colorado","80212","Mountain","39.768286","-105.049338"
"(970) 309-","Cell Number","Garfield","Glenwood Springs","CO","Colorado","81601","Mountain","39.500281","-107.585235"
"(303) 786-","Landline","Jefferson","Denver","CO","Colorado","80212","Mountain","39.768286","-105.049338"
"(719) 866-","Landline","El Paso","Colorado Springs","CO","Colorado","80995","Mountain","38.82469","-104.562027"
"(719) 474-","Landline","El Paso","Colorado Springs","CO","Colorado","80995","Mountain","38.82469","-104.562027"
"(970) 499-","Unknown","Larimer","Red Feather Lakes","CO","Colorado","80545","Mountain","40.610176","-105.638852"
"(970) 444-","Landline","La Plata","Bayfield","CO","Colorado","81122","Mountain","37.292065","-107.736318"
"(303) 894-","Landline","Denver","Denver","CO","Colorado","80212","Mountain","39.768286","-105.049338"
"(719) 208-","Unknown","El Paso","Colorado Springs","CO","Colorado","80995","Mountain","38.82469","-104.562027"
"(970) 435-","Landline","Larimer","Red Feather Lakes","CO","Colorado","80545","Mountain","40.610176","-105.638852"
"(970) 865-","Landline","Montrose","Nucla","CO","Colorado","81424","Mountain","38.310689","-108.57669"
"(970) 885-","Landline","Sedgwick","Julesburg","CO","Colorado","80737","Mountain","40.875606","-102.351994"
"(970) 285-","Landline","Garfield","Parachute","CO","Colorado","81635","Mountain","39.458498","-107.878874"
"(303) 736-","Landline","Arapahoe","Denver","CO","Colorado","80212","Mountain","39.768286","-105.049338"
"(303) 750-","Landline","Arapahoe","Aurora","CO","Colorado","80018","Mountain","39.689487","-104.67982"
"(303) 527-","Landline","Jefferson","Denver","CO","Colorado","80212","Mountain","39.768286","-105.049338"
"(303) 991-","Landline","Jefferson","Denver","CO","Colorado","80212","Mountain","39.768286","-105.049338"
"(719) 529-","Cell Number","Baca","Springfield","CO","Colorado","81073","Mountain","37.371522","-102.677359"
"(303) 201-","Cell Number","Jefferson","Denver","CO","Colorado","80212","Mountain","39.768286","-105.049338"
"(970) 597-","Cell Number","Yuma","Eckley","CO","Colorado","80727","Mountain","40.061126","-102.4803"
"(970) 600-","Unknown","Weld","Windsor","CO","Colorado","80550","Mountain","40.307972","-104.942467"
"(970) 328-","Landline","Eagle","Gypsum","CO","Colorado","81637","Mountain","39.615505","-106.895722"
"(970) 352-","Landline","Weld","Greeley","CO","Colorado","80639","Mountain","40.399281","-104.70172"
"(719) 224-","Landline","El Paso","Fowler","CO","Colorado","81039","Mountain","37.98146","-103.967799"
"(303) 699-","Landline","Jefferson","Denver","CO","Colorado","80212","Mountain","39.768286","-105.049338"
"(719) 641-","Cell Number","El Paso","Colorado Springs","CO","Colorado","80995","Mountain","38.82469","-104.562027"
"(303) 562-","Landline","Jefferson","Denver","CO","Colorado","80212","Mountain","39.768286","-105.049338"
"(970) 447-","Cell Number","Grand","Granby","CO","Colorado","80446","Mountain","40.073869","-105.928533"
"(303) 992-","Landline","Denver","Denver","CO","Colorado","80212","Mountain","39.768286","-105.049338"
"(303) 906-","Cell Number","Jefferson","Denver","CO","Colorado","80212","Mountain","39.768286","-105.049338"
"(303) 851-","Cell Number","Jefferson","Denver","CO","Colorado","80212","Mountain","39.768286","-105.049338"
"(719) 537-","Landline","Prowers","Holly","CO","Colorado","81047","Mountain","37.956511","-102.335202"
"(303) 690-","Landline","Jefferson","Denver","CO","Colorado","80212","Mountain","39.768286","-105.049338"
"(303) 449-","Landline","Jefferson","Denver","CO","Colorado","80212","Mountain","39.768286","-105.049338"
"(303) 458-","Landline","Denver","Denver","CO","Colorado","80212","Mountain","39.768286","-105.049338"
"(970) 300-","Landline","Pitkin","Aspen","CO","Colorado","81611","Mountain","39.169324","-106.776744"
"(303) 650-","Landline","Adams","Denver","CO","Colorado","80212","Mountain","39.768286","-105.049338"
"(719) 489-","Landline","Pueblo","Beulah","CO","Colorado","81023","Mountain","38.127363","-104.63577"
"(719) 727-","Landline","Kiowa","Sheridan Lake","CO","Colorado","81071","Mountain","38.441431","-102.604797"
"(303) 940-","Landline","Jefferson","Denver","CO","Colorado","80212","Mountain","39.768286","-105.049338"
"(970) 573-","Unknown","Weld","Greeley","CO","Colorado","80639","Mountain","40.399281","-104.70172"
"(303) 857-","Landline","Weld","Fort Lupton","CO","Colorado","80621","Mountain","40.363977","-104.650827"
"(970) 962-","Landline","Larimer","Loveland","CO","Colorado","80537","Mountain","40.553704","-105.266415"
"(303) 234-","Landline","Jefferson","Denver","CO","Colorado","80212","Mountain","39.768286","-105.049338"
"(970) 304-","Landline","Weld","Greeley","CO","Colorado","80639","Mountain","40.399281","-104.70172"
"(970) 399-","Landline","Delta","Delta","CO","Colorado","81416","Mountain","38.785768","-107.97078"
"(719) 992-","Landline","Alamosa","Alamosa","CO","Colorado","81102","Mountain","37.476026","-105.881779"
"(970) 599-","Unknown","Larimer","Loveland","CO","Colorado","80537","Mountain","40.553704","-105.266415"
"(719) 821-","Cell Number","Pueblo","Pueblo","CO","Colorado","81002","Mountain","38.128626","-104.552299"
"(719) 575-","Landline","El Paso","Colorado Springs","CO","Colorado","80995","Mountain","38.82469","-104.562027"
"(719) 592-","Landline","El Paso","Colorado Springs","CO","Colorado","80995","Mountain","38.82469","-104.562027"
"(303) 337-","Landline","Arapahoe","Aurora","CO","Colorado","80018","Mountain","39.689487","-104.67982"
"(719) 339-","Cell Number","El Paso","Colorado Springs","CO","Colorado","80995","Mountain","38.82469","-104.562027"
"(719) 241-","Cell Number","Otero","La Junta","CO","Colorado","81050","Mountain","37.954619","-103.664437"
"(303) 929-","Cell Number","Jefferson","Denver","CO","Colorado","80212","Mountain","39.768286","-105.049338"
"(303) 827-","Landline","Boulder","Longmont","CO","Colorado","80502","Mountain","40.087835","-105.373507"
"(970) 538-","Landline","Ouray","Ridgway","CO","Colorado","81432","Mountain","38.177464","-107.72736"
"(719) 595-","Landline","Pueblo","Pueblo","CO","Colorado","81002","Mountain","38.128626","-104.552299"
"(303) 200-","Landline","Arapahoe","Denver","CO","Colorado","80212","Mountain","39.768286","-105.049338"
"(303) 887-","Cell Number","Jefferson","Denver","CO","Colorado","80212","Mountain","39.768286","-105.049338"
"(303) 271-","Landline","Jefferson","Golden","CO","Colorado","80403","Mountain","39.829821","-105.270395"
"(970) 336-","Landline","Weld","Greeley","CO","Colorado","80639","Mountain","40.399281","-104.70172"
"(970) 390-","Cell Number","Eagle","Vail","CO","Colorado","81658","Mountain","39.624171","-106.497314"
"(303) 836-","Cell Number","Jefferson","Denver","CO","Colorado","80212","Mountain","39.768286","-105.049338"
"(719) 260-","Landline","El Paso","Colorado Springs","CO","Colorado","80995","Mountain","38.82469","-104.562027"
"(303) 592-","Landline","Denver","Denver","CO","Colorado","80212","Mountain","39.768286","-105.049338"
"(303) 307-","Landline","Denver","Denver","CO","Colorado","80212","Mountain","39.768286","-105.049338"
"(303) 788-","Landline","Denver","Denver","CO","Colorado","80212","Mountain","39.768286","-105.049338"
"(303) 747-","Landline","Boulder","Allenspark","CO","Colorado","80510","Mountain","40.210184","-105.50795"
"(303) 204-","Cell Number","Jefferson","Denver","CO","Colorado","80212","Mountain","39.768286","-105.049338"
"(303) 829-","Cell Number","Jefferson","Denver","CO","Colorado","80212","Mountain","39.768286","-105.049338"
"(970) 835-","Landline","Delta","Eckert","CO","Colorado","81418","Mountain","38.87534","-107.961178"
"(719) 793-","Landline","Huerfano","Walsenburg","CO","Colorado","81089","Mountain","37.646467","-104.779815"
"(303) 646-","Landline","Jefferson","Denver","CO","Colorado","80212","Mountain","39.768286","-105.049338"
"(970) 368-","Landline","Summit","Dillon","CO","Colorado","80435","Mountain","39.595212","-105.974117"
"(303) 675-","Landline","Denver","Denver","CO","Colorado","80212","Mountain","39.768286","-105.049338"
"(303) 777-","Landline","Denver","Denver","CO","Colorado","80212","Mountain","39.768286","-105.049338"
"(303) 910-","Cell Number","Jefferson","Denver","CO","Colorado","80212","Mountain","39.768286","-105.049338"
"(970) 665-","Unknown","Garfield","Rifle","CO","Colorado","81650","Mountain","39.582273","-107.794723"
"(719) 454-","Unknown","Prowers","Holly","CO","Colorado","81047","Mountain","37.956511","-102.335202"
"(719) 316-","Unknown","Otero","Rocky Ford","CO","Colorado","81067","Mountain","37.995867","-103.708332"
"(970) 313-","Landline","Weld","Greeley","CO","Colorado","80639","Mountain","40.399281","-104.70172"
"(303) 729-","Landline","Denver","Denver","CO","Colorado","80212","Mountain","39.768286","-105.049338"
"(303) 621-","Landline","Jefferson","Denver","CO","Colorado","80212","Mountain","39.768286","-105.049338"
"(719) 297-","Landline","Lincoln","Limon","CO","Colorado","80828","Mountain","39.31654","-103.588908"
"(719) 236-","Cell Number","El Paso","Colorado Springs","CO","Colorado","80995","Mountain","38.82469","-104.562027"
"(303) 301-","Landline","Denver","Denver","CO","Colorado","80212","Mountain","39.768286","-105.049338"
"(303) 831-","Landline","Denver","Denver","CO","Colorado","80212","Mountain","39.768286","-105.049338"
"(303) 371-","Landline","Denver","Denver","CO","Colorado","80212","Mountain","39.768286","-105.049338"
"(719) 462-","Landline","Otero","Manzanola","CO","Colorado","81058","Mountain","38.082793","-103.885189"
"(303) 501-","Unknown","Denver","Denver","CO","Colorado","80212","Mountain","39.768286","-105.049338"
"(303) 314-","Landline","Denver","Denver","CO","Colorado","80212","Mountain","39.768286","-105.049338"
"(970) 729-","Cell Number","Ouray","Ridgway","CO","Colorado","81432","Mountain","38.177464","-107.72736"
"(719) 355-","Unknown","El Paso","Colorado Springs","CO","Colorado","80995","Mountain","38.82469","-104.562027"
"(303) 994-","Cell Number","Jefferson","Denver","CO","Colorado","80212","Mountain","39.768286","-105.049338"
"(719) 243-","Cell Number","El Paso","Colorado Springs","CO","Colorado","80995","Mountain","38.82469","-104.562027"
"(970) 459-","Landline","La Plata","Durango","CO","Colorado","81301","Mountain","37.318364","-107.880367"
"(303) 302-","Landline","Jefferson","Denver","CO","Colorado","80212","Mountain","39.768286","-105.049338"
"(719) 539-","Landline","Chaffee","Salida","CO","Colorado","81201","Mountain","38.629119","-106.120582"
"(303) 531-","Landline","Denver","Denver","CO","Colorado","80212","Mountain","39.768286","-105.049338"
"(303) 757-","Landline","Denver","Denver","CO","Colorado","80212","Mountain","39.768286","-105.049338"
"(303) 962-","Landline","Jefferson","Denver","CO","Colorado","80212","Mountain","39.768286","-105.049338"
"(303) 248-","Landline","Arapahoe","Denver","CO","Colorado","80212","Mountain","39.768286","-105.049338"
"(719) 448-","Landline","El Paso","Colorado Springs","CO","Colorado","80995","Mountain","38.82469","-104.562027"
"(303) 416-","Landline","Jefferson","Denver","CO","Colorado","80212","Mountain","39.768286","-105.049338"
"(303) 939-","Landline","Jefferson","Denver","CO","Colorado","80212","Mountain","39.768286","-105.049338"
"(719) 476-","Landline","El Paso","Colorado Springs","CO","Colorado","80995","Mountain","38.82469","-104.562027"
"(303) 936-","Landline","Denver","Denver","CO","Colorado","80212","Mountain","39.768286","-105.049338"
"(303) 627-","Landline","Jefferson","Denver","CO","Colorado","80212","Mountain","39.768286","-105.049338"
"(970) 967-","Landline","Montezuma","Mancos","CO","Colorado","81328","Mountain","37.336041","-108.468364"
"(303) 362-","Landline","Arapahoe","Denver","CO","Colorado","80212","Mountain","39.768286","-105.049338"
"(970) 277-","Landline","Pitkin","Aspen","CO","Colorado","81611","Mountain","39.169324","-106.776744"
"(303) 397-","Landline","Jefferson","Denver","CO","Colorado","80212","Mountain","39.768286","-105.049338"
"(303) 684-","Landline","Boulder","Longmont","CO","Colorado","80502","Mountain","40.087835","-105.373507"
"(970) 926-","Landline","Eagle","Vail","CO","Colorado","81658","Mountain","39.624171","-106.497314"
"(970) 688-","Landline","Eagle","Vail","CO","Colorado","81658","Mountain","39.624171","-106.497314"
"(303) 544-","Landline","Jefferson","Denver","CO","Colorado","80212","Mountain","39.768286","-105.049338"
"(303) 973-","Landline","Jefferson","Denver","CO","Colorado","80212","Mountain","39.768286","-105.049338"
"(303) 215-","Landline","Jefferson","Golden","CO","Colorado","80403","Mountain","39.829821","-105.270395"
"(970) 252-","Landline","Montrose","Montrose","CO","Colorado","81401","Mountain","38.443069","-108.050689"
"(970) 220-","Cell Number","Rio Blanco","Rangely","CO","Colorado","81648","Mountain","39.936331","-108.650793"
"(303) 712-","Landline","Denver","Denver","CO","Colorado","80212","Mountain","39.768286","-105.049338"
"(970) 842-","Landline","Morgan","Brush","CO","Colorado","80723","Mountain","40.218547","-103.613248"
"(970) 470-","Cell Number","Eagle","Vail","CO","Colorado","81658","Mountain","39.624171","-106.497314"
"(970) 847-","Landline","Morgan","Hillrose","CO","Colorado","80733","Mountain","40.345863","-103.505721"
"(719) 457-","Landline","El Paso","Colorado Springs","CO","Colorado","80995","Mountain","38.82469","-104.562027"
"(719) 332-","Cell Number","El Paso","Colorado Springs","CO","Colorado","80995","Mountain","38.82469","-104.562027"
"(719) 502-","Landline","El Paso","Colorado Springs","CO","Colorado","80995","Mountain","38.82469","-104.562027"
"(303) 803-","Landline","Jefferson","Denver","CO","Colorado","80212","Mountain","39.768286","-105.049338"
"(970) 725-","Landline","Grand","Parshall","CO","Colorado","80468","Mountain","39.953932","-106.093005"
"(303) 925-","Landline","Jefferson","Denver","CO","Colorado","80212","Mountain","39.768286","-105.049338"
"(303) 506-","Cell Number","Weld","Fort Lupton","CO","Colorado","80621","Mountain","40.363977","-104.650827"
"(970) 463-","Landline","Sedgwick","Ovid","CO","Colorado","80744","Mountain","40.875571","-102.358241"
"(719) 921-","Cell Number","El Paso","Colorado Springs","CO","Colorado","80995","Mountain","38.82469","-104.562027"
"(719) 852-","Landline","Rio Grande","Monte Vista","CO","Colorado","81144","Mountain","37.570515","-106.345624"
"(303) 469-","Landline","Adams","Denver","CO","Colorado","80212","Mountain","39.768286","-105.049338"
"(303) 668-","Cell Number","Jefferson","Denver","CO","Colorado","80212","Mountain","39.768286","-105.049338"
"(719) 668-","Landline","El Paso","Colorado Springs","CO","Colorado","80995","Mountain","38.82469","-104.562027"
"(719) 361-","Cell Number","Baca","Springfield","CO","Colorado","81073","Mountain","37.371522","-102.677359"
"(303) 642-","Landline","Jefferson","Denver","CO","Colorado","80212","Mountain","39.768286","-105.049338"
"(719) 892-","Cell Number","Lincoln","Limon","CO","Colorado","80828","Mountain","39.31654","-103.588908"
"(719) 510-","Cell Number","El Paso","Colorado Springs","CO","Colorado","80995","Mountain","38.82469","-104.562027"
"(303) 799-","Landline","Jefferson","Denver","CO","Colorado","80212","Mountain","39.768286","-105.049338"
"(970) 750-","Cell Number","Jackson","Walden","CO","Colorado","80480","Mountain","40.678825","-106.249045"
"(719) 743-","Landline","Lincoln","Hugo","CO","Colorado","80821","Mountain","39.022942","-103.457864"
"(970) 280-","Cell Number","Eagle","Gypsum","CO","Colorado","81637","Mountain","39.615505","-106.895722"
"(303) 369-","Landline","Arapahoe","Aurora","CO","Colorado","80018","Mountain","39.689487","-104.67982"
"(303) 495-","Landline","Denver","Denver","CO","Colorado","80212","Mountain","39.768286","-105.049338"
"(303) 749-","Landline","Arapahoe","Denver","CO","Colorado","80212","Mountain","39.768286","-105.049338"
"(303) 898-","Cell Number","Jefferson","Denver","CO","Colorado","80212","Mountain","39.768286","-105.049338"
"(970) 931-","Landline","Mesa","Gateway","CO","Colorado","81522","Mountain","38.678448","-108.971863"
"(719) 231-","Cell Number","El Paso","Colorado Springs","CO","Colorado","80995","Mountain","38.82469","-104.562027"
"(303) 855-","Cell Number","Jefferson","Denver","CO","Colorado","80212","Mountain","39.768286","-105.049338"
"(303) 380-","Landline","Denver","Denver","CO","Colorado","80212","Mountain","39.768286","-105.049338"
"(719) 468-","Cell Number","Otero","La Junta","CO","Colorado","81050","Mountain","37.954619","-103.664437"
"(970) 830-","Landline","Garfield","Parachute","CO","Colorado","81635","Mountain","39.458498","-107.878874"
"(970) 879-","Landline","Routt","Steamboat Springs","CO","Colorado","80488","Mountain","40.619661","-106.860746"
"(303) 854-","Landline","Denver","Denver","CO","Colorado","80212","Mountain","39.768286","-105.049338"
"(970) 268-","Landline","Mesa","Mesa","CO","Colorado","81643","Mountain","39.14932","-108.169723"
"(303) 412-","Landline","Adams","Denver","CO","Colorado","80212","Mountain","39.768286","-105.049338"
"(970) 756-","Cell Number","Moffat","Craig","CO","Colorado","81626","Mountain","40.667669","-107.783276"
"(719) 757-","Landline","El Paso","Colorado Springs","CO","Colorado","80995","Mountain","38.82469","-104.562027"
"(719) 499-","Cell Number","El Paso","Colorado Springs","CO","Colorado","80995","Mountain","38.82469","-104.562027"
"(303) 551-","Landline","Boulder","Louisville","CO","Colorado","80027","Mountain","39.980835","-105.269915"
"(719) 928-","Unknown","Otero","La Junta","CO","Colorado","81050","Mountain","37.954619","-103.664437"
"(970) 621-","Cell Number","Larimer","Berthoud","CO","Colorado","80513","Mountain","40.530475","-105.321046"
"(719) 585-","Landline","Pueblo","Pueblo","CO","Colorado","81002","Mountain","38.128626","-104.552299"
"(719) 679-","Cell Number","Las Animas","Trinidad","CO","Colorado","81082","Mountain","37.269059","-104.5038"
"(303) 682-","Landline","Boulder","Longmont","CO","Colorado","80502","Mountain","40.087835","-105.373507"
"(970) 353-","Landline","Weld","Greeley","CO","Colorado","80639","Mountain","40.399281","-104.70172"
"(719) 417-","Unknown","Crowley","Ordway","CO","Colorado","81034","Mountain","38.317851","-103.779959"
"(970) 840-","Unknown","Morgan","Brush","CO","Colorado","80723","Mountain","40.218547","-103.613248"
"(303) 822-","Landline","Arapahoe","Byers","CO","Colorado","80103","Mountain","39.652632","-104.162633"
"(303) 615-","Landline","Denver","Denver","CO","Colorado","80212","Mountain","39.768286","-105.049338"
"(970) 752-","Landline","Summit","Dillon","CO","Colorado","80435","Mountain","39.595212","-105.974117"
"(970) 299-","Landline","Montezuma","Cortez","CO","Colorado","81321","Mountain","37.373594","-108.662826"
"(970) 403-","Unknown","La Plata","Durango","CO","Colorado","81301","Mountain","37.318364","-107.880367"
"(719) 781-","Unknown","Baca","Walsh","CO","Colorado","81090","Mountain","37.368042","-102.265146"
"(719) 433-","Unknown","El Paso","Colorado Springs","CO","Colorado","80995","Mountain","38.82469","-104.562027"
"(303) 589-","Cell Number","Jefferson","Denver","CO","Colorado","80212","Mountain","39.768286","-105.049338"
"(970) 670-","Landline","Larimer","Berthoud","CO","Colorado","80513","Mountain","40.530475","-105.321046"
"(719) 982-","Unknown","Conejos","Antonito","CO","Colorado","81120","Mountain","37.135059","-106.190367"
"(719) 843-","Landline","Conejos","Sanford","CO","Colorado","81151","Mountain","37.255221","-105.848097"
"(970) 441-","Cell Number","Morgan","Fort Morgan","CO","Colorado","80701","Mountain","40.262591","-103.847648"
"(719) 340-","Cell Number","Kit Carson","Burlington","CO","Colorado","80807","Mountain","39.308966","-102.461287"
"(303) 657-","Landline","Adams","Denver","CO","Colorado","80212","Mountain","39.768286","-105.049338"
"(719) 203-","Landline","Alamosa","Colorado Springs","CO","Colorado","80995","Mountain","38.82469","-104.562027"
"(970) 629-","Cell Number","Moffat","Craig","CO","Colorado","81626","Mountain","40.667669","-107.783276"
"(970) 343-","Landline","Eagle","Vail","CO","Colorado","81658","Mountain","39.624171","-106.497314"
"(970) 279-","Landline","Eagle","Basalt","CO","Colorado","81621","Mountain","39.495223","-106.804842"
"(303) 281-","Landline","Denver","Denver","CO","Colorado","80212","Mountain","39.768286","-105.049338"
"(719) 352-","Landline","El Paso","Colorado Springs","CO","Colorado","80995","Mountain","38.82469","-104.562027"
"(970) 432-","Unknown","Eagle","Gypsum","CO","Colorado","81637","Mountain","39.615505","-106.895722"
"(719) 735-","Unknown","Custer","Westcliffe","CO","Colorado","81252","Mountain","38.095173","-105.421953"
"(303) 665-","Landline","Jefferson","Denver","CO","Colorado","80212","Mountain","39.768286","-105.049338"
"(303) 543-","Landline","Jefferson","Denver","CO","Colorado","80212","Mountain","39.768286","-105.049338"
"(970) 436-","Unknown","Hinsdale","Lake City","CO","Colorado","81235","Mountain","38.026256","-107.276581"
"(303) 442-","Landline","Jefferson","Denver","CO","Colorado","80212","Mountain","39.768286","-105.049338"
"(719) 294-","Unknown","Park","Lake George","CO","Colorado","80827","Mountain","38.980056","-105.514472"
"(970) 404-","Cell Number","Garfield","Glenwood Springs","CO","Colorado","81601","Mountain","39.500281","-107.585235"
"(719) 581-","Unknown","Chaffee","Buena Vista","CO","Colorado","81211","Mountain","38.885032","-106.179938"
"(303) 304-","Cell Number","Weld","Fort Lupton","CO","Colorado","80621","Mountain","40.363977","-104.650827"
"(719) 694-","Unknown","El Paso","Colorado Springs","CO","Colorado","80995","Mountain","38.82469","-104.562027"
"(303) 438-","Landline","Adams","Denver","CO","Colorado","80212","Mountain","39.768286","-105.049338"
"(970) 681-","Cell Number","Weld","Greeley","CO","Colorado","80639","Mountain","40.399281","-104.70172"
"(719) 536-","Landline","El Paso","Colorado Springs","CO","Colorado","80995","Mountain","38.82469","-104.562027"
"(303) 468-","Landline","Denver","Denver","CO","Colorado","80212","Mountain","39.768286","-105.049338"
"(719) 746-","Landline","Huerfano","Gardner","CO","Colorado","81040","Mountain","37.787772","-105.18487"
"(303) 792-","Landline","Jefferson","Denver","CO","Colorado","80212","Mountain","39.768286","-105.049338"
"(970) 274-","Cell Number","Garfield","Glenwood Springs","CO","Colorado","81601","Mountain","39.500281","-107.585235"
"(303) 500-","Landline","Weld","Hudson","CO","Colorado","80642","Mountain","40.109353","-104.672306"
"(303) 891-","Cell Number","Jefferson","Denver","CO","Colorado","80212","Mountain","39.768286","-105.049338"
"(970) 409-","Cell Number","Summit","Dillon","CO","Colorado","80435","Mountain","39.595212","-105.974117"
"(970) 930-","Cell Number","Garfield","Glenwood Springs","CO","Colorado","81601","Mountain","39.500281","-107.585235"
"(970) 571-","Cell Number","Logan","Sterling","CO","Colorado","80751","Mountain","40.715081","-103.211191"
"(303) 977-","Landline","Jefferson","Denver","CO","Colorado","80212","Mountain","39.768286","-105.049338"
"(303) 739-","Landline","Arapahoe","Aurora","CO","Colorado","80018","Mountain","39.689487","-104.67982"
"(719) 365-","Landline","El Paso","Colorado Springs","CO","Colorado","80995","Mountain","38.82469","-104.562027"
"(303) 896-","Landline","Denver","Denver","CO","Colorado","80212","Mountain","39.768286","-105.049338"
"(719) 452-","Unknown","El Paso","Colorado Springs","CO","Colorado","80995","Mountain","38.82469","-104.562027"
"(719) 287-","Cell Number","El Paso","Colorado Springs","CO","Colorado","80995","Mountain","38.82469","-104.562027"
"(719) 377-","Unknown","El Paso","Colorado Springs","CO","Colorado","80995","Mountain","38.82469","-104.562027"
"(303) 751-","Landline","Arapahoe","Aurora","CO","Colorado","80018","Mountain","39.689487","-104.67982"
"(970) 272-","Landline","Moffat","Maybell","CO","Colorado","81640","Mountain","40.673756","-108.369943"
"(970) 526-","Landline","Logan","Sterling","CO","Colorado","80751","Mountain","40.715081","-103.211191"
"(303) 418-","Landline","Denver","Aurora","CO","Colorado","80018","Mountain","39.689487","-104.67982"
"(303) 269-","Landline","Jefferson","Denver","CO","Colorado","80212","Mountain","39.768286","-105.049338"
"(303) 916-","Cell Number","Jefferson","Denver","CO","Colorado","80212","Mountain","39.768286","-105.049338"
"(303) 404-","Landline","Adams","Denver","CO","Colorado","80212","Mountain","39.768286","-105.049338"
"(970) 728-","Landline","Ouray","Ridgway","CO","Colorado","81432","Mountain","38.177464","-107.72736"
"(719) 304-","Landline","El Paso","Colorado Springs","CO","Colorado","80995","Mountain","38.82469","-104.562027"
"(303) 847-","Landline","Denver","Denver","CO","Colorado","80212","Mountain","39.768286","-105.049338"
"(970) 901-","Cell Number","Montrose","Montrose","CO","Colorado","81401","Mountain","38.443069","-108.050689"
"(970) 927-","Landline","Eagle","Basalt","CO","Colorado","81621","Mountain","39.495223","-106.804842"
"(719) 321-","Cell Number","El Paso","Colorado Springs","CO","Colorado","80995","Mountain","38.82469","-104.562027"
"(970) 453-","Landline","Summit","Breckenridge","CO","Colorado","80424","Mountain","39.475323","-106.022472"
"(303) 279-","Landline","Jefferson","Golden","CO","Colorado","80403","Mountain","39.829821","-105.270395"
"(970) 329-","Landline","Moffat","Craig","CO","Colorado","81626","Mountain","40.667669","-107.783276"
"(719) 535-","Landline","El Paso","Colorado Springs","CO","Colorado","80995","Mountain","38.82469","-104.562027"
"(970) 370-","Cell Number","Morgan","Fort Morgan","CO","Colorado","80701","Mountain","40.262591","-103.847648"
"(970) 619-","Landline","Larimer","Loveland","CO","Colorado","80537","Mountain","40.553704","-105.266415"
"(303) 730-","Landline","Jefferson","Denver","CO","Colorado","80212","Mountain","39.768286","-105.049338"
"(970) 544-","Landline","Pitkin","Aspen","CO","Colorado","81611","Mountain","39.169324","-106.776744"
"(303) 947-","Cell Number","Jefferson","Denver","CO","Colorado","80212","Mountain","39.768286","-105.049338"
"(970) 383-","Landline","Washington","Anton","CO","Colorado","80801","Mountain","39.690908","-103.137281"
"(970) 417-","Cell Number","Montrose","Montrose","CO","Colorado","81401","Mountain","38.443069","-108.050689"
"(303) 895-","Cell Number","Denver","Denver","CO","Colorado","80212","Mountain","39.768286","-105.049338"
"(303) 584-","Landline","Denver","Denver","CO","Colorado","80212","Mountain","39.768286","-105.049338"
"(719) 286-","Landline","Teller","Cripple Creek","CO","Colorado","80813","Mountain","38.826084","-105.149874"
"(719) 868-","Landline","Las Animas","Weston","CO","Colorado","81091","Mountain","37.190046","-104.795074"
"(303) 437-","Cell Number","Jefferson","Denver","CO","Colorado","80212","Mountain","39.768286","-105.049338"
"(303) 272-","Landline","Adams","Denver","CO","Colorado","80212","Mountain","39.768286","-105.049338"
"(970) 486-","Cell Number","Summit","Dillon","CO","Colorado","80435","Mountain","39.595212","-105.974117"
"(970) 618-","Cell Number","Garfield","Glenwood Springs","CO","Colorado","81601","Mountain","39.500281","-107.585235"
"(303) 230-","Cell Number","Jefferson","Denver","CO","Colorado","80212","Mountain","39.768286","-105.049338"
"(303) 385-","Landline","Denver","Denver","CO","Colorado","80212","Mountain","39.768286","-105.049338"
"(970) 283-","Landline","Mesa","Mesa","CO","Colorado","81643","Mountain","39.14932","-108.169723"
"(719) 343-","Cell Number","Kit Carson","Burlington","CO","Colorado","80807","Mountain","39.308966","-102.461287"
"(719) 593-","Landline","El Paso","Colorado Springs","CO","Colorado","80995","Mountain","38.82469","-104.562027"
"(719) 459-","Cell Number","El Paso","Colorado Springs","CO","Colorado","80995","Mountain","38.82469","-104.562027"
"(303) 268-","Landline","Denver","Denver","CO","Colorado","80212","Mountain","39.768286","-105.049338"
"(719) 687-","Landline","El Paso","Colorado Springs","CO","Colorado","80995","Mountain","38.82469","-104.562027"
"(719) 561-","Landline","Pueblo","Pueblo","CO","Colorado","81002","Mountain","38.128626","-104.552299"
"(303) 698-","Landline","Denver","Denver","CO","Colorado","80212","Mountain","39.768286","-105.049338"
"(719) 989-","Cell Number","Huerfano","Walsenburg","CO","Colorado","81089","Mountain","37.646467","-104.779815"
"(970) 867-","Landline","Morgan","Fort Morgan","CO","Colorado","80701","Mountain","40.262591","-103.847648"
"(719) 389-","Landline","El Paso","Colorado Springs","CO","Colorado","80995","Mountain","38.82469","-104.562027"
"(970) 522-","Landline","Logan","Sterling","CO","Colorado","80751","Mountain","40.715081","-103.211191"
"(303) 832-","Landline","Denver","Denver","CO","Colorado","80212","Mountain","39.768286","-105.049338"
"(303) 560-","Cell Number","Jefferson","Denver","CO","Colorado","80212","Mountain","39.768286","-105.049338"
"(303) 440-","Landline","Jefferson","Denver","CO","Colorado","80212","Mountain","39.768286","-105.049338"
"(303) 484-","Landline","Arapahoe","Denver","CO","Colorado","80212","Mountain","39.768286","-105.049338"
"(303) 660-","Landline","Jefferson","Denver","CO","Colorado","80212","Mountain","39.768286","-105.049338"
"(970) 596-","Cell Number","Montrose","Montrose","CO","Colorado","81401","Mountain","38.443069","-108.050689"
"(970) 760-","Landline","Summit","Dillon","CO","Colorado","80435","Mountain","39.595212","-105.974117"
"(303) 567-","Landline","Jefferson","Denver","CO","Colorado","80212","Mountain","39.768286","-105.049338"
"(303) 856-","Landline","Arapahoe","Englewood","CO","Colorado","80110","Mountain","39.648958","-104.973852"
"(719) 623-","Landline","El Paso","Colorado Springs","CO","Colorado","80995","Mountain","38.82469","-104.562027"
"(303) 823-","Landline","Boulder","Lyons","CO","Colorado","80540","Mountain","40.189788","-105.35528"
"(719) 754-","Landline","Rio Grande","Center","CO","Colorado","81125","Mountain","37.869875","-106.046711"
"(970) 668-","Landline","Summit","Dillon","CO","Colorado","80435","Mountain","39.595212","-105.974117"
"(970) 446-","Unknown","Eagle","Edwards","CO","Colorado","81632","Mountain","39.638166","-106.620644"
"(719) 498-","Landline","Baca","Walsh","CO","Colorado","81090","Mountain","37.368042","-102.265146"
"(303) 443-","Landline","Jefferson","Denver","CO","Colorado","80212","Mountain","39.768286","-105.049338"
"(303) 228-","Landline","Denver","Denver","CO","Colorado","80212","Mountain","39.768286","-105.049338"
"(970) 925-","Landline","Pitkin","Aspen","CO","Colorado","81611","Mountain","39.169324","-106.776744"
"(970) 949-","Landline","Eagle","Vail","CO","Colorado","81658","Mountain","39.624171","-106.497314"
"(303) 242-","Landline","Denver","Denver","CO","Colorado","80212","Mountain","39.768286","-105.049338"
"(303) 710-","Cell Number","Weld","Fort Lupton","CO","Colorado","80621","Mountain","40.363977","-104.650827"
"(303) 697-","Landline","Jefferson","Denver","CO","Colorado","80212","Mountain","39.768286","-105.049338"
"(303) 454-","Landline","Denver","Denver","CO","Colorado","80212","Mountain","39.768286","-105.049338"
"(970) 532-","Landline","Larimer","Berthoud","CO","Colorado","80513","Mountain","40.530475","-105.321046"
"(303) 575-","Landline","Denver","Denver","CO","Colorado","80212","Mountain","39.768286","-105.049338"
"(970) 769-","Cell Number","La Plata","Durango","CO","Colorado","81301","Mountain","37.318364","-107.880367"
"(303) 493-","Landline","Denver","Denver","CO","Colorado","80212","Mountain","39.768286","-105.049338"
"(719) 456-","Landline","Bent","Las Animas","CO","Colorado","81054","Mountain","37.923031","-103.088444"
"(303) 892-","Landline","Denver","Denver","CO","Colorado","80212","Mountain","39.768286","-105.049338"
"(303) 759-","Landline","Denver","Denver","CO","Colorado","80212","Mountain","39.768286","-105.049338"
"(970) 513-","Landline","Summit","Dillon","CO","Colorado","80435","Mountain","39.595212","-105.974117"
"(303) 285-","Landline","Denver","Denver","CO","Colorado","80212","Mountain","39.768286","-105.049338"
"(303) 814-","Landline","Jefferson","Denver","CO","Colorado","80212","Mountain","39.768286","-105.049338"
"(303) 782-","Landline","Denver","Denver","CO","Colorado","80212","Mountain","39.768286","-105.049338"
"(719) 542-","Landline","Pueblo","Pueblo","CO","Colorado","81002","Mountain","38.128626","-104.552299"
"(303) 286-","Landline","Denver","Denver","CO","Colorado","80212","Mountain","39.768286","-105.049338"
"(719) 853-","Landline","Otero","La Junta","CO","Colorado","81050","Mountain","37.954619","-103.664437"
"(303) 278-","Landline","Jefferson","Golden","CO","Colorado","80403","Mountain","39.829821","-105.270395"
"(303) 354-","Landline","Denver","Denver","CO","Colorado","80212","Mountain","39.768286","-105.049338"
"(719) 589-","Landline","Alamosa","Alamosa","CO","Colorado","81102","Mountain","37.476026","-105.881779"
"(303) 930-","Landline","Denver","Denver","CO","Colorado","80212","Mountain","39.768286","-105.049338"
"(303) 804-","Landline","Denver","Denver","CO","Colorado","80212","Mountain","39.768286","-105.049338"
"(970) 474-","Landline","Sedgwick","Julesburg","CO","Colorado","80737","Mountain","40.875606","-102.351994"
"(303) 909-","Cell Number","Jefferson","Denver","CO","Colorado","80212","Mountain","39.768286","-105.049338"
"(303) 591-","Cell Number","Jefferson","Denver","CO","Colorado","80212","Mountain","39.768286","-105.049338"
"(303) 840-","Landline","Jefferson","Denver","CO","Colorado","80212","Mountain","39.768286","-105.049338"
"(303) 680-","Landline","Jefferson","Denver","CO","Colorado","80212","Mountain","39.768286","-105.049338"
"(970) 715-","Unknown","Garfield","New Castle","CO","Colorado","81647","Mountain","39.597433","-107.566159"
"(970) 626-","Landline","Ouray","Ridgway","CO","Colorado","81432","Mountain","38.177464","-107.72736"
"(303) 908-","Cell Number","Jefferson","Denver","CO","Colorado","80212","Mountain","39.768286","-105.049338"
"(303) 754-","Landline","Jefferson","Denver","CO","Colorado","80212","Mountain","39.768286","-105.049338"
"(970) 395-","Landline","Weld","Greeley","CO","Colorado","80639","Mountain","40.399281","-104.70172"
"(303) 996-","Landline","Jefferson","Denver","CO","Colorado","80212","Mountain","39.768286","-105.049338"
"(719) 526-","Landline","El Paso","Colorado Springs","CO","Colorado","80995","Mountain","38.82469","-104.562027"
"(303) 825-","Landline","Denver","Denver","CO","Colorado","80212","Mountain","39.768286","-105.049338"
"(303) 348-","Landline","Adams","Aurora","CO","Colorado","80018","Mountain","39.689487","-104.67982"
"(970) 334-","Landline","Logan","Peetz","CO","Colorado","80747","Mountain","40.825442","-103.16182"
"(719) 545-","Landline","Pueblo","Pueblo","CO","Colorado","81002","Mountain","38.128626","-104.552299"
"(303) 830-","Landline","Denver","Denver","CO","Colorado","80212","Mountain","39.768286","-105.049338"
"(719) 850-","Cell Number","Rio Grande","Monte Vista","CO","Colorado","81144","Mountain","37.570515","-106.345624"
"(303) 512-","Landline","Denver","Denver","CO","Colorado","80212","Mountain","39.768286","-105.049338"
"(303) 673-","Landline","Jefferson","Denver","CO","Colorado","80212","Mountain","39.768286","-105.049338"
"(303) 403-","Landline","Jefferson","Denver","CO","Colorado","80212","Mountain","39.768286","-105.049338"
"(303) 420-","Landline","Jefferson","Denver","CO","Colorado","80212","Mountain","39.768286","-105.049338"
"(970) 858-","Landline","Mesa","Fruita","CO","Colorado","81521","Mountain","39.149614","-108.685164"
"(970) 777-","Landline","Eagle","Gypsum","CO","Colorado","81637","Mountain","39.615505","-106.895722"
"(719) 291-","Cell Number","El Paso","Colorado Springs","CO","Colorado","80995","Mountain","38.82469","-104.562027"
"(970) 922-","Landline","Pitkin","Aspen","CO","Colorado","81611","Mountain","39.169324","-106.776744"
"(970) 620-","Cell Number","Moffat","Craig","CO","Colorado","81626","Mountain","40.667669","-107.783276"
"(970) 278-","Landline","Larimer","Loveland","CO","Colorado","80537","Mountain","40.553704","-105.266415"
"(303) 300-","Landline","Denver","Denver","CO","Colorado","80212","Mountain","39.768286","-105.049338"
"(970) 428-","Unknown","Montrose","Montrose","CO","Colorado","81401","Mountain","38.443069","-108.050689"
"(719) 633-","Landline","El Paso","Colorado Springs","CO","Colorado","80995","Mountain","38.82469","-104.562027"
"(719) 376-","Landline","Conejos","Antonito","CO","Colorado","81120","Mountain","37.135059","-106.190367"
"(970) 230-","Cell Number","Garfield","Glenwood Springs","CO","Colorado","81601","Mountain","39.500281","-107.585235"
"(303) 488-","Landline","Denver","Denver","CO","Colorado","80212","Mountain","39.768286","-105.049338"
"(970) 440-","Landline","Garfield","Rifle","CO","Colorado","81650","Mountain","39.582273","-107.794723"
"(970) 977-","Cell Number","Eagle","Vail","CO","Colorado","81658","Mountain","39.624171","-106.497314"
"(303) 858-","Landline","Jefferson","Denver","CO","Colorado","80212","Mountain","39.768286","-105.049338"
"(970) 293-","Unknown","Larimer","Red Feather Lakes","CO","Colorado","80545","Mountain","40.610176","-105.638852"
"(970) 359-","Landline","Yuma","Eckley","CO","Colorado","80727","Mountain","40.061126","-102.4803"
"(970) 376-","Cell Number","Eagle","Vail","CO","Colorado","81658","Mountain","39.624171","-106.497314"
"(303) 798-","Landline","Jefferson","Denver","CO","Colorado","80212","Mountain","39.768286","-105.049338"
"(303) 683-","Landline","Douglas","Littleton","CO","Colorado","80166","Mountain","39.738752","-104.408349"
"(303) 817-","Cell Number","Jefferson","Denver","CO","Colorado","80212","Mountain","39.768286","-105.049338"
"(303) 441-","Landline","Jefferson","Denver","CO","Colorado","80212","Mountain","39.768286","-105.049338"
"(970) 392-","Landline","Weld","Greeley","CO","Colorado","80639","Mountain","40.399281","-104.70172"
"(303) 926-","Landline","Jefferson","Denver","CO","Colorado","80212","Mountain","39.768286","-105.049338"
"(303) 875-","Cell Number","Jefferson","Denver","CO","Colorado","80212","Mountain","39.768286","-105.049338"
"(970) 460-","Unknown","Weld","Windsor","CO","Colorado","80550","Mountain","40.307972","-104.942467"
"(719) 381-","Landline","El Paso","Colorado Springs","CO","Colorado","80995","Mountain","38.82469","-104.562027"
"(970) 320-","Cell Number","Garfield","Glenwood Springs","CO","Colorado","81601","Mountain","39.500281","-107.585235"
"(719) 360-","Cell Number","El Paso","Colorado Springs","CO","Colorado","80995","Mountain","38.82469","-104.562027"
"(719) 423-","Landline","Pueblo","Pueblo","CO","Colorado","81002","Mountain","38.128626","-104.552299"
"(303) 945-","Landline","Denver","Denver","CO","Colorado","80212","Mountain","39.768286","-105.049338"
"(719) 458-","Unknown","Fremont","Canon City","CO","Colorado","81212","Mountain","38.477727","-105.507603"
"(303) 523-","Cell Number","Jefferson","Denver","CO","Colorado","80212","Mountain","39.768286","-105.049338"
"(303) 776-","Landline","Boulder","Longmont","CO","Colorado","80502","Mountain","40.087835","-105.373507"
"(970) 587-","Landline","Weld","Johnstown","CO","Colorado","80534","Mountain","40.320091","-104.867196"
"(303) 709-","Cell Number","Boulder","Longmont","CO","Colorado","80502","Mountain","40.087835","-105.373507"
"(303) 758-","Landline","Denver","Denver","CO","Colorado","80212","Mountain","39.768286","-105.049338"
"(970) 824-","Landline","Moffat","Craig","CO","Colorado","81626","Mountain","40.667669","-107.783276"
"(303) 763-","Landline","Jefferson","Denver","CO","Colorado","80212","Mountain","39.768286","-105.049338"
"(719) 487-","Landline","El Paso","Colorado Springs","CO","Colorado","80995","Mountain","38.82469","-104.562027"
"(970) 846-","Cell Number","Routt","Steamboat Springs","CO","Colorado","80488","Mountain","40.619661","-106.860746"
"(970) 876-","Landline","Garfield","Silt","CO","Colorado","81652","Mountain","39.502817","-107.665664"
"(303) 582-","Landline","Jefferson","Denver","CO","Colorado","80212","Mountain","39.768286","-105.049338"
"(303) 667-","Cell Number","Jefferson","Denver","CO","Colorado","80212","Mountain","39.768286","-105.049338"
"(719) 552-","Unknown","El Paso","Colorado Springs","CO","Colorado","80995","Mountain","38.82469","-104.562027"
"(303) 606-","Landline","Denver","Denver","CO","Colorado","80212","Mountain","39.768286","-105.049338"
"(970) 639-","Landline","Mesa","Fruita","CO","Colorado","81521","Mountain","39.149614","-108.685164"
"(303) 489-","Cell Number","Jefferson","Denver","CO","Colorado","80212","Mountain","39.768286","-105.049338"
"(970) 563-","Landline","La Plata","Ignacio","CO","Colorado","81137","Mountain","37.114844","-107.659745"
"(303) 693-","Landline","Jefferson","Denver","CO","Colorado","80212","Mountain","39.768286","-105.049338"
"(719) 775-","Landline","Lincoln","Limon","CO","Colorado","80828","Mountain","39.31654","-103.588908"
"(719) 288-","Landline","Pueblo","Pueblo","CO","Colorado","81002","Mountain","38.128626","-104.552299"
"(719) 205-","Cell Number","El Paso","Colorado Springs","CO","Colorado","80995","Mountain","38.82469","-104.562027"
"(303) 553-","Cell Number","Jefferson","Denver","CO","Colorado","80212","Mountain","39.768286","-105.049338"
"(970) 489-","Unknown","Weld","Carr","CO","Colorado","80612","Mountain","40.597204","-104.869798"
"(303) 387-","Landline","Denver","Denver","CO","Colorado","80212","Mountain","39.768286","-105.049338"
"(303) 448-","Landline","Jefferson","Denver","CO","Colorado","80212","Mountain","39.768286","-105.049338"
"(719) 630-","Landline","El Paso","Colorado Springs","CO","Colorado","80995","Mountain","38.82469","-104.562027"
"(970) 236-","Unknown","Pitkin","Aspen","CO","Colorado","81611","Mountain","39.169324","-106.776744"
"(719) 940-","Cell Number","Prowers","Lamar","CO","Colorado","81052","Mountain","37.955488","-102.436416"
"(303) 576-","Landline","Denver","Denver","CO","Colorado","80212","Mountain","39.768286","-105.049338"
"(970) 649-","Landline","Garfield","Rifle","CO","Colorado","81650","Mountain","39.582273","-107.794723"
"(719) 214-","Cell Number","Pueblo","Pueblo","CO","Colorado","81002","Mountain","38.128626","-104.552299"
"(303) 870-","Cell Number","Jefferson","Denver","CO","Colorado","80212","Mountain","39.768286","-105.049338"
"(970) 321-","Cell Number","Moffat","Craig","CO","Colorado","81626","Mountain","40.667669","-107.783276"
"(719) 873-","Landline","Rio Grande","Del Norte","CO","Colorado","81132","Mountain","37.644684","-106.407311"
"(303) 350-","Landline","Denver","Denver","CO","Colorado","80212","Mountain","39.768286","-105.049338"
"(970) 421-","Cell Number","Routt","Steamboat Springs","CO","Colorado","80488","Mountain","40.619661","-106.860746"
"(303) 741-","Landline","Denver","Denver","CO","Colorado","80212","Mountain","39.768286","-105.049338"
"(719) 262-","Landline","El Paso","Colorado Springs","CO","Colorado","80995","Mountain","38.82469","-104.562027"
"(303) 681-","Landline","Jefferson","Denver","CO","Colorado","80212","Mountain","39.768286","-105.049338"
"(303) 365-","Landline","Arapahoe","Aurora","CO","Colorado","80018","Mountain","39.689487","-104.67982"
"(303) 206-","Cell Number","Jefferson","Denver","CO","Colorado","80212","Mountain","39.768286","-105.049338"
"(303) 625-","Landline","Denver","Denver","CO","Colorado","80212","Mountain","39.768286","-105.049338"
"(303) 256-","Landline","Arapahoe","Denver","CO","Colorado","80212","Mountain","39.768286","-105.049338"
"(303) 897-","Cell Number","Jefferson","Denver","CO","Colorado","80212","Mountain","39.768286","-105.049338"
"(303) 981-","Cell Number","Jefferson","Denver","CO","Colorado","80212","Mountain","39.768286","-105.049338"
"(303) 320-","Landline","Denver","Denver","CO","Colorado","80212","Mountain","39.768286","-105.049338"
"(970) 984-","Landline","Garfield","New Castle","CO","Colorado","81647","Mountain","39.597433","-107.566159"
"(970) 856-","Landline","Delta","Cedaredge","CO","Colorado","81413","Mountain","38.881646","-107.795704"
"(719) 431-","Cell Number","Fremont","Canon City","CO","Colorado","81212","Mountain","38.477727","-105.507603"
"(303) 232-","Landline","Jefferson","Denver","CO","Colorado","80212","Mountain","39.768286","-105.049338"
"(719) 372-","Landline","Fremont","Penrose","CO","Colorado","81240","Mountain","38.414125","-105.047277"
"(970) 635-","Landline","Larimer","Loveland","CO","Colorado","80537","Mountain","40.553704","-105.266415"
"(719) 782-","Unknown","Huerfano","Gardner","CO","Colorado","81040","Mountain","37.787772","-105.18487"
"(970) 276-","Landline","Routt","Hayden","CO","Colorado","81639","Mountain","40.438195","-107.277181"
"(303) 641-","Cell Number","Denver","Denver","CO","Colorado","80212","Mountain","39.768286","-105.049338"
"(970) 594-","Unknown","Jackson","Walden","CO","Colorado","80480","Mountain","40.678825","-106.249045"
"(719) 314-","Landline","El Paso","Colorado Springs","CO","Colorado","80995","Mountain","38.82469","-104.562027"
"(970) 429-","Landline","Pitkin","Aspen","CO","Colorado","81611","Mountain","39.169324","-106.776744"
"(970) 337-","Landline","Eagle","Gypsum","CO","Colorado","81637","Mountain","39.615505","-106.895722"
"(303) 457-","Landline","Adams","Denver","CO","Colorado","80212","Mountain","39.768286","-105.049338"
"(970) 873-","Cell Number","Jackson","Walden","CO","Colorado","80480","Mountain","40.678825","-106.249045"
"(970) 708-","Cell Number","Ouray","Ridgway","CO","Colorado","81432","Mountain","38.177464","-107.72736"
"(719) 648-","Cell Number","El Paso","Colorado Springs","CO","Colorado","80995","Mountain","38.82469","-104.562027"
"(303) 705-","Landline","Jefferson","Denver","CO","Colorado","80212","Mountain","39.768286","-105.049338"
"(719) 721-","Landline","El Paso","Colorado Springs","CO","Colorado","80995","Mountain","38.82469","-104.562027"
"(303) 545-","Landline","Jefferson","Denver","CO","Colorado","80212","Mountain","39.768286","-105.049338"
"(970) 464-","Landline","Mesa","Palisade","CO","Colorado","81526","Mountain","39.095369","-108.299254"
"(303) 876-","Landline","Denver","Denver","CO","Colorado","80212","Mountain","39.768286","-105.049338"
"(719) 660-","Cell Number","El Paso","Colorado Springs","CO","Colorado","80995","Mountain","38.82469","-104.562027"
"(719) 947-","Landline","Pueblo","Avondale","CO","Colorado","81022","Mountain","38.102502","-104.529794"
"(719) 446-","Landline","Lincoln","Karval","CO","Colorado","80823","Mountain","38.806509","-103.474701"
"(303) 414-","Landline","Denver","Denver","CO","Colorado","80212","Mountain","39.768286","-105.049338"
"(303) 538-","Landline","Adams","Denver","CO","Colorado","80212","Mountain","39.768286","-105.049338"
"(303) 299-","Landline","Denver","Denver","CO","Colorado","80212","Mountain","39.768286","-105.049338"
"(719) 320-","Cell Number","Pueblo","Pueblo","CO","Colorado","81002","Mountain","38.128626","-104.552299"
"(970) 529-","Landline","Montezuma","Cortez","CO","Colorado","81321","Mountain","37.373594","-108.662826"
"(303) 695-","Landline","Arapahoe","Aurora","CO","Colorado","80018","Mountain","39.689487","-104.67982"
"(970) 335-","Cell Number","La Plata","Durango","CO","Colorado","81301","Mountain","37.318364","-107.880367"
"(719) 245-","Unknown","Rio Grande","Center","CO","Colorado","81125","Mountain","37.869875","-106.046711"
"(970) 978-","Cell Number","Weld","Greeley","CO","Colorado","80639","Mountain","40.399281","-104.70172"
"(970) 332-","Landline","Yuma","Wray","CO","Colorado","80758","Mountain","40.068525","-102.392973"
"(970) 389-","Cell Number","Summit","Dillon","CO","Colorado","80435","Mountain","39.595212","-105.974117"
"(970) 562-","Landline","Montezuma","Pleasant View","CO","Colorado","81331","Mountain","37.551564","-108.829926"
"(303) 989-","Landline","Jefferson","Denver","CO","Colorado","80212","Mountain","39.768286","-105.049338"
"(970) 348-","Landline","Weld","Greeley","CO","Colorado","80639","Mountain","40.399281","-104.70172"
"(970) 828-","Unknown","La Plata","Durango","CO","Colorado","81301","Mountain","37.318364","-107.880367"
"(970) 365-","Landline","Moffat","Maybell","CO","Colorado","81640","Mountain","40.673756","-108.369943"
"(719) 637-","Landline","El Paso","Colorado Springs","CO","Colorado","80995","Mountain","38.82469","-104.562027"
"(719) 284-","Landline","El Paso","Colorado Springs","CO","Colorado","80995","Mountain","38.82469","-104.562027"
"(303) 496-","Landline","Jefferson","Denver","CO","Colorado","80212","Mountain","39.768286","-105.049338"
"(303) 737-","Landline","Denver","Denver","CO","Colorado","80212","Mountain","39.768286","-105.049338"
"(303) 439-","Landline","Adams","Denver","CO","Colorado","80212","Mountain","39.768286","-105.049338"
"(303) 231-","Landline","Jefferson","Denver","CO","Colorado","80212","Mountain","39.768286","-105.049338"
"(970) 534-","Cell Number","Weld","Greeley","CO","Colorado","80639","Mountain","40.399281","-104.70172"
"(719) 256-","Landline","Saguache","Moffat","CO","Colorado","81143","Mountain","38.065284","-105.817955"
"(303) 720-","Unknown","Weld","Fort Lupton","CO","Colorado","80621","Mountain","40.363977","-104.650827"
"(303) 809-","Cell Number","Jefferson","Denver","CO","Colorado","80212","Mountain","39.768286","-105.049338"
"(719) 254-","Landline","Otero","Rocky Ford","CO","Colorado","81067","Mountain","37.995867","-103.708332"
"(719) 269-","Landline","Fremont","Canon City","CO","Colorado","81212","Mountain","38.477727","-105.507603"
"(719) 238-","Cell Number","El Paso","Colorado Springs","CO","Colorado","80995","Mountain","38.82469","-104.562027"
"(970) 656-","Landline","Weld","Briggsdale","CO","Colorado","80611","Mountain","40.443596","-104.240542"
"(303) 497-","Landline","Jefferson","Denver","CO","Colorado","80212","Mountain","39.768286","-105.049338"
"(719) 479-","Landline","Fremont","Howard","CO","Colorado","81233","Mountain","38.410012","-105.769848"
"(303) 267-","Landline","Denver","Denver","CO","Colorado","80212","Mountain","39.768286","-105.049338"
"(719) 505-","Unknown","El Paso","Colorado Springs","CO","Colorado","80995","Mountain","38.82469","-104.562027"
"(719) 279-","Cell Number","El Paso","Colorado Springs","CO","Colorado","80995","Mountain","38.82469","-104.562027"
"(303) 519-","Cell Number","Jefferson","Denver","CO","Colorado","80212","Mountain","39.768286","-105.049338"
"(719) 289-","Landline","Pueblo","Pueblo","CO","Colorado","81002","Mountain","38.128626","-104.552299"
"(719) 776-","Landline","El Paso","Colorado Springs","CO","Colorado","80995","Mountain","38.82469","-104.562027"
"(303) 670-","Landline","Jefferson","Denver","CO","Colorado","80212","Mountain","39.768286","-105.049338"
"(303) 202-","Landline","Jefferson","Denver","CO","Colorado","80212","Mountain","39.768286","-105.049338"
"(303) 723-","Landline","Arapahoe","Denver","CO","Colorado","80212","Mountain","39.768286","-105.049338"
"(970) 625-","Landline","Garfield","Rifle","CO","Colorado","81650","Mountain","39.582273","-107.794723"
"(303) 456-","Landline","Jefferson","Denver","CO","Colorado","80212","Mountain","39.768286","-105.049338"
"(303) 349-","Cell Number","Jefferson","Denver","CO","Colorado","80212","Mountain","39.768286","-105.049338"
"(303) 738-","Landline","Jefferson","Denver","CO","Colorado","80212","Mountain","39.768286","-105.049338"
"(719) 546-","Landline","Pueblo","Pueblo","CO","Colorado","81002","Mountain","38.128626","-104.552299"
"(303) 227-","Landline","Denver","Denver","CO","Colorado","80212","Mountain","39.768286","-105.049338"
"(719) 629-","Unknown","El Paso","Colorado Springs","CO","Colorado","80995","Mountain","38.82469","-104.562027"
"(970) 989-","Cell Number","Garfield","Glenwood Springs","CO","Colorado","81601","Mountain","39.500281","-107.585235"
"(719) 867-","Landline","El Paso","Colorado Springs","CO","Colorado","80995","Mountain","38.82469","-104.562027"
"(303) 258-","Landline","Jefferson","Denver","CO","Colorado","80212","Mountain","39.768286","-105.049338"
"(719) 578-","Landline","El Paso","Colorado Springs","CO","Colorado","80995","Mountain","38.82469","-104.562027"
"(719) 227-","Landline","El Paso","Colorado Springs","CO","Colorado","80995","Mountain","38.82469","-104.562027"
"(303) 578-","Unknown","Weld","Keenesburg","CO","Colorado","80643","Mountain","40.085322","-104.506123"
"(970) 347-","Landline","Weld","Greeley","CO","Colorado","80639","Mountain","40.399281","-104.70172"
"(303) 609-","Cell Number","Jefferson","Denver","CO","Colorado","80212","Mountain","39.768286","-105.049338"
"(303) 764-","Landline","Denver","Denver","CO","Colorado","80212","Mountain","39.768286","-105.049338"
"(970) 355-","Cell Number","Garfield","Glenwood Springs","CO","Colorado","81601","Mountain","39.500281","-107.585235"
"(719) 406-","Cell Number","Pueblo","Pueblo","CO","Colorado","81002","Mountain","38.128626","-104.552299"
"(303) 601-","Cell Number","Jefferson","Denver","CO","Colorado","80212","Mountain","39.768286","-105.049338"
"(970) 679-","Landline","Larimer","Loveland","CO","Colorado","80537","Mountain","40.553704","-105.266415"
"(719) 404-","Landline","Pueblo","Pueblo","CO","Colorado","81002","Mountain","38.128626","-104.552299"
"(303) 666-","Landline","Jefferson","Denver","CO","Colorado","80212","Mountain","39.768286","-105.049338"
"(303) 577-","Landline","Arapahoe","Aurora","CO","Colorado","80018","Mountain","39.689487","-104.67982"
"(303) 846-","Landline","Denver","Denver","CO","Colorado","80212","Mountain","39.768286","-105.049338"
"(970) 560-","Cell Number","Montezuma","Cortez","CO","Colorado","81321","Mountain","37.373594","-108.662826"
"(303) 585-","Landline","Denver","Denver","CO","Colorado","80212","Mountain","39.768286","-105.049338"
"(970) 779-","Cell Number","La Plata","Durango","CO","Colorado","81301","Mountain","37.318364","-107.880367"
"(970) 291-","Cell Number","Routt","Steamboat Springs","CO","Colorado","80488","Mountain","40.619661","-106.860746"
"(303) 326-","Landline","Arapahoe","Aurora","CO","Colorado","80018","Mountain","39.689487","-104.67982"
"(303) 937-","Landline","Denver","Denver","CO","Colorado","80212","Mountain","39.768286","-105.049338"
"(303) 717-","Cell Number","Weld","Fort Lupton","CO","Colorado","80621","Mountain","40.363977","-104.650827"
"(970) 662-","Landline","Weld","Carr","CO","Colorado","80612","Mountain","40.597204","-104.869798"
"(970) 884-","Landline","La Plata","Bayfield","CO","Colorado","81122","Mountain","37.292065","-107.736318"
"(303) 795-","Landline","Jefferson","Denver","CO","Colorado","80212","Mountain","39.768286","-105.049338"
"(719) 481-","Landline","El Paso","Colorado Springs","CO","Colorado","80995","Mountain","38.82469","-104.562027"
"(970) 553-","Cell Number","La Plata","Ignacio","CO","Colorado","81137","Mountain","37.114844","-107.659745"
"(970) 423-","Unknown","Summit","Breckenridge","CO","Colorado","80424","Mountain","39.475323","-106.022472"
"(970) 646-","Unknown","Larimer","Loveland","CO","Colorado","80537","Mountain","40.553704","-105.266415"
"(719) 358-","Unknown","El Paso","Colorado Springs","CO","Colorado","80995","Mountain","38.82469","-104.562027"
"(303) 633-","Landline","Denver","Denver","CO","Colorado","80212","Mountain","39.768286","-105.049338"
"(303) 353-","Landline","Denver","Denver","CO","Colorado","80212","Mountain","39.768286","-105.049338"
"(719) 799-","Landline","El Paso","Colorado Springs","CO","Colorado","80995","Mountain","38.82469","-104.562027"
"(303) 785-","Landline","Arapahoe","Englewood","CO","Colorado","80110","Mountain","39.648958","-104.973852"
"(970) 327-","Landline","Montrose","Nucla","CO","Colorado","81424","Mountain","38.310689","-108.57669"
"(719) 351-","Cell Number","El Paso","Colorado Springs","CO","Colorado","80995","Mountain","38.82469","-104.562027"
"(303) 928-","Landline","Denver","Denver","CO","Colorado","80212","Mountain","39.768286","-105.049338"
"(970) 819-","Cell Number","Routt","Steamboat Springs","CO","Colorado","80488","Mountain","40.619661","-106.860746"
"(303) 724-","Landline","Arapahoe","Aurora","CO","Colorado","80018","Mountain","39.689487","-104.67982"
"(970) 870-","Landline","Routt","Steamboat Springs","CO","Colorado","80488","Mountain","40.619661","-106.860746"
"(719) 567-","Landline","El Paso","Colorado Springs","CO","Colorado","80995","Mountain","38.82469","-104.562027"
"(303) 955-","Landline","Jefferson","Denver","CO","Colorado","80212","Mountain","39.768286","-105.049338"
"(303) 769-","Landline","Arapahoe","Deer Trail","CO","Colorado","80105","Mountain","39.659461","-103.948538"
"(303) 363-","Landline","Arapahoe","Aurora","CO","Colorado","80018","Mountain","39.689487","-104.67982"
"(719) 242-","Landline","Pueblo","Pueblo","CO","Colorado","81002","Mountain","38.128626","-104.552299"
"(303) 486-","Landline","Denver","Denver","CO","Colorado","80212","Mountain","39.768286","-105.049338"
"(719) 313-","Unknown","El Paso","Colorado Springs","CO","Colorado","80995","Mountain","38.82469","-104.562027"
"(719) 651-","Cell Number","El Paso","Colorado Springs","CO","Colorado","80995","Mountain","38.82469","-104.562027"
"(303) 485-","Landline","Boulder","Longmont","CO","Colorado","80502","Mountain","40.087835","-105.373507"
"(303) 481-","Landline","Denver","Denver","CO","Colorado","80212","Mountain","39.768286","-105.049338"
"(719) 763-","Landline","Lincoln","Limon","CO","Colorado","80828","Mountain","39.31654","-103.588908"
"(303) 396-","Landline","Jefferson","Denver","CO","Colorado","80212","Mountain","39.768286","-105.049338"
"(303) 869-","Landline","Denver","Denver","CO","Colorado","80212","Mountain","39.768286","-105.049338"
"(719) 302-","Landline","El Paso","Colorado Springs","CO","Colorado","80995","Mountain","38.82469","-104.562027"
"(303) 952-","Landline","Denver","Denver","CO","Colorado","80212","Mountain","39.768286","-105.049338"
"(970) 761-","Landline","Routt","Steamboat Springs","CO","Colorado","80488","Mountain","40.619661","-106.860746"
"(303) 801-","Landline","Denver","Denver","CO","Colorado","80212","Mountain","39.768286","-105.049338"
"(970) 318-","Cell Number","Ouray","Ridgway","CO","Colorado","81432","Mountain","38.177464","-107.72736"
"(303) 250-","Cell Number","Jefferson","Denver","CO","Colorado","80212","Mountain","39.768286","-105.049338"
"(970) 258-","Cell Number","Montrose","Montrose","CO","Colorado","81401","Mountain","38.443069","-108.050689"
"(970) 292-","Landline","Larimer","Loveland","CO","Colorado","80537","Mountain","40.553704","-105.266415"
"(719) 548-","Landline","El Paso","Colorado Springs","CO","Colorado","80995","Mountain","38.82469","-104.562027"
"(303) 446-","Landline","Denver","Denver","CO","Colorado","80212","Mountain","39.768286","-105.049338"
"(970) 630-","Cell Number","Yuma","Yuma","CO","Colorado","80759","Mountain","40.061817","-102.618522"
"(303) 791-","Landline","Douglas","Littleton","CO","Colorado","80166","Mountain","39.738752","-104.408349"
"(303) 579-","Cell Number","Jefferson","Denver","CO","Colorado","80212","Mountain","39.768286","-105.049338"
"(719) 680-","Cell Number","Las Animas","Trinidad","CO","Colorado","81082","Mountain","37.269059","-104.5038"
"(303) 214-","Landline","Denver","Aurora","CO","Colorado","80018","Mountain","39.689487","-104.67982"
"(303) 563-","Landline","Denver","Denver","CO","Colorado","80212","Mountain","39.768286","-105.049338"
"(970) 246-","Landline","Washington","Otis","CO","Colorado","80743","Mountain","40.163025","-103.042516"
"(970) 535-","Landline","Weld","Mead","CO","Colorado","80542","Mountain","40.327051","-104.893796"
"(719) 395-","Landline","Chaffee","Buena Vista","CO","Colorado","81211","Mountain","38.885032","-106.179938"
"(719) 650-","Cell Number","El Paso","Colorado Springs","CO","Colorado","80995","Mountain","38.82469","-104.562027"
"(719) 696-","Unknown","Pueblo","Pueblo","CO","Colorado","81002","Mountain","38.128626","-104.552299"
"(719) 636-","Landline","El Paso","Colorado Springs","CO","Colorado","80995","Mountain","38.82469","-104.562027"
"(303) 639-","Landline","Denver","Denver","CO","Colorado","80212","Mountain","39.768286","-105.049338"
"(970) 834-","Landline","Weld","Eaton","CO","Colorado","80615","Mountain","40.350055","-104.660412"
"(970) 669-","Landline","Larimer","Loveland","CO","Colorado","80537","Mountain","40.553704","-105.266415"
"(303) 474-","Landline","Arapahoe","Denver","CO","Colorado","80212","Mountain","39.768286","-105.049338"
"(303) 435-","Cell Number","Jefferson","Denver","CO","Colorado","80212","Mountain","39.768286","-105.049338"
"(970) 273-","Unknown","Eagle","Basalt","CO","Colorado","81621","Mountain","39.495223","-106.804842"
"(303) 696-","Landline","Arapahoe","Aurora","CO","Colorado","80018","Mountain","39.689487","-104.67982"
"(303) 725-","Cell Number","Denver","Denver","CO","Colorado","80212","Mountain","39.768286","-105.049338"
"(719) 582-","Cell Number","Pueblo","Pueblo","CO","Colorado","81002","Mountain","38.128626","-104.552299"
"(303) 259-","Cell Number","Jefferson","Denver","CO","Colorado","80212","Mountain","39.768286","-105.049338"
"(719) 444-","Landline","El Paso","Colorado Springs","CO","Colorado","80995","Mountain","38.82469","-104.562027"
"(719) 344-","Unknown","El Paso","Colorado Springs","CO","Colorado","80995","Mountain","38.82469","-104.562027"
"(303) 636-","Landline","Arapahoe","Aurora","CO","Colorado","80018","Mountain","39.689487","-104.67982"
"(719) 588-","Cell Number","Alamosa","Alamosa","CO","Colorado","81102","Mountain","37.476026","-105.881779"
"(970) 878-","Landline","Rio Blanco","Meeker","CO","Colorado","81641","Mountain","39.967864","-108.043592"
"(719) 488-","Landline","El Paso","Colorado Springs","CO","Colorado","80995","Mountain","38.82469","-104.562027"
"(719) 602-","Unknown","El Paso","Colorado Springs","CO","Colorado","80995","Mountain","38.82469","-104.562027"
"(970) 275-","Cell Number","Montrose","Montrose","CO","Colorado","81401","Mountain","38.443069","-108.050689"
"(719) 783-","Landline","Custer","Westcliffe","CO","Colorado","81252","Mountain","38.095173","-105.421953"
"(303) 774-","Landline","Boulder","Longmont","CO","Colorado","80502","Mountain","40.087835","-105.373507"
"(303) 816-","Landline","Jefferson","Denver","CO","Colorado","80212","Mountain","39.768286","-105.049338"
"(719) 556-","Landline","El Paso","Colorado Springs","CO","Colorado","80995","Mountain","38.82469","-104.562027"
"(970) 475-","Landline","Weld","Greeley","CO","Colorado","80639","Mountain","40.399281","-104.70172"
"(303) 860-","Landline","Denver","Denver","CO","Colorado","80212","Mountain","39.768286","-105.049338"
"(303) 295-","Landline","Denver","Denver","CO","Colorado","80212","Mountain","39.768286","-105.049338"
"(303) 461-","Cell Number","Jefferson","Denver","CO","Colorado","80212","Mountain","39.768286","-105.049338"
"(719) 784-","Landline","Fremont","Florence","CO","Colorado","81290","Mountain","38.358421","-105.106881"
"(970) 509-","Cell Number","Grand","Granby","CO","Colorado","80446","Mountain","40.073869","-105.928533"
"(303) 993-","Unknown","Denver","Denver","CO","Colorado","80212","Mountain","39.768286","-105.049338"
"(303) 781-","Landline","Denver","Denver","CO","Colorado","80212","Mountain","39.768286","-105.049338"
"(970) 477-","Landline","Eagle","Vail","CO","Colorado","81658","Mountain","39.624171","-106.497314"
"(970) 306-","Landline","Eagle","Vail","CO","Colorado","81658","Mountain","39.624171","-106.497314"
"(303) 392-","Cell Number","Jefferson","Denver","CO","Colorado","80212","Mountain","39.768286","-105.049338"
"(719) 744-","Landline","Pueblo","Pueblo","CO","Colorado","81002","Mountain","38.128626","-104.552299"
"(970) 396-","Cell Number","Weld","Greeley","CO","Colorado","80639","Mountain","40.399281","-104.70172"
"(303) 297-","Landline","Denver","Denver","CO","Colorado","80212","Mountain","39.768286","-105.049338"
"(303) 476-","Landline","Denver","Denver","CO","Colorado","80212","Mountain","39.768286","-105.049338"
"(970) 737-","Landline","Weld","Platteville","CO","Colorado","80651","Mountain","40.217382","-104.712141"
"(719) 652-","Unknown","Otero","Rocky Ford","CO","Colorado","81067","Mountain","37.995867","-103.708332"
"(303) 645-","Landline","Jefferson","Denver","CO","Colorado","80212","Mountain","39.768286","-105.049338"
"(970) 569-","Landline","Eagle","Vail","CO","Colorado","81658","Mountain","39.624171","-106.497314"
"(970) 458-","Landline","Logan","Sterling","CO","Colorado","80751","Mountain","40.715081","-103.211191"
"(719) 787-","Landline","Baca","Campo","CO","Colorado","81029","Mountain","37.184434","-102.473938"
"(303) 306-","Landline","Arapahoe","Aurora","CO","Colorado","80018","Mountain","39.689487","-104.67982"
"(970) 805-","Unknown","Weld","Mead","CO","Colorado","80542","Mountain","40.327051","-104.893796"
"(970) 945-","Landline","Garfield","Glenwood Springs","CO","Colorado","81601","Mountain","39.500281","-107.585235"
"(970) 987-","Cell Number","Garfield","Glenwood Springs","CO","Colorado","81601","Mountain","39.500281","-107.585235"
"(303) 395-","Landline","Jefferson","Denver","CO","Colorado","80212","Mountain","39.768286","-105.049338"
"(303) 225-","Landline","Jefferson","Denver","CO","Colorado","80212","Mountain","39.768286","-105.049338"
"(719) 777-","Landline","El Paso","Colorado Springs","CO","Colorado","80995","Mountain","38.82469","-104.562027"
"(303) 238-","Landline","Jefferson","Denver","CO","Colorado","80212","Mountain","39.768286","-105.049338"
"(970) 641-","Landline","Gunnison","Gunnison","CO","Colorado","81230","Mountain","38.528323","-107.037294"
"(303) 472-","Cell Number","Jefferson","Denver","CO","Colorado","80212","Mountain","39.768286","-105.049338"
"(719) 384-","Landline","Otero","La Junta","CO","Colorado","81050","Mountain","37.954619","-103.664437"
"(303) 674-","Landline","Jefferson","Denver","CO","Colorado","80212","Mountain","39.768286","-105.049338"
"(303) 881-","Cell Number","Jefferson","Denver","CO","Colorado","80212","Mountain","39.768286","-105.049338"
"(303) 305-","Landline","Denver","Denver","CO","Colorado","80212","Mountain","39.768286","-105.049338"
"(719) 594-","Landline","El Paso","Colorado Springs","CO","Colorado","80995","Mountain","38.82469","-104.562027"
"(303) 885-","Cell Number","Jefferson","Denver","CO","Colorado","80212","Mountain","39.768286","-105.049338"
"(303) 415-","Landline","Jefferson","Denver","CO","Colorado","80212","Mountain","39.768286","-105.049338"
"(719) 534-","Landline","El Paso","Colorado Springs","CO","Colorado","80995","Mountain","38.82469","-104.562027"
"(303) 718-","Cell Number","Weld","Fort Lupton","CO","Colorado","80621","Mountain","40.363977","-104.650827"
"(970) 330-","Landline","Weld","Greeley","CO","Colorado","80639","Mountain","40.399281","-104.70172"
"(303) 893-","Landline","Denver","Denver","CO","Colorado","80212","Mountain","39.768286","-105.049338"
"(970) 426-","Cell Number","La Plata","Durango","CO","Colorado","81301","Mountain","37.318364","-107.880367"
"(303) 942-","Landline","Arapahoe","Denver","CO","Colorado","80212","Mountain","39.768286","-105.049338"
"(719) 849-","Cell Number","Rio Grande","Monte Vista","CO","Colorado","81144","Mountain","37.570515","-106.345624"
"(303) 622-","Landline","Adams","Strasburg","CO","Colorado","80136","Mountain","39.865547","-104.291682"
"(970) 249-","Landline","Montrose","Montrose","CO","Colorado","81401","Mountain","38.443069","-108.050689"
"(719) 464-","Unknown","El Paso","Colorado Springs","CO","Colorado","80995","Mountain","38.82469","-104.562027"
"(719) 346-","Landline","Kit Carson","Burlington","CO","Colorado","80807","Mountain","39.308966","-102.461287"
"(303) 721-","Landline","Denver","Denver","CO","Colorado","80212","Mountain","39.768286","-105.049338"
"(303) 902-","Cell Number","Jefferson","Denver","CO","Colorado","80212","Mountain","39.768286","-105.049338"
"(970) 642-","Landline","Gunnison","Gunnison","CO","Colorado","81230","Mountain","38.528323","-107.037294"
"(303) 954-","Landline","Denver","Denver","CO","Colorado","80212","Mountain","39.768286","-105.049338"
"(970) 577-","Landline","Larimer","Estes Park","CO","Colorado","80517","Mountain","40.370748","-105.323971"
"(970) 325-","Landline","Ouray","Ridgway","CO","Colorado","81432","Mountain","38.177464","-107.72736"
"(970) 520-","Cell Number","Logan","Sterling","CO","Colorado","80751","Mountain","40.715081","-103.211191"
"(719) 327-","Landline","El Paso","Colorado Springs","CO","Colorado","80995","Mountain","38.82469","-104.562027"
"(303) 452-","Landline","Adams","Denver","CO","Colorado","80212","Mountain","39.768286","-105.049338"
"(719) 266-","Landline","El Paso","Colorado Springs","CO","Colorado","80995","Mountain","38.82469","-104.562027"
"(719) 574-","Landline","El Paso","Colorado Springs","CO","Colorado","80995","Mountain","38.82469","-104.562027"
"(719) 792-","Landline","Fremont","Canon City","CO","Colorado","81212","Mountain","38.477727","-105.507603"
"(303) 515-","Cell Number","Jefferson","Denver","CO","Colorado","80212","Mountain","39.768286","-105.049338"
"(303) 873-","Landline","Arapahoe","Aurora","CO","Colorado","80018","Mountain","39.689487","-104.67982"
"(303) 537-","Landline","Arapahoe","Aurora","CO","Colorado","80018","Mountain","39.689487","-104.67982"
"(970) 356-","Landline","Weld","Greeley","CO","Colorado","80639","Mountain","40.399281","-104.70172"
"(719) 478-","Landline","El Paso","Yoder","CO","Colorado","80864","Mountain","38.738943","-104.193088"
"(719) 337-","Cell Number","El Paso","Colorado Springs","CO","Colorado","80995","Mountain","38.82469","-104.562027"
"(719) 683-","Landline","El Paso","Colorado Springs","CO","Colorado","80995","Mountain","38.82469","-104.562027"
"(719) 206-","Landline","Alamosa","Alamosa","CO","Colorado","81102","Mountain","37.476026","-105.881779"
"(303) 618-","Cell Number","Jefferson","Denver","CO","Colorado","80212","Mountain","39.768286","-105.049338"
"(970) 541-","Unknown","Larimer","Fort Collins","CO","Colorado","80553","Mountain","40.628112","-105.569245"
"(303) 966-","Landline","Jefferson","Denver","CO","Colorado","80212","Mountain","39.768286","-105.049338"
"(303) 837-","Landline","Denver","Denver","CO","Colorado","80212","Mountain","39.768286","-105.049338"
"(303) 861-","Landline","Denver","Denver","CO","Colorado","80212","Mountain","39.768286","-105.049338"
"(970) 315-","Landline","Pitkin","Aspen","CO","Colorado","81611","Mountain","39.169324","-106.776744"
"(719) 325-","Landline","El Paso","Colorado Springs","CO","Colorado","80995","Mountain","38.82469","-104.562027"
"(970) 871-","Landline","Routt","Steamboat Springs","CO","Colorado","80488","Mountain","40.619661","-106.860746"
"(970) 545-","Cell Number","Weld","Windsor","CO","Colorado","80550","Mountain","40.307972","-104.942467"
"(303) 410-","Landline","Adams","Denver","CO","Colorado","80212","Mountain","39.768286","-105.049338"
"(303) 917-","Cell Number","Jefferson","Denver","CO","Colorado","80212","Mountain","39.768286","-105.049338"
"(303) 624-","Landline","Denver","Denver","CO","Colorado","80212","Mountain","39.768286","-105.049338"
"(303) 561-","Landline","Denver","Denver","CO","Colorado","80212","Mountain","39.768286","-105.049338"
"(303) 382-","Landline","Denver","Denver","CO","Colorado","80212","Mountain","39.768286","-105.049338"
"(719) 967-","Landline","Las Animas","Trinidad","CO","Colorado","81082","Mountain","37.269059","-104.5038"
"(970) 351-","Landline","Weld","Greeley","CO","Colorado","80639","Mountain","40.399281","-104.70172"
"(303) 530-","Landline","Jefferson","Denver","CO","Colorado","80212","Mountain","39.768286","-105.049338"
"(303) 826-","Cell Number","Jefferson","Denver","CO","Colorado","80212","Mountain","39.768286","-105.049338"
"(970) 749-","Cell Number","La Plata","Durango","CO","Colorado","81301","Mountain","37.318364","-107.880367"
"(970) 471-","Cell Number","Eagle","Vail","CO","Colorado","81658","Mountain","39.624171","-106.497314"
"(303) 491-","Cell Number","Jefferson","Denver","CO","Colorado","80212","Mountain","39.768286","-105.049338"
"(970) 754-","Landline","Eagle","Vail","CO","Colorado","81658","Mountain","39.624171","-106.497314"
"(719) 646-","Unknown","El Paso","Colorado Springs","CO","Colorado","80995","Mountain","38.82469","-104.562027"
"(303) 815-","Landline","Jefferson","Denver","CO","Colorado","80212","Mountain","39.768286","-105.049338"
"(719) 296-","Landline","Pueblo","Pueblo","CO","Colorado","81002","Mountain","38.128626","-104.552299"
"(719) 251-","Cell Number","Pueblo","Pueblo","CO","Colorado","81002","Mountain","38.128626","-104.552299"
"(970) 551-","Cell Number","La Plata","Hesperus","CO","Colorado","81326","Mountain","37.205423","-108.138519"
"(303) 833-","Landline","Jefferson","Denver","CO","Colorado","80212","Mountain","39.768286","-105.049338"
"(719) 273-","Landline","El Paso","Colorado Springs","CO","Colorado","80995","Mountain","38.82469","-104.562027"
"(303) 652-","Landline","Boulder","Longmont","CO","Colorado","80502","Mountain","40.087835","-105.373507"
"(303) 559-","Cell Number","Jefferson","Denver","CO","Colorado","80212","Mountain","39.768286","-105.049338"
"(719) 495-","Landline","El Paso","Colorado Springs","CO","Colorado","80995","Mountain","38.82469","-104.562027"
"(719) 312-","Unknown","Otero","Manzanola","CO","Colorado","81058","Mountain","38.082793","-103.885189"
"(303) 731-","Landline","Denver","Aurora","CO","Colorado","80018","Mountain","39.689487","-104.67982"
"(970) 924-","Unknown","Pitkin","Aspen","CO","Colorado","81611","Mountain","39.169324","-106.776744"
"(303) 375-","Landline","Denver","Denver","CO","Colorado","80212","Mountain","39.768286","-105.049338"
"(970) 766-","Landline","Eagle","Vail","CO","Colorado","81658","Mountain","39.624171","-106.497314"
"(303) 568-","Landline","Arapahoe","Denver","CO","Colorado","80212","Mountain","39.768286","-105.049338"
"(303) 746-","Cell Number","Boulder","Longmont","CO","Colorado","80502","Mountain","40.087835","-105.373507"
"(303) 381-","Landline","Denver","Denver","CO","Colorado","80212","Mountain","39.768286","-105.049338"
"(970) 645-","Landline","Morgan","Weldona","CO","Colorado","80653","Mountain","40.382218","-103.974159"
"(719) 896-","Cell Number","El Paso","Colorado Springs","CO","Colorado","80995","Mountain","38.82469","-104.562027"
"(719) 379-","Landline","Costilla","Blanca","CO","Colorado","81123","Mountain","37.435812","-105.57348"
"(719) 768-","Landline","Lincoln","Arriba","CO","Colorado","80804","Mountain","39.316461","-103.323143"
"(303) 284-","Landline","Jefferson","Denver","CO","Colorado","80212","Mountain","39.768286","-105.049338"
"(303) 453-","Landline","Adams","Denver","CO","Colorado","80212","Mountain","39.768286","-105.049338"
"(303) 924-","Landline","Jefferson","Denver","CO","Colorado","80212","Mountain","39.768286","-105.049338"
"(303) 210-","Cell Number","Jefferson","Denver","CO","Colorado","80212","Mountain","39.768286","-105.049338"
"(719) 449-","Cell Number","El Paso","Colorado Springs","CO","Colorado","80995","Mountain","38.82469","-104.562027"
"(719) 742-","Landline","Huerfano","La Veta","CO","Colorado","81055","Mountain","37.511672","-105.057545"
"(970) 518-","Cell Number","Weld","Greeley","CO","Colorado","80639","Mountain","40.399281","-104.70172"
"(970) 613-","Landline","Larimer","Loveland","CO","Colorado","80537","Mountain","40.553704","-105.266415"
"(303) 216-","Landline","Jefferson","Golden","CO","Colorado","80403","Mountain","39.829821","-105.270395"
"(970) 323-","Landline","Montrose","Olathe","CO","Colorado","81425","Mountain","38.497566","-108.078623"
"(303) 756-","Landline","Denver","Denver","CO","Colorado","80212","Mountain","39.768286","-105.049338"
"(303) 532-","Landline","Boulder","Longmont","CO","Colorado","80502","Mountain","40.087835","-105.373507"
"(970) 595-","Cell Number","Yuma","Eckley","CO","Colorado","80727","Mountain","40.061126","-102.4803"
"(303) 547-","Landline","Jefferson","Denver","CO","Colorado","80212","Mountain","39.768286","-105.049338"
"(303) 398-","Landline","Denver","Denver","CO","Colorado","80212","Mountain","39.768286","-105.049338"
"(303) 270-","Landline","Denver","Denver","CO","Colorado","80212","Mountain","39.768286","-105.049338"
"(719) 584-","Landline","Pueblo","Pueblo","CO","Colorado","81002","Mountain","38.128626","-104.552299"
"(719) 771-","Cell Number","Lincoln","Limon","CO","Colorado","80828","Mountain","39.31654","-103.588908"
"(303) 807-","Cell Number","Jefferson","Denver","CO","Colorado","80212","Mountain","39.768286","-105.049338"
"(303) 868-","Cell Number","Jefferson","Denver","CO","Colorado","80212","Mountain","39.768286","-105.049338"
"(303) 719-","Unknown","Arapahoe","Deer Trail","CO","Colorado","80105","Mountain","39.659461","-103.948538"
"(970) 527-","Landline","Delta","Paonia","CO","Colorado","81428","Mountain","38.877198","-107.609167"
"(303) 734-","Landline","Jefferson","Denver","CO","Colorado","80212","Mountain","39.768286","-105.049338"
"(719) 357-","Unknown","El Paso","Colorado Springs","CO","Colorado","80995","Mountain","38.82469","-104.562027"
"(719) 215-","Unknown","Baca","Campo","CO","Colorado","81029","Mountain","37.184434","-102.473938"
"(303) 914-","Landline","Jefferson","Denver","CO","Colorado","80212","Mountain","39.768286","-105.049338"
"(303) 351-","Unknown","Weld","Keenesburg","CO","Colorado","80643","Mountain","40.085322","-104.506123"
"(970) 590-","Cell Number","Weld","Greeley","CO","Colorado","80639","Mountain","40.399281","-104.70172"
"(970) 592-","Unknown","Yuma","Wray","CO","Colorado","80758","Mountain","40.068525","-102.392973"
"(303) 432-","Landline","Jefferson","Denver","CO","Colorado","80212","Mountain","39.768286","-105.049338"
"(303) 596-","Cell Number","Denver","Denver","CO","Colorado","80212","Mountain","39.768286","-105.049338"
"(303) 475-","Cell Number","Jefferson","Denver","CO","Colorado","80212","Mountain","39.768286","-105.049338"
"(970) 301-","Cell Number","Weld","Greeley","CO","Colorado","80639","Mountain","40.399281","-104.70172"
"(303) 235-","Landline","Jefferson","Denver","CO","Colorado","80212","Mountain","39.768286","-105.049338"
"(970) 442-","Unknown","La Plata","Ignacio","CO","Colorado","81137","Mountain","37.114844","-107.659745"
"(303) 407-","Landline","Denver","Denver","CO","Colorado","80212","Mountain","39.768286","-105.049338"
"(719) 295-","Landline","Pueblo","Pueblo","CO","Colorado","81002","Mountain","38.128626","-104.552299"
"(719) 201-","Cell Number","El Paso","Colorado Springs","CO","Colorado","80995","Mountain","38.82469","-104.562027"
"(970) 326-","Cell Number","Moffat","Craig","CO","Colorado","81626","Mountain","40.667669","-107.783276"
"(303) 273-","Landline","Jefferson","Golden","CO","Colorado","80403","Mountain","39.829821","-105.270395"
"(303) 597-","Landline","Denver","Denver","CO","Colorado","80212","Mountain","39.768286","-105.049338"
"(303) 964-","Landline","Denver","Denver","CO","Colorado","80212","Mountain","39.768286","-105.049338"
"(970) 331-","Cell Number","Eagle","Vail","CO","Colorado","81658","Mountain","39.624171","-106.497314"
"(719) 824-","Unknown","Fremont","Howard","CO","Colorado","81233","Mountain","38.410012","-105.769848"
"(970) 610-","Landline","Mesa","Fruita","CO","Colorado","81521","Mountain","39.149614","-108.685164"
"(719) 785-","Landline","El Paso","Colorado Springs","CO","Colorado","80995","Mountain","38.82469","-104.562027"
"(303) 745-","Landline","Arapahoe","Aurora","CO","Colorado","80018","Mountain","39.689487","-104.67982"
"(303) 691-","Landline","Denver","Denver","CO","Colorado","80212","Mountain","39.768286","-105.049338"
"(970) 394-","Cell Number","Montezuma","Dolores","CO","Colorado","81323","Mountain","37.469333","-108.35245"
"(719) 387-","Landline","El Paso","Colorado Springs","CO","Colorado","80995","Mountain","38.82469","-104.562027"
"(970) 584-","Cell Number","Weld","Greeley","CO","Colorado","80639","Mountain","40.399281","-104.70172"
"(303) 598-","Cell Number","Jefferson","Denver","CO","Colorado","80212","Mountain","39.768286","-105.049338"
"(719) 466-","Landline","El Paso","Colorado Springs","CO","Colorado","80995","Mountain","38.82469","-104.562027"
"(303) 780-","Landline","Denver","Denver","CO","Colorado","80212","Mountain","39.768286","-105.049338"
"(303) 686-","Cell Number","Jefferson","Denver","CO","Colorado","80212","Mountain","39.768286","-105.049338"
"(970) 519-","Cell Number","Ouray","Ridgway","CO","Colorado","81432","Mountain","38.177464","-107.72736"
"(303) 760-","Cell Number","Jefferson","Denver","CO","Colorado","80212","Mountain","39.768286","-105.049338"
"(719) 223-","Landline","Prowers","Creede","CO","Colorado","81130","Mountain","37.761293","-106.981852"
"(303) 428-","Landline","Adams","Denver","CO","Colorado","80212","Mountain","39.768286","-105.049338"
"(719) 484-","Landline","El Paso","Colorado Springs","CO","Colorado","80995","Mountain","38.82469","-104.562027"
"(303) 494-","Landline","Jefferson","Denver","CO","Colorado","80212","Mountain","39.768286","-105.049338"
"(303) 771-","Landline","Denver","Denver","CO","Colorado","80212","Mountain","39.768286","-105.049338"
"(719) 966-","Landline","Chaffee","Buena Vista","CO","Colorado","81211","Mountain","38.885032","-106.179938"
"(303) 630-","Landline","Denver","Denver","CO","Colorado","80212","Mountain","39.768286","-105.049338"
"(303) 386-","Landline","Denver","Denver","CO","Colorado","80212","Mountain","39.768286","-105.049338"
"(303) 263-","Cell Number","Jefferson","Denver","CO","Colorado","80212","Mountain","39.768286","-105.049338"
"(719) 430-","Cell Number","Fremont","Canon City","CO","Colorado","81212","Mountain","38.477727","-105.507603"
"(970) 677-","Landline","Dolores","Dove Creek","CO","Colorado","81324","Mountain","37.711532","-108.924334"
"(719) 543-","Landline","Pueblo","Pueblo","CO","Colorado","81002","Mountain","38.128626","-104.552299"
"(970) 738-","Unknown","Weld","Greeley","CO","Colorado","80639","Mountain","40.399281","-104.70172"
"(719) 202-","Landline","Pueblo","Pueblo","CO","Colorado","81002","Mountain","38.128626","-104.552299"
"(719) 261-","Cell Number","El Paso","Colorado Springs","CO","Colorado","80995","Mountain","38.82469","-104.562027"
"(303) 465-","Landline","Adams","Denver","CO","Colorado","80212","Mountain","39.768286","-105.049338"
"(303) 953-","Landline","Denver","Denver","CO","Colorado","80212","Mountain","39.768286","-105.049338"
"(303) 907-","Cell Number","Jefferson","Denver","CO","Colorado","80212","Mountain","39.768286","-105.049338"
"(303) 283-","Landline","Arapahoe","Aurora","CO","Colorado","80018","Mountain","39.689487","-104.67982"
"(719) 591-","Landline","El Paso","Colorado Springs","CO","Colorado","80995","Mountain","38.82469","-104.562027"
"(719) 338-","Cell Number","El Paso","Colorado Springs","CO","Colorado","80995","Mountain","38.82469","-104.562027"
"(719) 324-","Landline","Baca","Walsh","CO","Colorado","81090","Mountain","37.368042","-102.265146"
"(970) 684-","Landline","Mesa","Palisade","CO","Colorado","81526","Mountain","39.095369","-108.299254"
"(303) 701-","Cell Number","Jefferson","Denver","CO","Colorado","80212","Mountain","39.768286","-105.049338"
"(303) 899-","Landline","Denver","Denver","CO","Colorado","80212","Mountain","39.768286","-105.049338"
"(970) 346-","Landline","Weld","Greeley","CO","Colorado","80639","Mountain","40.399281","-104.70172"
"(970) 903-","Cell Number","La Plata","Durango","CO","Colorado","81301","Mountain","37.318364","-107.880367"
"(719) 569-","Cell Number","Pueblo","Pueblo","CO","Colorado","81002","Mountain","38.128626","-104.552299"
"(970) 366-","Landline","Garfield","Glenwood Springs","CO","Colorado","81601","Mountain","39.500281","-107.585235"
"(970) 575-","Cell Number","Grand","Granby","CO","Colorado","80446","Mountain","40.073869","-105.928533"
"(303) 417-","Landline","Jefferson","Denver","CO","Colorado","80212","Mountain","39.768286","-105.049338"
"(303) 651-","Landline","Boulder","Longmont","CO","Colorado","80502","Mountain","40.087835","-105.373507"
"(303) 539-","Landline","Jefferson","Denver","CO","Colorado","80212","Mountain","39.768286","-105.049338"
"(303) 671-","Landline","Arapahoe","Aurora","CO","Colorado","80018","Mountain","39.689487","-104.67982"
"(719) 761-","Cell Number","El Paso","Colorado Springs","CO","Colorado","80995","Mountain","38.82469","-104.562027"
"(970) 382-","Landline","La Plata","Durango","CO","Colorado","81301","Mountain","37.318364","-107.880367"
"(303) 647-","Landline","Douglas","Sedalia","CO","Colorado","80135","Mountain","39.311334","-105.067554"
"(303) 594-","Cell Number","Jefferson","Denver","CO","Colorado","80212","Mountain","39.768286","-105.049338"
"(303) 400-","Landline","Jefferson","Denver","CO","Colorado","80212","Mountain","39.768286","-105.049338"
"(719) 234-","Landline","El Paso","Colorado Springs","CO","Colorado","80995","Mountain","38.82469","-104.562027"
"(970) 744-","Landline","Larimer","Loveland","CO","Colorado","80537","Mountain","40.553704","-105.266415"
"(303) 390-","Landline","Denver","Denver","CO","Colorado","80212","Mountain","39.768286","-105.049338"
"(303) 877-","Cell Number","Jefferson","Denver","CO","Colorado","80212","Mountain","39.768286","-105.049338"
"(970) 755-","Cell Number","Rio Blanco","Rangely","CO","Colorado","81648","Mountain","39.936331","-108.650793"
"(303) 252-","Landline","Adams","Denver","CO","Colorado","80212","Mountain","39.768286","-105.049338"
"(303) 593-","Landline","Arapahoe","Denver","CO","Colorado","80212","Mountain","39.768286","-105.049338"
"(970) 302-","Cell Number","Weld","Greeley","CO","Colorado","80639","Mountain","40.399281","-104.70172"
"(303) 599-","Cell Number","Jefferson","Denver","CO","Colorado","80212","Mountain","39.768286","-105.049338"
"(303) 969-","Landline","Jefferson","Denver","CO","Colorado","80212","Mountain","39.768286","-105.049338"
"(970) 265-","Landline","Logan","Fleming","CO","Colorado","80728","Mountain","40.598608","-102.874735"
"(303) 223-","Landline","Jefferson","Denver","CO","Colorado","80212","Mountain","39.768286","-105.049338"
"(970) 373-","Landline","Weld","Greeley","CO","Colorado","80639","Mountain","40.399281","-104.70172"
"(303) 473-","Landline","Jefferson","Denver","CO","Colorado","80212","Mountain","39.768286","-105.049338"
"(719) 494-","Landline","El Paso","Colorado Springs","CO","Colorado","80995","Mountain","38.82469","-104.562027"
"(303) 794-","Landline","Jefferson","Denver","CO","Colorado","80212","Mountain","39.768286","-105.049338"
"(303) 459-","Landline","Jefferson","Denver","CO","Colorado","80212","Mountain","39.768286","-105.049338"
"(303) 900-","Unknown","Clear Creek","Idaho Springs","CO","Colorado","80452","Mountain","39.706574","-105.541583"
"(303) 772-","Landline","Boulder","Longmont","CO","Colorado","80502","Mountain","40.087835","-105.373507"
"(719) 568-","Cell Number","Pueblo","Pueblo","CO","Colorado","81002","Mountain","38.128626","-104.552299"
"(303) 932-","Landline","Jefferson","Denver","CO","Colorado","80212","Mountain","39.768286","-105.049338"
"(719) 688-","Cell Number","Prowers","Wiley","CO","Colorado","81092","Mountain","38.189902","-102.705397"
"(970) 593-","Landline","Larimer","Loveland","CO","Colorado","80537","Mountain","40.553704","-105.266415"
"(719) 836-","Landline","Park","Fairplay","CO","Colorado","80440","Mountain","39.149","-105.885893"
"(303) 478-","Cell Number","Jefferson","Denver","CO","Colorado","80212","Mountain","39.768286","-105.049338"
"(303) 810-","Cell Number","Jefferson","Denver","CO","Colorado","80212","Mountain","39.768286","-105.049338"
"(303) 920-","Landline","Adams","Denver","CO","Colorado","80212","Mountain","39.768286","-105.049338"
"(303) 374-","Landline","Arapahoe","Denver","CO","Colorado","80212","Mountain","39.768286","-105.049338"
"(719) 277-","Landline","El Paso","Colorado Springs","CO","Colorado","80995","Mountain","38.82469","-104.562027"
"(719) 587-","Landline","Alamosa","Alamosa","CO","Colorado","81102","Mountain","37.476026","-105.881779"
"(303) 293-","Landline","Denver","Denver","CO","Colorado","80212","Mountain","39.768286","-105.049338"
"(303) 740-","Landline","Denver","Denver","CO","Colorado","80212","Mountain","39.768286","-105.049338"
"(970) 496-","Landline","Summit","Dillon","CO","Colorado","80435","Mountain","39.595212","-105.974117"
"(303) 765-","Landline","Denver","Denver","CO","Colorado","80212","Mountain","39.768286","-105.049338"
"(719) 326-","Landline","Baca","Two Buttes","CO","Colorado","81084","Mountain","37.521432","-102.433241"
"(719) 255-","Unknown","El Paso","Colorado Springs","CO","Colorado","80995","Mountain","38.82469","-104.562027"
"(970) 548-","Unknown","Moffat","Dinosaur","CO","Colorado","81633","Mountain","40.377031","-108.398991"
"(970) 369-","Landline","Ouray","Ridgway","CO","Colorado","81432","Mountain","38.177464","-107.72736"
"(970) 479-","Landline","Eagle","Vail","CO","Colorado","81658","Mountain","39.624171","-106.497314"
"(303) 965-","Landline","Denver","Denver","CO","Colorado","80212","Mountain","39.768286","-105.049338"
"(719) 492-","Cell Number","El Paso","Colorado Springs","CO","Colorado","80995","Mountain","38.82469","-104.562027"
"(303) 694-","Landline","Denver","Denver","CO","Colorado","80212","Mountain","39.768286","-105.049338"
"(303) 520-","Cell Number","Denver","Denver","CO","Colorado","80212","Mountain","39.768286","-105.049338"
"(719) 590-","Landline","El Paso","Colorado Springs","CO","Colorado","80995","Mountain","38.82469","-104.562027"
"(303) 322-","Landline","Denver","Denver","CO","Colorado","80212","Mountain","39.768286","-105.049338"
"(303) 518-","Cell Number","Jefferson","Denver","CO","Colorado","80212","Mountain","39.768286","-105.049338"
"(303) 450-","Landline","Adams","Denver","CO","Colorado","80212","Mountain","39.768286","-105.049338"
"(303) 391-","Landline","Denver","Denver","CO","Colorado","80212","Mountain","39.768286","-105.049338"
"(970) 914-","Cell Number","Eagle","Vail","CO","Colorado","81658","Mountain","39.624171","-106.497314"
"(719) 503-","Landline","El Paso","Colorado Springs","CO","Colorado","80995","Mountain","38.82469","-104.562027"
"(719) 559-","Landline","El Paso","Colorado Springs","CO","Colorado","80995","Mountain","38.82469","-104.562027"
"(303) 282-","Landline","Denver","Denver","CO","Colorado","80212","Mountain","39.768286","-105.049338"
"(303) 249-","Cell Number","Jefferson","Denver","CO","Colorado","80212","Mountain","39.768286","-105.049338"
"(970) 550-","Unknown","Moffat","Dinosaur","CO","Colorado","81633","Mountain","40.377031","-108.398991"
"(303) 761-","Landline","Denver","Denver","CO","Colorado","80212","Mountain","39.768286","-105.049338"
"(303) 573-","Landline","Denver","Denver","CO","Colorado","80212","Mountain","39.768286","-105.049338"
"(303) 688-","Landline","Jefferson","Denver","CO","Colorado","80212","Mountain","39.768286","-105.049338"
"(719) 460-","Cell Number","El Paso","Colorado Springs","CO","Colorado","80995","Mountain","38.82469","-104.562027"
"(719) 228-","Landline","El Paso","Colorado Springs","CO","Colorado","80995","Mountain","38.82469","-104.562027"
