"Prefix","Usage","County","City","ShortState","LongState","Zip","Timezone","Latitude","Longitude"
"(203) 751-","Landline","New Haven","Ansonia","CT","Connecticut","6401","Eastern","41.342514","-73.070301"
"(203) 745-","Landline","New Haven","New Haven","CT","Connecticut","6515","Eastern","41.328697","-72.964247"
"(203) 366-","Landline","Fairfield","Bridgeport","CT","Connecticut","6604","Eastern","41.192746","-73.213907"
"(203) 269-","Landline","New Haven","Wallingford","CT","Connecticut","6492","Eastern","41.456205","-72.811047"
"(203) 993-","Unknown","Fairfield","Bridgeport","CT","Connecticut","6604","Eastern","41.192746","-73.213907"
"(203) 766-","Cell Number","New Haven","New Haven","CT","Connecticut","6515","Eastern","41.328697","-72.964247"
"(860) 902-","Landline","Hartford","Hartford","CT","Connecticut","6134","Eastern","41.791776","-72.718832"
"(203) 906-","Cell Number","New Haven","Derby","CT","Connecticut","6418","Eastern","41.327246","-73.084252"
"(203) 674-","Landline","Fairfield","Stamford","CT","Connecticut","6911","Eastern","41.308873","-73.363661"
"(860) 599-","Landline","New London","Pawcatuck","CT","Connecticut","6379","Eastern","41.455191","-71.895547"
"(860) 303-","Cell Number","New London","Norwich","CT","Connecticut","6360","Eastern","41.499398","-71.994757"
"(203) 972-","Landline","Fairfield","New Canaan","CT","Connecticut","6840","Eastern","41.162209","-73.501267"
"(860) 333-","Landline","New London","New London","CT","Connecticut","6320","Eastern","41.413998","-72.10907"
"(203) 296-","Landline","Fairfield","Bridgeport","CT","Connecticut","6604","Eastern","41.192746","-73.213907"
"(860) 745-","Landline","Hartford","Enfield","CT","Connecticut","6083","Eastern","41.791776","-72.718832"
"(203) 764-","Landline","New Haven","New Haven","CT","Connecticut","6515","Eastern","41.328697","-72.964247"
"(860) 515-","Landline","Hartford","Hartford","CT","Connecticut","6134","Eastern","41.791776","-72.718832"
"(860) 692-","Landline","Hartford","Hartford","CT","Connecticut","6134","Eastern","41.791776","-72.718832"
"(203) 303-","Landline","New Haven","Wallingford","CT","Connecticut","6492","Eastern","41.456205","-72.811047"
"(860) 784-","Landline","Hartford","Simsbury","CT","Connecticut","6070","Eastern","41.868647","-72.819742"
"(203) 317-","Landline","New Haven","Meriden","CT","Connecticut","6450","Eastern","41.536498","-72.801901"
"(860) 388-","Landline","Middlesex","Old Saybrook","CT","Connecticut","6475","Eastern","41.300448","-72.389129"
"(203) 628-","Landline","Fairfield","Danbury","CT","Connecticut","6817","Eastern","41.308873","-73.363661"
"(860) 259-","Landline","Hartford","Hartford","CT","Connecticut","6134","Eastern","41.791776","-72.718832"
"(203) 556-","Cell Number","Fairfield","Bridgeport","CT","Connecticut","6604","Eastern","41.192746","-73.213907"
"(203) 407-","Landline","New Haven","New Haven","CT","Connecticut","6515","Eastern","41.328697","-72.964247"
"(860) 884-","Cell Number","New London","Norwich","CT","Connecticut","6360","Eastern","41.499398","-71.994757"
"(203) 314-","Cell Number","New Haven","New Haven","CT","Connecticut","6515","Eastern","41.328697","-72.964247"
"(203) 897-","Unknown","Fairfield","Stamford","CT","Connecticut","6911","Eastern","41.308873","-73.363661"
"(203) 864-","Landline","Fairfield","Bridgeport","CT","Connecticut","6604","Eastern","41.192746","-73.213907"
"(203) 773-","Landline","New Haven","New Haven","CT","Connecticut","6515","Eastern","41.328697","-72.964247"
"(860) 235-","Cell Number","New London","New London","CT","Connecticut","6320","Eastern","41.413998","-72.10907"
"(860) 543-","Landline","Hartford","Hartford","CT","Connecticut","6134","Eastern","41.791776","-72.718832"
"(203) 634-","Landline","New Haven","Meriden","CT","Connecticut","6450","Eastern","41.536498","-72.801901"
"(203) 664-","Landline","Fairfield","Redding","CT","Connecticut","6896","Eastern","41.271095","-73.38634"
"(203) 328-","Landline","Fairfield","Stamford","CT","Connecticut","6911","Eastern","41.308873","-73.363661"
"(860) 830-","Cell Number","Hartford","Hartford","CT","Connecticut","6134","Eastern","41.791776","-72.718832"
"(203) 850-","Unknown","New Haven","New Haven","CT","Connecticut","6515","Eastern","41.328697","-72.964247"
"(860) 895-","Landline","Hartford","East Hartford","CT","Connecticut","6138","Eastern","41.791776","-72.718832"
"(860) 589-","Landline","Hartford","Bristol","CT","Connecticut","6011","Eastern","41.791776","-72.718832"
"(860) 613-","Landline","Middlesex","Middletown","CT","Connecticut","6457","Eastern","41.550139","-72.655357"
"(860) 450-","Landline","Windham","Willimantic","CT","Connecticut","6226","Eastern","41.845504","-72.091889"
"(860) 532-","Landline","Middlesex","Deep River","CT","Connecticut","6417","Eastern","41.368124","-72.452284"
"(860) 539-","Cell Number","Hartford","Hartford","CT","Connecticut","6134","Eastern","41.791776","-72.718832"
"(860) 968-","Landline","Hartford","Glastonbury","CT","Connecticut","6033","Eastern","41.703451","-72.539332"
"(203) 451-","Landline","Fairfield","Westport","CT","Connecticut","6888","Eastern","41.308873","-73.363661"
"(203) 939-","Unknown","Fairfield","Norwalk","CT","Connecticut","6856","Eastern","41.111196","-73.420363"
"(203) 545-","Cell Number","Fairfield","Bridgeport","CT","Connecticut","6604","Eastern","41.192746","-73.213907"
"(860) 787-","Landline","Hartford","Windsor","CT","Connecticut","6095","Eastern","41.909988","-72.804935"
"(860) 443-","Landline","New London","New London","CT","Connecticut","6320","Eastern","41.413998","-72.10907"
"(203) 775-","Landline","Fairfield","Danbury","CT","Connecticut","6817","Eastern","41.308873","-73.363661"
"(860) 708-","Cell Number","Hartford","Hartford","CT","Connecticut","6134","Eastern","41.791776","-72.718832"
"(860) 335-","Landline","Hartford","Hartford","CT","Connecticut","6134","Eastern","41.791776","-72.718832"
"(860) 351-","Landline","Hartford","Hartford","CT","Connecticut","6134","Eastern","41.791776","-72.718832"
"(203) 393-","Landline","New Haven","New Haven","CT","Connecticut","6515","Eastern","41.328697","-72.964247"
"(860) 791-","Landline","Hartford","Manchester","CT","Connecticut","6045","Eastern","41.791776","-72.718832"
"(860) 295-","Landline","Hartford","East Hampton","CT","Connecticut","6424","Eastern","41.559841","-72.494927"
"(203) 571-","Landline","Fairfield","Westport","CT","Connecticut","6888","Eastern","41.308873","-73.363661"
"(203) 331-","Landline","Fairfield","Bridgeport","CT","Connecticut","6604","Eastern","41.192746","-73.213907"
"(860) 319-","Landline","New London","Norwich","CT","Connecticut","6360","Eastern","41.499398","-71.994757"
"(860) 588-","Cell Number","Hartford","Hartford","CT","Connecticut","6134","Eastern","41.791776","-72.718832"
"(203) 650-","Cell Number","Fairfield","Bridgeport","CT","Connecticut","6604","Eastern","41.192746","-73.213907"
"(203) 894-","Landline","Fairfield","Ridgefield","CT","Connecticut","6877","Eastern","41.308201","-73.494637"
"(860) 255-","Landline","Hartford","Hartford","CT","Connecticut","6134","Eastern","41.791776","-72.718832"
"(203) 324-","Landline","Fairfield","Stamford","CT","Connecticut","6911","Eastern","41.308873","-73.363661"
"(203) 239-","Landline","New Haven","New Haven","CT","Connecticut","6515","Eastern","41.328697","-72.964247"
"(860) 620-","Landline","Hartford","Southington","CT","Connecticut","6489","Eastern","41.604786","-72.871945"
"(203) 934-","Landline","New Haven","New Haven","CT","Connecticut","6515","Eastern","41.328697","-72.964247"
"(203) 419-","Landline","New Haven","Waterbury","CT","Connecticut","6749","Eastern","41.365709","-72.927507"
"(860) 730-","Landline","Hartford","Manchester","CT","Connecticut","6045","Eastern","41.791776","-72.718832"
"(860) 530-","Landline","Tolland","Columbia","CT","Connecticut","6237","Eastern","41.696124","-72.300043"
"(203) 540-","Cell Number","Fairfield","Bridgeport","CT","Connecticut","6604","Eastern","41.192746","-73.213907"
"(860) 466-","Landline","Hartford","Hartford","CT","Connecticut","6134","Eastern","41.791776","-72.718832"
"(203) 350-","Landline","New Haven","Madison","CT","Connecticut","6443","Eastern","41.350397","-72.788392"
"(860) 612-","Landline","Hartford","New Britain","CT","Connecticut","6050","Eastern","41.666049","-72.778391"
"(860) 690-","Cell Number","Hartford","Hartford","CT","Connecticut","6134","Eastern","41.791776","-72.718832"
"(860) 683-","Landline","Hartford","Windsor","CT","Connecticut","6095","Eastern","41.909988","-72.804935"
"(860) 396-","Landline","New London","Groton","CT","Connecticut","6340","Eastern","41.355405","-72.038268"
"(860) 908-","Cell Number","New London","Norwich","CT","Connecticut","6360","Eastern","41.499398","-71.994757"
"(203) 893-","Unknown","New Haven","Derby","CT","Connecticut","6418","Eastern","41.327246","-73.084252"
"(203) 927-","Landline","New Haven","New Haven","CT","Connecticut","6515","Eastern","41.328697","-72.964247"
"(860) 664-","Landline","Middlesex","Clinton","CT","Connecticut","6413","Eastern","41.298201","-72.532934"
"(860) 718-","Landline","Middlesex","Deep River","CT","Connecticut","6417","Eastern","41.368124","-72.452284"
"(860) 399-","Landline","Middlesex","Old Saybrook","CT","Connecticut","6475","Eastern","41.300448","-72.389129"
"(860) 873-","Landline","Middlesex","Moodus","CT","Connecticut","6469","Eastern","41.508904","-72.440086"
"(203) 395-","Cell Number","Fairfield","Bridgeport","CT","Connecticut","6604","Eastern","41.192746","-73.213907"
"(860) 393-","Landline","Litchfield","Litchfield","CT","Connecticut","6759","Eastern","41.791598","-73.229787"
"(860) 989-","Cell Number","Hartford","Hartford","CT","Connecticut","6134","Eastern","41.791776","-72.718832"
"(203) 981-","Cell Number","Fairfield","Norwalk","CT","Connecticut","6856","Eastern","41.111196","-73.420363"
"(203) 513-","Landline","New Haven","New Haven","CT","Connecticut","6515","Eastern","41.328697","-72.964247"
"(203) 824-","Cell Number","New Haven","New Haven","CT","Connecticut","6515","Eastern","41.328697","-72.964247"
"(203) 271-","Landline","New Haven","Cheshire","CT","Connecticut","6411","Eastern","41.550097","-72.922235"
"(203) 200-","Unknown","New Haven","New Haven","CT","Connecticut","6515","Eastern","41.328697","-72.964247"
"(203) 908-","Unknown","Fairfield","Bridgeport","CT","Connecticut","6604","Eastern","41.192746","-73.213907"
"(203) 754-","Landline","New Haven","Waterbury","CT","Connecticut","6749","Eastern","41.365709","-72.927507"
"(860) 520-","Landline","Hartford","Hartford","CT","Connecticut","6134","Eastern","41.791776","-72.718832"
"(203) 641-","Cell Number","New Haven","New Haven","CT","Connecticut","6515","Eastern","41.328697","-72.964247"
"(203) 618-","Landline","Fairfield","Greenwich","CT","Connecticut","6830","Eastern","41.042746","-73.62617"
"(860) 357-","Landline","Hartford","Hartford","CT","Connecticut","6134","Eastern","41.791776","-72.718832"
"(203) 214-","Cell Number","New Haven","New Haven","CT","Connecticut","6515","Eastern","41.328697","-72.964247"
"(860) 722-","Landline","Hartford","Hartford","CT","Connecticut","6134","Eastern","41.791776","-72.718832"
"(203) 537-","Cell Number","New Haven","Meriden","CT","Connecticut","6450","Eastern","41.536498","-72.801901"
"(860) 775-","Landline","Middlesex","East Hampton","CT","Connecticut","6424","Eastern","41.559841","-72.494927"
"(203) 376-","Cell Number","New Haven","New Haven","CT","Connecticut","6515","Eastern","41.328697","-72.964247"
"(860) 247-","Landline","Hartford","Hartford","CT","Connecticut","6134","Eastern","41.791776","-72.718832"
"(203) 237-","Landline","New Haven","Meriden","CT","Connecticut","6450","Eastern","41.536498","-72.801901"
"(203) 699-","Landline","New Haven","Cheshire","CT","Connecticut","6411","Eastern","41.550097","-72.922235"
"(203) 941-","Unknown","New Haven","Seymour","CT","Connecticut","6483","Eastern","41.417646","-73.102078"
"(203) 412-","Cell Number","New Haven","New Haven","CT","Connecticut","6515","Eastern","41.328697","-72.964247"
"(860) 590-","Cell Number","Hartford","Hartford","CT","Connecticut","6134","Eastern","41.791776","-72.718832"
"(203) 424-","Cell Number","Fairfield","Danbury","CT","Connecticut","6817","Eastern","41.308873","-73.363661"
"(860) 924-","Unknown","Hartford","Hartford","CT","Connecticut","6134","Eastern","41.791776","-72.718832"
"(203) 389-","Landline","New Haven","New Haven","CT","Connecticut","6515","Eastern","41.328697","-72.964247"
"(860) 686-","Landline","New London","New London","CT","Connecticut","6320","Eastern","41.413998","-72.10907"
"(203) 539-","Landline","Fairfield","Stamford","CT","Connecticut","6911","Eastern","41.308873","-73.363661"
"(203) 460-","Landline","Fairfield","Danbury","CT","Connecticut","6817","Eastern","41.308873","-73.363661"
"(203) 727-","Cell Number","Fairfield","Bridgeport","CT","Connecticut","6604","Eastern","41.192746","-73.213907"
"(203) 442-","Landline","Fairfield","New Canaan","CT","Connecticut","6840","Eastern","41.162209","-73.501267"
"(860) 301-","Cell Number","Middlesex","Middletown","CT","Connecticut","6457","Eastern","41.550139","-72.655357"
"(203) 734-","Landline","New Haven","Ansonia","CT","Connecticut","6401","Eastern","41.342514","-73.070301"
"(203) 224-","Landline","Fairfield","Bridgeport","CT","Connecticut","6604","Eastern","41.192746","-73.213907"
"(860) 267-","Landline","Middlesex","East Hampton","CT","Connecticut","6424","Eastern","41.559841","-72.494927"
"(203) 849-","Landline","Fairfield","Norwalk","CT","Connecticut","6856","Eastern","41.111196","-73.420363"
"(860) 804-","Landline","Hartford","Hartford","CT","Connecticut","6134","Eastern","41.791776","-72.718832"
"(203) 414-","Cell Number","Fairfield","Bridgeport","CT","Connecticut","6604","Eastern","41.192746","-73.213907"
"(860) 769-","Landline","Hartford","Hartford","CT","Connecticut","6134","Eastern","41.791776","-72.718832"
"(860) 345-","Landline","Middlesex","Haddam","CT","Connecticut","6438","Eastern","41.471457","-72.511376"
"(203) 266-","Landline","Litchfield","Woodbury","CT","Connecticut","6798","Eastern","41.733106","-73.135499"
"(860) 724-","Landline","Hartford","Hartford","CT","Connecticut","6134","Eastern","41.791776","-72.718832"
"(203) 989-","Landline","Fairfield","Norwalk","CT","Connecticut","6856","Eastern","41.111196","-73.420363"
"(203) 345-","Landline","Fairfield","Bridgeport","CT","Connecticut","6604","Eastern","41.192746","-73.213907"
"(203) 502-","Landline","Fairfield","Bridgeport","CT","Connecticut","6604","Eastern","41.192746","-73.213907"
"(203) 516-","Landline","New Haven","Derby","CT","Connecticut","6418","Eastern","41.327246","-73.084252"
"(203) 227-","Landline","Fairfield","Westport","CT","Connecticut","6888","Eastern","41.308873","-73.363661"
"(203) 900-","Unknown","New Haven","Wallingford","CT","Connecticut","6492","Eastern","41.456205","-72.811047"
"(203) 483-","Landline","New Haven","Branford","CT","Connecticut","6405","Eastern","41.284746","-72.796292"
"(860) 970-","Unknown","Hartford","Hartford","CT","Connecticut","6134","Eastern","41.791776","-72.718832"
"(860) 285-","Landline","Hartford","Windsor","CT","Connecticut","6095","Eastern","41.909988","-72.804935"
"(203) 750-","Landline","Fairfield","Norwalk","CT","Connecticut","6856","Eastern","41.111196","-73.420363"
"(860) 568-","Landline","Hartford","East Hartford","CT","Connecticut","6138","Eastern","41.791776","-72.718832"
"(860) 640-","Landline","Hartford","Windsor","CT","Connecticut","6095","Eastern","41.909988","-72.804935"
"(860) 822-","Landline","New London","Baltic","CT","Connecticut","6330","Eastern","41.501708","-72.044306"
"(203) 542-","Landline","Fairfield","Greenwich","CT","Connecticut","6830","Eastern","41.042746","-73.62617"
"(203) 732-","Landline","New Haven","Ansonia","CT","Connecticut","6401","Eastern","41.342514","-73.070301"
"(860) 468-","Landline","New London","Lebanon","CT","Connecticut","6249","Eastern","41.628008","-72.245422"
"(860) 705-","Cell Number","New London","Norwich","CT","Connecticut","6360","Eastern","41.499398","-71.994757"
"(203) 867-","Landline","New Haven","New Haven","CT","Connecticut","6515","Eastern","41.328697","-72.964247"
"(203) 409-","Landline","Fairfield","Old Greenwich","CT","Connecticut","6870","Eastern","41.034946","-73.566968"
"(203) 975-","Landline","Fairfield","Stamford","CT","Connecticut","6911","Eastern","41.308873","-73.363661"
"(203) 774-","Landline","New Haven","Wallingford","CT","Connecticut","6492","Eastern","41.456205","-72.811047"
"(203) 739-","Landline","Fairfield","Danbury","CT","Connecticut","6817","Eastern","41.308873","-73.363661"
"(203) 494-","Cell Number","New Haven","New Haven","CT","Connecticut","6515","Eastern","41.328697","-72.964247"
"(203) 527-","Landline","New Haven","Waterbury","CT","Connecticut","6749","Eastern","41.365709","-72.927507"
"(203) 488-","Landline","New Haven","Branford","CT","Connecticut","6405","Eastern","41.284746","-72.796292"
"(860) 516-","Landline","Hartford","Bristol","CT","Connecticut","6011","Eastern","41.791776","-72.718832"
"(203) 874-","Landline","New Haven","Milford","CT","Connecticut","6460","Eastern","41.343773","-72.951273"
"(203) 453-","Landline","New Haven","Guilford","CT","Connecticut","6437","Eastern","41.338847","-72.690089"
"(860) 320-","Cell Number","Hartford","Hartford","CT","Connecticut","6134","Eastern","41.791776","-72.718832"
"(860) 564-","Landline","Windham","Plainfield","CT","Connecticut","6374","Eastern","41.688121","-71.884113"
"(203) 636-","Landline","Fairfield","Darien","CT","Connecticut","6820","Eastern","41.075846","-73.480765"
"(860) 985-","Cell Number","Hartford","Hartford","CT","Connecticut","6134","Eastern","41.791776","-72.718832"
"(203) 741-","Landline","New Haven","Wallingford","CT","Connecticut","6492","Eastern","41.456205","-72.811047"
"(860) 915-","Landline","Litchfield","New Milford","CT","Connecticut","6776","Eastern","41.658619","-73.366017"
"(203) 284-","Landline","New Haven","Wallingford","CT","Connecticut","6492","Eastern","41.456205","-72.811047"
"(203) 517-","Landline","Fairfield","Stamford","CT","Connecticut","6911","Eastern","41.308873","-73.363661"
"(203) 744-","Landline","Fairfield","Danbury","CT","Connecticut","6817","Eastern","41.308873","-73.363661"
"(860) 874-","Landline","Hartford","Hartford","CT","Connecticut","6134","Eastern","41.791776","-72.718832"
"(203) 399-","Landline","Fairfield","Stamford","CT","Connecticut","6911","Eastern","41.308873","-73.363661"
"(860) 845-","Landline","Hartford","Bristol","CT","Connecticut","6011","Eastern","41.791776","-72.718832"
"(860) 855-","Landline","Hartford","Plainville","CT","Connecticut","6062","Eastern","41.672983","-72.859695"
"(860) 324-","Cell Number","Hartford","Hartford","CT","Connecticut","6134","Eastern","41.791776","-72.718832"
"(860) 251-","Landline","Hartford","Hartford","CT","Connecticut","6134","Eastern","41.791776","-72.718832"
"(860) 591-","Landline","New London","Jewett City","CT","Connecticut","6351","Eastern","41.599562","-71.982619"
"(203) 275-","Unknown","Fairfield","Bridgeport","CT","Connecticut","6604","Eastern","41.192746","-73.213907"
"(860) 941-","Landline","New London","New London","CT","Connecticut","6320","Eastern","41.413998","-72.10907"
"(860) 371-","Landline","Hartford","Hartford","CT","Connecticut","6134","Eastern","41.791776","-72.718832"
"(860) 352-","Landline","Hartford","Hartford","CT","Connecticut","6134","Eastern","41.791776","-72.718832"
"(860) 846-","Landline","Hartford","Plainville","CT","Connecticut","6062","Eastern","41.672983","-72.859695"
"(203) 572-","Cell Number","Fairfield","Bridgeport","CT","Connecticut","6604","Eastern","41.192746","-73.213907"
"(203) 840-","Landline","Fairfield","Norwalk","CT","Connecticut","6856","Eastern","41.111196","-73.420363"
"(860) 218-","Landline","Hartford","Hartford","CT","Connecticut","6134","Eastern","41.791776","-72.718832"
"(860) 578-","Unknown","Hartford","Hartford","CT","Connecticut","6134","Eastern","41.791776","-72.718832"
"(860) 890-","Unknown","Hartford","Hartford","CT","Connecticut","6134","Eastern","41.791776","-72.718832"
"(203) 499-","Landline","New Haven","New Haven","CT","Connecticut","6515","Eastern","41.328697","-72.964247"
"(203) 905-","Landline","Fairfield","Stamford","CT","Connecticut","6911","Eastern","41.308873","-73.363661"
"(860) 586-","Landline","Hartford","West Hartford","CT","Connecticut","6137","Eastern","41.791776","-72.718832"
"(860) 296-","Landline","Hartford","Hartford","CT","Connecticut","6134","Eastern","41.791776","-72.718832"
"(860) 793-","Landline","Hartford","Plainville","CT","Connecticut","6062","Eastern","41.672983","-72.859695"
"(860) 894-","Landline","Middlesex","Middletown","CT","Connecticut","6457","Eastern","41.550139","-72.655357"
"(203) 642-","Landline","Fairfield","Stamford","CT","Connecticut","6911","Eastern","41.308873","-73.363661"
"(203) 891-","Landline","New Haven","New Haven","CT","Connecticut","6515","Eastern","41.328697","-72.964247"
"(860) 419-","Landline","Litchfield","Cornwall","CT","Connecticut","6753","Eastern","41.828067","-73.332345"
"(203) 671-","Cell Number","New Haven","New Haven","CT","Connecticut","6515","Eastern","41.328697","-72.964247"
"(860) 538-","Cell Number","Hartford","New Britain","CT","Connecticut","6050","Eastern","41.666049","-72.778391"
"(860) 571-","Landline","Hartford","Hartford","CT","Connecticut","6134","Eastern","41.791776","-72.718832"
"(860) 256-","Landline","Hartford","Hartford","CT","Connecticut","6134","Eastern","41.791776","-72.718832"
"(203) 343-","Cell Number","Fairfield","Danbury","CT","Connecticut","6817","Eastern","41.308873","-73.363661"
"(860) 272-","Landline","Hartford","Enfield","CT","Connecticut","6083","Eastern","41.791776","-72.718832"
"(860) 455-","Landline","Windham","Hampton","CT","Connecticut","6247","Eastern","41.788756","-71.975819"
"(860) 715-","Landline","New London","New London","CT","Connecticut","6320","Eastern","41.413998","-72.10907"
"(860) 885-","Landline","New London","Norwich","CT","Connecticut","6360","Eastern","41.499398","-71.994757"
"(860) 594-","Landline","Hartford","Hartford","CT","Connecticut","6134","Eastern","41.791776","-72.718832"
"(203) 310-","Landline","Fairfield","New Canaan","CT","Connecticut","6840","Eastern","41.162209","-73.501267"
"(860) 637-","Cell Number","Hartford","Southington","CT","Connecticut","6489","Eastern","41.604786","-72.871945"
"(203) 526-","Cell Number","Fairfield","Bridgeport","CT","Connecticut","6604","Eastern","41.192746","-73.213907"
"(860) 557-","Landline","Hartford","East Hartford","CT","Connecticut","6138","Eastern","41.791776","-72.718832"
"(203) 814-","Landline","Fairfield","Bridgeport","CT","Connecticut","6604","Eastern","41.192746","-73.213907"
"(203) 647-","Landline","New Haven","Milford","CT","Connecticut","6460","Eastern","41.343773","-72.951273"
"(203) 967-","Landline","Fairfield","Stamford","CT","Connecticut","6911","Eastern","41.308873","-73.363661"
"(203) 577-","Landline","New Haven","Waterbury","CT","Connecticut","6749","Eastern","41.365709","-72.927507"
"(860) 706-","Landline","Hartford","Hartford","CT","Connecticut","6134","Eastern","41.791776","-72.718832"
"(860) 923-","Landline","Windham","North Grosvenordale","CT","Connecticut","6255","Eastern","41.978392","-71.899716"
"(203) 644-","Cell Number","Fairfield","Norwalk","CT","Connecticut","6856","Eastern","41.111196","-73.420363"
"(860) 230-","Landline","Windham","Plainfield","CT","Connecticut","6374","Eastern","41.688121","-71.884113"
"(860) 949-","Unknown","New London","Norwich","CT","Connecticut","6360","Eastern","41.499398","-71.994757"
"(860) 435-","Landline","Litchfield","Lakeville","CT","Connecticut","6039","Eastern","41.951917","-73.38138"
"(203) 207-","Landline","Fairfield","Danbury","CT","Connecticut","6817","Eastern","41.308873","-73.363661"
"(860) 378-","Landline","Hartford","Southington","CT","Connecticut","6489","Eastern","41.604786","-72.871945"
"(203) 853-","Landline","Fairfield","Norwalk","CT","Connecticut","6856","Eastern","41.111196","-73.420363"
"(860) 469-","Landline","Litchfield","Winsted","CT","Connecticut","6098","Eastern","41.925671","-73.058157"
"(860) 652-","Landline","Hartford","Glastonbury","CT","Connecticut","6033","Eastern","41.703451","-72.539332"
"(203) 278-","Cell Number","New Haven","Derby","CT","Connecticut","6418","Eastern","41.327246","-73.084252"
"(860) 904-","Landline","Hartford","Hartford","CT","Connecticut","6134","Eastern","41.791776","-72.718832"
"(203) 381-","Landline","Fairfield","Bridgeport","CT","Connecticut","6604","Eastern","41.192746","-73.213907"
"(860) 624-","Unknown","Hartford","Windsor","CT","Connecticut","6095","Eastern","41.909988","-72.804935"
"(860) 964-","Cell Number","Middlesex","Old Saybrook","CT","Connecticut","6475","Eastern","41.300448","-72.389129"
"(860) 732-","Landline","New London","New London","CT","Connecticut","6320","Eastern","41.413998","-72.10907"
"(203) 626-","Landline","New Haven","New Haven","CT","Connecticut","6515","Eastern","41.328697","-72.964247"
"(860) 531-","Landline","New London","Colchester","CT","Connecticut","6415","Eastern","41.546443","-72.338832"
"(860) 863-","Landline","Hartford","Southington","CT","Connecticut","6489","Eastern","41.604786","-72.871945"
"(203) 390-","Cell Number","New Haven","New Haven","CT","Connecticut","6515","Eastern","41.328697","-72.964247"
"(203) 416-","Landline","Fairfield","Bridgeport","CT","Connecticut","6604","Eastern","41.192746","-73.213907"
"(203) 936-","Unknown","New Haven","New Haven","CT","Connecticut","6515","Eastern","41.328697","-72.964247"
"(203) 541-","Landline","Fairfield","Stamford","CT","Connecticut","6911","Eastern","41.308873","-73.363661"
"(860) 824-","Landline","Litchfield","Canaan","CT","Connecticut","6018","Eastern","42.001585","-73.295891"
"(203) 582-","Landline","New Haven","New Haven","CT","Connecticut","6515","Eastern","41.328697","-72.964247"
"(203) 907-","Landline","New Haven","New Haven","CT","Connecticut","6515","Eastern","41.328697","-72.964247"
"(860) 933-","Cell Number","Windham","Willimantic","CT","Connecticut","6226","Eastern","41.845504","-72.091889"
"(860) 797-","Landline","Hartford","New Britain","CT","Connecticut","6050","Eastern","41.666049","-72.778391"
"(203) 375-","Landline","Fairfield","Bridgeport","CT","Connecticut","6604","Eastern","41.192746","-73.213907"
"(860) 473-","Cell Number","Hartford","Hartford","CT","Connecticut","6134","Eastern","41.791776","-72.718832"
"(860) 796-","Cell Number","Hartford","Hartford","CT","Connecticut","6134","Eastern","41.791776","-72.718832"
"(203) 940-","Landline","Fairfield","Stamford","CT","Connecticut","6911","Eastern","41.308873","-73.363661"
"(860) 281-","Landline","Hartford","Hartford","CT","Connecticut","6134","Eastern","41.791776","-72.718832"
"(203) 351-","Landline","Fairfield","Stamford","CT","Connecticut","6911","Eastern","41.308873","-73.363661"
"(860) 953-","Landline","Hartford","Hartford","CT","Connecticut","6134","Eastern","41.791776","-72.718832"
"(203) 875-","Landline","Fairfield","Darien","CT","Connecticut","6820","Eastern","41.075846","-73.480765"
"(860) 587-","Cell Number","Hartford","Hartford","CT","Connecticut","6134","Eastern","41.791776","-72.718832"
"(203) 455-","Landline","Fairfield","Bridgeport","CT","Connecticut","6604","Eastern","41.192746","-73.213907"
"(860) 607-","Landline","Hartford","Hartford","CT","Connecticut","6134","Eastern","41.791776","-72.718832"
"(203) 544-","Landline","Fairfield","Redding","CT","Connecticut","6896","Eastern","41.271095","-73.38634"
"(860) 623-","Landline","Hartford","Windsor Locks","CT","Connecticut","6096","Eastern","41.933846","-72.660245"
"(860) 227-","Cell Number","Middlesex","Old Saybrook","CT","Connecticut","6475","Eastern","41.300448","-72.389129"
"(860) 525-","Landline","Hartford","Hartford","CT","Connecticut","6134","Eastern","41.791776","-72.718832"
"(860) 655-","Cell Number","Hartford","Hartford","CT","Connecticut","6134","Eastern","41.791776","-72.718832"
"(860) 334-","Cell Number","New London","Norwich","CT","Connecticut","6360","Eastern","41.499398","-71.994757"
"(860) 567-","Landline","Litchfield","Litchfield","CT","Connecticut","6759","Eastern","41.791598","-73.229787"
"(860) 577-","Landline","Middlesex","Old Saybrook","CT","Connecticut","6475","Eastern","41.300448","-72.389129"
"(860) 596-","Landline","Litchfield","Lakeville","CT","Connecticut","6039","Eastern","41.951917","-73.38138"
"(860) 292-","Landline","Hartford","Windsor Locks","CT","Connecticut","6096","Eastern","41.933846","-72.660245"
"(203) 760-","Cell Number","Fairfield","Norwalk","CT","Connecticut","6856","Eastern","41.111196","-73.420363"
"(860) 677-","Landline","Hartford","Farmington","CT","Connecticut","6034","Eastern","41.791776","-72.718832"
"(860) 592-","Landline","Litchfield","Kent","CT","Connecticut","6757","Eastern","41.774725","-73.401908"
"(860) 883-","Cell Number","Hartford","Hartford","CT","Connecticut","6134","Eastern","41.791776","-72.718832"
"(860) 523-","Landline","Hartford","West Hartford","CT","Connecticut","6137","Eastern","41.791776","-72.718832"
"(860) 716-","Cell Number","Hartford","Hartford","CT","Connecticut","6134","Eastern","41.791776","-72.718832"
"(203) 573-","Landline","New Haven","Waterbury","CT","Connecticut","6749","Eastern","41.365709","-72.927507"
"(203) 437-","Landline","New Haven","Waterbury","CT","Connecticut","6749","Eastern","41.365709","-72.927507"
"(860) 710-","Cell Number","New London","Norwich","CT","Connecticut","6360","Eastern","41.499398","-71.994757"
"(203) 710-","Cell Number","New Haven","New Haven","CT","Connecticut","6515","Eastern","41.328697","-72.964247"
"(203) 585-","Landline","Fairfield","Stamford","CT","Connecticut","6911","Eastern","41.308873","-73.363661"
"(860) 318-","Landline","Litchfield","Cornwall","CT","Connecticut","6753","Eastern","41.828067","-73.332345"
"(860) 876-","Cell Number","Middlesex","Old Saybrook","CT","Connecticut","6475","Eastern","41.300448","-72.389129"
"(860) 767-","Landline","Middlesex","Essex","CT","Connecticut","6426","Eastern","41.448179","-72.50426"
"(860) 499-","Landline","Litchfield","Cornwall","CT","Connecticut","6753","Eastern","41.828067","-73.332345"
"(860) 414-","Landline","Hartford","Southington","CT","Connecticut","6489","Eastern","41.604786","-72.871945"
"(860) 669-","Landline","Middlesex","Clinton","CT","Connecticut","6413","Eastern","41.298201","-72.532934"
"(860) 239-","Landline","Hartford","Enfield","CT","Connecticut","6083","Eastern","41.791776","-72.718832"
"(203) 888-","Landline","New Haven","Seymour","CT","Connecticut","6483","Eastern","41.417646","-73.102078"
"(860) 353-","Unknown","Hartford","Hartford","CT","Connecticut","6134","Eastern","41.791776","-72.718832"
"(860) 991-","Landline","Hartford","New Britain","CT","Connecticut","6050","Eastern","41.666049","-72.778391"
"(860) 744-","Cell Number","Windham","Willimantic","CT","Connecticut","6226","Eastern","41.845504","-72.091889"
"(203) 818-","Landline","Fairfield","Norwalk","CT","Connecticut","6856","Eastern","41.111196","-73.420363"
"(203) 240-","Cell Number","Fairfield","Danbury","CT","Connecticut","6817","Eastern","41.308873","-73.363661"
"(860) 321-","Landline","Hartford","Hartford","CT","Connecticut","6134","Eastern","41.791776","-72.718832"
"(203) 286-","Landline","Fairfield","Norwalk","CT","Connecticut","6856","Eastern","41.111196","-73.420363"
"(203) 595-","Landline","Fairfield","Stamford","CT","Connecticut","6911","Eastern","41.308873","-73.363661"
"(203) 530-","Cell Number","New Haven","New Haven","CT","Connecticut","6515","Eastern","41.328697","-72.964247"
"(860) 889-","Landline","New London","Norwich","CT","Connecticut","6360","Eastern","41.499398","-71.994757"
"(860) 246-","Landline","Hartford","Hartford","CT","Connecticut","6134","Eastern","41.791776","-72.718832"
"(860) 448-","Landline","New London","New London","CT","Connecticut","6320","Eastern","41.413998","-72.10907"
"(860) 646-","Landline","Hartford","Manchester","CT","Connecticut","6045","Eastern","41.791776","-72.718832"
"(860) 721-","Landline","Hartford","Hartford","CT","Connecticut","6134","Eastern","41.791776","-72.718832"
"(203) 384-","Landline","Fairfield","Bridgeport","CT","Connecticut","6604","Eastern","41.192746","-73.213907"
"(860) 574-","Unknown","New London","New London","CT","Connecticut","6320","Eastern","41.413998","-72.10907"
"(860) 276-","Landline","Hartford","Southington","CT","Connecticut","6489","Eastern","41.604786","-72.871945"
"(860) 614-","Cell Number","Hartford","Hartford","CT","Connecticut","6134","Eastern","41.791776","-72.718832"
"(860) 920-","Landline","Hartford","Hartford","CT","Connecticut","6134","Eastern","41.791776","-72.718832"
"(203) 819-","Landline","New Haven","Waterbury","CT","Connecticut","6749","Eastern","41.365709","-72.927507"
"(860) 606-","Landline","Hartford","Farmington","CT","Connecticut","6034","Eastern","41.791776","-72.718832"
"(860) 906-","Landline","Hartford","Hartford","CT","Connecticut","6134","Eastern","41.791776","-72.718832"
"(860) 323-","Landline","Hartford","Hartford","CT","Connecticut","6134","Eastern","41.791776","-72.718832"
"(860) 913-","Cell Number","Hartford","Hartford","CT","Connecticut","6134","Eastern","41.791776","-72.718832"
"(860) 545-","Landline","Hartford","Hartford","CT","Connecticut","6134","Eastern","41.791776","-72.718832"
"(203) 956-","Landline","Fairfield","Norwalk","CT","Connecticut","6856","Eastern","41.111196","-73.420363"
"(203) 743-","Landline","Fairfield","Danbury","CT","Connecticut","6817","Eastern","41.308873","-73.363661"
"(203) 598-","Landline","New Haven","Waterbury","CT","Connecticut","6749","Eastern","41.365709","-72.927507"
"(860) 536-","Landline","New London","Mystic","CT","Connecticut","6355","Eastern","41.485188","-72.000748"
"(203) 220-","Landline","Fairfield","Trumbull","CT","Connecticut","6611","Eastern","41.259996","-73.206957"
"(860) 916-","Cell Number","Hartford","Hartford","CT","Connecticut","6134","Eastern","41.791776","-72.718832"
"(203) 332-","Landline","Fairfield","Bridgeport","CT","Connecticut","6604","Eastern","41.192746","-73.213907"
"(860) 397-","Landline","Litchfield","Sharon","CT","Connecticut","6069","Eastern","41.874681","-73.433903"
"(860) 395-","Landline","Middlesex","Old Saybrook","CT","Connecticut","6475","Eastern","41.300448","-72.389129"
"(860) 573-","Cell Number","Hartford","Hartford","CT","Connecticut","6134","Eastern","41.791776","-72.718832"
"(203) 436-","Landline","New Haven","New Haven","CT","Connecticut","6515","Eastern","41.328697","-72.964247"
"(860) 527-","Landline","Hartford","Hartford","CT","Connecticut","6134","Eastern","41.791776","-72.718832"
"(860) 892-","Landline","New London","Norwich","CT","Connecticut","6360","Eastern","41.499398","-71.994757"
"(860) 656-","Landline","Hartford","Hartford","CT","Connecticut","6134","Eastern","41.791776","-72.718832"
"(203) 946-","Landline","New Haven","New Haven","CT","Connecticut","6515","Eastern","41.328697","-72.964247"
"(860) 666-","Landline","Hartford","Hartford","CT","Connecticut","6134","Eastern","41.791776","-72.718832"
"(203) 904-","Cell Number","Fairfield","Norwalk","CT","Connecticut","6856","Eastern","41.111196","-73.420363"
"(203) 685-","Cell Number","Fairfield","Bridgeport","CT","Connecticut","6604","Eastern","41.192746","-73.213907"
"(203) 687-","Landline","New Haven","New Haven","CT","Connecticut","6515","Eastern","41.328697","-72.964247"
"(203) 521-","Cell Number","Fairfield","Bridgeport","CT","Connecticut","6604","Eastern","41.192746","-73.213907"
"(203) 672-","Landline","New Haven","New Haven","CT","Connecticut","6515","Eastern","41.328697","-72.964247"
"(860) 431-","Landline","Hartford","Simsbury","CT","Connecticut","6070","Eastern","41.868647","-72.819742"
"(203) 847-","Landline","Fairfield","Norwalk","CT","Connecticut","6856","Eastern","41.111196","-73.420363"
"(860) 986-","Landline","Hartford","Hartford","CT","Connecticut","6134","Eastern","41.791776","-72.718832"
"(203) 576-","Landline","Fairfield","Bridgeport","CT","Connecticut","6604","Eastern","41.192746","-73.213907"
"(203) 463-","Landline","New Haven","Seymour","CT","Connecticut","6483","Eastern","41.417646","-73.102078"
"(203) 718-","Landline","New Haven","Cheshire","CT","Connecticut","6411","Eastern","41.550097","-72.922235"
"(203) 456-","Cell Number","New Haven","Meriden","CT","Connecticut","6450","Eastern","41.536498","-72.801901"
"(860) 253-","Landline","Hartford","Enfield","CT","Connecticut","6083","Eastern","41.791776","-72.718832"
"(860) 628-","Landline","Hartford","Southington","CT","Connecticut","6489","Eastern","41.604786","-72.871945"
"(203) 817-","Landline","Fairfield","Stamford","CT","Connecticut","6911","Eastern","41.308873","-73.363661"
"(860) 232-","Landline","Hartford","West Hartford","CT","Connecticut","6137","Eastern","41.791776","-72.718832"
"(860) 580-","Unknown","Hartford","Windsor","CT","Connecticut","6095","Eastern","41.909988","-72.804935"
"(203) 553-","Landline","New Haven","New Haven","CT","Connecticut","6515","Eastern","41.328697","-72.964247"
"(860) 582-","Landline","Hartford","Bristol","CT","Connecticut","6011","Eastern","41.791776","-72.718832"
"(203) 215-","Cell Number","New Haven","New Haven","CT","Connecticut","6515","Eastern","41.328697","-72.964247"
"(203) 287-","Landline","New Haven","New Haven","CT","Connecticut","6515","Eastern","41.328697","-72.964247"
"(203) 589-","Cell Number","New Haven","New Haven","CT","Connecticut","6515","Eastern","41.328697","-72.964247"
"(860) 284-","Landline","Hartford","Farmington","CT","Connecticut","6034","Eastern","41.791776","-72.718832"
"(860) 474-","Landline","Hartford","Manchester","CT","Connecticut","6045","Eastern","41.791776","-72.718832"
"(860) 918-","Cell Number","Hartford","Glastonbury","CT","Connecticut","6033","Eastern","41.703451","-72.539332"
"(860) 402-","Cell Number","Hartford","Hartford","CT","Connecticut","6134","Eastern","41.791776","-72.718832"
"(860) 437-","Landline","New London","New London","CT","Connecticut","6320","Eastern","41.413998","-72.10907"
"(203) 627-","Cell Number","New Haven","New Haven","CT","Connecticut","6515","Eastern","41.328697","-72.964247"
"(860) 204-","Landline","New London","Norwich","CT","Connecticut","6360","Eastern","41.499398","-71.994757"
"(203) 360-","Unknown","Fairfield","Bridgeport","CT","Connecticut","6604","Eastern","41.192746","-73.213907"
"(860) 422-","Landline","Hartford","Hartford","CT","Connecticut","6134","Eastern","41.791776","-72.718832"
"(860) 938-","Cell Number","Middlesex","Deep River","CT","Connecticut","6417","Eastern","41.368124","-72.452284"
"(203) 769-","Landline","Fairfield","Greenwich","CT","Connecticut","6830","Eastern","41.042746","-73.62617"
"(860) 282-","Landline","Hartford","East Hartford","CT","Connecticut","6138","Eastern","41.791776","-72.718832"
"(203) 871-","Landline","New Haven","Branford","CT","Connecticut","6405","Eastern","41.284746","-72.796292"
"(203) 368-","Landline","Fairfield","Bridgeport","CT","Connecticut","6604","Eastern","41.192746","-73.213907"
"(203) 330-","Landline","Fairfield","Bridgeport","CT","Connecticut","6604","Eastern","41.192746","-73.213907"
"(860) 975-","Landline","Hartford","Hartford","CT","Connecticut","6134","Eastern","41.791776","-72.718832"
"(203) 401-","Landline","New Haven","New Haven","CT","Connecticut","6515","Eastern","41.328697","-72.964247"
"(203) 578-","Landline","New Haven","Waterbury","CT","Connecticut","6749","Eastern","41.365709","-72.927507"
"(860) 236-","Landline","Hartford","West Hartford","CT","Connecticut","6137","Eastern","41.791776","-72.718832"
"(203) 326-","Landline","Fairfield","Stamford","CT","Connecticut","6911","Eastern","41.308873","-73.363661"
"(860) 984-","Cell Number","New London","New London","CT","Connecticut","6320","Eastern","41.413998","-72.10907"
"(203) 690-","Unknown","Fairfield","Bridgeport","CT","Connecticut","6604","Eastern","41.192746","-73.213907"
"(203) 646-","Landline","New Haven","Branford","CT","Connecticut","6405","Eastern","41.284746","-72.796292"
"(860) 783-","Landline","Hartford","Manchester","CT","Connecticut","6045","Eastern","41.791776","-72.718832"
"(203) 913-","Cell Number","Fairfield","Bridgeport","CT","Connecticut","6604","Eastern","41.192746","-73.213907"
"(203) 262-","Landline","New Haven","Southbury","CT","Connecticut","6488","Eastern","41.470921","-73.240839"
"(203) 776-","Landline","New Haven","New Haven","CT","Connecticut","6515","Eastern","41.328697","-72.964247"
"(860) 643-","Landline","Hartford","Manchester","CT","Connecticut","6045","Eastern","41.791776","-72.718832"
"(860) 881-","Cell Number","Hartford","Hartford","CT","Connecticut","6134","Eastern","41.791776","-72.718832"
"(203) 290-","Landline","Fairfield","Greenwich","CT","Connecticut","6830","Eastern","41.042746","-73.62617"
"(860) 851-","Landline","Hartford","Manchester","CT","Connecticut","6045","Eastern","41.791776","-72.718832"
"(860) 919-","Cell Number","Hartford","Southington","CT","Connecticut","6489","Eastern","41.604786","-72.871945"
"(203) 828-","Landline","New Haven","Seymour","CT","Connecticut","6483","Eastern","41.417646","-73.102078"
"(203) 327-","Landline","Fairfield","Stamford","CT","Connecticut","6911","Eastern","41.308873","-73.363661"
"(203) 658-","Landline","Fairfield","Stamford","CT","Connecticut","6911","Eastern","41.308873","-73.363661"
"(860) 329-","Landline","Hartford","Southington","CT","Connecticut","6489","Eastern","41.604786","-72.871945"
"(203) 737-","Landline","New Haven","New Haven","CT","Connecticut","6515","Eastern","41.328697","-72.964247"
"(860) 403-","Landline","Hartford","Hartford","CT","Connecticut","6134","Eastern","41.791776","-72.718832"
"(203) 947-","Cell Number","Fairfield","Danbury","CT","Connecticut","6817","Eastern","41.308873","-73.363661"
"(203) 770-","Landline","Fairfield","Danbury","CT","Connecticut","6817","Eastern","41.308873","-73.363661"
"(860) 843-","Landline","Hartford","Simsbury","CT","Connecticut","6070","Eastern","41.868647","-72.819742"
"(203) 301-","Landline","New Haven","Milford","CT","Connecticut","6460","Eastern","41.343773","-72.951273"
"(860) 818-","Landline","Hartford","Hartford","CT","Connecticut","6134","Eastern","41.791776","-72.718832"
"(860) 289-","Landline","Hartford","East Hartford","CT","Connecticut","6138","Eastern","41.791776","-72.718832"
"(860) 626-","Landline","Litchfield","Torrington","CT","Connecticut","6790","Eastern","41.87484","-73.126763"
"(203) 725-","Landline","New Haven","Waterbury","CT","Connecticut","6749","Eastern","41.365709","-72.927507"
"(860) 512-","Landline","Hartford","Hartford","CT","Connecticut","6134","Eastern","41.791776","-72.718832"
"(203) 388-","Landline","Fairfield","Stamford","CT","Connecticut","6911","Eastern","41.308873","-73.363661"
"(203) 359-","Landline","Fairfield","Stamford","CT","Connecticut","6911","Eastern","41.308873","-73.363661"
"(203) 260-","Cell Number","Fairfield","Bridgeport","CT","Connecticut","6604","Eastern","41.192746","-73.213907"
"(860) 940-","Landline","Hartford","Bristol","CT","Connecticut","6011","Eastern","41.791776","-72.718832"
"(203) 688-","Landline","New Haven","New Haven","CT","Connecticut","6515","Eastern","41.328697","-72.964247"
"(203) 383-","Landline","Fairfield","Bridgeport","CT","Connecticut","6604","Eastern","41.192746","-73.213907"
"(860) 898-","Cell Number","Litchfield","New Milford","CT","Connecticut","6776","Eastern","41.658619","-73.366017"
"(203) 549-","Landline","Fairfield","Bridgeport","CT","Connecticut","6604","Eastern","41.192746","-73.213907"
"(860) 517-","Landline","Hartford","Hartford","CT","Connecticut","6134","Eastern","41.791776","-72.718832"
"(203) 428-","Landline","Fairfield","Stamford","CT","Connecticut","6911","Eastern","41.308873","-73.363661"
"(860) 231-","Landline","Hartford","West Hartford","CT","Connecticut","6137","Eastern","41.791776","-72.718832"
"(860) 792-","Landline","Windham","Putnam","CT","Connecticut","6260","Eastern","41.862904","-71.887712"
"(860) 631-","Landline","Litchfield","Watertown","CT","Connecticut","6795","Eastern","41.759427","-73.162003"
"(203) 525-","Cell Number","New Haven","Waterbury","CT","Connecticut","6749","Eastern","41.365709","-72.927507"
"(203) 696-","Landline","Fairfield","Bridgeport","CT","Connecticut","6604","Eastern","41.192746","-73.213907"
"(203) 532-","Landline","Fairfield","Greenwich","CT","Connecticut","6830","Eastern","41.042746","-73.62617"
"(860) 262-","Landline","Hartford","Hartford","CT","Connecticut","6134","Eastern","41.791776","-72.718832"
"(860) 835-","Landline","Hartford","Enfield","CT","Connecticut","6083","Eastern","41.791776","-72.718832"
"(860) 639-","Landline","New London","Norwich","CT","Connecticut","6360","Eastern","41.499398","-71.994757"
"(860) 222-","Unknown","New London","Norwich","CT","Connecticut","6360","Eastern","41.499398","-71.994757"
"(203) 859-","Landline","New Haven","New Haven","CT","Connecticut","6515","Eastern","41.328697","-72.964247"
"(203) 304-","Landline","Fairfield","Newtown","CT","Connecticut","6470","Eastern","41.396295","-73.310561"
"(860) 312-","Landline","New London","Norwich","CT","Connecticut","6360","Eastern","41.499398","-71.994757"
"(860) 912-","Cell Number","New London","New London","CT","Connecticut","6320","Eastern","41.413998","-72.10907"
"(860) 983-","Cell Number","Hartford","Hartford","CT","Connecticut","6134","Eastern","41.791776","-72.718832"
"(203) 507-","Cell Number","New Haven","New Haven","CT","Connecticut","6515","Eastern","41.328697","-72.964247"
"(203) 587-","Landline","Fairfield","Redding","CT","Connecticut","6896","Eastern","41.271095","-73.38634"
"(203) 479-","Landline","New Haven","New Haven","CT","Connecticut","6515","Eastern","41.328697","-72.964247"
"(203) 484-","Landline","New Haven","Northford","CT","Connecticut","6472","Eastern","41.379797","-72.772991"
"(203) 427-","Landline","New Haven","Meriden","CT","Connecticut","6450","Eastern","41.536498","-72.801901"
"(860) 622-","Landline","Hartford","East Hartford","CT","Connecticut","6138","Eastern","41.791776","-72.718832"
"(203) 268-","Landline","Fairfield","Trumbull","CT","Connecticut","6611","Eastern","41.259996","-73.206957"
"(203) 782-","Landline","New Haven","New Haven","CT","Connecticut","6515","Eastern","41.328697","-72.964247"
"(860) 533-","Landline","Hartford","Manchester","CT","Connecticut","6045","Eastern","41.791776","-72.718832"
"(203) 777-","Landline","New Haven","New Haven","CT","Connecticut","6515","Eastern","41.328697","-72.964247"
"(860) 645-","Landline","Hartford","Manchester","CT","Connecticut","6045","Eastern","41.791776","-72.718832"
"(203) 857-","Landline","Fairfield","Norwalk","CT","Connecticut","6856","Eastern","41.111196","-73.420363"
"(203) 548-","Landline","Fairfield","Stamford","CT","Connecticut","6911","Eastern","41.308873","-73.363661"
"(203) 285-","Landline","New Haven","New Haven","CT","Connecticut","6515","Eastern","41.328697","-72.964247"
"(203) 702-","Landline","Fairfield","Danbury","CT","Connecticut","6817","Eastern","41.308873","-73.363661"
"(860) 383-","Landline","New London","Norwich","CT","Connecticut","6360","Eastern","41.499398","-71.994757"
"(203) 226-","Landline","Fairfield","Westport","CT","Connecticut","6888","Eastern","41.308873","-73.363661"
"(203) 920-","Landline","Fairfield","Stamford","CT","Connecticut","6911","Eastern","41.308873","-73.363661"
"(860) 601-","Cell Number","Litchfield","Torrington","CT","Connecticut","6790","Eastern","41.87484","-73.126763"
"(203) 520-","Cell Number","Fairfield","Bridgeport","CT","Connecticut","6604","Eastern","41.192746","-73.213907"
"(860) 484-","Landline","Litchfield","Thomaston","CT","Connecticut","6787","Eastern","41.658721","-73.098657"
"(860) 777-","Landline","Hartford","Farmington","CT","Connecticut","6034","Eastern","41.791776","-72.718832"
"(203) 915-","Cell Number","New Haven","New Haven","CT","Connecticut","6515","Eastern","41.328697","-72.964247"
"(203) 610-","Landline","Fairfield","Bridgeport","CT","Connecticut","6604","Eastern","41.192746","-73.213907"
"(860) 524-","Landline","Hartford","Hartford","CT","Connecticut","6134","Eastern","41.791776","-72.718832"
"(860) 470-","Landline","Hartford","Hartford","CT","Connecticut","6134","Eastern","41.791776","-72.718832"
"(203) 208-","Landline","New Haven","Branford","CT","Connecticut","6405","Eastern","41.284746","-72.796292"
"(860) 317-","Landline","Windham","Plainfield","CT","Connecticut","6374","Eastern","41.688121","-71.884113"
"(203) 792-","Landline","Fairfield","Danbury","CT","Connecticut","6817","Eastern","41.308873","-73.363661"
"(860) 440-","Landline","New London","New London","CT","Connecticut","6320","Eastern","41.413998","-72.10907"
"(860) 951-","Landline","Hartford","Hartford","CT","Connecticut","6134","Eastern","41.791776","-72.718832"
"(203) 676-","Cell Number","New Haven","New Haven","CT","Connecticut","6515","Eastern","41.328697","-72.964247"
"(860) 688-","Landline","Hartford","Windsor","CT","Connecticut","6095","Eastern","41.909988","-72.804935"
"(860) 704-","Landline","Middlesex","Middletown","CT","Connecticut","6457","Eastern","41.550139","-72.655357"
"(203) 329-","Landline","Fairfield","Stamford","CT","Connecticut","6911","Eastern","41.308873","-73.363661"
"(203) 498-","Landline","New Haven","New Haven","CT","Connecticut","6515","Eastern","41.328697","-72.964247"
"(860) 844-","Landline","Hartford","Simsbury","CT","Connecticut","6070","Eastern","41.868647","-72.819742"
"(860) 550-","Landline","Hartford","Hartford","CT","Connecticut","6134","Eastern","41.791776","-72.718832"
"(860) 945-","Landline","Litchfield","Watertown","CT","Connecticut","6795","Eastern","41.759427","-73.162003"
"(203) 846-","Landline","Fairfield","Norwalk","CT","Connecticut","6856","Eastern","41.111196","-73.420363"
"(203) 854-","Landline","Fairfield","Norwalk","CT","Connecticut","6856","Eastern","41.111196","-73.420363"
"(203) 272-","Landline","New Haven","Cheshire","CT","Connecticut","6411","Eastern","41.550097","-72.922235"
"(860) 436-","Landline","Hartford","Manchester","CT","Connecticut","6045","Eastern","41.791776","-72.718832"
"(860) 454-","Landline","Hartford","Hartford","CT","Connecticut","6134","Eastern","41.791776","-72.718832"
"(860) 995-","Cell Number","Hartford","Hartford","CT","Connecticut","6134","Eastern","41.791776","-72.718832"
"(203) 839-","Cell Number","Fairfield","Norwalk","CT","Connecticut","6856","Eastern","41.111196","-73.420363"
"(203) 821-","Landline","New Haven","New Haven","CT","Connecticut","6515","Eastern","41.328697","-72.964247"
"(203) 223-","Cell Number","Fairfield","Stamford","CT","Connecticut","6911","Eastern","41.308873","-73.363661"
"(203) 361-","Cell Number","Fairfield","New Haven","CT","Connecticut","6515","Eastern","41.328697","-72.964247"
"(860) 252-","Landline","Hartford","Hartford","CT","Connecticut","6134","Eastern","41.791776","-72.718832"
"(860) 788-","Landline","Middlesex","Middletown","CT","Connecticut","6457","Eastern","41.550139","-72.655357"
"(203) 458-","Landline","New Haven","Guilford","CT","Connecticut","6437","Eastern","41.338847","-72.690089"
"(860) 322-","Landline","Middlesex","Deep River","CT","Connecticut","6417","Eastern","41.368124","-72.452284"
"(860) 406-","Landline","Hartford","Southington","CT","Connecticut","6489","Eastern","41.604786","-72.871945"
"(860) 290-","Landline","Hartford","East Hartford","CT","Connecticut","6138","Eastern","41.791776","-72.718832"
"(203) 843-","Landline","New Haven","New Haven","CT","Connecticut","6515","Eastern","41.328697","-72.964247"
"(203) 831-","Landline","Fairfield","Norwalk","CT","Connecticut","6856","Eastern","41.111196","-73.420363"
"(203) 404-","Landline","New Haven","New Haven","CT","Connecticut","6515","Eastern","41.328697","-72.964247"
"(203) 680-","Cell Number","New Haven","Waterbury","CT","Connecticut","6749","Eastern","41.365709","-72.927507"
"(860) 728-","Landline","Hartford","Hartford","CT","Connecticut","6134","Eastern","41.791776","-72.718832"
"(860) 828-","Landline","Hartford","New Britain","CT","Connecticut","6050","Eastern","41.666049","-72.778391"
"(203) 648-","Landline","Fairfield","Danbury","CT","Connecticut","6817","Eastern","41.308873","-73.363661"
"(203) 781-","Landline","New Haven","New Haven","CT","Connecticut","6515","Eastern","41.328697","-72.964247"
"(860) 360-","Cell Number","Hartford","Hartford","CT","Connecticut","6134","Eastern","41.791776","-72.718832"
"(203) 298-","Landline","New Haven","New Haven","CT","Connecticut","6515","Eastern","41.328697","-72.964247"
"(203) 510-","Cell Number","New Haven","Waterbury","CT","Connecticut","6749","Eastern","41.365709","-72.927507"
"(203) 461-","Landline","Fairfield","Stamford","CT","Connecticut","6911","Eastern","41.308873","-73.363661"
"(860) 288-","Landline","Hartford","Hartford","CT","Connecticut","6134","Eastern","41.791776","-72.718832"
"(203) 434-","Cell Number","Fairfield","Norwalk","CT","Connecticut","6856","Eastern","41.111196","-73.420363"
"(203) 353-","Landline","Fairfield","Stamford","CT","Connecticut","6911","Eastern","41.308873","-73.363661"
"(203) 960-","Unknown","Fairfield","Stamford","CT","Connecticut","6911","Eastern","41.308873","-73.363661"
"(860) 581-","Landline","Middlesex","Essex","CT","Connecticut","6426","Eastern","41.448179","-72.50426"
"(860) 932-","Unknown","Windham","Danielson","CT","Connecticut","6239","Eastern","41.864901","-71.874354"
"(860) 471-","Cell Number","Hartford","Hartford","CT","Connecticut","6134","Eastern","41.791776","-72.718832"
"(860) 865-","Landline","New London","New London","CT","Connecticut","6320","Eastern","41.413998","-72.10907"
"(860) 840-","Unknown","Hartford","Hartford","CT","Connecticut","6134","Eastern","41.791776","-72.718832"
"(860) 829-","Landline","Hartford","New Britain","CT","Connecticut","6050","Eastern","41.666049","-72.778391"
"(203) 979-","Cell Number","Fairfield","Stamford","CT","Connecticut","6911","Eastern","41.308873","-73.363661"
"(860) 841-","Cell Number","Hartford","Hartford","CT","Connecticut","6134","Eastern","41.791776","-72.718832"
"(860) 714-","Landline","Hartford","Hartford","CT","Connecticut","6134","Eastern","41.791776","-72.718832"
"(203) 868-","Landline","New Haven","New Haven","CT","Connecticut","6515","Eastern","41.328697","-72.964247"
"(203) 362-","Landline","Fairfield","Bridgeport","CT","Connecticut","6604","Eastern","41.192746","-73.213907"
"(860) 363-","Cell Number","Hartford","Hartford","CT","Connecticut","6134","Eastern","41.791776","-72.718832"
"(860) 569-","Landline","Hartford","East Hartford","CT","Connecticut","6138","Eastern","41.791776","-72.718832"
"(860) 350-","Landline","Litchfield","New Milford","CT","Connecticut","6776","Eastern","41.658619","-73.366017"
"(860) 834-","Cell Number","Middlesex","Middletown","CT","Connecticut","6457","Eastern","41.550139","-72.655357"
"(203) 901-","Cell Number","New Haven","New Haven","CT","Connecticut","6515","Eastern","41.328697","-72.964247"
"(860) 695-","Landline","Hartford","Hartford","CT","Connecticut","6134","Eastern","41.791776","-72.718832"
"(203) 334-","Landline","Fairfield","Bridgeport","CT","Connecticut","6604","Eastern","41.192746","-73.213907"
"(203) 339-","Landline","Fairfield","Bridgeport","CT","Connecticut","6604","Eastern","41.192746","-73.213907"
"(203) 347-","Landline","Fairfield","Greenwich","CT","Connecticut","6830","Eastern","41.042746","-73.62617"
"(860) 260-","Cell Number","Hartford","Hartford","CT","Connecticut","6134","Eastern","41.791776","-72.718832"
"(203) 386-","Landline","Fairfield","Bridgeport","CT","Connecticut","6604","Eastern","41.192746","-73.213907"
"(860) 675-","Landline","Hartford","Farmington","CT","Connecticut","6034","Eastern","41.791776","-72.718832"
"(860) 602-","Landline","Hartford","Hartford","CT","Connecticut","6134","Eastern","41.791776","-72.718832"
"(203) 318-","Landline","New Haven","Madison","CT","Connecticut","6443","Eastern","41.350397","-72.788392"
"(860) 758-","Landline","Hartford","Windsor Locks","CT","Connecticut","6096","Eastern","41.933846","-72.660245"
"(860) 659-","Landline","Hartford","Glastonbury","CT","Connecticut","6033","Eastern","41.703451","-72.539332"
"(203) 797-","Landline","Fairfield","Danbury","CT","Connecticut","6817","Eastern","41.308873","-73.363661"
"(860) 385-","Landline","Hartford","Southington","CT","Connecticut","6489","Eastern","41.604786","-72.871945"
"(203) 348-","Landline","Fairfield","Stamford","CT","Connecticut","6911","Eastern","41.308873","-73.363661"
"(203) 340-","Landline","Fairfield","Greenwich","CT","Connecticut","6830","Eastern","41.042746","-73.62617"
"(860) 404-","Landline","Hartford","Farmington","CT","Connecticut","6034","Eastern","41.791776","-72.718832"
"(203) 619-","Landline","New Haven","New Haven","CT","Connecticut","6515","Eastern","41.328697","-72.964247"
"(860) 593-","Cell Number","Hartford","Hartford","CT","Connecticut","6134","Eastern","41.791776","-72.718832"
"(203) 633-","Landline","New Haven","Wolcott","CT","Connecticut","6716","Eastern","41.598347","-72.980578"
"(203) 477-","Cell Number","New Haven","New Haven","CT","Connecticut","6515","Eastern","41.328697","-72.964247"
"(860) 521-","Landline","Hartford","Hartford","CT","Connecticut","6134","Eastern","41.791776","-72.718832"
"(203) 392-","Landline","New Haven","New Haven","CT","Connecticut","6515","Eastern","41.328697","-72.964247"
"(860) 233-","Landline","Hartford","West Hartford","CT","Connecticut","6137","Eastern","41.791776","-72.718832"
"(203) 279-","Cell Number","Fairfield","Bridgeport","CT","Connecticut","6604","Eastern","41.192746","-73.213907"
"(203) 810-","Landline","Fairfield","Norwalk","CT","Connecticut","6856","Eastern","41.111196","-73.420363"
"(860) 947-","Landline","Hartford","Hartford","CT","Connecticut","6134","Eastern","41.791776","-72.718832"
"(860) 630-","Landline","Windham","Putnam","CT","Connecticut","6260","Eastern","41.862904","-71.887712"
"(203) 986-","Landline","Fairfield","Old Greenwich","CT","Connecticut","6870","Eastern","41.034946","-73.566968"
"(203) 629-","Landline","Fairfield","Greenwich","CT","Connecticut","6830","Eastern","41.042746","-73.62617"
"(860) 342-","Landline","Middlesex","Middletown","CT","Connecticut","6457","Eastern","41.550139","-72.655357"
"(860) 482-","Landline","Litchfield","Torrington","CT","Connecticut","6790","Eastern","41.87484","-73.126763"
"(860) 625-","Cell Number","New London","New London","CT","Connecticut","6320","Eastern","41.413998","-72.10907"
"(860) 250-","Cell Number","Hartford","Hartford","CT","Connecticut","6134","Eastern","41.791776","-72.718832"
"(860) 544-","Landline","Tolland","Coventry","CT","Connecticut","6238","Eastern","41.778623","-72.323642"
"(860) 201-","Landline","Litchfield","Torrington","CT","Connecticut","6790","Eastern","41.87484","-73.126763"
"(860) 635-","Landline","Middlesex","Middletown","CT","Connecticut","6457","Eastern","41.550139","-72.655357"
"(203) 565-","Cell Number","New Haven","Waterbury","CT","Connecticut","6749","Eastern","41.365709","-72.927507"
"(203) 373-","Landline","Fairfield","Bridgeport","CT","Connecticut","6604","Eastern","41.192746","-73.213907"
"(203) 581-","Landline","Fairfield","Bridgeport","CT","Connecticut","6604","Eastern","41.192746","-73.213907"
"(203) 870-","Landline","Fairfield","Bridgeport","CT","Connecticut","6604","Eastern","41.192746","-73.213907"
"(860) 488-","Cell Number","Litchfield","New Milford","CT","Connecticut","6776","Eastern","41.658619","-73.366017"
"(203) 481-","Landline","New Haven","Branford","CT","Connecticut","6405","Eastern","41.284746","-72.796292"
"(203) 379-","Landline","New Haven","Meriden","CT","Connecticut","6450","Eastern","41.536498","-72.801901"
"(860) 264-","Landline","Hartford","Hartford","CT","Connecticut","6134","Eastern","41.791776","-72.718832"
"(860) 332-","Cell Number","Hartford","Hartford","CT","Connecticut","6134","Eastern","41.791776","-72.718832"
"(203) 778-","Landline","Fairfield","Danbury","CT","Connecticut","6817","Eastern","41.308873","-73.363661"
"(203) 765-","Landline","New Haven","New Haven","CT","Connecticut","6515","Eastern","41.328697","-72.964247"
"(860) 861-","Cell Number","New London","Norwich","CT","Connecticut","6360","Eastern","41.499398","-71.994757"
"(203) 518-","Cell Number","New Haven","Waterbury","CT","Connecticut","6749","Eastern","41.365709","-72.927507"
"(860) 827-","Landline","Hartford","New Britain","CT","Connecticut","6050","Eastern","41.666049","-72.778391"
"(860) 559-","Cell Number","Hartford","Hartford","CT","Connecticut","6134","Eastern","41.791776","-72.718832"
"(203) 448-","Landline","Fairfield","Danbury","CT","Connecticut","6817","Eastern","41.308873","-73.363661"
"(203) 607-","Landline","Fairfield","Stamford","CT","Connecticut","6911","Eastern","41.308873","-73.363661"
"(860) 887-","Landline","New London","Norwich","CT","Connecticut","6360","Eastern","41.499398","-71.994757"
"(860) 694-","Landline","New London","New London","CT","Connecticut","6320","Eastern","41.413998","-72.10907"
"(860) 519-","Landline","Hartford","Hartford","CT","Connecticut","6134","Eastern","41.791776","-72.718832"
"(860) 442-","Landline","New London","New London","CT","Connecticut","6320","Eastern","41.413998","-72.10907"
"(203) 444-","Cell Number","New Haven","New Haven","CT","Connecticut","6515","Eastern","41.328697","-72.964247"
"(860) 566-","Landline","Hartford","Hartford","CT","Connecticut","6134","Eastern","41.791776","-72.718832"
"(203) 264-","Landline","New Haven","Southbury","CT","Connecticut","6488","Eastern","41.470921","-73.240839"
"(860) 679-","Landline","Hartford","Farmington","CT","Connecticut","6034","Eastern","41.791776","-72.718832"
"(203) 218-","Cell Number","Fairfield","Bridgeport","CT","Connecticut","6604","Eastern","41.192746","-73.213907"
"(860) 771-","Unknown","Windham","Willimantic","CT","Connecticut","6226","Eastern","41.845504","-72.091889"
"(860) 263-","Landline","Hartford","Hartford","CT","Connecticut","6134","Eastern","41.791776","-72.718832"
"(860) 424-","Landline","Hartford","Hartford","CT","Connecticut","6134","Eastern","41.791776","-72.718832"
"(203) 994-","Cell Number","Fairfield","Danbury","CT","Connecticut","6817","Eastern","41.308873","-73.363661"
"(203) 964-","Landline","Fairfield","Stamford","CT","Connecticut","6911","Eastern","41.308873","-73.363661"
"(203) 938-","Landline","Fairfield","Redding","CT","Connecticut","6896","Eastern","41.271095","-73.38634"
"(203) 793-","Landline","New Haven","Wallingford","CT","Connecticut","6492","Eastern","41.456205","-72.811047"
"(203) 961-","Landline","Fairfield","Stamford","CT","Connecticut","6911","Eastern","41.308873","-73.363661"
"(860) 888-","Cell Number","Hartford","Hartford","CT","Connecticut","6134","Eastern","41.791776","-72.718832"
"(860) 472-","Cell Number","Hartford","Hartford","CT","Connecticut","6134","Eastern","41.791776","-72.718832"
"(203) 706-","Landline","New Haven","Waterbury","CT","Connecticut","6749","Eastern","41.365709","-72.927507"
"(203) 835-","Cell Number","Fairfield","Norwalk","CT","Connecticut","6856","Eastern","41.111196","-73.420363"
"(860) 223-","Landline","Hartford","New Britain","CT","Connecticut","6050","Eastern","41.666049","-72.778391"
"(203) 397-","Landline","New Haven","New Haven","CT","Connecticut","6515","Eastern","41.328697","-72.964247"
"(203) 313-","Cell Number","Fairfield","Danbury","CT","Connecticut","6817","Eastern","41.308873","-73.363661"
"(860) 308-","Landline","Hartford","Hartford","CT","Connecticut","6134","Eastern","41.791776","-72.718832"
"(203) 708-","Landline","Fairfield","Stamford","CT","Connecticut","6911","Eastern","41.308873","-73.363661"
"(203) 932-","Landline","New Haven","New Haven","CT","Connecticut","6515","Eastern","41.328697","-72.964247"
"(203) 219-","Cell Number","Fairfield","Stamford","CT","Connecticut","6911","Eastern","41.308873","-73.363661"
"(203) 917-","Unknown","Fairfield","Danbury","CT","Connecticut","6817","Eastern","41.308873","-73.363661"
"(860) 671-","Cell Number","Litchfield","Cornwall","CT","Connecticut","6753","Eastern","41.828067","-73.332345"
"(203) 717-","Cell Number","Fairfield","Greenwich","CT","Connecticut","6830","Eastern","41.042746","-73.62617"
"(860) 261-","Landline","Hartford","Bristol","CT","Connecticut","6011","Eastern","41.791776","-72.718832"
"(860) 810-","Landline","Hartford","Hartford","CT","Connecticut","6134","Eastern","41.791776","-72.718832"
"(203) 497-","Landline","New Haven","New Haven","CT","Connecticut","6515","Eastern","41.328697","-72.964247"
"(203) 377-","Landline","Fairfield","Bridgeport","CT","Connecticut","6604","Eastern","41.192746","-73.213907"
"(203) 344-","Landline","Fairfield","Old Greenwich","CT","Connecticut","6870","Eastern","41.034946","-73.566968"
"(860) 349-","Landline","Middlesex","Middletown","CT","Connecticut","6457","Eastern","41.550139","-72.655357"
"(203) 367-","Landline","Fairfield","Bridgeport","CT","Connecticut","6604","Eastern","41.192746","-73.213907"
"(203) 735-","Landline","New Haven","Ansonia","CT","Connecticut","6401","Eastern","41.342514","-73.070301"
"(860) 565-","Landline","Hartford","East Hartford","CT","Connecticut","6138","Eastern","41.791776","-72.718832"
"(860) 449-","Landline","New London","New London","CT","Connecticut","6320","Eastern","41.413998","-72.10907"
"(860) 794-","Cell Number","Hartford","Hartford","CT","Connecticut","6134","Eastern","41.791776","-72.718832"
"(860) 248-","Landline","Litchfield","Cornwall","CT","Connecticut","6753","Eastern","41.828067","-73.332345"
"(860) 244-","Landline","Hartford","Hartford","CT","Connecticut","6134","Eastern","41.791776","-72.718832"
"(203) 601-","Landline","Fairfield","Trumbull","CT","Connecticut","6611","Eastern","41.259996","-73.206957"
"(860) 877-","Cell Number","Hartford","Southington","CT","Connecticut","6489","Eastern","41.604786","-72.871945"
"(203) 747-","Landline","New Haven","New Haven","CT","Connecticut","6515","Eastern","41.328697","-72.964247"
"(203) 639-","Landline","New Haven","Meriden","CT","Connecticut","6450","Eastern","41.536498","-72.801901"
"(860) 731-","Landline","Hartford","Windsor","CT","Connecticut","6095","Eastern","41.909988","-72.804935"
"(860) 375-","Landline","Hartford","Hartford","CT","Connecticut","6134","Eastern","41.791776","-72.718832"
"(203) 433-","Landline","New Haven","Branford","CT","Connecticut","6405","Eastern","41.284746","-72.796292"
"(860) 384-","Cell Number","Hartford","Southington","CT","Connecticut","6489","Eastern","41.604786","-72.871945"
"(203) 895-","Cell Number","Fairfield","Trumbull","CT","Connecticut","6611","Eastern","41.259996","-73.206957"
"(860) 836-","Cell Number","Hartford","Hartford","CT","Connecticut","6134","Eastern","41.791776","-72.718832"
"(203) 668-","Cell Number","New Haven","New Haven","CT","Connecticut","6515","Eastern","41.328697","-72.964247"
"(860) 355-","Landline","Litchfield","New Milford","CT","Connecticut","6776","Eastern","41.658619","-73.366017"
"(203) 830-","Landline","Fairfield","Danbury","CT","Connecticut","6817","Eastern","41.308873","-73.363661"
"(203) 721-","Landline","New Haven","Waterbury","CT","Connecticut","6749","Eastern","41.365709","-72.927507"
"(860) 305-","Cell Number","Hartford","Hartford","CT","Connecticut","6134","Eastern","41.791776","-72.718832"
"(860) 948-","Landline","Hartford","Hartford","CT","Connecticut","6134","Eastern","41.791776","-72.718832"
"(203) 257-","Cell Number","Fairfield","Bridgeport","CT","Connecticut","6604","Eastern","41.192746","-73.213907"
"(860) 921-","Landline","Litchfield","Torrington","CT","Connecticut","6790","Eastern","41.87484","-73.126763"
"(860) 257-","Landline","Hartford","Hartford","CT","Connecticut","6134","Eastern","41.791776","-72.718832"
"(860) 662-","Cell Number","Middlesex","Essex","CT","Connecticut","6426","Eastern","41.448179","-72.50426"
"(860) 417-","Landline","Litchfield","Watertown","CT","Connecticut","6795","Eastern","41.759427","-73.162003"
"(203) 274-","Cell Number","Fairfield","Stamford","CT","Connecticut","6911","Eastern","41.308873","-73.363661"
"(203) 365-","Landline","Fairfield","Bridgeport","CT","Connecticut","6604","Eastern","41.192746","-73.213907"
"(860) 299-","Landline","Hartford","Hartford","CT","Connecticut","6134","Eastern","41.791776","-72.718832"
"(860) 648-","Landline","Hartford","Manchester","CT","Connecticut","6045","Eastern","41.791776","-72.718832"
"(860) 815-","Landline","Hartford","Hartford","CT","Connecticut","6134","Eastern","41.791776","-72.718832"
"(203) 468-","Landline","New Haven","New Haven","CT","Connecticut","6515","Eastern","41.328697","-72.964247"
"(203) 387-","Landline","New Haven","New Haven","CT","Connecticut","6515","Eastern","41.328697","-72.964247"
"(203) 851-","Landline","Fairfield","Norwalk","CT","Connecticut","6856","Eastern","41.111196","-73.420363"
"(203) 309-","Cell Number","New Haven","New Haven","CT","Connecticut","6515","Eastern","41.328697","-72.964247"
"(203) 574-","Landline","New Haven","Waterbury","CT","Connecticut","6749","Eastern","41.365709","-72.927507"
"(203) 697-","Landline","New Haven","Wallingford","CT","Connecticut","6492","Eastern","41.456205","-72.811047"
"(860) 271-","Landline","New London","New London","CT","Connecticut","6320","Eastern","41.413998","-72.10907"
"(203) 715-","Cell Number","New Haven","Meriden","CT","Connecticut","6450","Eastern","41.536498","-72.801901"
"(860) 439-","Landline","New London","New London","CT","Connecticut","6320","Eastern","41.413998","-72.10907"
"(203) 665-","Landline","Fairfield","Stamford","CT","Connecticut","6911","Eastern","41.308873","-73.363661"
"(860) 650-","Cell Number","Hartford","Hartford","CT","Connecticut","6134","Eastern","41.791776","-72.718832"
"(860) 277-","Landline","Hartford","Hartford","CT","Connecticut","6134","Eastern","41.791776","-72.718832"
"(860) 467-","Landline","Middlesex","East Hampton","CT","Connecticut","6424","Eastern","41.559841","-72.494927"
"(203) 232-","Cell Number","New Haven","Waterbury","CT","Connecticut","6749","Eastern","41.365709","-72.927507"
"(203) 910-","Cell Number","New Haven","Waterbury","CT","Connecticut","6749","Eastern","41.365709","-72.927507"
"(203) 704-","Landline","New Haven","Wolcott","CT","Connecticut","6716","Eastern","41.598347","-72.980578"
"(860) 992-","Unknown","Hartford","Hartford","CT","Connecticut","6134","Eastern","41.791776","-72.718832"
"(203) 620-","Landline","Fairfield","Darien","CT","Connecticut","6820","Eastern","41.075846","-73.480765"
"(860) 210-","Landline","Litchfield","New Milford","CT","Connecticut","6776","Eastern","41.658619","-73.366017"
"(860) 554-","Landline","Middlesex","Haddam","CT","Connecticut","6438","Eastern","41.471457","-72.511376"
"(203) 882-","Landline","New Haven","Milford","CT","Connecticut","6460","Eastern","41.343773","-72.951273"
"(203) 730-","Landline","Fairfield","Danbury","CT","Connecticut","6817","Eastern","41.308873","-73.363661"
"(203) 312-","Landline","Fairfield","Danbury","CT","Connecticut","6817","Eastern","41.308873","-73.363661"
"(203) 258-","Cell Number","Fairfield","Bridgeport","CT","Connecticut","6604","Eastern","41.192746","-73.213907"
"(860) 610-","Landline","Hartford","East Hartford","CT","Connecticut","6138","Eastern","41.791776","-72.718832"
"(203) 758-","Landline","New Haven","Waterbury","CT","Connecticut","6749","Eastern","41.365709","-72.927507"
"(203) 543-","Cell Number","Fairfield","Bridgeport","CT","Connecticut","6604","Eastern","41.192746","-73.213907"
"(203) 684-","Cell Number","New Haven","New Haven","CT","Connecticut","6515","Eastern","41.328697","-72.964247"
"(860) 737-","Landline","Hartford","Enfield","CT","Connecticut","6083","Eastern","41.791776","-72.718832"
"(203) 201-","Cell Number","New Haven","New Haven","CT","Connecticut","6515","Eastern","41.328697","-72.964247"
"(203) 503-","Landline","New Haven","New Haven","CT","Connecticut","6515","Eastern","41.328697","-72.964247"
"(860) 514-","Cell Number","New London","New London","CT","Connecticut","6320","Eastern","41.413998","-72.10907"
"(203) 243-","Cell Number","Fairfield","Bridgeport","CT","Connecticut","6604","Eastern","41.192746","-73.213907"
"(203) 649-","Landline","New Haven","Cheshire","CT","Connecticut","6411","Eastern","41.550097","-72.922235"
"(203) 723-","Landline","New Haven","Naugatuck","CT","Connecticut","6770","Eastern","41.491016","-73.052965"
"(860) 346-","Landline","Middlesex","Middletown","CT","Connecticut","6457","Eastern","41.550139","-72.655357"
"(860) 634-","Cell Number","Windham","Willimantic","CT","Connecticut","6226","Eastern","41.845504","-72.091889"
"(860) 510-","Landline","Middlesex","Old Saybrook","CT","Connecticut","6475","Eastern","41.300448","-72.389129"
"(860) 381-","Landline","New London","Gales Ferry","CT","Connecticut","6335","Eastern","41.523377","-72.021165"
"(203) 206-","Cell Number","New Haven","Waterbury","CT","Connecticut","6749","Eastern","41.365709","-72.927507"
"(860) 973-","Landline","Hartford","Bristol","CT","Connecticut","6011","Eastern","41.791776","-72.718832"
"(860) 839-","Cell Number","Hartford","New Britain","CT","Connecticut","6050","Eastern","41.666049","-72.778391"
"(860) 433-","Landline","New London","New London","CT","Connecticut","6320","Eastern","41.413998","-72.10907"
"(203) 800-","Unknown","New Haven","New Haven","CT","Connecticut","6515","Eastern","41.328697","-72.964247"
"(860) 765-","Landline","Hartford","Hartford","CT","Connecticut","6134","Eastern","41.791776","-72.718832"
"(203) 400-","Cell Number","Fairfield","Trumbull","CT","Connecticut","6611","Eastern","41.259996","-73.206957"
"(203) 422-","Landline","Fairfield","Greenwich","CT","Connecticut","6830","Eastern","41.042746","-73.62617"
"(860) 729-","Cell Number","Hartford","Hartford","CT","Connecticut","6134","Eastern","41.791776","-72.718832"
"(860) 452-","Landline","Middlesex","Killingworth","CT","Connecticut","6419","Eastern","41.417962","-72.493446"
"(860) 687-","Landline","Hartford","Windsor","CT","Connecticut","6095","Eastern","41.909988","-72.804935"
"(860) 781-","Landline","Hartford","Glastonbury","CT","Connecticut","6033","Eastern","41.703451","-72.539332"
"(203) 855-","Landline","Fairfield","Norwalk","CT","Connecticut","6856","Eastern","41.111196","-73.420363"
"(203) 579-","Landline","Fairfield","Bridgeport","CT","Connecticut","6604","Eastern","41.192746","-73.213907"
"(860) 306-","Cell Number","Hartford","Hartford","CT","Connecticut","6134","Eastern","41.791776","-72.718832"
"(203) 489-","Cell Number","Fairfield","Norwalk","CT","Connecticut","6856","Eastern","41.111196","-73.420363"
"(203) 509-","Cell Number","New Haven","Waterbury","CT","Connecticut","6749","Eastern","41.365709","-72.927507"
"(203) 391-","Landline","Fairfield","Stamford","CT","Connecticut","6911","Eastern","41.308873","-73.363661"
"(203) 230-","Landline","New Haven","New Haven","CT","Connecticut","6515","Eastern","41.328697","-72.964247"
"(203) 963-","Landline","Fairfield","Norwalk","CT","Connecticut","6856","Eastern","41.111196","-73.420363"
"(860) 584-","Landline","Hartford","Bristol","CT","Connecticut","6011","Eastern","41.791776","-72.718832"
"(203) 615-","Landline","Fairfield","Bridgeport","CT","Connecticut","6604","Eastern","41.192746","-73.213907"
"(203) 965-","Landline","Fairfield","Stamford","CT","Connecticut","6911","Eastern","41.308873","-73.363661"
"(860) 825-","Cell Number","Hartford","Hartford","CT","Connecticut","6134","Eastern","41.791776","-72.718832"
"(203) 593-","Cell Number","Fairfield","Norwalk","CT","Connecticut","6856","Eastern","41.111196","-73.420363"
"(860) 882-","Landline","Hartford","Hartford","CT","Connecticut","6134","Eastern","41.791776","-72.718832"
"(203) 653-","Landline","Fairfield","Stamford","CT","Connecticut","6911","Eastern","41.308873","-73.363661"
"(203) 338-","Landline","Fairfield","Bridgeport","CT","Connecticut","6604","Eastern","41.192746","-73.213907"
"(860) 776-","Landline","Hartford","Enfield","CT","Connecticut","6083","Eastern","41.791776","-72.718832"
"(203) 838-","Landline","Fairfield","Norwalk","CT","Connecticut","6856","Eastern","41.111196","-73.420363"
"(860) 988-","Landline","Hartford","Simsbury","CT","Connecticut","6070","Eastern","41.868647","-72.819742"
"(860) 528-","Landline","Hartford","East Hartford","CT","Connecticut","6138","Eastern","41.791776","-72.718832"
"(860) 408-","Landline","Hartford","Simsbury","CT","Connecticut","6070","Eastern","41.868647","-72.819742"
"(203) 983-","Landline","Fairfield","Greenwich","CT","Connecticut","6830","Eastern","41.042746","-73.62617"
"(203) 613-","Cell Number","Fairfield","Norwalk","CT","Connecticut","6856","Eastern","41.111196","-73.420363"
"(203) 954-","Landline","New Haven","Derby","CT","Connecticut","6418","Eastern","41.327246","-73.084252"
"(203) 417-","Cell Number","Fairfield","Danbury","CT","Connecticut","6817","Eastern","41.308873","-73.363661"
"(860) 265-","Landline","Hartford","Enfield","CT","Connecticut","6083","Eastern","41.791776","-72.718832"
"(860) 867-","Cell Number","New London","New London","CT","Connecticut","6320","Eastern","41.413998","-72.10907"
"(203) 651-","Landline","New Haven","Cheshire","CT","Connecticut","6411","Eastern","41.550097","-72.922235"
"(203) 288-","Landline","New Haven","New Haven","CT","Connecticut","6515","Eastern","41.328697","-72.964247"
"(860) 294-","Landline","Litchfield","Torrington","CT","Connecticut","6790","Eastern","41.87484","-73.126763"
"(203) 898-","Landline","Fairfield","Darien","CT","Connecticut","6820","Eastern","41.075846","-73.480765"
"(860) 315-","Landline","Windham","Putnam","CT","Connecticut","6260","Eastern","41.862904","-71.887712"
"(203) 803-","Cell Number","Fairfield","Norwalk","CT","Connecticut","6856","Eastern","41.111196","-73.420363"
"(203) 890-","Landline","Fairfield","Stamford","CT","Connecticut","6911","Eastern","41.308873","-73.363661"
"(203) 234-","Landline","New Haven","New Haven","CT","Connecticut","6515","Eastern","41.328697","-72.964247"
"(860) 762-","Cell Number","Hartford","Hartford","CT","Connecticut","6134","Eastern","41.791776","-72.718832"
"(860) 481-","Landline","Windham","Putnam","CT","Connecticut","6260","Eastern","41.862904","-71.887712"
"(203) 205-","Landline","Fairfield","Danbury","CT","Connecticut","6817","Eastern","41.308873","-73.363661"
"(203) 748-","Landline","Fairfield","Danbury","CT","Connecticut","6817","Eastern","41.308873","-73.363661"
"(860) 212-","Cell Number","Hartford","Hartford","CT","Connecticut","6134","Eastern","41.791776","-72.718832"
"(860) 735-","Landline","Hartford","Simsbury","CT","Connecticut","6070","Eastern","41.868647","-72.819742"
"(860) 298-","Landline","Hartford","Windsor","CT","Connecticut","6095","Eastern","41.909988","-72.804935"
"(860) 720-","Cell Number","Hartford","Hartford","CT","Connecticut","6134","Eastern","41.791776","-72.718832"
"(203) 681-","Landline","Fairfield","Greenwich","CT","Connecticut","6830","Eastern","41.042746","-73.62617"
"(203) 788-","Cell Number","Fairfield","Danbury","CT","Connecticut","6817","Eastern","41.308873","-73.363661"
"(860) 597-","Cell Number","Hartford","Hartford","CT","Connecticut","6134","Eastern","41.791776","-72.718832"
"(203) 903-","Landline","New Haven","New Haven","CT","Connecticut","6515","Eastern","41.328697","-72.964247"
"(860) 789-","Landline","Hartford","Windsor Locks","CT","Connecticut","6096","Eastern","41.933846","-72.660245"
"(860) 939-","Cell Number","Hartford","Hartford","CT","Connecticut","6134","Eastern","41.791776","-72.718832"
"(203) 951-","Landline","New Haven","Milford","CT","Connecticut","6460","Eastern","41.343773","-72.951273"
"(860) 558-","Cell Number","Hartford","Hartford","CT","Connecticut","6134","Eastern","41.791776","-72.718832"
"(203) 435-","Cell Number","New Haven","New Haven","CT","Connecticut","6515","Eastern","41.328697","-72.964247"
"(860) 226-","Landline","Hartford","Hartford","CT","Connecticut","6134","Eastern","41.791776","-72.718832"
"(860) 747-","Landline","Hartford","Plainville","CT","Connecticut","6062","Eastern","41.672983","-72.859695"
"(860) 453-","Landline","Litchfield","Canaan","CT","Connecticut","6018","Eastern","42.001585","-73.295891"
"(860) 213-","Cell Number","New London","Norwich","CT","Connecticut","6360","Eastern","41.499398","-71.994757"
"(203) 869-","Landline","Fairfield","Greenwich","CT","Connecticut","6830","Eastern","41.042746","-73.62617"
"(203) 801-","Landline","Fairfield","New Canaan","CT","Connecticut","6840","Eastern","41.162209","-73.501267"
"(203) 528-","Landline","New Haven","Waterbury","CT","Connecticut","6749","Eastern","41.365709","-72.927507"
"(203) 861-","Landline","Fairfield","Greenwich","CT","Connecticut","6830","Eastern","41.042746","-73.62617"
"(860) 831-","Landline","Hartford","Windsor Locks","CT","Connecticut","6096","Eastern","41.933846","-72.660245"
"(203) 974-","Landline","New Haven","New Haven","CT","Connecticut","6515","Eastern","41.328697","-72.964247"
"(203) 228-","Cell Number","New Haven","Waterbury","CT","Connecticut","6749","Eastern","41.365709","-72.927507"
"(860) 446-","Landline","New London","New London","CT","Connecticut","6320","Eastern","41.413998","-72.10907"
"(860) 754-","Landline","Hartford","Hartford","CT","Connecticut","6134","Eastern","41.791776","-72.718832"
"(860) 805-","Cell Number","Hartford","Hartford","CT","Connecticut","6134","Eastern","41.791776","-72.718832"
"(203) 852-","Landline","Fairfield","Norwalk","CT","Connecticut","6856","Eastern","41.111196","-73.420363"
"(860) 955-","Unknown","Hartford","Hartford","CT","Connecticut","6134","Eastern","41.791776","-72.718832"
"(860) 961-","Cell Number","New London","New London","CT","Connecticut","6320","Eastern","41.413998","-72.10907"
"(860) 712-","Cell Number","Hartford","Hartford","CT","Connecticut","6134","Eastern","41.791776","-72.718832"
"(860) 816-","Landline","Hartford","Hartford","CT","Connecticut","6134","Eastern","41.791776","-72.718832"
"(860) 633-","Landline","Hartford","Glastonbury","CT","Connecticut","6033","Eastern","41.703451","-72.539332"
"(860) 428-","Cell Number","Windham","Willimantic","CT","Connecticut","6226","Eastern","41.845504","-72.091889"
"(203) 512-","Cell Number","Fairfield","Danbury","CT","Connecticut","6817","Eastern","41.308873","-73.363661"
"(203) 405-","Landline","Litchfield","Woodbury","CT","Connecticut","6798","Eastern","41.733106","-73.135499"
"(203) 879-","Landline","New Haven","Wolcott","CT","Connecticut","6716","Eastern","41.598347","-72.980578"
"(203) 719-","Landline","Fairfield","Stamford","CT","Connecticut","6911","Eastern","41.308873","-73.363661"
"(203) 267-","Landline","New Haven","Southbury","CT","Connecticut","6488","Eastern","41.470921","-73.240839"
"(203) 217-","Cell Number","New Haven","Waterbury","CT","Connecticut","6749","Eastern","41.365709","-72.927507"
"(860) 337-","Landline","Tolland","Columbia","CT","Connecticut","6237","Eastern","41.696124","-72.300043"
"(203) 295-","Landline","Fairfield","Stamford","CT","Connecticut","6911","Eastern","41.308873","-73.363661"
"(203) 599-","Landline","New Haven","Meriden","CT","Connecticut","6450","Eastern","41.536498","-72.801901"
"(203) 943-","Cell Number","Fairfield","Norwalk","CT","Connecticut","6856","Eastern","41.111196","-73.420363"
"(203) 454-","Landline","Fairfield","Westport","CT","Connecticut","6888","Eastern","41.308873","-73.363661"
"(203) 675-","Cell Number","New Haven","New Haven","CT","Connecticut","6515","Eastern","41.328697","-72.964247"
"(203) 638-","Landline","Fairfield","Trumbull","CT","Connecticut","6611","Eastern","41.259996","-73.206957"
"(860) 952-","Landline","Hartford","Hartford","CT","Connecticut","6134","Eastern","41.791776","-72.718832"
"(860) 370-","Landline","Hartford","Manchester","CT","Connecticut","6045","Eastern","41.791776","-72.718832"
"(860) 768-","Landline","Hartford","Hartford","CT","Connecticut","6134","Eastern","41.791776","-72.718832"
"(203) 432-","Landline","New Haven","New Haven","CT","Connecticut","6515","Eastern","41.328697","-72.964247"
"(860) 814-","Landline","Hartford","Enfield","CT","Connecticut","6083","Eastern","41.791776","-72.718832"
"(860) 361-","Landline","Litchfield","Litchfield","CT","Connecticut","6759","Eastern","41.791598","-73.229787"
"(860) 304-","Cell Number","Middlesex","Old Saybrook","CT","Connecticut","6475","Eastern","41.300448","-72.389129"
"(203) 563-","Landline","Fairfield","Wilton","CT","Connecticut","6897","Eastern","41.209695","-73.439165"
"(203) 202-","Landline","Fairfield","Darien","CT","Connecticut","6820","Eastern","41.075846","-73.480765"
"(203) 335-","Landline","Fairfield","Bridgeport","CT","Connecticut","6604","Eastern","41.192746","-73.213907"
"(203) 501-","Cell Number","New Haven","Danbury","CT","Connecticut","6817","Eastern","41.308873","-73.363661"
"(203) 281-","Landline","New Haven","New Haven","CT","Connecticut","6515","Eastern","41.328697","-72.964247"
"(860) 667-","Landline","Hartford","Hartford","CT","Connecticut","6134","Eastern","41.791776","-72.718832"
"(203) 349-","Landline","Fairfield","Westport","CT","Connecticut","6888","Eastern","41.308873","-73.363661"
"(203) 522-","Cell Number","Fairfield","Bridgeport","CT","Connecticut","6604","Eastern","41.192746","-73.213907"
"(203) 807-","Cell Number","Fairfield","Norwalk","CT","Connecticut","6856","Eastern","41.111196","-73.420363"
"(203) 385-","Landline","Fairfield","Bridgeport","CT","Connecticut","6604","Eastern","41.192746","-73.213907"
"(860) 702-","Landline","Hartford","Hartford","CT","Connecticut","6134","Eastern","41.791776","-72.718832"
"(860) 220-","Cell Number","Hartford","Hartford","CT","Connecticut","6134","Eastern","41.791776","-72.718832"
"(860) 739-","Landline","New London","Niantic","CT","Connecticut","6357","Eastern","41.323447","-72.215623"
"(860) 899-","Unknown","Hartford","Hartford","CT","Connecticut","6134","Eastern","41.791776","-72.718832"
"(203) 570-","Cell Number","Fairfield","Stamford","CT","Connecticut","6911","Eastern","41.308873","-73.363661"
"(860) 490-","Cell Number","Hartford","Hartford","CT","Connecticut","6134","Eastern","41.791776","-72.718832"
"(860) 356-","Landline","Hartford","Hartford","CT","Connecticut","6134","Eastern","41.791776","-72.718832"
"(860) 438-","Landline","Hartford","New Britain","CT","Connecticut","6050","Eastern","41.666049","-72.778391"
"(203) 656-","Landline","Fairfield","Darien","CT","Connecticut","6820","Eastern","41.075846","-73.480765"
"(203) 832-","Unknown","Fairfield","Stamford","CT","Connecticut","6911","Eastern","41.308873","-73.363661"
"(860) 380-","Landline","Hartford","Hartford","CT","Connecticut","6134","Eastern","41.791776","-72.718832"
"(860) 367-","Landline","New London","Montville","CT","Connecticut","6353","Eastern","41.452548","-72.137471"
"(203) 923-","Landline","Fairfield","Bridgeport","CT","Connecticut","6604","Eastern","41.192746","-73.213907"
"(860) 799-","Landline","Litchfield","New Milford","CT","Connecticut","6776","Eastern","41.658619","-73.366017"
"(203) 247-","Cell Number","Fairfield","Norwalk","CT","Connecticut","6856","Eastern","41.111196","-73.420363"
"(860) 740-","Landline","Middlesex","Middletown","CT","Connecticut","6457","Eastern","41.550139","-72.655357"
"(203) 998-","Landline","Fairfield","Stamford","CT","Connecticut","6911","Eastern","41.308873","-73.363661"
"(860) 766-","Landline","Hartford","Bristol","CT","Connecticut","6011","Eastern","41.791776","-72.718832"
"(203) 322-","Landline","Fairfield","Stamford","CT","Connecticut","6911","Eastern","41.308873","-73.363661"
"(203) 971-","Landline","Fairfield","Greenwich","CT","Connecticut","6830","Eastern","41.042746","-73.62617"
"(203) 984-","Cell Number","Fairfield","Norwalk","CT","Connecticut","6856","Eastern","41.111196","-73.420363"
"(203) 966-","Landline","Fairfield","New Canaan","CT","Connecticut","6840","Eastern","41.162209","-73.501267"
"(860) 387-","Landline","Litchfield","Torrington","CT","Connecticut","6790","Eastern","41.87484","-73.126763"
"(860) 604-","Landline","Hartford","Hartford","CT","Connecticut","6134","Eastern","41.791776","-72.718832"
"(203) 902-","Landline","New Haven","New Haven","CT","Connecticut","6515","Eastern","41.328697","-72.964247"
"(860) 761-","Landline","Hartford","Hartford","CT","Connecticut","6134","Eastern","41.791776","-72.718832"
"(860) 205-","Cell Number","Hartford","Hartford","CT","Connecticut","6134","Eastern","41.791776","-72.718832"
"(203) 682-","Landline","Fairfield","Stamford","CT","Connecticut","6911","Eastern","41.308873","-73.363661"
"(860) 910-","Landline","New London","New London","CT","Connecticut","6320","Eastern","41.413998","-72.10907"
"(860) 575-","Cell Number","Middlesex","Old Saybrook","CT","Connecticut","6475","Eastern","41.300448","-72.389129"
"(203) 928-","Landline","New Haven","New Haven","CT","Connecticut","6515","Eastern","41.328697","-72.964247"
"(860) 879-","Landline","Middlesex","Deep River","CT","Connecticut","6417","Eastern","41.368124","-72.452284"
"(860) 982-","Cell Number","Hartford","Hartford","CT","Connecticut","6134","Eastern","41.791776","-72.718832"
"(203) 596-","Landline","New Haven","Waterbury","CT","Connecticut","6749","Eastern","41.365709","-72.927507"
"(860) 338-","Cell Number","Hartford","Glastonbury","CT","Connecticut","6033","Eastern","41.703451","-72.539332"
"(203) 569-","Landline","Fairfield","Stamford","CT","Connecticut","6911","Eastern","41.308873","-73.363661"
"(860) 297-","Landline","Hartford","Hartford","CT","Connecticut","6134","Eastern","41.791776","-72.718832"
"(860) 644-","Landline","Hartford","Manchester","CT","Connecticut","6045","Eastern","41.791776","-72.718832"
"(203) 988-","Cell Number","New Haven","New Haven","CT","Connecticut","6515","Eastern","41.328697","-72.964247"
"(860) 280-","Landline","Hartford","Hartford","CT","Connecticut","6134","Eastern","41.791776","-72.718832"
"(203) 554-","Cell Number","Fairfield","Stamford","CT","Connecticut","6911","Eastern","41.308873","-73.363661"
"(203) 753-","Landline","New Haven","Waterbury","CT","Connecticut","6749","Eastern","41.365709","-72.927507"
"(860) 751-","Landline","Hartford","Farmington","CT","Connecticut","6034","Eastern","41.791776","-72.718832"
"(860) 696-","Landline","Hartford","Hartford","CT","Connecticut","6134","Eastern","41.791776","-72.718832"
"(860) 653-","Landline","Hartford","Simsbury","CT","Connecticut","6070","Eastern","41.868647","-72.819742"
"(860) 674-","Landline","Hartford","Farmington","CT","Connecticut","6034","Eastern","41.791776","-72.718832"
"(203) 969-","Landline","Fairfield","Stamford","CT","Connecticut","6911","Eastern","41.308873","-73.363661"
"(203) 977-","Landline","Fairfield","Stamford","CT","Connecticut","6911","Eastern","41.308873","-73.363661"
"(203) 394-","Landline","Fairfield","Bridgeport","CT","Connecticut","6604","Eastern","41.192746","-73.213907"
"(860) 576-","Unknown","Windham","Willimantic","CT","Connecticut","6226","Eastern","41.845504","-72.091889"
"(203) 987-","Landline","Fairfield","Greenwich","CT","Connecticut","6830","Eastern","41.042746","-73.62617"
"(860) 535-","Landline","New London","Mystic","CT","Connecticut","6355","Eastern","41.485188","-72.000748"
"(203) 809-","Cell Number","New Haven","New Haven","CT","Connecticut","6515","Eastern","41.328697","-72.964247"
"(203) 603-","Landline","New Haven","New Haven","CT","Connecticut","6515","Eastern","41.328697","-72.964247"
"(860) 489-","Landline","Litchfield","Torrington","CT","Connecticut","6790","Eastern","41.87484","-73.126763"
"(203) 691-","Landline","New Haven","New Haven","CT","Connecticut","6515","Eastern","41.328697","-72.964247"
"(203) 426-","Landline","Fairfield","Newtown","CT","Connecticut","6470","Eastern","41.396295","-73.310561"
"(860) 849-","Cell Number","Hartford","Enfield","CT","Connecticut","6083","Eastern","41.791776","-72.718832"
"(203) 364-","Landline","Fairfield","Newtown","CT","Connecticut","6470","Eastern","41.396295","-73.310561"
"(860) 394-","Landline","Hartford","Enfield","CT","Connecticut","6083","Eastern","41.791776","-72.718832"
"(203) 899-","Landline","Fairfield","Norwalk","CT","Connecticut","6856","Eastern","41.111196","-73.420363"
"(860) 832-","Landline","Hartford","New Britain","CT","Connecticut","6050","Eastern","41.666049","-72.778391"
"(203) 204-","Landline","New Haven","Guilford","CT","Connecticut","6437","Eastern","41.338847","-72.690089"
"(860) 676-","Landline","Hartford","Farmington","CT","Connecticut","6034","Eastern","41.791776","-72.718832"
"(203) 443-","Landline","New Haven","Meriden","CT","Connecticut","6450","Eastern","41.536498","-72.801901"
"(203) 749-","Landline","Fairfield","Danbury","CT","Connecticut","6817","Eastern","41.308873","-73.363661"
"(860) 540-","Landline","Hartford","Bristol","CT","Connecticut","6011","Eastern","41.791776","-72.718832"
"(860) 456-","Landline","Windham","Willimantic","CT","Connecticut","6226","Eastern","41.845504","-72.091889"
"(203) 772-","Landline","New Haven","New Haven","CT","Connecticut","6515","Eastern","41.328697","-72.964247"
"(203) 547-","Landline","Fairfield","Stamford","CT","Connecticut","6911","Eastern","41.308873","-73.363661"
"(860) 237-","Landline","New London","Norwich","CT","Connecticut","6360","Eastern","41.499398","-71.994757"
"(203) 829-","Cell Number","Fairfield","Norwalk","CT","Connecticut","6856","Eastern","41.111196","-73.420363"
"(203) 396-","Landline","Fairfield","Bridgeport","CT","Connecticut","6604","Eastern","41.192746","-73.213907"
"(860) 509-","Landline","Hartford","Hartford","CT","Connecticut","6134","Eastern","41.791776","-72.718832"
"(860) 819-","Landline","Hartford","Hartford","CT","Connecticut","6134","Eastern","41.791776","-72.718832"
"(203) 694-","Landline","New Haven","Meriden","CT","Connecticut","6450","Eastern","41.536498","-72.801901"
"(860) 629-","Landline","New London","New London","CT","Connecticut","6320","Eastern","41.413998","-72.10907"
"(860) 441-","Landline","New London","New London","CT","Connecticut","6320","Eastern","41.413998","-72.10907"
"(860) 929-","Landline","Hartford","Hartford","CT","Connecticut","6134","Eastern","41.791776","-72.718832"
"(203) 508-","Landline","New Haven","New Haven","CT","Connecticut","6515","Eastern","41.328697","-72.964247"
"(860) 508-","Cell Number","Hartford","Hartford","CT","Connecticut","6134","Eastern","41.791776","-72.718832"
"(860) 756-","Landline","Hartford","Hartford","CT","Connecticut","6134","Eastern","41.791776","-72.718832"
"(203) 341-","Landline","Fairfield","Westport","CT","Connecticut","6888","Eastern","41.308873","-73.363661"
"(203) 705-","Landline","Fairfield","Stamford","CT","Connecticut","6911","Eastern","41.308873","-73.363661"
"(203) 679-","Landline","New Haven","Wallingford","CT","Connecticut","6492","Eastern","41.456205","-72.811047"
"(860) 773-","Landline","Hartford","Farmington","CT","Connecticut","6034","Eastern","41.791776","-72.718832"
"(203) 881-","Landline","New Haven","Seymour","CT","Connecticut","6483","Eastern","41.417646","-73.102078"
"(203) 500-","Cell Number","New Haven","New Haven","CT","Connecticut","6515","Eastern","41.328697","-72.964247"
"(203) 253-","Cell Number","Fairfield","Stamford","CT","Connecticut","6911","Eastern","41.308873","-73.363661"
"(203) 236-","Landline","New Haven","Waterbury","CT","Connecticut","6749","Eastern","41.365709","-72.927507"
"(203) 796-","Landline","Fairfield","Danbury","CT","Connecticut","6817","Eastern","41.308873","-73.363661"
"(203) 291-","Landline","Fairfield","Westport","CT","Connecticut","6888","Eastern","41.308873","-73.363661"
"(860) 963-","Landline","Windham","Putnam","CT","Connecticut","6260","Eastern","41.862904","-71.887712"
"(203) 568-","Landline","New Haven","Waterbury","CT","Connecticut","6749","Eastern","41.365709","-72.927507"
"(860) 537-","Landline","New London","Colchester","CT","Connecticut","6415","Eastern","41.546443","-72.338832"
"(860) 842-","Cell Number","Hartford","Hartford","CT","Connecticut","6134","Eastern","41.791776","-72.718832"
"(203) 645-","Cell Number","New Haven","New Haven","CT","Connecticut","6515","Eastern","41.328697","-72.964247"
"(203) 369-","Landline","Fairfield","Old Greenwich","CT","Connecticut","6870","Eastern","41.034946","-73.566968"
"(203) 795-","Landline","New Haven","New Haven","CT","Connecticut","6515","Eastern","41.328697","-72.964247"
"(203) 464-","Cell Number","New Haven","New Haven","CT","Connecticut","6515","Eastern","41.328697","-72.964247"
"(203) 889-","Landline","New Haven","New Haven","CT","Connecticut","6515","Eastern","41.328697","-72.964247"
"(860) 234-","Cell Number","Windham","Willimantic","CT","Connecticut","6226","Eastern","41.845504","-72.091889"
"(203) 245-","Landline","New Haven","Madison","CT","Connecticut","6443","Eastern","41.350397","-72.788392"
"(203) 872-","Landline","New Haven","New Haven","CT","Connecticut","6515","Eastern","41.328697","-72.964247"
"(860) 886-","Landline","New London","Norwich","CT","Connecticut","6360","Eastern","41.499398","-71.994757"
"(860) 935-","Landline","Windham","Thompson","CT","Connecticut","6277","Eastern","41.975796","-71.862047"
"(860) 447-","Landline","New London","New London","CT","Connecticut","6320","Eastern","41.413998","-72.10907"
"(203) 588-","Landline","Fairfield","Stamford","CT","Connecticut","6911","Eastern","41.308873","-73.363661"
"(203) 560-","Cell Number","New Haven","Waterbury","CT","Connecticut","6749","Eastern","41.365709","-72.927507"
"(203) 722-","Cell Number","Fairfield","Norwalk","CT","Connecticut","6856","Eastern","41.111196","-73.420363"
"(203) 519-","Cell Number","New Haven","Waterbury","CT","Connecticut","6749","Eastern","41.365709","-72.927507"
"(203) 229-","Landline","Fairfield","Norwalk","CT","Connecticut","6856","Eastern","41.111196","-73.420363"
"(203) 695-","Landline","New Haven","Waterbury","CT","Connecticut","6749","Eastern","41.365709","-72.927507"
"(203) 952-","Cell Number","Fairfield","Norwalk","CT","Connecticut","6856","Eastern","41.111196","-73.420363"
"(203) 804-","Cell Number","New Haven","New Haven","CT","Connecticut","6515","Eastern","41.328697","-72.964247"
"(203) 562-","Landline","New Haven","New Haven","CT","Connecticut","6515","Eastern","41.328697","-72.964247"
"(860) 313-","Landline","Hartford","Hartford","CT","Connecticut","6134","Eastern","41.791776","-72.718832"
"(203) 590-","Unknown","Fairfield","Trumbull","CT","Connecticut","6611","Eastern","41.259996","-73.206957"
"(860) 391-","Landline","Middlesex","Old Saybrook","CT","Connecticut","6475","Eastern","41.300448","-72.389129"
"(203) 213-","Cell Number","New Haven","Meriden","CT","Connecticut","6450","Eastern","41.536498","-72.801901"
"(203) 755-","Landline","New Haven","Waterbury","CT","Connecticut","6749","Eastern","41.365709","-72.927507"
"(860) 905-","Unknown","Hartford","Windsor","CT","Connecticut","6095","Eastern","41.909988","-72.804935"
"(860) 278-","Landline","Hartford","Hartford","CT","Connecticut","6134","Eastern","41.791776","-72.718832"
"(860) 494-","Landline","Hartford","Hartford","CT","Connecticut","6134","Eastern","41.791776","-72.718832"
"(203) 822-","Landline","Fairfield","Norwalk","CT","Connecticut","6856","Eastern","41.111196","-73.420363"
"(203) 265-","Landline","New Haven","Wallingford","CT","Connecticut","6492","Eastern","41.456205","-72.811047"
"(203) 557-","Landline","Fairfield","Westport","CT","Connecticut","6888","Eastern","41.308873","-73.363661"
"(203) 450-","Unknown","Fairfield","Bridgeport","CT","Connecticut","6604","Eastern","41.192746","-73.213907"
"(860) 813-","Landline","Middlesex","East Hampton","CT","Connecticut","6424","Eastern","41.559841","-72.494927"
"(203) 985-","Landline","New Haven","New Haven","CT","Connecticut","6515","Eastern","41.328697","-72.964247"
"(860) 572-","Landline","New London","Mystic","CT","Connecticut","6355","Eastern","41.485188","-72.000748"
"(203) 916-","Landline","Fairfield","Norwalk","CT","Connecticut","6856","Eastern","41.111196","-73.420363"
"(860) 238-","Landline","Litchfield","Winsted","CT","Connecticut","6098","Eastern","41.925671","-73.058157"
"(203) 609-","Landline","Fairfield","Stamford","CT","Connecticut","6911","Eastern","41.308873","-73.363661"
"(203) 490-","Landline","New Haven","Naugatuck","CT","Connecticut","6770","Eastern","41.491016","-73.052965"
"(203) 740-","Landline","Fairfield","Danbury","CT","Connecticut","6817","Eastern","41.308873","-73.363661"
"(860) 561-","Landline","Hartford","Hartford","CT","Connecticut","6134","Eastern","41.791776","-72.718832"
"(203) 482-","Cell Number","Fairfield","Danbury","CT","Connecticut","6817","Eastern","41.308873","-73.363661"
"(203) 342-","Cell Number","Fairfield","Bridgeport","CT","Connecticut","6604","Eastern","41.192746","-73.213907"
"(203) 968-","Landline","Fairfield","Stamford","CT","Connecticut","6911","Eastern","41.308873","-73.363661"
"(203) 805-","Landline","New Haven","Waterbury","CT","Connecticut","6749","Eastern","41.365709","-72.927507"
"(860) 944-","Cell Number","Hartford","Hartford","CT","Connecticut","6134","Eastern","41.791776","-72.718832"
"(203) 485-","Landline","Fairfield","Greenwich","CT","Connecticut","6830","Eastern","41.042746","-73.62617"
"(203) 878-","Landline","New Haven","Milford","CT","Connecticut","6460","Eastern","41.343773","-72.951273"
"(203) 546-","Landline","Fairfield","Danbury","CT","Connecticut","6817","Eastern","41.308873","-73.363661"
"(860) 770-","Landline","Hartford","New Britain","CT","Connecticut","6050","Eastern","41.666049","-72.778391"
"(860) 833-","Cell Number","Hartford","Hartford","CT","Connecticut","6134","Eastern","41.791776","-72.718832"
"(860) 293-","Landline","Hartford","Hartford","CT","Connecticut","6134","Eastern","41.791776","-72.718832"
"(203) 491-","Cell Number","New Haven","Newtown","CT","Connecticut","6470","Eastern","41.396295","-73.310561"
"(203) 561-","Cell Number","Fairfield","Stamford","CT","Connecticut","6911","Eastern","41.308873","-73.363661"
"(860) 954-","Landline","Hartford","Hartford","CT","Connecticut","6134","Eastern","41.791776","-72.718832"
"(860) 993-","Unknown","Hartford","Hartford","CT","Connecticut","6134","Eastern","41.791776","-72.718832"
"(860) 258-","Landline","Hartford","Hartford","CT","Connecticut","6134","Eastern","41.791776","-72.718832"
"(860) 930-","Cell Number","Hartford","Hartford","CT","Connecticut","6134","Eastern","41.791776","-72.718832"
"(203) 308-","Cell Number","Fairfield","Derby","CT","Connecticut","6418","Eastern","41.327246","-73.084252"
"(203) 382-","Landline","Fairfield","Bridgeport","CT","Connecticut","6604","Eastern","41.192746","-73.213907"
"(203) 876-","Landline","New Haven","Milford","CT","Connecticut","6460","Eastern","41.343773","-72.951273"
"(203) 808-","Cell Number","New Haven","Waterbury","CT","Connecticut","6749","Eastern","41.365709","-72.927507"
"(860) 513-","Landline","Hartford","Hartford","CT","Connecticut","6134","Eastern","41.791776","-72.718832"
"(203) 212-","Unknown","Fairfield","Bridgeport","CT","Connecticut","6604","Eastern","41.192746","-73.213907"
"(203) 686-","Landline","New Haven","Meriden","CT","Connecticut","6450","Eastern","41.536498","-72.801901"
"(860) 225-","Landline","Hartford","New Britain","CT","Connecticut","6050","Eastern","41.666049","-72.778391"
"(203) 833-","Cell Number","Fairfield","Norwalk","CT","Connecticut","6856","Eastern","41.111196","-73.420363"
"(860) 654-","Landline","Hartford","Windsor Locks","CT","Connecticut","6096","Eastern","41.933846","-72.660245"
"(203) 306-","Landline","New Haven","Milford","CT","Connecticut","6460","Eastern","41.343773","-72.951273"
"(203) 834-","Landline","Fairfield","Wilton","CT","Connecticut","6897","Eastern","41.209695","-73.439165"
"(860) 946-","Landline","Litchfield","New Milford","CT","Connecticut","6776","Eastern","41.658619","-73.366017"
"(860) 880-","Unknown","Litchfield","Thomaston","CT","Connecticut","6787","Eastern","41.658721","-73.098657"
"(860) 917-","Cell Number","New London","Norwich","CT","Connecticut","6360","Eastern","41.499398","-71.994757"
"(860) 857-","Cell Number","New London","New London","CT","Connecticut","6320","Eastern","41.413998","-72.10907"
"(203) 703-","Landline","Fairfield","Stamford","CT","Connecticut","6911","Eastern","41.308873","-73.363661"
"(203) 356-","Landline","Fairfield","Stamford","CT","Connecticut","6911","Eastern","41.308873","-73.363661"
"(860) 727-","Landline","Hartford","Hartford","CT","Connecticut","6134","Eastern","41.791776","-72.718832"
"(203) 945-","Landline","Fairfield","Norwalk","CT","Connecticut","6856","Eastern","41.111196","-73.420363"
"(860) 798-","Cell Number","Hartford","Hartford","CT","Connecticut","6134","Eastern","41.791776","-72.718832"
"(203) 591-","Landline","New Haven","Waterbury","CT","Connecticut","6749","Eastern","41.365709","-72.927507"
"(860) 459-","Landline","Litchfield","Torrington","CT","Connecticut","6790","Eastern","41.87484","-73.126763"
"(203) 252-","Landline","Fairfield","Stamford","CT","Connecticut","6911","Eastern","41.308873","-73.363661"
"(203) 302-","Landline","Fairfield","Greenwich","CT","Connecticut","6830","Eastern","41.042746","-73.62617"
"(860) 541-","Landline","Hartford","Hartford","CT","Connecticut","6134","Eastern","41.791776","-72.718832"
"(203) 761-","Landline","Fairfield","Wilton","CT","Connecticut","6897","Eastern","41.209695","-73.439165"
"(203) 771-","Landline","New Haven","New Haven","CT","Connecticut","6515","Eastern","41.328697","-72.964247"
"(203) 992-","Unknown","Fairfield","Greenwich","CT","Connecticut","6830","Eastern","41.042746","-73.62617"
"(203) 863-","Landline","Fairfield","Greenwich","CT","Connecticut","6830","Eastern","41.042746","-73.62617"
"(203) 884-","Landline","New Haven","Guilford","CT","Connecticut","6437","Eastern","41.338847","-72.690089"
"(203) 785-","Landline","New Haven","New Haven","CT","Connecticut","6515","Eastern","41.328697","-72.964247"
"(860) 719-","Unknown","Hartford","Hartford","CT","Connecticut","6134","Eastern","41.791776","-72.718832"
"(860) 764-","Landline","Hartford","Canton","CT","Connecticut","6019","Eastern","41.842882","-72.899645"
"(860) 413-","Landline","Hartford","Simsbury","CT","Connecticut","6070","Eastern","41.868647","-72.819742"
"(203) 316-","Landline","Fairfield","Stamford","CT","Connecticut","6911","Eastern","41.308873","-73.363661"
"(860) 680-","Cell Number","Hartford","Hartford","CT","Connecticut","6134","Eastern","41.791776","-72.718832"
"(860) 458-","Landline","Tolland","Stafford Springs","CT","Connecticut","6076","Eastern","41.900495","-72.27641"
"(860) 682-","Landline","Hartford","Glastonbury","CT","Connecticut","6033","Eastern","41.703451","-72.539332"
"(203) 552-","Landline","Fairfield","Greenwich","CT","Connecticut","6830","Eastern","41.042746","-73.62617"
"(860) 821-","Landline","Windham","Putnam","CT","Connecticut","6260","Eastern","41.862904","-71.887712"
"(203) 707-","Landline","Fairfield","Waterbury","CT","Connecticut","6749","Eastern","41.365709","-72.927507"
"(203) 918-","Cell Number","Fairfield","Stamford","CT","Connecticut","6911","Eastern","41.308873","-73.363661"
"(860) 497-","Landline","Windham","Quinebaug","CT","Connecticut","6262","Eastern","42.021536","-71.947077"
"(203) 289-","Cell Number","Fairfield","Danbury","CT","Connecticut","6817","Eastern","41.308873","-73.363661"
"(203) 604-","Landline","Fairfield","Stamford","CT","Connecticut","6911","Eastern","41.308873","-73.363661"
"(203) 280-","Landline","Fairfield","Darien","CT","Connecticut","6820","Eastern","41.075846","-73.480765"
"(203) 886-","Landline","New Haven","Meriden","CT","Connecticut","6450","Eastern","41.536498","-72.801901"
"(203) 856-","Cell Number","Fairfield","Norwalk","CT","Connecticut","6856","Eastern","41.111196","-73.420363"
"(860) 343-","Landline","Middlesex","Middletown","CT","Connecticut","6457","Eastern","41.550139","-72.655357"
"(203) 466-","Landline","New Haven","New Haven","CT","Connecticut","6515","Eastern","41.328697","-72.964247"
"(203) 300-","Cell Number","Fairfield","Danbury","CT","Connecticut","6817","Eastern","41.308873","-73.363661"
"(203) 606-","Cell Number","New Haven","New Haven","CT","Connecticut","6515","Eastern","41.328697","-72.964247"
"(203) 323-","Landline","Fairfield","Stamford","CT","Connecticut","6911","Eastern","41.308873","-73.363661"
"(860) 479-","Landline","Hartford","Plainville","CT","Connecticut","6062","Eastern","41.672983","-72.859695"
"(860) 757-","Landline","Hartford","Hartford","CT","Connecticut","6134","Eastern","41.791776","-72.718832"
"(203) 605-","Cell Number","New Haven","New Haven","CT","Connecticut","6515","Eastern","41.328697","-72.964247"
"(860) 854-","Landline","Middlesex","Middletown","CT","Connecticut","6457","Eastern","41.550139","-72.655357"
"(203) 439-","Landline","New Haven","Cheshire","CT","Connecticut","6411","Eastern","41.550097","-72.922235"
"(860) 651-","Landline","Hartford","Simsbury","CT","Connecticut","6070","Eastern","41.868647","-72.819742"
"(203) 623-","Cell Number","New Haven","New Haven","CT","Connecticut","6515","Eastern","41.328697","-72.964247"
"(203) 683-","Landline","Fairfield","Bridgeport","CT","Connecticut","6604","Eastern","41.192746","-73.213907"
"(860) 852-","Landline","Middlesex","Middletown","CT","Connecticut","6457","Eastern","41.550139","-72.655357"
"(203) 270-","Landline","Fairfield","Newtown","CT","Connecticut","6470","Eastern","41.396295","-73.310561"
"(860) 366-","Cell Number","Hartford","Hartford","CT","Connecticut","6134","Eastern","41.791776","-72.718832"
"(203) 251-","Landline","Fairfield","Stamford","CT","Connecticut","6911","Eastern","41.308873","-73.363661"
"(860) 547-","Landline","Hartford","Hartford","CT","Connecticut","6134","Eastern","41.791776","-72.718832"
"(203) 358-","Landline","Fairfield","Stamford","CT","Connecticut","6911","Eastern","41.308873","-73.363661"
"(203) 592-","Cell Number","New Haven","Waterbury","CT","Connecticut","6749","Eastern","41.365709","-72.927507"
"(860) 373-","Landline","New London","New London","CT","Connecticut","6320","Eastern","41.413998","-72.10907"
"(203) 848-","Landline","New Haven","New Haven","CT","Connecticut","6515","Eastern","41.328697","-72.964247"
"(203) 892-","Cell Number","New Haven","Bridgeport","CT","Connecticut","6604","Eastern","41.192746","-73.213907"
"(860) 483-","Cell Number","Litchfield","Watertown","CT","Connecticut","6795","Eastern","41.759427","-73.162003"
"(203) 333-","Landline","Fairfield","Bridgeport","CT","Connecticut","6604","Eastern","41.192746","-73.213907"
"(203) 413-","Landline","Fairfield","Greenwich","CT","Connecticut","6830","Eastern","41.042746","-73.62617"
"(203) 600-","Unknown","New Haven","Meriden","CT","Connecticut","6450","Eastern","41.536498","-72.801901"
"(203) 930-","Landline","Fairfield","Greenwich","CT","Connecticut","6830","Eastern","41.042746","-73.62617"
"(860) 268-","Cell Number","Hartford","Manchester","CT","Connecticut","6045","Eastern","41.791776","-72.718832"
"(203) 337-","Landline","Fairfield","Bridgeport","CT","Connecticut","6604","Eastern","41.192746","-73.213907"
"(860) 672-","Landline","Litchfield","Cornwall","CT","Connecticut","6753","Eastern","41.828067","-73.332345"
"(203) 430-","Cell Number","New Haven","New Haven","CT","Connecticut","6515","Eastern","41.328697","-72.964247"
"(203) 423-","Landline","Fairfield","Wilton","CT","Connecticut","6897","Eastern","41.209695","-73.439165"
"(860) 463-","Cell Number","Hartford","Hartford","CT","Connecticut","6134","Eastern","41.791776","-72.718832"
"(203) 492-","Landline","New Haven","New Haven","CT","Connecticut","6515","Eastern","41.328697","-72.964247"
"(203) 885-","Unknown","Fairfield","Danbury","CT","Connecticut","6817","Eastern","41.308873","-73.363661"
"(860) 504-","Cell Number","Hartford","Hartford","CT","Connecticut","6134","Eastern","41.791776","-72.718832"
"(860) 746-","Landline","Hartford","Enfield","CT","Connecticut","6083","Eastern","41.791776","-72.718832"
"(203) 933-","Landline","New Haven","New Haven","CT","Connecticut","6515","Eastern","41.328697","-72.964247"
"(203) 643-","Landline","New Haven","Branford","CT","Connecticut","6405","Eastern","41.284746","-72.796292"
"(203) 756-","Landline","New Haven","Waterbury","CT","Connecticut","6749","Eastern","41.365709","-72.927507"
"(203) 425-","Landline","Fairfield","Stamford","CT","Connecticut","6911","Eastern","41.308873","-73.363661"
"(860) 636-","Landline","Middlesex","Middletown","CT","Connecticut","6457","Eastern","41.550139","-72.655357"
"(203) 533-","Landline","New Haven","Guilford","CT","Connecticut","6437","Eastern","41.338847","-72.690089"
"(203) 779-","Landline","New Haven","Madison","CT","Connecticut","6443","Eastern","41.350397","-72.788392"
"(203) 403-","Landline","Fairfield","Ridgefield","CT","Connecticut","6877","Eastern","41.308201","-73.494637"
"(203) 887-","Cell Number","New Haven","New Haven","CT","Connecticut","6515","Eastern","41.328697","-72.964247"
"(860) 444-","Landline","New London","New London","CT","Connecticut","6320","Eastern","41.413998","-72.10907"
"(860) 736-","Landline","Hartford","Southington","CT","Connecticut","6489","Eastern","41.604786","-72.871945"
"(203) 789-","Landline","New Haven","New Haven","CT","Connecticut","6515","Eastern","41.328697","-72.964247"
"(203) 935-","Landline","New Haven","Meriden","CT","Connecticut","6450","Eastern","41.536498","-72.801901"
"(203) 564-","Landline","Fairfield","Stamford","CT","Connecticut","6911","Eastern","41.308873","-73.363661"
"(860) 998-","Landline","Hartford","Hartford","CT","Connecticut","6134","Eastern","41.791776","-72.718832"
"(860) 869-","Cell Number","Hartford","Hartford","CT","Connecticut","6134","Eastern","41.791776","-72.718832"
"(860) 925-","Landline","Hartford","Windsor","CT","Connecticut","6095","Eastern","41.909988","-72.804935"
"(860) 491-","Landline","Litchfield","Goshen","CT","Connecticut","6756","Eastern","41.794278","-73.239023"
"(860) 242-","Landline","Hartford","Hartford","CT","Connecticut","6134","Eastern","41.791776","-72.718832"
"(860) 423-","Landline","Windham","Willimantic","CT","Connecticut","6226","Eastern","41.845504","-72.091889"
"(860) 897-","Unknown","Hartford","Hartford","CT","Connecticut","6134","Eastern","41.791776","-72.718832"
"(860) 691-","Landline","New London","Niantic","CT","Connecticut","6357","Eastern","41.323447","-72.215623"
"(203) 241-","Cell Number","Fairfield","Danbury","CT","Connecticut","6817","Eastern","41.308873","-73.363661"
"(860) 461-","Landline","Hartford","Hartford","CT","Connecticut","6134","Eastern","41.791776","-72.718832"
"(860) 734-","Landline","Hartford","Glastonbury","CT","Connecticut","6033","Eastern","41.703451","-72.539332"
"(203) 495-","Landline","New Haven","New Haven","CT","Connecticut","6515","Eastern","41.328697","-72.964247"
"(860) 859-","Landline","New London","Norwich","CT","Connecticut","6360","Eastern","41.499398","-71.994757"
"(203) 372-","Landline","Fairfield","Bridgeport","CT","Connecticut","6604","Eastern","41.192746","-73.213907"
"(203) 677-","Landline","New Haven","Wallingford","CT","Connecticut","6492","Eastern","41.456205","-72.811047"
"(860) 847-","Landline","Hartford","Windsor","CT","Connecticut","6095","Eastern","41.909988","-72.804935"
"(203) 210-","Landline","Fairfield","Wilton","CT","Connecticut","6897","Eastern","41.209695","-73.439165"
"(203) 493-","Landline","Fairfield","Redding","CT","Connecticut","6896","Eastern","41.271095","-73.38634"
"(203) 559-","Landline","Fairfield","Darien","CT","Connecticut","6820","Eastern","41.075846","-73.480765"
"(860) 699-","Cell Number","New London","New London","CT","Connecticut","6320","Eastern","41.413998","-72.10907"
"(203) 617-","Unknown","Fairfield","Danbury","CT","Connecticut","6817","Eastern","41.308873","-73.363661"
"(203) 445-","Landline","Fairfield","Trumbull","CT","Connecticut","6611","Eastern","41.259996","-73.206957"
"(203) 669-","Landline","Fairfield","Darien","CT","Connecticut","6820","Eastern","41.075846","-73.480765"
"(860) 214-","Cell Number","Hartford","Hartford","CT","Connecticut","6134","Eastern","41.791776","-72.718832"
"(860) 206-","Landline","Hartford","Hartford","CT","Connecticut","6134","Eastern","41.791776","-72.718832"
"(860) 279-","Cell Number","Hartford","Hartford","CT","Connecticut","6134","Eastern","41.791776","-72.718832"
"(860) 451-","Landline","New London","Niantic","CT","Connecticut","6357","Eastern","41.323447","-72.215623"
"(860) 956-","Landline","Hartford","Hartford","CT","Connecticut","6134","Eastern","41.791776","-72.718832"
"(203) 982-","Cell Number","New Haven","Waterbury","CT","Connecticut","6749","Eastern","41.365709","-72.927507"
"(860) 283-","Landline","Litchfield","Thomaston","CT","Connecticut","6787","Eastern","41.658721","-73.098657"
"(203) 698-","Landline","Fairfield","Old Greenwich","CT","Connecticut","6870","Eastern","41.034946","-73.566968"
"(203) 487-","Landline","Fairfield","Stamford","CT","Connecticut","6911","Eastern","41.308873","-73.363661"
"(860) 430-","Landline","Hartford","Manchester","CT","Connecticut","6045","Eastern","41.791776","-72.718832"
"(860) 748-","Landline","Hartford","Hartford","CT","Connecticut","6134","Eastern","41.791776","-72.718832"
"(860) 560-","Landline","Hartford","Hartford","CT","Connecticut","6134","Eastern","41.791776","-72.718832"
"(203) 374-","Landline","Fairfield","Bridgeport","CT","Connecticut","6604","Eastern","41.192746","-73.213907"
"(860) 302-","Cell Number","Hartford","Southington","CT","Connecticut","6489","Eastern","41.604786","-72.871945"
"(860) 505-","Landline","Hartford","Hartford","CT","Connecticut","6134","Eastern","41.791776","-72.718832"
"(203) 614-","Landline","Fairfield","Stamford","CT","Connecticut","6911","Eastern","41.308873","-73.363661"
"(860) 779-","Landline","Windham","Danielson","CT","Connecticut","6239","Eastern","41.864901","-71.874354"
"(860) 386-","Landline","Hartford","Windsor Locks","CT","Connecticut","6096","Eastern","41.933846","-72.660245"
"(203) 515-","Cell Number","Fairfield","Norwalk","CT","Connecticut","6856","Eastern","41.111196","-73.420363"
"(203) 991-","Landline","Fairfield","Norwalk","CT","Connecticut","6856","Eastern","41.111196","-73.420363"
"(860) 270-","Landline","Hartford","Hartford","CT","Connecticut","6134","Eastern","41.791776","-72.718832"
"(203) 531-","Landline","Fairfield","Greenwich","CT","Connecticut","6830","Eastern","41.042746","-73.62617"
"(203) 768-","Cell Number","New Haven","Waterbury","CT","Connecticut","6749","Eastern","41.365709","-72.927507"
"(860) 698-","Landline","Hartford","Manchester","CT","Connecticut","6045","Eastern","41.791776","-72.718832"
"(860) 249-","Landline","Hartford","Hartford","CT","Connecticut","6134","Eastern","41.791776","-72.718832"
"(860) 922-","Cell Number","Hartford","Hartford","CT","Connecticut","6134","Eastern","41.791776","-72.718832"
"(203) 406-","Landline","Fairfield","Stamford","CT","Connecticut","6911","Eastern","41.308873","-73.363661"
"(203) 862-","Landline","Fairfield","Greenwich","CT","Connecticut","6830","Eastern","41.042746","-73.62617"
"(203) 282-","Cell Number","Fairfield","Stamford","CT","Connecticut","6911","Eastern","41.308873","-73.363661"
"(203) 816-","Landline","Fairfield","Trumbull","CT","Connecticut","6611","Eastern","41.259996","-73.206957"
"(203) 457-","Landline","New Haven","Guilford","CT","Connecticut","6437","Eastern","41.338847","-72.690089"
"(203) 980-","Cell Number","New Haven","New Haven","CT","Connecticut","6515","Eastern","41.328697","-72.964247"
"(860) 328-","Cell Number","Hartford","Hartford","CT","Connecticut","6134","Eastern","41.791776","-72.718832"
"(860) 493-","Landline","Hartford","Hartford","CT","Connecticut","6134","Eastern","41.791776","-72.718832"
"(203) 249-","Cell Number","Fairfield","Stamford","CT","Connecticut","6911","Eastern","41.308873","-73.363661"
"(860) 638-","Landline","Middlesex","Middletown","CT","Connecticut","6457","Eastern","41.550139","-72.655357"
"(860) 202-","Cell Number","Hartford","Hartford","CT","Connecticut","6134","Eastern","41.791776","-72.718832"
"(860) 316-","Landline","Hartford","Hartford","CT","Connecticut","6134","Eastern","41.791776","-72.718832"
"(860) 585-","Landline","Hartford","Bristol","CT","Connecticut","6011","Eastern","41.791776","-72.718832"
"(860) 379-","Landline","Litchfield","Winsted","CT","Connecticut","6098","Eastern","41.925671","-73.058157"
"(860) 743-","Cell Number","New London","New London","CT","Connecticut","6320","Eastern","41.413998","-72.10907"
"(203) 996-","Cell Number","New Haven","New Haven","CT","Connecticut","6515","Eastern","41.328697","-72.964247"
"(203) 209-","Landline","Fairfield","Bridgeport","CT","Connecticut","6604","Eastern","41.192746","-73.213907"
"(203) 440-","Landline","New Haven","Meriden","CT","Connecticut","6450","Eastern","41.536498","-72.801901"
"(203) 806-","Landline","New Haven","Cheshire","CT","Connecticut","6411","Eastern","41.550097","-72.922235"
"(860) 838-","Landline","Hartford","Hartford","CT","Connecticut","6134","Eastern","41.791776","-72.718832"
"(203) 995-","Unknown","Fairfield","Bridgeport","CT","Connecticut","6604","Eastern","41.192746","-73.213907"
"(860) 340-","Cell Number","Hartford","Hartford","CT","Connecticut","6134","Eastern","41.791776","-72.718832"
"(203) 912-","Cell Number","Fairfield","Stamford","CT","Connecticut","6911","Eastern","41.308873","-73.363661"
"(860) 415-","Landline","New London","Mystic","CT","Connecticut","6355","Eastern","41.485188","-72.000748"
"(860) 823-","Landline","New London","Norwich","CT","Connecticut","6360","Eastern","41.499398","-71.994757"
"(860) 266-","Landline","Hartford","Hartford","CT","Connecticut","6134","Eastern","41.791776","-72.718832"
"(203) 378-","Landline","Fairfield","Bridgeport","CT","Connecticut","6604","Eastern","41.192746","-73.213907"
"(203) 523-","Landline","Fairfield","Norwalk","CT","Connecticut","6856","Eastern","41.111196","-73.420363"
"(860) 376-","Landline","New London","Jewett City","CT","Connecticut","6351","Eastern","41.599562","-71.982619"
"(203) 896-","Landline","New Haven","Madison","CT","Connecticut","6443","Eastern","41.350397","-72.788392"
"(860) 967-","Landline","Hartford","Hartford","CT","Connecticut","6134","Eastern","41.791776","-72.718832"
"(860) 801-","Landline","Hartford","New Britain","CT","Connecticut","6050","Eastern","41.666049","-72.778391"
"(860) 344-","Landline","Middlesex","Middletown","CT","Connecticut","6457","Eastern","41.550139","-72.655357"
"(860) 310-","Cell Number","Hartford","Hartford","CT","Connecticut","6134","Eastern","41.791776","-72.718832"
"(860) 681-","Landline","Hartford","Southington","CT","Connecticut","6489","Eastern","41.604786","-72.871945"
"(860) 595-","Landline","Hartford","Hartford","CT","Connecticut","6134","Eastern","41.791776","-72.718832"
"(203) 742-","Landline","Fairfield","Greenwich","CT","Connecticut","6830","Eastern","41.042746","-73.62617"
"(860) 382-","Landline","Windham","Putnam","CT","Connecticut","6260","Eastern","41.862904","-71.887712"
"(203) 978-","Landline","Fairfield","Stamford","CT","Connecticut","6911","Eastern","41.308873","-73.363661"
"(860) 464-","Landline","New London","Gales Ferry","CT","Connecticut","6335","Eastern","41.523377","-72.021165"
"(203) 583-","Landline","Fairfield","Bridgeport","CT","Connecticut","6604","Eastern","41.192746","-73.213907"
"(203) 953-","Cell Number","Fairfield","Bridgeport","CT","Connecticut","6604","Eastern","41.192746","-73.213907"
"(860) 478-","Cell Number","Hartford","Hartford","CT","Connecticut","6134","Eastern","41.791776","-72.718832"
"(203) 421-","Landline","New Haven","Madison","CT","Connecticut","6443","Eastern","41.350397","-72.788392"
"(203) 880-","Landline","Fairfield","Trumbull","CT","Connecticut","6611","Eastern","41.259996","-73.206957"
"(860) 240-","Landline","Hartford","Hartford","CT","Connecticut","6134","Eastern","41.791776","-72.718832"
"(860) 507-","Landline","Hartford","Hartford","CT","Connecticut","6134","Eastern","41.791776","-72.718832"
"(203) 790-","Landline","Fairfield","Danbury","CT","Connecticut","6817","Eastern","41.308873","-73.363661"
"(203) 273-","Cell Number","Fairfield","Stamford","CT","Connecticut","6911","Eastern","41.308873","-73.363661"
"(203) 667-","Cell Number","Fairfield","Stamford","CT","Connecticut","6911","Eastern","41.308873","-73.363661"
"(203) 299-","Landline","Fairfield","Norwalk","CT","Connecticut","6856","Eastern","41.111196","-73.420363"
"(203) 815-","Landline","New Haven","New Haven","CT","Connecticut","6515","Eastern","41.328697","-72.964247"
"(203) 293-","Landline","Fairfield","Stamford","CT","Connecticut","6911","Eastern","41.308873","-73.363661"
"(203) 787-","Landline","New Haven","New Haven","CT","Connecticut","6515","Eastern","41.328697","-72.964247"
"(203) 352-","Landline","Fairfield","Stamford","CT","Connecticut","6911","Eastern","41.308873","-73.363661"
"(203) 825-","Landline","Fairfield","Danbury","CT","Connecticut","6817","Eastern","41.308873","-73.363661"
"(203) 736-","Landline","New Haven","Ansonia","CT","Connecticut","6401","Eastern","41.342514","-73.070301"
"(860) 208-","Cell Number","Windham","Willimantic","CT","Connecticut","6226","Eastern","41.845504","-72.091889"
"(860) 790-","Cell Number","Middlesex","Deep River","CT","Connecticut","6417","Eastern","41.368124","-72.452284"
"(203) 837-","Landline","Fairfield","Danbury","CT","Connecticut","6817","Eastern","41.308873","-73.363661"
"(203) 429-","Landline","Fairfield","Stamford","CT","Connecticut","6911","Eastern","41.308873","-73.363661"
"(203) 865-","Landline","New Haven","New Haven","CT","Connecticut","6515","Eastern","41.328697","-72.964247"
"(860) 492-","Landline","Litchfield","Sharon","CT","Connecticut","6069","Eastern","41.874681","-73.433903"
"(860) 369-","Cell Number","Hartford","Hartford","CT","Connecticut","6134","Eastern","41.791776","-72.718832"
"(860) 615-","Landline","Middlesex","Moodus","CT","Connecticut","6469","Eastern","41.508904","-72.440086"
"(860) 713-","Landline","Hartford","Hartford","CT","Connecticut","6134","Eastern","41.791776","-72.718832"
"(203) 733-","Cell Number","Fairfield","Danbury","CT","Connecticut","6817","Eastern","41.308873","-73.363661"
"(203) 762-","Landline","Fairfield","Wilton","CT","Connecticut","6897","Eastern","41.209695","-73.439165"
"(860) 709-","Unknown","Hartford","Hartford","CT","Connecticut","6134","Eastern","41.791776","-72.718832"
"(203) 701-","Landline","New Haven","New Haven","CT","Connecticut","6515","Eastern","41.328697","-72.964247"
"(860) 808-","Landline","Hartford","Hartford","CT","Connecticut","6134","Eastern","41.791776","-72.718832"
"(203) 657-","Cell Number","New Haven","New Haven","CT","Connecticut","6515","Eastern","41.328697","-72.964247"
"(203) 836-","Cell Number","Fairfield","Norwalk","CT","Connecticut","6856","Eastern","41.111196","-73.420363"
"(860) 221-","Landline","Hartford","Hartford","CT","Connecticut","6134","Eastern","41.791776","-72.718832"
"(203) 713-","Landline","New Haven","Milford","CT","Connecticut","6460","Eastern","41.343773","-72.951273"
"(203) 504-","Landline","Fairfield","Stamford","CT","Connecticut","6911","Eastern","41.308873","-73.363661"
"(860) 802-","Cell Number","Hartford","Hartford","CT","Connecticut","6134","Eastern","41.791776","-72.718832"
"(860) 405-","Landline","New London","New London","CT","Connecticut","6320","Eastern","41.413998","-72.10907"
"(203) 635-","Landline","Fairfield","Stamford","CT","Connecticut","6911","Eastern","41.308873","-73.363661"
"(203) 914-","Unknown","New Haven","Meriden","CT","Connecticut","6450","Eastern","41.536498","-72.801901"
"(203) 670-","Cell Number","New Haven","Waterbury","CT","Connecticut","6749","Eastern","41.365709","-72.927507"
"(203) 357-","Landline","Fairfield","Stamford","CT","Connecticut","6911","Eastern","41.308873","-73.363661"
"(203) 238-","Landline","New Haven","Meriden","CT","Connecticut","6450","Eastern","41.536498","-72.801901"
"(203) 873-","Unknown","Fairfield","Bridgeport","CT","Connecticut","6604","Eastern","41.192746","-73.213907"
"(860) 697-","Landline","Hartford","Windsor","CT","Connecticut","6095","Eastern","41.909988","-72.804935"
"(860) 957-","Landline","Litchfield","New Milford","CT","Connecticut","6776","Eastern","41.658619","-73.366017"
"(203) 297-","Landline","Fairfield","Danbury","CT","Connecticut","6817","Eastern","41.308873","-73.363661"
"(860) 217-","Landline","Hartford","Hartford","CT","Connecticut","6134","Eastern","41.791776","-72.718832"
"(203) 575-","Landline","New Haven","Waterbury","CT","Connecticut","6749","Eastern","41.365709","-72.927507"
"(203) 826-","Landline","Fairfield","Danbury","CT","Connecticut","6817","Eastern","41.308873","-73.363661"
"(203) 462-","Landline","Fairfield","Stamford","CT","Connecticut","6911","Eastern","41.308873","-73.363661"
"(860) 755-","Landline","Hartford","East Hartford","CT","Connecticut","6138","Eastern","41.791776","-72.718832"
"(203) 631-","Cell Number","New Haven","Meriden","CT","Connecticut","6450","Eastern","41.536498","-72.801901"
"(203) 616-","Landline","Fairfield","Danbury","CT","Connecticut","6817","Eastern","41.308873","-73.363661"
"(203) 529-","Landline","Fairfield","Wilton","CT","Connecticut","6897","Eastern","41.209695","-73.439165"
"(860) 412-","Landline","Windham","Danielson","CT","Connecticut","6239","Eastern","41.864901","-71.874354"
"(860) 327-","Landline","Hartford","Hartford","CT","Connecticut","6134","Eastern","41.791776","-72.718832"
"(203) 248-","Landline","New Haven","New Haven","CT","Connecticut","6515","Eastern","41.328697","-72.964247"
"(860) 632-","Landline","Middlesex","Middletown","CT","Connecticut","6457","Eastern","41.550139","-72.655357"
"(203) 640-","Cell Number","New Haven","New Haven","CT","Connecticut","6515","Eastern","41.328697","-72.964247"
"(860) 903-","Landline","Hartford","Hartford","CT","Connecticut","6134","Eastern","41.791776","-72.718832"
"(203) 724-","Landline","Fairfield","Stamford","CT","Connecticut","6911","Eastern","41.308873","-73.363661"
"(203) 325-","Landline","Fairfield","Stamford","CT","Connecticut","6911","Eastern","41.308873","-73.363661"
"(860) 760-","Landline","Hartford","Hartford","CT","Connecticut","6134","Eastern","41.791776","-72.718832"
"(203) 459-","Landline","Fairfield","Trumbull","CT","Connecticut","6611","Eastern","41.259996","-73.206957"
"(860) 977-","Cell Number","Hartford","Hartford","CT","Connecticut","6134","Eastern","41.791776","-72.718832"
"(860) 763-","Landline","Hartford","Enfield","CT","Connecticut","6083","Eastern","41.791776","-72.718832"
"(203) 780-","Cell Number","New Haven","Waterbury","CT","Connecticut","6749","Eastern","41.365709","-72.927507"
"(860) 608-","Cell Number","New London","Norwich","CT","Connecticut","6360","Eastern","41.499398","-71.994757"
"(203) 452-","Landline","Fairfield","Trumbull","CT","Connecticut","6611","Eastern","41.259996","-73.206957"
"(860) 372-","Landline","Hartford","Hartford","CT","Connecticut","6134","Eastern","41.791776","-72.718832"
"(860) 546-","Landline","Windham","Plainfield","CT","Connecticut","6374","Eastern","41.688121","-71.884113"
"(203) 486-","Landline","New Haven","Southbury","CT","Connecticut","6488","Eastern","41.470921","-73.240839"
"(203) 363-","Landline","Fairfield","Stamford","CT","Connecticut","6911","Eastern","41.308873","-73.363661"
"(203) 534-","Cell Number","Fairfield","Bridgeport","CT","Connecticut","6604","Eastern","41.192746","-73.213907"
"(860) 665-","Landline","Hartford","Hartford","CT","Connecticut","6134","Eastern","41.791776","-72.718832"
"(203) 823-","Landline","New Haven","New Haven","CT","Connecticut","6515","Eastern","41.328697","-72.964247"
"(860) 848-","Landline","New London","Montville","CT","Connecticut","6353","Eastern","41.452548","-72.137471"
"(860) 618-","Landline","Litchfield","Torrington","CT","Connecticut","6790","Eastern","41.87484","-73.126763"
"(203) 305-","Cell Number","New Haven","Derby","CT","Connecticut","6418","Eastern","41.327246","-73.084252"
"(860) 522-","Landline","Hartford","Hartford","CT","Connecticut","6134","Eastern","41.791776","-72.718832"
"(203) 449-","Cell Number","Fairfield","Bridgeport","CT","Connecticut","6604","Eastern","41.192746","-73.213907"
"(203) 233-","Cell Number","New Haven","Waterbury","CT","Connecticut","6749","Eastern","41.365709","-72.927507"
"(203) 625-","Landline","Fairfield","Greenwich","CT","Connecticut","6830","Eastern","41.042746","-73.62617"
"(860) 962-","Landline","Hartford","Enfield","CT","Connecticut","6083","Eastern","41.791776","-72.718832"
"(860) 820-","Cell Number","Hartford","Hartford","CT","Connecticut","6134","Eastern","41.791776","-72.718832"
"(203) 431-","Landline","Fairfield","Ridgefield","CT","Connecticut","6877","Eastern","41.308201","-73.494637"
"(203) 231-","Cell Number","New Haven","Derby","CT","Connecticut","6418","Eastern","41.327246","-73.084252"
"(203) 514-","Landline","New Haven","Meriden","CT","Connecticut","6450","Eastern","41.536498","-72.801901"
"(203) 820-","Cell Number","Fairfield","Norwalk","CT","Connecticut","6856","Eastern","41.111196","-73.420363"
"(860) 389-","Cell Number","New London","New London","CT","Connecticut","6320","Eastern","41.413998","-72.10907"
"(203) 594-","Landline","Fairfield","New Canaan","CT","Connecticut","6840","Eastern","41.162209","-73.501267"
"(860) 707-","Landline","Hartford","Hartford","CT","Connecticut","6134","Eastern","41.791776","-72.718832"
"(860) 529-","Landline","Hartford","Hartford","CT","Connecticut","6134","Eastern","41.791776","-72.718832"
"(203) 637-","Landline","Fairfield","Old Greenwich","CT","Connecticut","6870","Eastern","41.034946","-73.566968"
"(203) 931-","Landline","New Haven","New Haven","CT","Connecticut","6515","Eastern","41.328697","-72.964247"
"(203) 728-","Unknown","Fairfield","Stamford","CT","Connecticut","6911","Eastern","41.308873","-73.363661"
"(203) 465-","Landline","New Haven","Waterbury","CT","Connecticut","6749","Eastern","41.365709","-72.927507"
"(860) 642-","Landline","New London","Lebanon","CT","Connecticut","6249","Eastern","41.628008","-72.245422"
"(203) 759-","Landline","New Haven","Waterbury","CT","Connecticut","6749","Eastern","41.365709","-72.927507"
"(860) 742-","Landline","Tolland","Coventry","CT","Connecticut","6238","Eastern","41.778623","-72.323642"
"(203) 415-","Cell Number","New Haven","New Haven","CT","Connecticut","6515","Eastern","41.328697","-72.964247"
"(860) 330-","Cell Number","Hartford","Hartford","CT","Connecticut","6134","Eastern","41.791776","-72.718832"
"(203) 276-","Landline","Fairfield","Stamford","CT","Connecticut","6911","Eastern","41.308873","-73.363661"
"(860) 347-","Landline","Middlesex","Middletown","CT","Connecticut","6457","Eastern","41.550139","-72.655357"
"(860) 219-","Landline","Hartford","Hartford","CT","Connecticut","6134","Eastern","41.791776","-72.718832"
"(203) 250-","Landline","New Haven","Cheshire","CT","Connecticut","6411","Eastern","41.550097","-72.922235"
"(860) 410-","Landline","Hartford","Plainville","CT","Connecticut","6062","Eastern","41.672983","-72.859695"
"(860) 817-","Landline","Hartford","Hartford","CT","Connecticut","6134","Eastern","41.791776","-72.718832"
"(860) 228-","Landline","Tolland","Columbia","CT","Connecticut","6237","Eastern","41.696124","-72.300043"
"(203) 438-","Landline","Fairfield","Ridgefield","CT","Connecticut","6877","Eastern","41.308201","-73.494637"
"(860) 971-","Unknown","Tolland","Stafford Springs","CT","Connecticut","6076","Eastern","41.900495","-72.27641"
"(860) 990-","Unknown","Hartford","Hartford","CT","Connecticut","6134","Eastern","41.791776","-72.718832"
"(203) 294-","Landline","New Haven","Wallingford","CT","Connecticut","6492","Eastern","41.456205","-72.811047"
"(203) 630-","Landline","New Haven","Meriden","CT","Connecticut","6450","Eastern","41.536498","-72.801901"
"(860) 660-","Landline","Hartford","Hartford","CT","Connecticut","6134","Eastern","41.791776","-72.718832"
"(203) 380-","Landline","Fairfield","Bridgeport","CT","Connecticut","6604","Eastern","41.192746","-73.213907"
"(860) 416-","Cell Number","Hartford","Hartford","CT","Connecticut","6134","Eastern","41.791776","-72.718832"
"(203) 584-","Cell Number","New Haven","New Haven","CT","Connecticut","6515","Eastern","41.328697","-72.964247"
"(203) 948-","Cell Number","Fairfield","Danbury","CT","Connecticut","6817","Eastern","41.308873","-73.363661"
"(860) 856-","Unknown","Hartford","Hartford","CT","Connecticut","6134","Eastern","41.791776","-72.718832"
"(203) 877-","Landline","New Haven","Milford","CT","Connecticut","6460","Eastern","41.343773","-72.951273"
"(860) 563-","Landline","Hartford","Hartford","CT","Connecticut","6134","Eastern","41.791776","-72.718832"
"(203) 580-","Cell Number","New Haven","Waterbury","CT","Connecticut","6749","Eastern","41.365709","-72.927507"
"(860) 229-","Landline","Hartford","New Britain","CT","Connecticut","6050","Eastern","41.666049","-72.778391"
"(203) 999-","Unknown","New Haven","New Haven","CT","Connecticut","6515","Eastern","41.328697","-72.964247"
"(860) 641-","Landline","Hartford","Bristol","CT","Connecticut","6011","Eastern","41.791776","-72.718832"
"(203) 921-","Landline","Fairfield","Stamford","CT","Connecticut","6911","Eastern","41.308873","-73.363661"
"(860) 460-","Cell Number","New London","New London","CT","Connecticut","6320","Eastern","41.413998","-72.10907"
"(860) 526-","Landline","Middlesex","Deep River","CT","Connecticut","6417","Eastern","41.368124","-72.452284"
"(860) 738-","Landline","Litchfield","Winsted","CT","Connecticut","6098","Eastern","41.925671","-73.058157"
"(860) 609-","Landline","Hartford","Southington","CT","Connecticut","6489","Eastern","41.604786","-72.871945"
"(860) 409-","Landline","Hartford","Farmington","CT","Connecticut","6034","Eastern","41.791776","-72.718832"
"(203) 355-","Landline","Fairfield","Stamford","CT","Connecticut","6911","Eastern","41.308873","-73.363661"
"(860) 359-","Landline","Tolland","Columbia","CT","Connecticut","6237","Eastern","41.696124","-72.300043"
"(860) 966-","Cell Number","Hartford","Hartford","CT","Connecticut","6134","Eastern","41.791776","-72.718832"
"(860) 432-","Landline","Hartford","Manchester","CT","Connecticut","6045","Eastern","41.791776","-72.718832"
"(860) 325-","Landline","Hartford","Hartford","CT","Connecticut","6134","Eastern","41.791776","-72.718832"
"(860) 866-","Landline","Litchfield","Torrington","CT","Connecticut","6790","Eastern","41.87484","-73.126763"
"(203) 608-","Landline","New Haven","Meriden","CT","Connecticut","6450","Eastern","41.536498","-72.801901"
"(203) 446-","Landline","New Haven","Derby","CT","Connecticut","6418","Eastern","41.327246","-73.084252"
"(860) 868-","Landline","Litchfield","Washington","CT","Connecticut","6793","Eastern","41.718159","-73.294187"
"(860) 562-","Landline","Hartford","Enfield","CT","Connecticut","6083","Eastern","41.791776","-72.718832"
"(860) 498-","Landline","Tolland","Coventry","CT","Connecticut","6238","Eastern","41.778623","-72.323642"
"(860) 726-","Landline","Hartford","Hartford","CT","Connecticut","6134","Eastern","41.791776","-72.718832"
"(203) 496-","Cell Number","Fairfield","Greenwich","CT","Connecticut","6830","Eastern","41.042746","-73.62617"
"(203) 812-","Landline","New Haven","New Haven","CT","Connecticut","6515","Eastern","41.328697","-72.964247"
"(203) 524-","Cell Number","Fairfield","Stamford","CT","Connecticut","6911","Eastern","41.308873","-73.363661"
"(860) 502-","Landline","Hartford","Hartford","CT","Connecticut","6134","Eastern","41.791776","-72.718832"
"(203) 370-","Cell Number","New Haven","New Haven","CT","Connecticut","6515","Eastern","41.328697","-72.964247"
"(203) 663-","Landline","Fairfield","Stamford","CT","Connecticut","6911","Eastern","41.308873","-73.363661"
"(860) 974-","Landline","Windham","Woodstock","CT","Connecticut","6281","Eastern","41.961991","-72.014108"
"(860) 392-","Landline","Hartford","Hartford","CT","Connecticut","6134","Eastern","41.791776","-72.718832"
"(860) 678-","Landline","Hartford","Farmington","CT","Connecticut","6034","Eastern","41.791776","-72.718832"
"(860) 314-","Landline","Hartford","Bristol","CT","Connecticut","6011","Eastern","41.791776","-72.718832"
"(860) 878-","Landline","Hartford","Hartford","CT","Connecticut","6134","Eastern","41.791776","-72.718832"
"(203) 246-","Cell Number","Fairfield","Norwalk","CT","Connecticut","6856","Eastern","41.111196","-73.420363"
"(860) 927-","Landline","Litchfield","Kent","CT","Connecticut","6757","Eastern","41.774725","-73.401908"
"(860) 243-","Landline","Hartford","Hartford","CT","Connecticut","6134","Eastern","41.791776","-72.718832"
"(860) 374-","Landline","Middlesex","Deep River","CT","Connecticut","6417","Eastern","41.368124","-72.452284"
"(860) 480-","Cell Number","Litchfield","Torrington","CT","Connecticut","6790","Eastern","41.87484","-73.126763"
"(203) 693-","Cell Number","Fairfield","Milford","CT","Connecticut","6460","Eastern","41.343773","-72.951273"
"(860) 803-","Cell Number","Hartford","Hartford","CT","Connecticut","6134","Eastern","41.791776","-72.718832"
"(860) 496-","Landline","Litchfield","Torrington","CT","Connecticut","6790","Eastern","41.87484","-73.126763"
"(860) 224-","Landline","Hartford","New Britain","CT","Connecticut","6050","Eastern","41.666049","-72.778391"
"(203) 535-","Landline","New Haven","New Haven","CT","Connecticut","6515","Eastern","41.328697","-72.964247"
"(203) 791-","Landline","Fairfield","Danbury","CT","Connecticut","6817","Eastern","41.308873","-73.363661"
"(203) 346-","Landline","New Haven","Waterbury","CT","Connecticut","6749","Eastern","41.365709","-72.927507"
"(860) 421-","Landline","Hartford","Hartford","CT","Connecticut","6134","Eastern","41.791776","-72.718832"
"(860) 928-","Landline","Windham","Putnam","CT","Connecticut","6260","Eastern","41.862904","-71.887712"
"(860) 658-","Landline","Hartford","Simsbury","CT","Connecticut","6070","Eastern","41.868647","-72.819742"
"(860) 326-","Landline","New London","New London","CT","Connecticut","6320","Eastern","41.413998","-72.10907"
"(203) 866-","Landline","Fairfield","Norwalk","CT","Connecticut","6856","Eastern","41.111196","-73.420363"
"(860) 245-","Landline","New London","Mystic","CT","Connecticut","6355","Eastern","41.485188","-72.000748"
"(203) 841-","Landline","New Haven","Waterbury","CT","Connecticut","6749","Eastern","41.365709","-72.927507"
"(860) 663-","Landline","Middlesex","Killingworth","CT","Connecticut","6419","Eastern","41.417962","-72.493446"
"(203) 949-","Landline","New Haven","Wallingford","CT","Connecticut","6492","Eastern","41.456205","-72.811047"
"(860) 377-","Cell Number","Windham","Willimantic","CT","Connecticut","6226","Eastern","41.845504","-72.091889"
"(203) 602-","Landline","Fairfield","Stamford","CT","Connecticut","6911","Eastern","41.308873","-73.363661"
"(203) 962-","Landline","Fairfield","Stamford","CT","Connecticut","6911","Eastern","41.308873","-73.363661"
"(860) 647-","Landline","Hartford","Manchester","CT","Connecticut","6045","Eastern","41.791776","-72.718832"
"(203) 654-","Landline","New Haven","New Haven","CT","Connecticut","6515","Eastern","41.328697","-72.964247"
"(860) 826-","Landline","Hartford","New Britain","CT","Connecticut","6050","Eastern","41.666049","-72.778391"
"(860) 254-","Landline","Hartford","Hartford","CT","Connecticut","6134","Eastern","41.791776","-72.718832"
"(203) 660-","Landline","Fairfield","Greenwich","CT","Connecticut","6830","Eastern","41.042746","-73.62617"
"(860) 426-","Landline","Hartford","Southington","CT","Connecticut","6489","Eastern","41.604786","-72.871945"
"(860) 965-","Cell Number","Hartford","Hartford","CT","Connecticut","6134","Eastern","41.791776","-72.718832"
"(860) 907-","Landline","Hartford","Hartford","CT","Connecticut","6134","Eastern","41.791776","-72.718832"
"(860) 398-","Landline","Middlesex","Middletown","CT","Connecticut","6457","Eastern","41.550139","-72.655357"
"(860) 339-","Landline","Middlesex","Old Saybrook","CT","Connecticut","6475","Eastern","41.300448","-72.389129"
"(860) 661-","Landline","Middlesex","Old Saybrook","CT","Connecticut","6475","Eastern","41.300448","-72.389129"
"(203) 354-","Landline","Fairfield","Norwalk","CT","Connecticut","6856","Eastern","41.111196","-73.420363"
"(203) 622-","Landline","Fairfield","Greenwich","CT","Connecticut","6830","Eastern","41.042746","-73.62617"
"(203) 678-","Landline","New Haven","Wallingford","CT","Connecticut","6492","Eastern","41.456205","-72.811047"
"(860) 241-","Landline","Hartford","Hartford","CT","Connecticut","6134","Eastern","41.791776","-72.718832"
"(860) 780-","Landline","Hartford","Glastonbury","CT","Connecticut","6033","Eastern","41.703451","-72.539332"
"(203) 652-","Landline","Fairfield","Stamford","CT","Connecticut","6911","Eastern","41.308873","-73.363661"
"(860) 209-","Cell Number","Hartford","Hartford","CT","Connecticut","6134","Eastern","41.791776","-72.718832"
"(860) 649-","Landline","Hartford","Manchester","CT","Connecticut","6045","Eastern","41.791776","-72.718832"
"(203) 942-","Landline","Fairfield","Danbury","CT","Connecticut","6817","Eastern","41.308873","-73.363661"
"(203) 558-","Cell Number","New Haven","Waterbury","CT","Connecticut","6749","Eastern","41.365709","-72.927507"
"(203) 729-","Landline","New Haven","Naugatuck","CT","Connecticut","6770","Eastern","41.491016","-73.052965"
"(203) 845-","Landline","Fairfield","Norwalk","CT","Connecticut","6856","Eastern","41.111196","-73.420363"
"(203) 752-","Landline","New Haven","New Haven","CT","Connecticut","6515","Eastern","41.328697","-72.964247"
"(860) 978-","Cell Number","Hartford","Hartford","CT","Connecticut","6134","Eastern","41.791776","-72.718832"
"(860) 723-","Landline","Hartford","Hartford","CT","Connecticut","6134","Eastern","41.791776","-72.718832"
"(203) 321-","Landline","Fairfield","Stamford","CT","Connecticut","6911","Eastern","41.308873","-73.363661"
"(203) 263-","Landline","Litchfield","Woodbury","CT","Connecticut","6798","Eastern","41.733106","-73.135499"
"(860) 358-","Landline","Middlesex","Middletown","CT","Connecticut","6457","Eastern","41.550139","-72.655357"
"(860) 570-","Landline","Hartford","West Hartford","CT","Connecticut","6137","Eastern","41.791776","-72.718832"
"(860) 556-","Landline","Windham","Canterbury","CT","Connecticut","6331","Eastern","41.696753","-71.998277"
"(860) 548-","Landline","Hartford","Hartford","CT","Connecticut","6134","Eastern","41.791776","-72.718832"
"(203) 244-","Landline","Fairfield","Ridgefield","CT","Connecticut","6877","Eastern","41.308201","-73.494637"
"(860) 717-","Unknown","Litchfield","New Milford","CT","Connecticut","6776","Eastern","41.658619","-73.366017"
"(860) 685-","Landline","Middlesex","Middletown","CT","Connecticut","6457","Eastern","41.550139","-72.655357"
"(203) 566-","Landline","Fairfield","Stamford","CT","Connecticut","6911","Eastern","41.308873","-73.363661"
"(860) 549-","Landline","Hartford","Hartford","CT","Connecticut","6134","Eastern","41.791776","-72.718832"
"(860) 703-","Landline","Hartford","Farmington","CT","Connecticut","6034","Eastern","41.791776","-72.718832"
"(203) 408-","Landline","Fairfield","Redding","CT","Connecticut","6896","Eastern","41.271095","-73.38634"
"(860) 534-","Landline","Hartford","Hartford","CT","Connecticut","6134","Eastern","41.791776","-72.718832"
"(860) 362-","Cell Number","Middlesex","Canaan","CT","Connecticut","6018","Eastern","42.001585","-73.295891"
"(860) 286-","Landline","Hartford","Hartford","CT","Connecticut","6134","Eastern","41.791776","-72.718832"
"(860) 673-","Landline","Hartford","Farmington","CT","Connecticut","6034","Eastern","41.791776","-72.718832"
"(860) 997-","Cell Number","Hartford","Hartford","CT","Connecticut","6134","Eastern","41.791776","-72.718832"
"(203) 720-","Landline","New Haven","Naugatuck","CT","Connecticut","6770","Eastern","41.491016","-73.052965"
"(203) 441-","Landline","New Haven","Wolcott","CT","Connecticut","6716","Eastern","41.598347","-72.980578"
"(860) 753-","Cell Number","Windham","Putnam","CT","Connecticut","6260","Eastern","41.862904","-71.887712"
"(203) 398-","Cell Number","Fairfield","Norwalk","CT","Connecticut","6856","Eastern","41.111196","-73.420363"
"(860) 331-","Landline","Hartford","Hartford","CT","Connecticut","6134","Eastern","41.791776","-72.718832"
"(203) 612-","Landline","Fairfield","Bridgeport","CT","Connecticut","6604","Eastern","41.192746","-73.213907"
"(203) 842-","Landline","Fairfield","Stamford","CT","Connecticut","6911","Eastern","41.308873","-73.363661"
"(860) 741-","Landline","Hartford","Enfield","CT","Connecticut","6083","Eastern","41.791776","-72.718832"
"(203) 261-","Landline","Fairfield","Trumbull","CT","Connecticut","6611","Eastern","41.259996","-73.206957"
"(860) 216-","Landline","Hartford","Hartford","CT","Connecticut","6134","Eastern","41.791776","-72.718832"
"(860) 812-","Landline","Hartford","Manchester","CT","Connecticut","6045","Eastern","41.791776","-72.718832"
"(203) 597-","Landline","New Haven","Waterbury","CT","Connecticut","6749","Eastern","41.365709","-72.927507"
"(860) 465-","Landline","Windham","Willimantic","CT","Connecticut","6226","Eastern","41.845504","-72.091889"
"(860) 684-","Landline","Tolland","Stafford Springs","CT","Connecticut","6076","Eastern","41.900495","-72.27641"
"(203) 221-","Landline","Fairfield","Westport","CT","Connecticut","6888","Eastern","41.308873","-73.363661"
"(860) 972-","Unknown","Hartford","Hartford","CT","Connecticut","6134","Eastern","41.791776","-72.718832"
"(860) 759-","Cell Number","Middlesex","Middletown","CT","Connecticut","6457","Eastern","41.550139","-72.655357"
"(203) 283-","Landline","New Haven","Milford","CT","Connecticut","6460","Eastern","41.343773","-72.951273"
"(860) 893-","Landline","Middlesex","Middletown","CT","Connecticut","6457","Eastern","41.550139","-72.655357"
"(203) 731-","Landline","Fairfield","Danbury","CT","Connecticut","6817","Eastern","41.308873","-73.363661"
"(203) 277-","Landline","Fairfield","Old Greenwich","CT","Connecticut","6870","Eastern","41.034946","-73.566968"
"(860) 425-","Landline","New London","Norwich","CT","Connecticut","6360","Eastern","41.499398","-71.994757"
"(203) 709-","Landline","New Haven","Waterbury","CT","Connecticut","6749","Eastern","41.365709","-72.927507"
"(203) 315-","Landline","New Haven","Branford","CT","Connecticut","6405","Eastern","41.284746","-72.796292"
"(203) 216-","Cell Number","Fairfield","Westport","CT","Connecticut","6888","Eastern","41.308873","-73.363661"
"(860) 287-","Cell Number","New London","New London","CT","Connecticut","6320","Eastern","41.413998","-72.10907"
"(203) 506-","Cell Number","New Haven","New Haven","CT","Connecticut","6515","Eastern","41.328697","-72.964247"
"(203) 990-","Landline","Fairfield","Old Greenwich","CT","Connecticut","6870","Eastern","41.034946","-73.566968"
"(203) 505-","Landline","Fairfield","Norwalk","CT","Connecticut","6856","Eastern","41.111196","-73.420363"
"(860) 364-","Landline","Litchfield","Sharon","CT","Connecticut","6069","Eastern","41.874681","-73.433903"
"(860) 621-","Landline","Hartford","Southington","CT","Connecticut","6489","Eastern","41.604786","-72.871945"
"(860) 542-","Landline","Litchfield","Norfolk","CT","Connecticut","6058","Eastern","41.886811","-73.184674"
"(203) 470-","Cell Number","Fairfield","Danbury","CT","Connecticut","6817","Eastern","41.308873","-73.363661"
"(860) 943-","Landline","Middlesex","Old Saybrook","CT","Connecticut","6475","Eastern","41.300448","-72.389129"
"(860) 942-","Landline","Windham","Willimantic","CT","Connecticut","6226","Eastern","41.845504","-72.091889"
"(203) 794-","Landline","Fairfield","Danbury","CT","Connecticut","6817","Eastern","41.308873","-73.363661"
"(860) 891-","Landline","Middlesex","Moodus","CT","Connecticut","6469","Eastern","41.508904","-72.440086"
"(203) 973-","Landline","Fairfield","Stamford","CT","Connecticut","6911","Eastern","41.308873","-73.363661"
"(860) 418-","Landline","Hartford","Hartford","CT","Connecticut","6134","Eastern","41.791776","-72.718832"
"(860) 462-","Landline","Hartford","Hartford","CT","Connecticut","6134","Eastern","41.791776","-72.718832"
"(860) 348-","Landline","Hartford","New Britain","CT","Connecticut","6050","Eastern","41.666049","-72.778391"
"(203) 919-","Cell Number","Fairfield","Norwalk","CT","Connecticut","6856","Eastern","41.111196","-73.420363"
"(203) 621-","Landline","Fairfield","Darien","CT","Connecticut","6820","Eastern","41.075846","-73.480765"
"(860) 273-","Landline","Hartford","Hartford","CT","Connecticut","6134","Eastern","41.791776","-72.718832"
"(203) 420-","Landline","New Haven","Meriden","CT","Connecticut","6450","Eastern","41.536498","-72.801901"
"(203) 827-","Landline","Fairfield","Old Greenwich","CT","Connecticut","6870","Eastern","41.034946","-73.566968"
"(203) 714-","Landline","New Haven","Naugatuck","CT","Connecticut","6770","Eastern","41.491016","-73.052965"
"(860) 772-","Unknown","New London","New London","CT","Connecticut","6320","Eastern","41.413998","-72.10907"
"(203) 799-","Landline","New Haven","New Haven","CT","Connecticut","6515","Eastern","41.328697","-72.964247"
"(203) 655-","Landline","Fairfield","Darien","CT","Connecticut","6820","Eastern","41.075846","-73.480765"
"(203) 909-","Unknown","New Haven","New Haven","CT","Connecticut","6515","Eastern","41.328697","-72.964247"
"(203) 410-","Cell Number","New Haven","New Haven","CT","Connecticut","6515","Eastern","41.328697","-72.964247"
"(860) 853-","Landline","Middlesex","Old Saybrook","CT","Connecticut","6475","Eastern","41.300448","-72.389129"
"(860) 365-","Landline","Middlesex","East Hampton","CT","Connecticut","6424","Eastern","41.559841","-72.494927"
"(860) 291-","Landline","Hartford","East Hartford","CT","Connecticut","6138","Eastern","41.791776","-72.718832"
"(203) 469-","Landline","New Haven","New Haven","CT","Connecticut","6515","Eastern","41.328697","-72.964247"
"(860) 668-","Landline","Hartford","Windsor Locks","CT","Connecticut","6096","Eastern","41.933846","-72.660245"
"(860) 901-","Landline","Hartford","Hartford","CT","Connecticut","6134","Eastern","41.791776","-72.718832"
"(860) 778-","Cell Number","Hartford","Hartford","CT","Connecticut","6134","Eastern","41.791776","-72.718832"
"(203) 467-","Landline","New Haven","New Haven","CT","Connecticut","6515","Eastern","41.328697","-72.964247"
"(203) 858-","Cell Number","Fairfield","Norwalk","CT","Connecticut","6856","Eastern","41.111196","-73.420363"
"(203) 336-","Landline","Fairfield","Bridgeport","CT","Connecticut","6604","Eastern","41.192746","-73.213907"
"(203) 783-","Landline","New Haven","Milford","CT","Connecticut","6460","Eastern","41.343773","-72.951273"
"(860) 368-","Landline","Hartford","Glastonbury","CT","Connecticut","6033","Eastern","41.703451","-72.539332"
"(203) 937-","Landline","New Haven","New Haven","CT","Connecticut","6515","Eastern","41.328697","-72.964247"
"(860) 725-","Landline","Hartford","Hartford","CT","Connecticut","6134","Eastern","41.791776","-72.718832"
"(203) 883-","Landline","Fairfield","Stamford","CT","Connecticut","6911","Eastern","41.308873","-73.363661"
"(860) 354-","Landline","Litchfield","New Milford","CT","Connecticut","6776","Eastern","41.658619","-73.366017"
"(203) 757-","Landline","New Haven","Waterbury","CT","Connecticut","6749","Eastern","41.365709","-72.927507"
"(860) 752-","Landline","Hartford","Windsor Locks","CT","Connecticut","6096","Eastern","41.933846","-72.660245"
"(203) 716-","Landline","Fairfield","Stamford","CT","Connecticut","6911","Eastern","41.308873","-73.363661"
"(203) 624-","Landline","New Haven","New Haven","CT","Connecticut","6515","Eastern","41.328697","-72.964247"
"(203) 746-","Landline","Fairfield","Danbury","CT","Connecticut","6817","Eastern","41.308873","-73.363661"
"(203) 689-","Landline","New Haven","New Haven","CT","Connecticut","6515","Eastern","41.328697","-72.964247"
"(203) 320-","Landline","Fairfield","Darien","CT","Connecticut","6820","Eastern","41.075846","-73.480765"
"(860) 693-","Landline","Hartford","Canton","CT","Connecticut","6019","Eastern","41.842882","-72.899645"
"(860) 862-","Landline","New London","Norwich","CT","Connecticut","6360","Eastern","41.499398","-71.994757"
"(860) 786-","Landline","Windham","Willimantic","CT","Connecticut","6226","Eastern","41.845504","-72.091889"
"(860) 807-","Landline","Hartford","Hartford","CT","Connecticut","6134","Eastern","41.791776","-72.718832"
"(860) 701-","Landline","New London","New London","CT","Connecticut","6320","Eastern","41.413998","-72.10907"
"(860) 457-","Landline","Windham","Plainfield","CT","Connecticut","6374","Eastern","41.688121","-71.884113"
"(203) 813-","Landline","Fairfield","Greenwich","CT","Connecticut","6830","Eastern","41.042746","-73.62617"
"(203) 222-","Landline","Fairfield","Westport","CT","Connecticut","6888","Eastern","41.308873","-73.363661"
"(203) 661-","Landline","Fairfield","Greenwich","CT","Connecticut","6830","Eastern","41.042746","-73.62617"
"(860) 627-","Landline","Hartford","Windsor Locks","CT","Connecticut","6096","Eastern","41.933846","-72.660245"
"(203) 784-","Landline","New Haven","New Haven","CT","Connecticut","6515","Eastern","41.328697","-72.964247"
"(860) 518-","Cell Number","Hartford","New Britain","CT","Connecticut","6050","Eastern","41.666049","-72.778391"
"(203) 586-","Landline","Litchfield","Woodbury","CT","Connecticut","6798","Eastern","41.733106","-73.135499"
"(860) 670-","Cell Number","Hartford","Hartford","CT","Connecticut","6134","Eastern","41.791776","-72.718832"
"(203) 786-","Landline","New Haven","New Haven","CT","Connecticut","6515","Eastern","41.328697","-72.964247"
"(860) 583-","Landline","Hartford","Bristol","CT","Connecticut","6011","Eastern","41.791776","-72.718832"
"(203) 632-","Landline","New Haven","Naugatuck","CT","Connecticut","6770","Eastern","41.491016","-73.052965"
"(860) 506-","Landline","Hartford","Bristol","CT","Connecticut","6011","Eastern","41.791776","-72.718832"
"(860) 987-","Landline","Hartford","Hartford","CT","Connecticut","6134","Eastern","41.791776","-72.718832"
"(203) 371-","Landline","Fairfield","Bridgeport","CT","Connecticut","6604","Eastern","41.192746","-73.213907"
"(860) 774-","Landline","Windham","Danielson","CT","Connecticut","6239","Eastern","41.864901","-71.874354"
"(860) 274-","Landline","Litchfield","Watertown","CT","Connecticut","6795","Eastern","41.759427","-73.162003"
"(860) 657-","Landline","Hartford","Glastonbury","CT","Connecticut","6033","Eastern","41.703451","-72.539332"
"(860) 619-","Landline","Litchfield","Washington","CT","Connecticut","6793","Eastern","41.718159","-73.294187"
"(203) 550-","Cell Number","Fairfield","Stamford","CT","Connecticut","6911","Eastern","41.308873","-73.363661"
"(203) 662-","Landline","Fairfield","Darien","CT","Connecticut","6820","Eastern","41.075846","-73.480765"
"(203) 551-","Landline","Fairfield","Bridgeport","CT","Connecticut","6604","Eastern","41.192746","-73.213907"
"(860) 336-","Landline","Windham","Willimantic","CT","Connecticut","6226","Eastern","41.845504","-72.091889"
"(203) 673-","Landline","Fairfield","Bridgeport","CT","Connecticut","6604","Eastern","41.192746","-73.213907"
"(860) 501-","Cell Number","New London","New London","CT","Connecticut","6320","Eastern","41.413998","-72.10907"
"(860) 616-","Landline","Hartford","Hartford","CT","Connecticut","6134","Eastern","41.791776","-72.718832"
"(860) 617-","Cell Number","Windham","Willimantic","CT","Connecticut","6226","Eastern","41.845504","-72.091889"
"(860) 495-","Landline","New London","Pawcatuck","CT","Connecticut","6379","Eastern","41.455191","-71.895547"
"(860) 579-","Landline","Middlesex","Haddam","CT","Connecticut","6438","Eastern","41.471457","-72.511376"
"(860) 552-","Landline","Middlesex","Clinton","CT","Connecticut","6413","Eastern","41.298201","-72.532934"
"(203) 726-","Cell Number","Fairfield","Bridgeport","CT","Connecticut","6604","Eastern","41.192746","-73.213907"
"(860) 445-","Landline","New London","New London","CT","Connecticut","6320","Eastern","41.413998","-72.10907"
"(203) 767-","Cell Number","Fairfield","Bridgeport","CT","Connecticut","6604","Eastern","41.192746","-73.213907"
"(860) 275-","Landline","Hartford","Hartford","CT","Connecticut","6134","Eastern","41.791776","-72.718832"
"(203) 536-","Cell Number","Fairfield","Stamford","CT","Connecticut","6911","Eastern","41.308873","-73.363661"
"(203) 738-","Landline","New Haven","Guilford","CT","Connecticut","6437","Eastern","41.338847","-72.690089"
"(860) 269-","Landline","Hartford","Hartford","CT","Connecticut","6134","Eastern","41.791776","-72.718832"
"(203) 798-","Landline","Fairfield","Danbury","CT","Connecticut","6817","Eastern","41.308873","-73.363661"
"(860) 749-","Landline","Hartford","Enfield","CT","Connecticut","6083","Eastern","41.791776","-72.718832"
"(203) 802-","Unknown","New Haven","Waterbury","CT","Connecticut","6749","Eastern","41.365709","-72.927507"
"(203) 235-","Landline","New Haven","Meriden","CT","Connecticut","6450","Eastern","41.536498","-72.801901"
