"Prefix","Usage","County","City","ShortState","LongState","Zip","Timezone","Latitude","Longitude"
"(302) 238-","Landline","Sussex","Frankford","DE","Delaware","19945","Eastern","38.55144","-75.157634"
"(302) 360-","Landline","Sussex","Lewes","DE","Delaware","19958","Eastern","38.65536","-75.325612"
"(302) 400-","Unknown","New Castle","New Castle","DE","Delaware","19720","Eastern","39.592895","-75.651466"
"(302) 380-","Landline","New Castle","Bear","DE","Delaware","19701","Eastern","39.594736","-75.693903"
"(302) 312-","Cell Number","New Castle","Middletown","DE","Delaware","19709","Eastern","39.485721","-75.677535"
"(302) 383-","Cell Number","New Castle","Wilmington","DE","Delaware","19899","Eastern","39.734792","-75.624617"
"(302) 430-","Landline","Sussex","Milford","DE","Delaware","19963","Eastern","38.72712","-75.322829"
"(302) 371-","Landline","New Castle","Wilmington","DE","Delaware","19899","Eastern","39.734792","-75.624617"
"(302) 420-","Cell Number","New Castle","Wilmington","DE","Delaware","19899","Eastern","39.734792","-75.624617"
"(302) 781-","Landline","New Castle","Newark","DE","Delaware","19718","Eastern","39.564499","-75.597047"
"(302) 541-","Landline","Sussex","Ocean View","DE","Delaware","19970","Eastern","38.621587","-75.104645"
"(302) 745-","Cell Number","Sussex","Milford","DE","Delaware","19963","Eastern","38.72712","-75.322829"
"(302) 425-","Landline","New Castle","Wilmington","DE","Delaware","19899","Eastern","39.734792","-75.624617"
"(302) 877-","Landline","Sussex","Laurel","DE","Delaware","19956","Eastern","38.663322","-75.378729"
"(302) 407-","Landline","New Castle","Wilmington","DE","Delaware","19899","Eastern","39.734792","-75.624617"
"(302) 537-","Landline","Sussex","Ocean View","DE","Delaware","19970","Eastern","38.621587","-75.104645"
"(302) 491-","Landline","Sussex","Milford","DE","Delaware","19963","Eastern","38.72712","-75.322829"
"(302) 283-","Landline","New Castle","Newark","DE","Delaware","19718","Eastern","39.564499","-75.597047"
"(302) 533-","Landline","New Castle","Newark","DE","Delaware","19718","Eastern","39.564499","-75.597047"
"(302) 229-","Cell Number","New Castle","New Castle","DE","Delaware","19720","Eastern","39.592895","-75.651466"
"(302) 341-","Landline","New Castle","Newark","DE","Delaware","19718","Eastern","39.564499","-75.597047"
"(302) 457-","Landline","New Castle","Newark","DE","Delaware","19718","Eastern","39.564499","-75.597047"
"(302) 696-","Landline","New Castle","Middletown","DE","Delaware","19709","Eastern","39.485721","-75.677535"
"(302) 326-","Landline","New Castle","New Castle","DE","Delaware","19720","Eastern","39.592895","-75.651466"
"(302) 367-","Cell Number","New Castle","New Castle","DE","Delaware","19720","Eastern","39.592895","-75.651466"
"(302) 549-","Landline","Sussex","Harbeson","DE","Delaware","19951","Eastern","38.691547","-75.225025"
"(302) 837-","Landline","New Castle","Newark","DE","Delaware","19718","Eastern","39.564499","-75.597047"
"(302) 829-","Landline","Sussex","Ocean View","DE","Delaware","19970","Eastern","38.621587","-75.104645"
"(302) 448-","Landline","Sussex","Georgetown","DE","Delaware","19947","Eastern","38.632891","-75.334263"
"(302) 475-","Landline","New Castle","Wilmington","DE","Delaware","19899","Eastern","39.734792","-75.624617"
"(302) 836-","Landline","New Castle","Middletown","DE","Delaware","19709","Eastern","39.485721","-75.677535"
"(302) 650-","Landline","New Castle","Wilmington","DE","Delaware","19899","Eastern","39.734792","-75.624617"
"(302) 328-","Landline","New Castle","New Castle","DE","Delaware","19720","Eastern","39.592895","-75.651466"
"(302) 375-","Landline","New Castle","Wilmington","DE","Delaware","19899","Eastern","39.734792","-75.624617"
"(302) 738-","Landline","New Castle","Newark","DE","Delaware","19718","Eastern","39.564499","-75.597047"
"(302) 349-","Landline","Sussex","Greenwood","DE","Delaware","19950","Eastern","38.82458","-75.588771"
"(302) 545-","Cell Number","New Castle","Wilmington","DE","Delaware","19899","Eastern","39.734792","-75.624617"
"(302) 999-","Landline","New Castle","Wilmington","DE","Delaware","19899","Eastern","39.734792","-75.624617"
"(302) 303-","Landline","Sussex","Frankford","DE","Delaware","19945","Eastern","38.55144","-75.157634"
"(302) 366-","Landline","New Castle","Newark","DE","Delaware","19718","Eastern","39.564499","-75.597047"
"(302) 846-","Landline","Sussex","Delmar","DE","Delaware","19940","Eastern","38.631744","-75.324585"
"(302) 483-","Landline","New Castle","Wilmington","DE","Delaware","19899","Eastern","39.734792","-75.624617"
"(302) 482-","Landline","New Castle","Wilmington","DE","Delaware","19899","Eastern","39.734792","-75.624617"
"(302) 892-","Landline","New Castle","Wilmington","DE","Delaware","19899","Eastern","39.734792","-75.624617"
"(302) 524-","Landline","Sussex","Selbyville","DE","Delaware","19975","Eastern","38.550784","-75.330307"
"(302) 318-","Landline","New Castle","Newark","DE","Delaware","19718","Eastern","39.564499","-75.597047"
"(302) 933-","Landline","Sussex","Dagsboro","DE","Delaware","19939","Eastern","38.621403","-75.181502"
"(302) 373-","Cell Number","New Castle","Middletown","DE","Delaware","19709","Eastern","39.485721","-75.677535"
"(302) 761-","Landline","New Castle","Wilmington","DE","Delaware","19899","Eastern","39.734792","-75.624617"
"(302) 552-","Landline","New Castle","Wilmington","DE","Delaware","19899","Eastern","39.734792","-75.624617"
"(302) 894-","Landline","New Castle","Newark","DE","Delaware","19718","Eastern","39.564499","-75.597047"
"(302) 504-","Landline","New Castle","Wilmington","DE","Delaware","19899","Eastern","39.734792","-75.624617"
"(302) 204-","Landline","Sussex","Harbeson","DE","Delaware","19951","Eastern","38.691547","-75.225025"
"(302) 886-","Landline","New Castle","Wilmington","DE","Delaware","19899","Eastern","39.734792","-75.624617"
"(302) 523-","Cell Number","New Castle","Wilmington","DE","Delaware","19899","Eastern","39.734792","-75.624617"
"(302) 787-","Landline","New Castle","New Castle","DE","Delaware","19720","Eastern","39.592895","-75.651466"
"(302) 338-","Landline","New Castle","Newark","DE","Delaware","19718","Eastern","39.564499","-75.597047"
"(302) 644-","Landline","Sussex","Lewes","DE","Delaware","19958","Eastern","38.65536","-75.325612"
"(302) 930-","Landline","Sussex","Milford","DE","Delaware","19963","Eastern","38.72712","-75.322829"
"(302) 288-","Landline","New Castle","Wilmington","DE","Delaware","19899","Eastern","39.734792","-75.624617"
"(302) 834-","Landline","New Castle","Middletown","DE","Delaware","19709","Eastern","39.485721","-75.677535"
"(302) 634-","Landline","New Castle","Wilmington","DE","Delaware","19899","Eastern","39.734792","-75.624617"
"(302) 324-","Landline","New Castle","New Castle","DE","Delaware","19720","Eastern","39.592895","-75.651466"
"(302) 731-","Landline","New Castle","Newark","DE","Delaware","19718","Eastern","39.564499","-75.597047"
"(302) 392-","Landline","New Castle","Bear","DE","Delaware","19701","Eastern","39.594736","-75.693903"
"(302) 232-","Landline","Sussex","Bridgeville","DE","Delaware","19933","Eastern","38.660295","-75.330023"
"(302) 721-","Landline","Sussex","Bridgeville","DE","Delaware","19933","Eastern","38.660295","-75.330023"
"(302) 740-","Cell Number","New Castle","New Castle","DE","Delaware","19720","Eastern","39.592895","-75.651466"
"(302) 722-","Landline","New Castle","Newark","DE","Delaware","19718","Eastern","39.564499","-75.597047"
"(302) 927-","Landline","Sussex","Dagsboro","DE","Delaware","19939","Eastern","38.621403","-75.181502"
"(302) 571-","Landline","New Castle","Wilmington","DE","Delaware","19899","Eastern","39.734792","-75.624617"
"(302) 983-","Cell Number","New Castle","Newark","DE","Delaware","19718","Eastern","39.564499","-75.597047"
"(302) 934-","Landline","Sussex","Dagsboro","DE","Delaware","19939","Eastern","38.621403","-75.181502"
"(302) 737-","Landline","New Castle","Newark","DE","Delaware","19718","Eastern","39.564499","-75.597047"
"(302) 828-","Landline","New Castle","Middletown","DE","Delaware","19709","Eastern","39.485721","-75.677535"
"(302) 578-","Landline","Sussex","Dagsboro","DE","Delaware","19939","Eastern","38.621403","-75.181502"
"(302) 762-","Landline","New Castle","Wilmington","DE","Delaware","19899","Eastern","39.734792","-75.624617"
"(302) 832-","Landline","New Castle","Middletown","DE","Delaware","19709","Eastern","39.485721","-75.677535"
"(302) 275-","Cell Number","New Castle","Wilmington","DE","Delaware","19899","Eastern","39.734792","-75.624617"
"(302) 873-","Unknown","New Castle","Hockessin","DE","Delaware","19707","Eastern","39.635202","-75.680897"
"(302) 753-","Cell Number","New Castle","New Castle","DE","Delaware","19720","Eastern","39.592895","-75.651466"
"(302) 454-","Landline","New Castle","Newark","DE","Delaware","19718","Eastern","39.564499","-75.597047"
"(302) 306-","Landline","Kent","Hartly","DE","Delaware","19953","Eastern","39.16343","-75.679733"
"(302) 764-","Landline","New Castle","Wilmington","DE","Delaware","19899","Eastern","39.734792","-75.624617"
"(302) 236-","Cell Number","Sussex","Georgetown","DE","Delaware","19947","Eastern","38.632891","-75.334263"
"(302) 822-","Cell Number","Sussex","Georgetown","DE","Delaware","19947","Eastern","38.632891","-75.334263"
"(302) 368-","Landline","New Castle","Newark","DE","Delaware","19718","Eastern","39.564499","-75.597047"
"(302) 416-","Unknown","New Castle","Wilmington","DE","Delaware","19899","Eastern","39.734792","-75.624617"
"(302) 604-","Landline","Sussex","Georgetown","DE","Delaware","19947","Eastern","38.632891","-75.334263"
"(302) 507-","Cell Number","New Castle","Wilmington","DE","Delaware","19899","Eastern","39.734792","-75.624617"
"(302) 429-","Landline","New Castle","Wilmington","DE","Delaware","19899","Eastern","39.734792","-75.624617"
"(302) 209-","Landline","Sussex","Delmar","DE","Delaware","19940","Eastern","38.631744","-75.324585"
"(302) 854-","Landline","Sussex","Georgetown","DE","Delaware","19947","Eastern","38.632891","-75.334263"
"(302) 893-","Cell Number","New Castle","Wilmington","DE","Delaware","19899","Eastern","39.734792","-75.624617"
"(302) 885-","Landline","New Castle","Wilmington","DE","Delaware","19899","Eastern","39.734792","-75.624617"
"(302) 542-","Cell Number","Sussex","Georgetown","DE","Delaware","19947","Eastern","38.632891","-75.334263"
"(302) 474-","Cell Number","New Castle","Wilmington","DE","Delaware","19899","Eastern","39.734792","-75.624617"
"(302) 966-","Landline","Sussex","Harbeson","DE","Delaware","19951","Eastern","38.691547","-75.225025"
"(302) 766-","Cell Number","New Castle","Hockessin","DE","Delaware","19707","Eastern","39.635202","-75.680897"
"(302) 370-","Landline","New Castle","New Castle","DE","Delaware","19720","Eastern","39.592895","-75.651466"
"(302) 595-","Landline","New Castle","Bear","DE","Delaware","19701","Eastern","39.594736","-75.693903"
"(302) 703-","Landline","Sussex","Lewes","DE","Delaware","19958","Eastern","38.65536","-75.325612"
"(302) 426-","Landline","New Castle","Wilmington","DE","Delaware","19899","Eastern","39.734792","-75.624617"
"(302) 924-","Landline","Kent","Harrington","DE","Delaware","19952","Eastern","38.912195","-75.611322"
"(302) 261-","Landline","New Castle","Bear","DE","Delaware","19701","Eastern","39.594736","-75.693903"
"(302) 345-","Cell Number","New Castle","Wilmington","DE","Delaware","19899","Eastern","39.734792","-75.624617"
"(302) 404-","Landline","Sussex","Seaford","DE","Delaware","19973","Eastern","38.659891","-75.380454"
"(302) 355-","Landline","New Castle","Newark","DE","Delaware","19718","Eastern","39.564499","-75.597047"
"(302) 884-","Landline","New Castle","Wilmington","DE","Delaware","19899","Eastern","39.734792","-75.624617"
"(302) 683-","Landline","New Castle","Wilmington","DE","Delaware","19899","Eastern","39.734792","-75.624617"
"(302) 522-","Unknown","New Castle","New Castle","DE","Delaware","19720","Eastern","39.592895","-75.651466"
"(302) 325-","Landline","New Castle","New Castle","DE","Delaware","19720","Eastern","39.592895","-75.651466"
"(302) 402-","Landline","Sussex","Ocean View","DE","Delaware","19970","Eastern","38.621587","-75.104645"
"(302) 856-","Landline","Sussex","Georgetown","DE","Delaware","19947","Eastern","38.632891","-75.334263"
"(302) 932-","Unknown","New Castle","Wilmington","DE","Delaware","19899","Eastern","39.734792","-75.624617"
"(302) 752-","Landline","Sussex","Georgetown","DE","Delaware","19947","Eastern","38.632891","-75.334263"
"(302) 645-","Landline","Sussex","Lewes","DE","Delaware","19958","Eastern","38.65536","-75.325612"
"(302) 228-","Cell Number","Sussex","Milford","DE","Delaware","19963","Eastern","38.72712","-75.322829"
"(302) 498-","Landline","New Castle","Wilmington","DE","Delaware","19899","Eastern","39.734792","-75.624617"
"(302) 419-","Landline","New Castle","New Castle","DE","Delaware","19720","Eastern","39.592895","-75.651466"
"(302) 534-","Landline","New Castle","Wilmington","DE","Delaware","19899","Eastern","39.734792","-75.624617"
"(302) 427-","Landline","New Castle","Wilmington","DE","Delaware","19899","Eastern","39.734792","-75.624617"
"(302) 566-","Landline","Kent","Harrington","DE","Delaware","19952","Eastern","38.912195","-75.611322"
"(302) 334-","Landline","New Castle","Claymont","DE","Delaware","19703","Eastern","39.80379","-75.45814"
"(302) 995-","Landline","New Castle","Wilmington","DE","Delaware","19899","Eastern","39.734792","-75.624617"
"(302) 469-","Landline","Kent","Felton","DE","Delaware","19943","Eastern","39.033438","-75.609891"
"(302) 466-","Landline","Sussex","Delmar","DE","Delaware","19940","Eastern","38.631744","-75.324585"
"(302) 774-","Landline","New Castle","Wilmington","DE","Delaware","19899","Eastern","39.734792","-75.624617"
"(302) 499-","Unknown","New Castle","Bear","DE","Delaware","19701","Eastern","39.594736","-75.693903"
"(302) 477-","Landline","New Castle","Wilmington","DE","Delaware","19899","Eastern","39.734792","-75.624617"
"(302) 442-","Landline","New Castle","Wilmington","DE","Delaware","19899","Eastern","39.734792","-75.624617"
"(302) 252-","Landline","New Castle","Wilmington","DE","Delaware","19899","Eastern","39.734792","-75.624617"
"(302) 424-","Landline","Sussex","Milford","DE","Delaware","19963","Eastern","38.72712","-75.322829"
"(302) 297-","Landline","Sussex","Millsboro","DE","Delaware","19966","Eastern","38.659458","-75.24641"
"(302) 414-","Unknown","New Castle","New Castle","DE","Delaware","19720","Eastern","39.592895","-75.651466"
"(302) 463-","Cell Number","New Castle","Wilmington","DE","Delaware","19899","Eastern","39.734792","-75.624617"
"(302) 295-","Landline","New Castle","Wilmington","DE","Delaware","19899","Eastern","39.734792","-75.624617"
"(302) 754-","Landline","Sussex","Greenwood","DE","Delaware","19950","Eastern","38.82458","-75.588771"
"(302) 575-","Landline","New Castle","Wilmington","DE","Delaware","19899","Eastern","39.734792","-75.624617"
"(302) 897-","Cell Number","New Castle","Wilmington","DE","Delaware","19899","Eastern","39.734792","-75.624617"
"(302) 468-","Unknown","New Castle","Wilmington","DE","Delaware","19899","Eastern","39.734792","-75.624617"
"(302) 657-","Landline","New Castle","Wilmington","DE","Delaware","19899","Eastern","39.734792","-75.624617"
"(302) 827-","Landline","Sussex","Lewes","DE","Delaware","19958","Eastern","38.65536","-75.325612"
"(302) 685-","Landline","New Castle","Wilmington","DE","Delaware","19899","Eastern","39.734792","-75.624617"
"(302) 481-","Landline","Sussex","Frankford","DE","Delaware","19945","Eastern","38.55144","-75.157634"
"(302) 462-","Cell Number","Sussex","Delmar","DE","Delaware","19940","Eastern","38.631744","-75.324585"
"(302) 725-","Landline","Sussex","Milford","DE","Delaware","19963","Eastern","38.72712","-75.322829"
"(302) 793-","Landline","New Castle","Wilmington","DE","Delaware","19899","Eastern","39.734792","-75.624617"
"(302) 830-","Landline","New Castle","Wilmington","DE","Delaware","19899","Eastern","39.734792","-75.624617"
"(302) 839-","Landline","Sussex","Milford","DE","Delaware","19963","Eastern","38.72712","-75.322829"
"(302) 472-","Landline","New Castle","Wilmington","DE","Delaware","19899","Eastern","39.734792","-75.624617"
"(302) 289-","Landline","Kent","Felton","DE","Delaware","19943","Eastern","39.033438","-75.609891"
"(302) 765-","Landline","New Castle","Wilmington","DE","Delaware","19899","Eastern","39.734792","-75.624617"
"(302) 333-","Unknown","New Castle","Wilmington","DE","Delaware","19899","Eastern","39.734792","-75.624617"
"(302) 572-","Landline","Kent","Frederica","DE","Delaware","19946","Eastern","39.023141","-75.48191"
"(302) 381-","Cell Number","Sussex","Georgetown","DE","Delaware","19947","Eastern","38.632891","-75.334263"
"(302) 364-","Landline","Sussex","Dagsboro","DE","Delaware","19939","Eastern","38.621403","-75.181502"
"(302) 663-","Landline","Sussex","Millsboro","DE","Delaware","19966","Eastern","38.659458","-75.24641"
"(302) 353-","Landline","New Castle","Wilmington","DE","Delaware","19899","Eastern","39.734792","-75.624617"
"(302) 422-","Landline","Sussex","Milford","DE","Delaware","19963","Eastern","38.72712","-75.322829"
"(302) 248-","Landline","Sussex","Delmar","DE","Delaware","19940","Eastern","38.631744","-75.324585"
"(302) 258-","Landline","Sussex","Georgetown","DE","Delaware","19947","Eastern","38.632891","-75.334263"
"(302) 658-","Landline","New Castle","Wilmington","DE","Delaware","19899","Eastern","39.734792","-75.624617"
"(302) 907-","Landline","Sussex","Delmar","DE","Delaware","19940","Eastern","38.631744","-75.324585"
"(302) 218-","Cell Number","New Castle","Wilmington","DE","Delaware","19899","Eastern","39.734792","-75.624617"
"(302) 527-","Landline","Kent","Felton","DE","Delaware","19943","Eastern","39.033438","-75.609891"
"(302) 875-","Landline","Sussex","Laurel","DE","Delaware","19956","Eastern","38.663322","-75.378729"
"(302) 583-","Unknown","New Castle","Bear","DE","Delaware","19701","Eastern","39.594736","-75.693903"
"(302) 361-","Landline","New Castle","Hockessin","DE","Delaware","19707","Eastern","39.635202","-75.680897"
"(302) 500-","Unknown","Sussex","Georgetown","DE","Delaware","19947","Eastern","38.632891","-75.334263"
"(302) 588-","Cell Number","New Castle","Wilmington","DE","Delaware","19899","Eastern","39.734792","-75.624617"
"(302) 732-","Landline","Sussex","Dagsboro","DE","Delaware","19939","Eastern","38.621403","-75.181502"
"(302) 887-","Landline","New Castle","Wilmington","DE","Delaware","19899","Eastern","39.734792","-75.624617"
"(302) 695-","Landline","New Castle","Wilmington","DE","Delaware","19899","Eastern","39.734792","-75.624617"
"(302) 343-","Landline","Kent","Hartly","DE","Delaware","19953","Eastern","39.16343","-75.679733"
"(302) 461-","Cell Number","New Castle","Wilmington","DE","Delaware","19899","Eastern","39.734792","-75.624617"
"(302) 339-","Cell Number","Sussex","Georgetown","DE","Delaware","19947","Eastern","38.632891","-75.334263"
"(302) 441-","Cell Number","Sussex","Milford","DE","Delaware","19963","Eastern","38.72712","-75.322829"
"(302) 254-","Landline","New Castle","Wilmington","DE","Delaware","19899","Eastern","39.734792","-75.624617"
"(302) 584-","Cell Number","New Castle","Wilmington","DE","Delaware","19899","Eastern","39.734792","-75.624617"
"(302) 992-","Landline","New Castle","Wilmington","DE","Delaware","19899","Eastern","39.734792","-75.624617"
"(302) 365-","Landline","New Castle","Bear","DE","Delaware","19701","Eastern","39.594736","-75.693903"
"(302) 985-","Landline","New Castle","Wilmington","DE","Delaware","19899","Eastern","39.734792","-75.624617"
"(302) 633-","Landline","New Castle","Wilmington","DE","Delaware","19899","Eastern","39.734792","-75.624617"
"(302) 265-","Landline","Sussex","Milford","DE","Delaware","19963","Eastern","38.72712","-75.322829"
"(302) 413-","Unknown","New Castle","New Castle","DE","Delaware","19720","Eastern","39.592895","-75.651466"
"(302) 315-","Landline","Sussex","Milford","DE","Delaware","19963","Eastern","38.72712","-75.322829"
"(302) 637-","Cell Number","New Castle","Wilmington","DE","Delaware","19899","Eastern","39.734792","-75.624617"
"(302) 653-","Landline","Kent","Smyrna","DE","Delaware","19977","Eastern","39.194026","-75.565131"
"(302) 528-","Cell Number","New Castle","Wilmington","DE","Delaware","19899","Eastern","39.734792","-75.624617"
"(302) 299-","Landline","New Castle","Wilmington","DE","Delaware","19899","Eastern","39.734792","-75.624617"
"(302) 729-","Landline","New Castle","Hockessin","DE","Delaware","19707","Eastern","39.635202","-75.680897"
"(302) 389-","Landline","Kent","Smyrna","DE","Delaware","19977","Eastern","39.194026","-75.565131"
"(302) 824-","Landline","New Castle","Wilmington","DE","Delaware","19899","Eastern","39.734792","-75.624617"
"(302) 305-","Landline","Kent","Harrington","DE","Delaware","19952","Eastern","38.912195","-75.611322"
"(302) 529-","Landline","New Castle","Wilmington","DE","Delaware","19899","Eastern","39.734792","-75.624617"
"(302) 791-","Landline","New Castle","Wilmington","DE","Delaware","19899","Eastern","39.734792","-75.624617"
"(302) 405-","Landline","Sussex","Selbyville","DE","Delaware","19975","Eastern","38.550784","-75.330307"
"(302) 514-","Landline","Kent","Smyrna","DE","Delaware","19977","Eastern","39.194026","-75.565131"
"(302) 826-","Landline","New Castle","Wilmington","DE","Delaware","19899","Eastern","39.734792","-75.624617"
"(302) 243-","Cell Number","New Castle","Wilmington","DE","Delaware","19899","Eastern","39.734792","-75.624617"
"(302) 888-","Landline","New Castle","Wilmington","DE","Delaware","19899","Eastern","39.734792","-75.624617"
"(302) 214-","Landline","Kent","Felton","DE","Delaware","19943","Eastern","39.033438","-75.609891"
"(302) 763-","Landline","New Castle","Hockessin","DE","Delaware","19707","Eastern","39.635202","-75.680897"
"(302) 861-","Landline","New Castle","Newark","DE","Delaware","19718","Eastern","39.564499","-75.597047"
"(302) 581-","Landline","Sussex","Ocean View","DE","Delaware","19970","Eastern","38.621587","-75.104645"
"(302) 335-","Landline","Kent","Frederica","DE","Delaware","19946","Eastern","39.023141","-75.48191"
"(302) 773-","Landline","New Castle","Wilmington","DE","Delaware","19899","Eastern","39.734792","-75.624617"
"(302) 434-","Landline","New Castle","Wilmington","DE","Delaware","19899","Eastern","39.734792","-75.624617"
"(302) 262-","Landline","Sussex","Seaford","DE","Delaware","19973","Eastern","38.659891","-75.380454"
"(302) 565-","Landline","New Castle","Newark","DE","Delaware","19718","Eastern","39.564499","-75.597047"
"(302) 224-","Landline","New Castle","Newark","DE","Delaware","19718","Eastern","39.564499","-75.597047"
"(302) 593-","Cell Number","New Castle","Wilmington","DE","Delaware","19899","Eastern","39.734792","-75.624617"
"(302) 494-","Cell Number","New Castle","Wilmington","DE","Delaware","19899","Eastern","39.734792","-75.624617"
"(302) 235-","Landline","New Castle","Hockessin","DE","Delaware","19707","Eastern","39.635202","-75.680897"
"(302) 385-","Landline","New Castle","Wilmington","DE","Delaware","19899","Eastern","39.734792","-75.624617"
"(302) 225-","Landline","New Castle","Wilmington","DE","Delaware","19899","Eastern","39.734792","-75.624617"
"(302) 256-","Unknown","New Castle","Wilmington","DE","Delaware","19899","Eastern","39.734792","-75.624617"
"(302) 870-","Landline","Kent","Felton","DE","Delaware","19943","Eastern","39.033438","-75.609891"
"(302) 378-","Landline","New Castle","Middletown","DE","Delaware","19709","Eastern","39.485721","-75.677535"
"(302) 322-","Landline","New Castle","New Castle","DE","Delaware","19720","Eastern","39.592895","-75.651466"
"(302) 449-","Landline","New Castle","Middletown","DE","Delaware","19709","Eastern","39.485721","-75.677535"
"(302) 607-","Landline","New Castle","Newark","DE","Delaware","19718","Eastern","39.564499","-75.597047"
"(302) 628-","Landline","Sussex","Seaford","DE","Delaware","19973","Eastern","38.659891","-75.380454"
"(302) 772-","Landline","New Castle","Wilmington","DE","Delaware","19899","Eastern","39.734792","-75.624617"
"(302) 563-","Cell Number","New Castle","Middletown","DE","Delaware","19709","Eastern","39.485721","-75.677535"
"(302) 340-","Landline","New Castle","Bear","DE","Delaware","19701","Eastern","39.594736","-75.693903"
"(302) 956-","Landline","Sussex","Bridgeville","DE","Delaware","19933","Eastern","38.660295","-75.330023"
"(302) 981-","Cell Number","New Castle","Newark","DE","Delaware","19718","Eastern","39.564499","-75.597047"
"(302) 313-","Landline","Sussex","Lewes","DE","Delaware","19958","Eastern","38.65536","-75.325612"
"(302) 574-","Landline","New Castle","Wilmington","DE","Delaware","19899","Eastern","39.734792","-75.624617"
"(302) 540-","Cell Number","New Castle","Wilmington","DE","Delaware","19899","Eastern","39.734792","-75.624617"
"(302) 351-","Landline","New Castle","Wilmington","DE","Delaware","19899","Eastern","39.734792","-75.624617"
"(302) 352-","Landline","New Castle","Hockessin","DE","Delaware","19707","Eastern","39.635202","-75.680897"
"(302) 994-","Landline","New Castle","Wilmington","DE","Delaware","19899","Eastern","39.734792","-75.624617"
"(302) 239-","Landline","New Castle","Hockessin","DE","Delaware","19707","Eastern","39.635202","-75.680897"
"(302) 327-","Landline","New Castle","New Castle","DE","Delaware","19720","Eastern","39.592895","-75.651466"
"(302) 478-","Landline","New Castle","Wilmington","DE","Delaware","19899","Eastern","39.734792","-75.624617"
"(302) 573-","Landline","New Castle","Wilmington","DE","Delaware","19899","Eastern","39.734792","-75.624617"
"(302) 673-","Unknown","New Castle","New Castle","DE","Delaware","19720","Eastern","39.592895","-75.651466"
"(302) 506-","Landline","New Castle","Newark","DE","Delaware","19718","Eastern","39.564499","-75.597047"
"(302) 661-","Landline","New Castle","Wilmington","DE","Delaware","19899","Eastern","39.734792","-75.624617"
"(302) 622-","Landline","New Castle","Wilmington","DE","Delaware","19899","Eastern","39.734792","-75.624617"
"(302) 788-","Landline","Sussex","Selbyville","DE","Delaware","19975","Eastern","38.550784","-75.330307"
"(302) 453-","Landline","New Castle","Newark","DE","Delaware","19718","Eastern","39.564499","-75.597047"
"(302) 255-","Landline","New Castle","Wilmington","DE","Delaware","19899","Eastern","39.734792","-75.624617"
"(302) 798-","Landline","New Castle","Wilmington","DE","Delaware","19899","Eastern","39.734792","-75.624617"
"(302) 532-","Unknown","New Castle","Wilmington","DE","Delaware","19899","Eastern","39.734792","-75.624617"
"(302) 564-","Landline","Sussex","Selbyville","DE","Delaware","19975","Eastern","38.550784","-75.330307"
"(302) 397-","Landline","New Castle","Wilmington","DE","Delaware","19899","Eastern","39.734792","-75.624617"
"(302) 789-","Landline","New Castle","Wilmington","DE","Delaware","19899","Eastern","39.734792","-75.624617"
"(302) 246-","Landline","New Castle","Wilmington","DE","Delaware","19899","Eastern","39.734792","-75.624617"
"(302) 435-","Cell Number","New Castle","Wilmington","DE","Delaware","19899","Eastern","39.734792","-75.624617"
"(302) 396-","Unknown","Sussex","Georgetown","DE","Delaware","19947","Eastern","38.632891","-75.334263"
"(302) 398-","Landline","Kent","Harrington","DE","Delaware","19952","Eastern","38.912195","-75.611322"
"(302) 635-","Landline","New Castle","Hockessin","DE","Delaware","19707","Eastern","39.635202","-75.680897"
"(302) 200-","Unknown","Sussex","Lewes","DE","Delaware","19958","Eastern","38.65536","-75.325612"
"(302) 838-","Landline","New Castle","Middletown","DE","Delaware","19709","Eastern","39.485721","-75.677535"
"(302) 855-","Landline","Sussex","Georgetown","DE","Delaware","19947","Eastern","38.632891","-75.334263"
"(302) 460-","Unknown","New Castle","Bear","DE","Delaware","19701","Eastern","39.594736","-75.693903"
"(302) 489-","Landline","New Castle","Hockessin","DE","Delaware","19707","Eastern","39.635202","-75.680897"
"(302) 408-","Unknown","New Castle","Wilmington","DE","Delaware","19899","Eastern","39.734792","-75.624617"
"(302) 898-","Cell Number","New Castle","Wilmington","DE","Delaware","19899","Eastern","39.734792","-75.624617"
"(302) 780-","Landline","Sussex","Delmar","DE","Delaware","19940","Eastern","38.631744","-75.324585"
"(302) 746-","Landline","New Castle","Wilmington","DE","Delaware","19899","Eastern","39.734792","-75.624617"
"(302) 651-","Landline","New Castle","Wilmington","DE","Delaware","19899","Eastern","39.734792","-75.624617"
"(302) 217-","Landline","Sussex","Georgetown","DE","Delaware","19947","Eastern","38.632891","-75.334263"
"(302) 631-","Landline","New Castle","Newark","DE","Delaware","19718","Eastern","39.564499","-75.597047"
"(302) 929-","Landline","Sussex","Laurel","DE","Delaware","19956","Eastern","38.663322","-75.378729"
"(302) 456-","Landline","New Castle","Newark","DE","Delaware","19718","Eastern","39.564499","-75.597047"
"(302) 294-","Landline","New Castle","Newark","DE","Delaware","19718","Eastern","39.564499","-75.597047"
"(302) 317-","Landline","New Castle","New Castle","DE","Delaware","19720","Eastern","39.592895","-75.651466"
"(302) 285-","Landline","New Castle","Middletown","DE","Delaware","19709","Eastern","39.485721","-75.677535"
"(302) 323-","Landline","New Castle","New Castle","DE","Delaware","19720","Eastern","39.592895","-75.651466"
"(302) 656-","Landline","New Castle","Wilmington","DE","Delaware","19899","Eastern","39.734792","-75.624617"
"(302) 279-","Landline","New Castle","Middletown","DE","Delaware","19709","Eastern","39.485721","-75.677535"
"(302) 623-","Landline","New Castle","Newark","DE","Delaware","19718","Eastern","39.564499","-75.597047"
"(302) 621-","Unknown","New Castle","Hockessin","DE","Delaware","19707","Eastern","39.635202","-75.680897"
"(302) 436-","Landline","Sussex","Selbyville","DE","Delaware","19975","Eastern","38.550784","-75.330307"
"(302) 539-","Landline","Sussex","Ocean View","DE","Delaware","19970","Eastern","38.621587","-75.104645"
"(302) 332-","Unknown","New Castle","Wilmington","DE","Delaware","19899","Eastern","39.734792","-75.624617"
"(302) 786-","Landline","Kent","Harrington","DE","Delaware","19952","Eastern","38.912195","-75.611322"
"(302) 438-","Cell Number","New Castle","Wilmington","DE","Delaware","19899","Eastern","39.734792","-75.624617"
"(302) 394-","Unknown","New Castle","Wilmington","DE","Delaware","19899","Eastern","39.734792","-75.624617"
"(302) 998-","Landline","New Castle","Wilmington","DE","Delaware","19899","Eastern","39.734792","-75.624617"
"(302) 300-","Unknown","New Castle","Wilmington","DE","Delaware","19899","Eastern","39.734792","-75.624617"
"(302) 321-","Landline","Sussex","Dagsboro","DE","Delaware","19939","Eastern","38.621403","-75.181502"
"(302) 778-","Landline","New Castle","Wilmington","DE","Delaware","19899","Eastern","39.734792","-75.624617"
"(302) 559-","Cell Number","New Castle","Wilmington","DE","Delaware","19899","Eastern","39.734792","-75.624617"
"(302) 250-","Landline","New Castle","Wilmington","DE","Delaware","19899","Eastern","39.734792","-75.624617"
"(302) 344-","Cell Number","Sussex","Georgetown","DE","Delaware","19947","Eastern","38.632891","-75.334263"
"(302) 648-","Landline","Sussex","Millsboro","DE","Delaware","19966","Eastern","38.659458","-75.24641"
"(302) 517-","Unknown","New Castle","Hockessin","DE","Delaware","19707","Eastern","39.635202","-75.680897"
"(302) 417-","Unknown","New Castle","Wilmington","DE","Delaware","19899","Eastern","39.734792","-75.624617"
"(302) 636-","Landline","New Castle","Wilmington","DE","Delaware","19899","Eastern","39.734792","-75.624617"
"(302) 439-","Landline","New Castle","Wilmington","DE","Delaware","19899","Eastern","39.734792","-75.624617"
"(302) 347-","Landline","Sussex","Georgetown","DE","Delaware","19947","Eastern","38.632891","-75.334263"
"(302) 616-","Unknown","Sussex","Ocean View","DE","Delaware","19970","Eastern","38.621587","-75.104645"
"(302) 492-","Landline","Kent","Hartly","DE","Delaware","19953","Eastern","39.16343","-75.679733"
"(302) 464-","Unknown","New Castle","Middletown","DE","Delaware","19709","Eastern","39.485721","-75.677535"
"(302) 412-","Landline","New Castle","Wilmington","DE","Delaware","19899","Eastern","39.734792","-75.624617"
"(302) 479-","Landline","New Castle","Wilmington","DE","Delaware","19899","Eastern","39.734792","-75.624617"
"(302) 577-","Landline","New Castle","Wilmington","DE","Delaware","19899","Eastern","39.734792","-75.624617"
"(302) 547-","Cell Number","New Castle","Wilmington","DE","Delaware","19899","Eastern","39.734792","-75.624617"
"(302) 831-","Landline","New Castle","Newark","DE","Delaware","19718","Eastern","39.564499","-75.597047"
"(302) 585-","Unknown","New Castle","Hockessin","DE","Delaware","19707","Eastern","39.635202","-75.680897"
"(302) 207-","Landline","Sussex","Dagsboro","DE","Delaware","19939","Eastern","38.621403","-75.181502"
"(302) 668-","Landline","New Castle","Wilmington","DE","Delaware","19899","Eastern","39.734792","-75.624617"
"(302) 804-","Landline","Sussex","Dagsboro","DE","Delaware","19939","Eastern","38.621403","-75.181502"
"(302) 348-","Landline","Sussex","Georgetown","DE","Delaware","19947","Eastern","38.632891","-75.334263"
"(302) 525-","Landline","New Castle","Newark","DE","Delaware","19718","Eastern","39.564499","-75.597047"
"(302) 337-","Landline","Sussex","Bridgeville","DE","Delaware","19933","Eastern","38.660295","-75.330023"
"(302) 421-","Landline","New Castle","Wilmington","DE","Delaware","19899","Eastern","39.734792","-75.624617"
"(302) 451-","Landline","New Castle","Newark","DE","Delaware","19718","Eastern","39.564499","-75.597047"
"(302) 415-","Unknown","New Castle","Wilmington","DE","Delaware","19899","Eastern","39.734792","-75.624617"
"(302) 216-","Landline","Kent","Frederica","DE","Delaware","19946","Eastern","39.023141","-75.48191"
"(302) 815-","Landline","Sussex","Greenwood","DE","Delaware","19950","Eastern","38.82458","-75.588771"
"(302) 750-","Cell Number","New Castle","New Castle","DE","Delaware","19720","Eastern","39.592895","-75.651466"
"(302) 409-","Unknown","New Castle","Wilmington","DE","Delaware","19899","Eastern","39.734792","-75.624617"
"(302) 393-","Cell Number","Sussex","Milford","DE","Delaware","19963","Eastern","38.72712","-75.322829"
"(302) 432-","Landline","New Castle","Wilmington","DE","Delaware","19899","Eastern","39.734792","-75.624617"
"(302) 358-","Unknown","New Castle","Wilmington","DE","Delaware","19899","Eastern","39.734792","-75.624617"
"(302) 251-","Landline","Sussex","Ocean View","DE","Delaware","19970","Eastern","38.621587","-75.104645"
"(302) 629-","Landline","Sussex","Seaford","DE","Delaware","19973","Eastern","38.659891","-75.380454"
"(302) 377-","Cell Number","New Castle","Wilmington","DE","Delaware","19899","Eastern","39.734792","-75.624617"
"(302) 308-","Landline","New Castle","Claymont","DE","Delaware","19703","Eastern","39.80379","-75.45814"
"(302) 437-","Cell Number","New Castle","Middletown","DE","Delaware","19709","Eastern","39.485721","-75.677535"
"(302) 723-","Cell Number","New Castle","Wilmington","DE","Delaware","19899","Eastern","39.734792","-75.624617"
"(302) 372-","Landline","New Castle","Hockessin","DE","Delaware","19707","Eastern","39.635202","-75.680897"
"(302) 624-","Cell Number","New Castle","New Castle","DE","Delaware","19720","Eastern","39.592895","-75.651466"
"(302) 476-","Landline","New Castle","Wilmington","DE","Delaware","19899","Eastern","39.734792","-75.624617"
"(302) 613-","Landline","New Castle","New Castle","DE","Delaware","19720","Eastern","39.592895","-75.651466"
"(302) 362-","Unknown","Sussex","Georgetown","DE","Delaware","19947","Eastern","38.632891","-75.334263"
"(302) 654-","Landline","New Castle","Wilmington","DE","Delaware","19899","Eastern","39.734792","-75.624617"
"(302) 293-","Cell Number","New Castle","Wilmington","DE","Delaware","19899","Eastern","39.734792","-75.624617"
"(302) 779-","Landline","Kent","Hartly","DE","Delaware","19953","Eastern","39.16343","-75.679733"
"(302) 287-","Unknown","New Castle","Wilmington","DE","Delaware","19899","Eastern","39.734792","-75.624617"
"(302) 221-","Landline","New Castle","New Castle","DE","Delaware","19720","Eastern","39.592895","-75.651466"
"(302) 562-","Cell Number","New Castle","New Castle","DE","Delaware","19720","Eastern","39.592895","-75.651466"
"(302) 521-","Cell Number","New Castle","Wilmington","DE","Delaware","19899","Eastern","39.734792","-75.624617"
"(302) 245-","Cell Number","Sussex","Georgetown","DE","Delaware","19947","Eastern","38.632891","-75.334263"
"(302) 497-","Landline","Sussex","Laurel","DE","Delaware","19956","Eastern","38.663322","-75.378729"
"(302) 947-","Landline","Sussex","Rehoboth Beach","DE","Delaware","19971","Eastern","38.629763","-75.319975"
"(302) 784-","Landline","New Castle","Wilmington","DE","Delaware","19899","Eastern","39.734792","-75.624617"
"(302) 307-","Landline","New Castle","Hockessin","DE","Delaware","19707","Eastern","39.635202","-75.680897"
"(302) 945-","Landline","Sussex","Rehoboth Beach","DE","Delaware","19971","Eastern","38.629763","-75.319975"
"(302) 594-","Landline","New Castle","Wilmington","DE","Delaware","19899","Eastern","39.734792","-75.624617"
"(302) 783-","Landline","Sussex","Lewes","DE","Delaware","19958","Eastern","38.65536","-75.325612"
"(302) 316-","Landline","Sussex","Dagsboro","DE","Delaware","19939","Eastern","38.621403","-75.181502"
"(302) 495-","Landline","Sussex","Greenwood","DE","Delaware","19950","Eastern","38.82458","-75.588771"
"(302) 220-","Cell Number","New Castle","New Castle","DE","Delaware","19720","Eastern","39.592895","-75.651466"
"(302) 684-","Landline","Sussex","Milton","DE","Delaware","19968","Eastern","38.692714","-75.322223"
"(302) 276-","Cell Number","New Castle","New Castle","DE","Delaware","19720","Eastern","39.592895","-75.651466"
"(302) 602-","Landline","New Castle","Newark","DE","Delaware","19718","Eastern","39.564499","-75.597047"
"(302) 388-","Cell Number","New Castle","Wilmington","DE","Delaware","19899","Eastern","39.734792","-75.624617"
"(302) 208-","Landline","New Castle","Bear","DE","Delaware","19701","Eastern","39.594736","-75.693903"
"(302) 655-","Landline","New Castle","Wilmington","DE","Delaware","19899","Eastern","39.734792","-75.624617"
"(302) 865-","Landline","Kent","Frederica","DE","Delaware","19946","Eastern","39.023141","-75.48191"
"(302) 395-","Landline","New Castle","New Castle","DE","Delaware","19720","Eastern","39.592895","-75.651466"
"(302) 530-","Cell Number","New Castle","Wilmington","DE","Delaware","19899","Eastern","39.734792","-75.624617"
"(302) 329-","Landline","Sussex","Milton","DE","Delaware","19968","Eastern","38.692714","-75.322223"
"(302) 319-","Unknown","New Castle","Wilmington","DE","Delaware","19899","Eastern","39.734792","-75.624617"
"(302) 266-","Landline","New Castle","Newark","DE","Delaware","19718","Eastern","39.564499","-75.597047"
"(302) 244-","Cell Number","New Castle","Wilmington","DE","Delaware","19899","Eastern","39.734792","-75.624617"
"(302) 391-","Landline","New Castle","Newark","DE","Delaware","19718","Eastern","39.564499","-75.597047"
"(302) 733-","Landline","New Castle","Newark","DE","Delaware","19718","Eastern","39.564499","-75.597047"
"(302) 576-","Landline","New Castle","Wilmington","DE","Delaware","19899","Eastern","39.734792","-75.624617"
"(302) 993-","Landline","New Castle","Wilmington","DE","Delaware","19899","Eastern","39.734792","-75.624617"
"(302) 536-","Landline","Sussex","Seaford","DE","Delaware","19973","Eastern","38.659891","-75.380454"
"(302) 709-","Landline","New Castle","Newark","DE","Delaware","19718","Eastern","39.564499","-75.597047"
"(302) 277-","Cell Number","New Castle","Wilmington","DE","Delaware","19899","Eastern","39.734792","-75.624617"
"(302) 452-","Landline","New Castle","Newark","DE","Delaware","19718","Eastern","39.564499","-75.597047"
"(302) 247-","Cell Number","New Castle","Wilmington","DE","Delaware","19899","Eastern","39.734792","-75.624617"
"(302) 543-","Landline","New Castle","Wilmington","DE","Delaware","19899","Eastern","39.734792","-75.624617"
"(302) 643-","Landline","Sussex","Milton","DE","Delaware","19968","Eastern","38.692714","-75.322223"
"(302) 205-","Landline","Sussex","Bridgeville","DE","Delaware","19933","Eastern","38.660295","-75.330023"
"(302) 751-","Landline","Kent","Frederica","DE","Delaware","19946","Eastern","39.023141","-75.48191"
"(302) 357-","Unknown","New Castle","Wilmington","DE","Delaware","19899","Eastern","39.734792","-75.624617"
"(302) 458-","Landline","New Castle","Newark","DE","Delaware","19718","Eastern","39.564499","-75.597047"
"(302) 298-","Unknown","New Castle","Wilmington","DE","Delaware","19899","Eastern","39.734792","-75.624617"
"(302) 292-","Landline","New Castle","Newark","DE","Delaware","19718","Eastern","39.564499","-75.597047"
"(302) 286-","Landline","New Castle","Newark","DE","Delaware","19718","Eastern","39.564499","-75.597047"
"(302) 841-","Landline","Sussex","Georgetown","DE","Delaware","19947","Eastern","38.632891","-75.334263"
"(302) 647-","Landline","New Castle","Wilmington","DE","Delaware","19899","Eastern","39.734792","-75.624617"
"(302) 597-","Unknown","New Castle","Bear","DE","Delaware","19701","Eastern","39.594736","-75.693903"
"(302) 544-","Landline","New Castle","New Castle","DE","Delaware","19720","Eastern","39.592895","-75.651466"
"(302) 282-","Landline","New Castle","Wilmington","DE","Delaware","19899","Eastern","39.734792","-75.624617"
"(302) 598-","Cell Number","New Castle","Wilmington","DE","Delaware","19899","Eastern","39.734792","-75.624617"
"(302) 290-","Cell Number","New Castle","Wilmington","DE","Delaware","19899","Eastern","39.734792","-75.624617"
"(302) 988-","Landline","Sussex","Selbyville","DE","Delaware","19975","Eastern","38.550784","-75.330307"
"(302) 792-","Landline","New Castle","Wilmington","DE","Delaware","19899","Eastern","39.734792","-75.624617"
"(302) 757-","Landline","New Castle","Wilmington","DE","Delaware","19899","Eastern","39.734792","-75.624617"
"(302) 520-","Unknown","New Castle","Bear","DE","Delaware","19701","Eastern","39.594736","-75.693903"
"(302) 384-","Landline","New Castle","Wilmington","DE","Delaware","19899","Eastern","39.734792","-75.624617"
"(302) 219-","Landline","Sussex","Greenwood","DE","Delaware","19950","Eastern","38.82458","-75.588771"
"(302) 231-","Landline","Sussex","Harbeson","DE","Delaware","19951","Eastern","38.691547","-75.225025"
"(302) 797-","Landline","New Castle","Wilmington","DE","Delaware","19899","Eastern","39.734792","-75.624617"
"(302) 853-","Landline","Sussex","Georgetown","DE","Delaware","19947","Eastern","38.632891","-75.334263"
"(302) 253-","Landline","Sussex","Georgetown","DE","Delaware","19947","Eastern","38.632891","-75.334263"
"(302) 369-","Landline","New Castle","Newark","DE","Delaware","19718","Eastern","39.564499","-75.597047"
"(302) 374-","Landline","New Castle","Wilmington","DE","Delaware","19899","Eastern","39.734792","-75.624617"
"(302) 758-","Landline","New Castle","Newark","DE","Delaware","19718","Eastern","39.564499","-75.597047"
"(302) 428-","Landline","New Castle","Wilmington","DE","Delaware","19899","Eastern","39.734792","-75.624617"
"(302) 280-","Landline","Sussex","Laurel","DE","Delaware","19956","Eastern","38.663322","-75.378729"
"(302) 689-","Landline","New Castle","New Castle","DE","Delaware","19720","Eastern","39.592895","-75.651466"
"(302) 659-","Landline","Kent","Smyrna","DE","Delaware","19977","Eastern","39.194026","-75.565131"
"(302) 743-","Cell Number","New Castle","New Castle","DE","Delaware","19720","Eastern","39.592895","-75.651466"
"(302) 669-","Landline","New Castle","New Castle","DE","Delaware","19720","Eastern","39.592895","-75.651466"
"(302) 230-","Landline","New Castle","Wilmington","DE","Delaware","19899","Eastern","39.734792","-75.624617"
"(302) 234-","Landline","New Castle","Hockessin","DE","Delaware","19707","Eastern","39.635202","-75.680897"
"(302) 356-","Landline","New Castle","New Castle","DE","Delaware","19720","Eastern","39.592895","-75.651466"
"(302) 376-","Landline","New Castle","Middletown","DE","Delaware","19709","Eastern","39.485721","-75.677535"
"(302) 249-","Cell Number","Sussex","Milford","DE","Delaware","19963","Eastern","38.72712","-75.322829"
"(302) 433-","Landline","New Castle","Wilmington","DE","Delaware","19899","Eastern","39.734792","-75.624617"
"(302) 259-","Unknown","Sussex","Georgetown","DE","Delaware","19947","Eastern","38.632891","-75.334263"
"(302) 444-","Landline","New Castle","Newark","DE","Delaware","19718","Eastern","39.564499","-75.597047"
"(302) 691-","Landline","New Castle","Wilmington","DE","Delaware","19899","Eastern","39.734792","-75.624617"
"(302) 223-","Landline","Kent","Smyrna","DE","Delaware","19977","Eastern","39.194026","-75.565131"
"(302) 519-","Unknown","Sussex","Georgetown","DE","Delaware","19947","Eastern","38.632891","-75.334263"
"(302) 570-","Landline","Kent","Hartly","DE","Delaware","19953","Eastern","39.16343","-75.679733"
"(302) 690-","Cell Number","New Castle","Hockessin","DE","Delaware","19707","Eastern","39.635202","-75.680897"
"(302) 984-","Landline","New Castle","Wilmington","DE","Delaware","19899","Eastern","39.734792","-75.624617"
"(302) 918-","Landline","New Castle","Bear","DE","Delaware","19701","Eastern","39.594736","-75.693903"
"(302) 320-","Landline","New Castle","Wilmington","DE","Delaware","19899","Eastern","39.734792","-75.624617"
"(302) 406-","Landline","Kent","Smyrna","DE","Delaware","19977","Eastern","39.194026","-75.565131"
"(302) 777-","Landline","New Castle","Wilmington","DE","Delaware","19899","Eastern","39.734792","-75.624617"
"(302) 330-","Landline","Sussex","Harbeson","DE","Delaware","19951","Eastern","38.691547","-75.225025"
"(302) 418-","Unknown","New Castle","Wilmington","DE","Delaware","19899","Eastern","39.734792","-75.624617"
"(302) 715-","Landline","Sussex","Laurel","DE","Delaware","19956","Eastern","38.663322","-75.378729"
"(302) 467-","Landline","New Castle","Wilmington","DE","Delaware","19899","Eastern","39.734792","-75.624617"
"(302) 858-","Landline","Sussex","Georgetown","DE","Delaware","19947","Eastern","38.632891","-75.334263"
"(302) 354-","Cell Number","New Castle","Wilmington","DE","Delaware","19899","Eastern","39.734792","-75.624617"
"(302) 652-","Landline","New Castle","Wilmington","DE","Delaware","19899","Eastern","39.734792","-75.624617"
"(302) 990-","Landline","Sussex","Seaford","DE","Delaware","19973","Eastern","38.659891","-75.380454"
"(302) 284-","Landline","Kent","Felton","DE","Delaware","19943","Eastern","39.033438","-75.609891"
"(302) 309-","Landline","Sussex","Laurel","DE","Delaware","19956","Eastern","38.663322","-75.378729"
"(302) 664-","Landline","Sussex","Milton","DE","Delaware","19968","Eastern","38.692714","-75.322223"
"(302) 379-","Cell Number","New Castle","Wilmington","DE","Delaware","19899","Eastern","39.734792","-75.624617"
"(302) 996-","Landline","New Castle","Wilmington","DE","Delaware","19899","Eastern","39.734792","-75.624617"
"(302) 455-","Landline","New Castle","Newark","DE","Delaware","19718","Eastern","39.564499","-75.597047"
"(302) 561-","Cell Number","New Castle","New Castle","DE","Delaware","19720","Eastern","39.592895","-75.651466"
"(302) 431-","Cell Number","New Castle","Wilmington","DE","Delaware","19899","Eastern","39.734792","-75.624617"
"(302) 682-","Landline","Sussex","Milford","DE","Delaware","19963","Eastern","38.72712","-75.322829"
"(302) 314-","Landline","New Castle","Middletown","DE","Delaware","19709","Eastern","39.485721","-75.677535"
