"Prefix","Usage","County","City","ShortState","LongState","Zip","Timezone","Latitude","Longitude"
"(808) 542-","Cell Number","Honolulu","Honolulu","HI","Hawaii","96806","(UTC-10)","24.859832","-168.021815"
"(808) 948-","Landline","Honolulu","Honolulu","HI","Hawaii","96806","(UTC-10)","24.859832","-168.021815"
"(808) 446-","Unknown","Maui","Wailuku","HI","Hawaii","96793","(UTC-10)","20.901536","-156.566493"
"(808) 549-","Landline","Honolulu","Honolulu","HI","Hawaii","96806","(UTC-10)","24.859832","-168.021815"
"(808) 595-","Landline","Honolulu","Honolulu","HI","Hawaii","96806","(UTC-10)","24.859832","-168.021815"
"(808) 975-","Unknown","Kauai","Lihue","HI","Hawaii","96766","(UTC-10)","22.070553","-159.430328"
"(808) 649-","Cell Number","Maui","Lahaina","HI","Hawaii","96767","(UTC-10)","20.866638","-156.646667"
"(808) 964-","Landline","Hawaii","Papaikou","HI","Hawaii","96781","(UTC-10)","19.798878","-155.116093"
"(808) 760-","Landline","Maui","Wailuku","HI","Hawaii","96793","(UTC-10)","20.901536","-156.566493"
"(808) 535-","Landline","Honolulu","Honolulu","HI","Hawaii","96806","(UTC-10)","24.859832","-168.021815"
"(808) 422-","Landline","Honolulu","Honolulu","HI","Hawaii","96806","(UTC-10)","24.859832","-168.021815"
"(808) 272-","Cell Number","Honolulu","Honolulu","HI","Hawaii","96806","(UTC-10)","24.859832","-168.021815"
"(808) 926-","Landline","Honolulu","Honolulu","HI","Hawaii","96806","(UTC-10)","24.859832","-168.021815"
"(808) 541-","Landline","Honolulu","Honolulu","HI","Hawaii","96806","(UTC-10)","24.859832","-168.021815"
"(808) 486-","Landline","Honolulu","Aiea","HI","Hawaii","96701","(UTC-10)","21.39065","-157.927829"
"(808) 783-","Cell Number","Honolulu","Honolulu","HI","Hawaii","96806","(UTC-10)","24.859832","-168.021815"
"(808) 432-","Landline","Honolulu","Honolulu","HI","Hawaii","96806","(UTC-10)","24.859832","-168.021815"
"(808) 220-","Cell Number","Honolulu","Honolulu","HI","Hawaii","96806","(UTC-10)","24.859832","-168.021815"
"(808) 377-","Landline","Honolulu","Honolulu","HI","Hawaii","96806","(UTC-10)","24.859832","-168.021815"
"(808) 430-","Unknown","Hawaii","Hilo","HI","Hawaii","96721","(UTC-10)","19.593456","-155.438015"
"(808) 841-","Landline","Honolulu","Honolulu","HI","Hawaii","96806","(UTC-10)","24.859832","-168.021815"
"(808) 233-","Landline","Honolulu","Kaneohe","HI","Hawaii","96744","(UTC-10)","21.66875","-157.93955"
"(808) 328-","Landline","Hawaii","Hilo","HI","Hawaii","96721","(UTC-10)","19.593456","-155.438015"
"(808) 676-","Landline","Honolulu","Waipahu","HI","Hawaii","96797","(UTC-10)","21.399548","-158.015151"
"(808) 284-","Cell Number","Honolulu","Mililani","HI","Hawaii","96789","(UTC-10)","21.458855","-158.012322"
"(808) 842-","Landline","Honolulu","Honolulu","HI","Hawaii","96806","(UTC-10)","24.859832","-168.021815"
"(808) 381-","Cell Number","Honolulu","Honolulu","HI","Hawaii","96806","(UTC-10)","24.859832","-168.021815"
"(808) 298-","Cell Number","Maui","Wailuku","HI","Hawaii","96793","(UTC-10)","20.901536","-156.566493"
"(808) 640-","Cell Number","Hawaii","Hilo","HI","Hawaii","96721","(UTC-10)","19.593456","-155.438015"
"(808) 291-","Cell Number","Honolulu","Mililani","HI","Hawaii","96789","(UTC-10)","21.458855","-158.012322"
"(808) 637-","Landline","Honolulu","Honolulu","HI","Hawaii","96806","(UTC-10)","24.859832","-168.021815"
"(808) 279-","Cell Number","Honolulu","Honolulu","HI","Hawaii","96806","(UTC-10)","24.859832","-168.021815"
"(808) 520-","Landline","Honolulu","Honolulu","HI","Hawaii","96806","(UTC-10)","24.859832","-168.021815"
"(808) 449-","Landline","Honolulu","Honolulu","HI","Hawaii","96806","(UTC-10)","24.859832","-168.021815"
"(808) 644-","Cell Number","Kauai","Lihue","HI","Hawaii","96766","(UTC-10)","22.070553","-159.430328"
"(808) 218-","Cell Number","Honolulu","Honolulu","HI","Hawaii","96806","(UTC-10)","24.859832","-168.021815"
"(808) 363-","Cell Number","Honolulu","Honolulu","HI","Hawaii","96806","(UTC-10)","24.859832","-168.021815"
"(808) 338-","Landline","Kauai","Lihue","HI","Hawaii","96766","(UTC-10)","22.070553","-159.430328"
"(808) 628-","Landline","Honolulu","Honolulu","HI","Hawaii","96806","(UTC-10)","24.859832","-168.021815"
"(808) 590-","Landline","Honolulu","Honolulu","HI","Hawaii","96806","(UTC-10)","24.859832","-168.021815"
"(808) 955-","Landline","Honolulu","Honolulu","HI","Hawaii","96806","(UTC-10)","24.859832","-168.021815"
"(808) 331-","Landline","Hawaii","Hilo","HI","Hawaii","96721","(UTC-10)","19.593456","-155.438015"
"(808) 288-","Cell Number","Honolulu","Honolulu","HI","Hawaii","96806","(UTC-10)","24.859832","-168.021815"
"(808) 996-","Landline","Honolulu","Honolulu","HI","Hawaii","96806","(UTC-10)","24.859832","-168.021815"
"(808) 880-","Landline","Hawaii","Hilo","HI","Hawaii","96721","(UTC-10)","19.593456","-155.438015"
"(808) 693-","Landline","Honolulu","Waipahu","HI","Hawaii","96797","(UTC-10)","21.399548","-158.015151"
"(808) 258-","Cell Number","Honolulu","Honolulu","HI","Hawaii","96806","(UTC-10)","24.859832","-168.021815"
"(808) 985-","Landline","Hawaii","Hilo","HI","Hawaii","96721","(UTC-10)","19.593456","-155.438015"
"(808) 643-","Cell Number","Honolulu","Honolulu","HI","Hawaii","96806","(UTC-10)","24.859832","-168.021815"
"(808) 888-","Unknown","Honolulu","Honolulu","HI","Hawaii","96806","(UTC-10)","24.859832","-168.021815"
"(808) 524-","Landline","Honolulu","Honolulu","HI","Hawaii","96806","(UTC-10)","24.859832","-168.021815"
"(808) 768-","Landline","Honolulu","Honolulu","HI","Hawaii","96806","(UTC-10)","24.859832","-168.021815"
"(808) 530-","Landline","Honolulu","Honolulu","HI","Hawaii","96806","(UTC-10)","24.859832","-168.021815"
"(808) 656-","Landline","Honolulu","Honolulu","HI","Hawaii","96806","(UTC-10)","24.859832","-168.021815"
"(808) 877-","Landline","Maui","Wailuku","HI","Hawaii","96793","(UTC-10)","20.901536","-156.566493"
"(808) 687-","Landline","Honolulu","Ewa Beach","HI","Hawaii","96706","(UTC-10)","21.34455","-158.01395"
"(808) 852-","Landline","Honolulu","Honolulu","HI","Hawaii","96806","(UTC-10)","24.859832","-168.021815"
"(808) 733-","Landline","Honolulu","Honolulu","HI","Hawaii","96806","(UTC-10)","24.859832","-168.021815"
"(808) 882-","Landline","Hawaii","Hilo","HI","Hawaii","96721","(UTC-10)","19.593456","-155.438015"
"(808) 455-","Landline","Honolulu","Pearl City","HI","Hawaii","96782","(UTC-10)","21.51195","-157.994662"
"(808) 499-","Landline","Honolulu","Hickam Afb","HI","Hawaii","96853","(UTC-10)","24.859832","-168.021815"
"(808) 967-","Landline","Hawaii","Hilo","HI","Hawaii","96721","(UTC-10)","19.593456","-155.438015"
"(808) 265-","Cell Number","Honolulu","Mililani","HI","Hawaii","96789","(UTC-10)","21.458855","-158.012322"
"(808) 847-","Landline","Honolulu","Honolulu","HI","Hawaii","96806","(UTC-10)","24.859832","-168.021815"
"(808) 791-","Landline","Honolulu","Honolulu","HI","Hawaii","96806","(UTC-10)","24.859832","-168.021815"
"(808) 634-","Cell Number","Kauai","Lihue","HI","Hawaii","96766","(UTC-10)","22.070553","-159.430328"
"(808) 928-","Landline","Hawaii","Hilo","HI","Hawaii","96721","(UTC-10)","19.593456","-155.438015"
"(808) 941-","Landline","Honolulu","Honolulu","HI","Hawaii","96806","(UTC-10)","24.859832","-168.021815"
"(808) 538-","Landline","Honolulu","Honolulu","HI","Hawaii","96806","(UTC-10)","24.859832","-168.021815"
"(808) 581-","Landline","Honolulu","Honolulu","HI","Hawaii","96806","(UTC-10)","24.859832","-168.021815"
"(808) 969-","Landline","Hawaii","Hilo","HI","Hawaii","96721","(UTC-10)","19.593456","-155.438015"
"(808) 934-","Landline","Hawaii","Hilo","HI","Hawaii","96721","(UTC-10)","19.593456","-155.438015"
"(808) 429-","Cell Number","Honolulu","Honolulu","HI","Hawaii","96806","(UTC-10)","24.859832","-168.021815"
"(808) 636-","Landline","Honolulu","Honolulu","HI","Hawaii","96806","(UTC-10)","24.859832","-168.021815"
"(808) 223-","Cell Number","Honolulu","Honolulu","HI","Hawaii","96806","(UTC-10)","24.859832","-168.021815"
"(808) 922-","Landline","Honolulu","Honolulu","HI","Hawaii","96806","(UTC-10)","24.859832","-168.021815"
"(808) 384-","Cell Number","Honolulu","Honolulu","HI","Hawaii","96806","(UTC-10)","24.859832","-168.021815"
"(808) 956-","Landline","Honolulu","Honolulu","HI","Hawaii","96806","(UTC-10)","24.859832","-168.021815"
"(808) 659-","Landline","Honolulu","Honolulu","HI","Hawaii","96806","(UTC-10)","24.859832","-168.021815"
"(808) 782-","Cell Number","Honolulu","Honolulu","HI","Hawaii","96806","(UTC-10)","24.859832","-168.021815"
"(808) 753-","Cell Number","Honolulu","Mililani","HI","Hawaii","96789","(UTC-10)","21.458855","-158.012322"
"(808) 667-","Landline","Maui","Lahaina","HI","Hawaii","96767","(UTC-10)","20.866638","-156.646667"
"(808) 588-","Landline","Honolulu","Honolulu","HI","Hawaii","96806","(UTC-10)","24.859832","-168.021815"
"(808) 306-","Cell Number","Honolulu","Honolulu","HI","Hawaii","96806","(UTC-10)","24.859832","-168.021815"
"(808) 329-","Landline","Hawaii","Hilo","HI","Hawaii","96721","(UTC-10)","19.593456","-155.438015"
"(808) 594-","Landline","Honolulu","Honolulu","HI","Hawaii","96806","(UTC-10)","24.859832","-168.021815"
"(808) 893-","Landline","Maui","Wailuku","HI","Hawaii","96793","(UTC-10)","20.901536","-156.566493"
"(808) 558-","Landline","Maui","Kaunakakai","HI","Hawaii","96748","(UTC-10)","21.092266","-157.012533"
"(808) 559-","Cell Number","Maui","Lahaina","HI","Hawaii","96767","(UTC-10)","20.866638","-156.646667"
"(808) 895-","Cell Number","Hawaii","Hilo","HI","Hawaii","96721","(UTC-10)","19.593456","-155.438015"
"(808) 563-","Cell Number","Maui","Lahaina","HI","Hawaii","96767","(UTC-10)","20.866638","-156.646667"
"(808) 947-","Landline","Honolulu","Honolulu","HI","Hawaii","96806","(UTC-10)","24.859832","-168.021815"
"(808) 627-","Landline","Honolulu","Mililani","HI","Hawaii","96789","(UTC-10)","21.458855","-158.012322"
"(808) 359-","Cell Number","Maui","Wailuku","HI","Hawaii","96793","(UTC-10)","20.901536","-156.566493"
"(808) 442-","Landline","Maui","Wailuku","HI","Hawaii","96793","(UTC-10)","20.901536","-156.566493"
"(808) 536-","Landline","Honolulu","Honolulu","HI","Hawaii","96806","(UTC-10)","24.859832","-168.021815"
"(808) 256-","Cell Number","Honolulu","Honolulu","HI","Hawaii","96806","(UTC-10)","24.859832","-168.021815"
"(808) 254-","Landline","Honolulu","Kailua","HI","Hawaii","96734","(UTC-10)","21.595644","-158.039121"
"(808) 236-","Landline","Honolulu","Kaneohe","HI","Hawaii","96744","(UTC-10)","21.66875","-157.93955"
"(808) 569-","Cell Number","Honolulu","Honolulu","HI","Hawaii","96806","(UTC-10)","24.859832","-168.021815"
"(808) 933-","Landline","Hawaii","Hilo","HI","Hawaii","96721","(UTC-10)","19.593456","-155.438015"
"(808) 296-","Landline","Honolulu","Honolulu","HI","Hawaii","96806","(UTC-10)","24.859832","-168.021815"
"(808) 354-","Unknown","Honolulu","Honolulu","HI","Hawaii","96806","(UTC-10)","24.859832","-168.021815"
"(808) 222-","Cell Number","Honolulu","Honolulu","HI","Hawaii","96806","(UTC-10)","24.859832","-168.021815"
"(808) 547-","Landline","Honolulu","Honolulu","HI","Hawaii","96806","(UTC-10)","24.859832","-168.021815"
"(808) 428-","Landline","Honolulu","Honolulu","HI","Hawaii","96806","(UTC-10)","24.859832","-168.021815"
"(808) 699-","Landline","Honolulu","Ewa Beach","HI","Hawaii","96706","(UTC-10)","21.34455","-158.01395"
"(808) 275-","Landline","Honolulu","Honolulu","HI","Hawaii","96806","(UTC-10)","24.859832","-168.021815"
"(808) 237-","Landline","Honolulu","Honolulu","HI","Hawaii","96806","(UTC-10)","24.859832","-168.021815"
"(808) 876-","Landline","Maui","Wailuku","HI","Hawaii","96793","(UTC-10)","20.901536","-156.566493"
"(808) 450-","Unknown","Honolulu","Honolulu","HI","Hawaii","96806","(UTC-10)","24.859832","-168.021815"
"(808) 528-","Landline","Honolulu","Honolulu","HI","Hawaii","96806","(UTC-10)","24.859832","-168.021815"
"(808) 966-","Landline","Hawaii","Keaau","HI","Hawaii","96749","(UTC-10)","19.581873","-155.032104"
"(808) 326-","Landline","Hawaii","Hilo","HI","Hawaii","96721","(UTC-10)","19.593456","-155.438015"
"(808) 651-","Cell Number","Kauai","Lihue","HI","Hawaii","96766","(UTC-10)","22.070553","-159.430328"
"(808) 244-","Landline","Maui","Wailuku","HI","Hawaii","96793","(UTC-10)","20.901536","-156.566493"
"(808) 479-","Cell Number","Honolulu","Honolulu","HI","Hawaii","96806","(UTC-10)","24.859832","-168.021815"
"(808) 735-","Landline","Honolulu","Honolulu","HI","Hawaii","96806","(UTC-10)","24.859832","-168.021815"
"(808) 426-","Landline","Honolulu","Waimanalo","HI","Hawaii","96795","(UTC-10)","24.859832","-168.021815"
"(808) 280-","Cell Number","Maui","Wailuku","HI","Hawaii","96793","(UTC-10)","20.901536","-156.566493"
"(808) 885-","Landline","Hawaii","Hilo","HI","Hawaii","96721","(UTC-10)","19.593456","-155.438015"
"(808) 463-","Unknown","Maui","Wailuku","HI","Hawaii","96793","(UTC-10)","20.901536","-156.566493"
"(808) 335-","Landline","Kauai","Kalaheo","HI","Hawaii","96741","(UTC-10)","21.925909","-159.530254"
"(808) 268-","Cell Number","Maui","Wailuku","HI","Hawaii","96793","(UTC-10)","20.901536","-156.566493"
"(808) 960-","Cell Number","Hawaii","Hilo","HI","Hawaii","96721","(UTC-10)","19.593456","-155.438015"
"(808) 299-","Landline","Honolulu","Honolulu","HI","Hawaii","96806","(UTC-10)","24.859832","-168.021815"
"(808) 474-","Landline","Honolulu","Honolulu","HI","Hawaii","96806","(UTC-10)","24.859832","-168.021815"
"(808) 371-","Cell Number","Honolulu","Honolulu","HI","Hawaii","96806","(UTC-10)","24.859832","-168.021815"
"(808) 339-","Unknown","Hawaii","Hilo","HI","Hawaii","96721","(UTC-10)","19.593456","-155.438015"
"(808) 631-","Cell Number","Kauai","Lihue","HI","Hawaii","96766","(UTC-10)","22.070553","-159.430328"
"(808) 342-","Cell Number","Honolulu","Mililani","HI","Hawaii","96789","(UTC-10)","21.458855","-158.012322"
"(808) 497-","Cell Number","Honolulu","Honolulu","HI","Hawaii","96806","(UTC-10)","24.859832","-168.021815"
"(808) 333-","Unknown","Hawaii","Hilo","HI","Hawaii","96721","(UTC-10)","19.593456","-155.438015"
"(808) 855-","Landline","Kauai","Lihue","HI","Hawaii","96766","(UTC-10)","22.070553","-159.430328"
"(808) 844-","Landline","Honolulu","Honolulu","HI","Hawaii","96806","(UTC-10)","24.859832","-168.021815"
"(808) 621-","Landline","Honolulu","Honolulu","HI","Hawaii","96806","(UTC-10)","24.859832","-168.021815"
"(808) 527-","Landline","Honolulu","Honolulu","HI","Hawaii","96806","(UTC-10)","24.859832","-168.021815"
"(808) 584-","Cell Number","Honolulu","Honolulu","HI","Hawaii","96806","(UTC-10)","24.859832","-168.021815"
"(808) 252-","Cell Number","Honolulu","Honolulu","HI","Hawaii","96806","(UTC-10)","24.859832","-168.021815"
"(808) 320-","Unknown","Kauai","Lihue","HI","Hawaii","96766","(UTC-10)","22.070553","-159.430328"
"(808) 927-","Cell Number","Honolulu","Honolulu","HI","Hawaii","96806","(UTC-10)","24.859832","-168.021815"
"(808) 889-","Landline","Hawaii","Hilo","HI","Hawaii","96721","(UTC-10)","19.593456","-155.438015"
"(808) 294-","Cell Number","Honolulu","Mililani","HI","Hawaii","96789","(UTC-10)","21.458855","-158.012322"
"(808) 597-","Landline","Honolulu","Honolulu","HI","Hawaii","96806","(UTC-10)","24.859832","-168.021815"
"(808) 741-","Cell Number","Honolulu","Honolulu","HI","Hawaii","96806","(UTC-10)","24.859832","-168.021815"
"(808) 851-","Landline","Honolulu","Honolulu","HI","Hawaii","96806","(UTC-10)","24.859832","-168.021815"
"(808) 248-","Landline","Maui","Wailuku","HI","Hawaii","96793","(UTC-10)","20.901536","-156.566493"
"(808) 375-","Cell Number","Honolulu","Honolulu","HI","Hawaii","96806","(UTC-10)","24.859832","-168.021815"
"(808) 881-","Landline","Hawaii","Hilo","HI","Hawaii","96721","(UTC-10)","19.593456","-155.438015"
"(808) 598-","Landline","Honolulu","Honolulu","HI","Hawaii","96806","(UTC-10)","24.859832","-168.021815"
"(808) 896-","Cell Number","Hawaii","Hilo","HI","Hawaii","96721","(UTC-10)","19.593456","-155.438015"
"(808) 898-","Cell Number","Hawaii","Hilo","HI","Hawaii","96721","(UTC-10)","19.593456","-155.438015"
"(808) 356-","Landline","Honolulu","Honolulu","HI","Hawaii","96806","(UTC-10)","24.859832","-168.021815"
"(808) 263-","Landline","Honolulu","Kailua","HI","Hawaii","96734","(UTC-10)","21.595644","-158.039121"
"(808) 349-","Cell Number","Honolulu","Honolulu","HI","Hawaii","96806","(UTC-10)","24.859832","-168.021815"
"(808) 266-","Landline","Honolulu","Kailua","HI","Hawaii","96734","(UTC-10)","21.595644","-158.039121"
"(808) 932-","Landline","Hawaii","Hilo","HI","Hawaii","96721","(UTC-10)","19.593456","-155.438015"
"(808) 774-","Unknown","Maui","Kaunakakai","HI","Hawaii","96748","(UTC-10)","21.092266","-157.012533"
"(808) 973-","Landline","Honolulu","Honolulu","HI","Hawaii","96806","(UTC-10)","24.859832","-168.021815"
"(808) 203-","Landline","Honolulu","Honolulu","HI","Hawaii","96806","(UTC-10)","24.859832","-168.021815"
"(808) 293-","Landline","Honolulu","Honolulu","HI","Hawaii","96806","(UTC-10)","24.859832","-168.021815"
"(808) 525-","Landline","Honolulu","Honolulu","HI","Hawaii","96806","(UTC-10)","24.859832","-168.021815"
"(808) 748-","Landline","Honolulu","Honolulu","HI","Hawaii","96806","(UTC-10)","24.859832","-168.021815"
"(808) 737-","Landline","Honolulu","Honolulu","HI","Hawaii","96806","(UTC-10)","24.859832","-168.021815"
"(808) 655-","Landline","Honolulu","Honolulu","HI","Hawaii","96806","(UTC-10)","24.859832","-168.021815"
"(808) 821-","Landline","Kauai","Kapaa","HI","Hawaii","96746","(UTC-10)","22.074197","-159.406197"
"(808) 674-","Landline","Honolulu","Waipahu","HI","Hawaii","96797","(UTC-10)","21.399548","-158.015151"
"(808) 579-","Landline","Maui","Paia","HI","Hawaii","96779","(UTC-10)","20.904275","-156.373506"
"(808) 495-","Unknown","Maui","Wailuku","HI","Hawaii","96793","(UTC-10)","20.901536","-156.566493"
"(808) 770-","Unknown","Maui","Lahaina","HI","Hawaii","96767","(UTC-10)","20.866638","-156.646667"
"(808) 566-","Landline","Honolulu","Honolulu","HI","Hawaii","96806","(UTC-10)","24.859832","-168.021815"
"(808) 845-","Landline","Honolulu","Honolulu","HI","Hawaii","96806","(UTC-10)","24.859832","-168.021815"
"(808) 629-","Landline","Honolulu","Honolulu","HI","Hawaii","96806","(UTC-10)","24.859832","-168.021815"
"(808) 562-","Landline","Maui","Lahaina","HI","Hawaii","96767","(UTC-10)","20.866638","-156.646667"
"(808) 561-","Cell Number","Honolulu","Honolulu","HI","Hawaii","96806","(UTC-10)","24.859832","-168.021815"
"(808) 346-","Cell Number","Kauai","Lihue","HI","Hawaii","96766","(UTC-10)","22.070553","-159.430328"
"(808) 352-","Cell Number","Honolulu","Honolulu","HI","Hawaii","96806","(UTC-10)","24.859832","-168.021815"
"(808) 878-","Landline","Maui","Wailuku","HI","Hawaii","96793","(UTC-10)","20.901536","-156.566493"
"(808) 635-","Cell Number","Kauai","Lihue","HI","Hawaii","96766","(UTC-10)","22.070553","-159.430328"
"(808) 632-","Landline","Kauai","Lihue","HI","Hawaii","96766","(UTC-10)","22.070553","-159.430328"
"(808) 596-","Landline","Honolulu","Honolulu","HI","Hawaii","96806","(UTC-10)","24.859832","-168.021815"
"(808) 565-","Landline","Maui","Lahaina","HI","Hawaii","96767","(UTC-10)","20.866638","-156.646667"
"(808) 769-","Unknown","Hawaii","Hilo","HI","Hawaii","96721","(UTC-10)","19.593456","-155.438015"
"(808) 531-","Landline","Honolulu","Honolulu","HI","Hawaii","96806","(UTC-10)","24.859832","-168.021815"
"(808) 234-","Landline","Honolulu","Kaneohe","HI","Hawaii","96744","(UTC-10)","21.66875","-157.93955"
"(808) 424-","Landline","Honolulu","Honolulu","HI","Hawaii","96806","(UTC-10)","24.859832","-168.021815"
"(808) 325-","Landline","Hawaii","Hilo","HI","Hawaii","96721","(UTC-10)","19.593456","-155.438015"
"(808) 668-","Landline","Honolulu","Honolulu","HI","Hawaii","96806","(UTC-10)","24.859832","-168.021815"
"(808) 399-","Cell Number","Honolulu","Honolulu","HI","Hawaii","96806","(UTC-10)","24.859832","-168.021815"
"(808) 348-","Cell Number","Honolulu","Mililani","HI","Hawaii","96789","(UTC-10)","21.458855","-158.012322"
"(808) 289-","Cell Number","Honolulu","Honolulu","HI","Hawaii","96806","(UTC-10)","24.859832","-168.021815"
"(808) 965-","Landline","Hawaii","Hilo","HI","Hawaii","96721","(UTC-10)","19.593456","-155.438015"
"(808) 828-","Landline","Kauai","Lihue","HI","Hawaii","96766","(UTC-10)","22.070553","-159.430328"
"(808) 943-","Landline","Honolulu","Honolulu","HI","Hawaii","96806","(UTC-10)","24.859832","-168.021815"
"(808) 647-","Cell Number","Kauai","Lihue","HI","Hawaii","96766","(UTC-10)","22.070553","-159.430328"
"(808) 546-","Landline","Honolulu","Honolulu","HI","Hawaii","96806","(UTC-10)","24.859832","-168.021815"
"(808) 935-","Landline","Hawaii","Hilo","HI","Hawaii","96721","(UTC-10)","19.593456","-155.438015"
"(808) 366-","Cell Number","Honolulu","Honolulu","HI","Hawaii","96806","(UTC-10)","24.859832","-168.021815"
"(808) 942-","Landline","Honolulu","Honolulu","HI","Hawaii","96806","(UTC-10)","24.859832","-168.021815"
"(808) 652-","Cell Number","Kauai","Lihue","HI","Hawaii","96766","(UTC-10)","22.070553","-159.430328"
"(808) 456-","Landline","Honolulu","Pearl City","HI","Hawaii","96782","(UTC-10)","21.51195","-157.994662"
"(808) 685-","Landline","Honolulu","Ewa Beach","HI","Hawaii","96706","(UTC-10)","21.34455","-158.01395"
"(808) 624-","Landline","Honolulu","Honolulu","HI","Hawaii","96806","(UTC-10)","24.859832","-168.021815"
"(808) 431-","Unknown","Kauai","Lihue","HI","Hawaii","96766","(UTC-10)","22.070553","-159.430328"
"(808) 583-","Cell Number","Honolulu","Honolulu","HI","Hawaii","96806","(UTC-10)","24.859832","-168.021815"
"(808) 856-","Landline","Maui","Wailuku","HI","Hawaii","96793","(UTC-10)","20.901536","-156.566493"
"(808) 578-","Landline","Honolulu","Honolulu","HI","Hawaii","96806","(UTC-10)","24.859832","-168.021815"
"(808) 689-","Landline","Honolulu","Ewa Beach","HI","Hawaii","96706","(UTC-10)","21.34455","-158.01395"
"(808) 677-","Landline","Honolulu","Waipahu","HI","Hawaii","96797","(UTC-10)","21.399548","-158.015151"
"(808) 832-","Landline","Honolulu","Honolulu","HI","Hawaii","96806","(UTC-10)","24.859832","-168.021815"
"(808) 884-","Landline","Hawaii","Hilo","HI","Hawaii","96721","(UTC-10)","19.593456","-155.438015"
"(808) 214-","Landline","Maui","Wailuku","HI","Hawaii","96793","(UTC-10)","20.901536","-156.566493"
"(808) 658-","Cell Number","Maui","Kaunakakai","HI","Hawaii","96748","(UTC-10)","21.092266","-157.012533"
"(808) 273-","Cell Number","Honolulu","Honolulu","HI","Hawaii","96806","(UTC-10)","24.859832","-168.021815"
"(808) 441-","Landline","Honolulu","Honolulu","HI","Hawaii","96806","(UTC-10)","24.859832","-168.021815"
"(808) 240-","Landline","Kauai","Lihue","HI","Hawaii","96766","(UTC-10)","22.070553","-159.430328"
"(808) 692-","Landline","Honolulu","Waipahu","HI","Hawaii","96797","(UTC-10)","21.399548","-158.015151"
"(808) 679-","Landline","Honolulu","Waipahu","HI","Hawaii","96797","(UTC-10)","21.399548","-158.015151"
"(808) 740-","Unknown","Maui","Wailuku","HI","Hawaii","96793","(UTC-10)","20.901536","-156.566493"
"(808) 977-","Unknown","Kauai","Lihue","HI","Hawaii","96766","(UTC-10)","22.070553","-159.430328"
"(808) 697-","Landline","Honolulu","Honolulu","HI","Hawaii","96806","(UTC-10)","24.859832","-168.021815"
"(808) 887-","Landline","Hawaii","Hilo","HI","Hawaii","96721","(UTC-10)","19.593456","-155.438015"
"(808) 937-","Cell Number","Hawaii","Hilo","HI","Hawaii","96721","(UTC-10)","19.593456","-155.438015"
"(808) 729-","Unknown","Honolulu","Honolulu","HI","Hawaii","96806","(UTC-10)","24.859832","-168.021815"
"(808) 548-","Landline","Honolulu","Honolulu","HI","Hawaii","96806","(UTC-10)","24.859832","-168.021815"
"(808) 573-","Landline","Maui","Makawao","HI","Hawaii","96768","(UTC-10)","20.832664","-156.320242"
"(808) 953-","Landline","Honolulu","Honolulu","HI","Hawaii","96806","(UTC-10)","24.859832","-168.021815"
"(808) 777-","Unknown","Honolulu","Honolulu","HI","Hawaii","96806","(UTC-10)","24.859832","-168.021815"
"(808) 669-","Landline","Maui","Lahaina","HI","Hawaii","96767","(UTC-10)","20.866638","-156.646667"
"(808) 984-","Landline","Maui","Wailuku","HI","Hawaii","96793","(UTC-10)","20.901536","-156.566493"
"(808) 846-","Landline","Honolulu","Honolulu","HI","Hawaii","96806","(UTC-10)","24.859832","-168.021815"
"(808) 227-","Cell Number","Honolulu","Honolulu","HI","Hawaii","96806","(UTC-10)","24.859832","-168.021815"
"(808) 673-","Landline","Honolulu","Kapolei","HI","Hawaii","96707","(UTC-10)","21.341784","-158.091383"
"(808) 274-","Landline","Kauai","Lihue","HI","Hawaii","96766","(UTC-10)","22.070553","-159.430328"
"(808) 261-","Landline","Honolulu","Kailua","HI","Hawaii","96734","(UTC-10)","21.595644","-158.039121"
"(808) 322-","Landline","Hawaii","Hilo","HI","Hawaii","96721","(UTC-10)","19.593456","-155.438015"
"(808) 398-","Cell Number","Honolulu","Honolulu","HI","Hawaii","96806","(UTC-10)","24.859832","-168.021815"
"(808) 213-","Landline","Maui","Kaunakakai","HI","Hawaii","96748","(UTC-10)","21.092266","-157.012533"
"(808) 347-","Cell Number","Honolulu","Mililani","HI","Hawaii","96789","(UTC-10)","21.458855","-158.012322"
"(808) 756-","Landline","Hawaii","Hilo","HI","Hawaii","96721","(UTC-10)","19.593456","-155.438015"
"(808) 262-","Landline","Honolulu","Kailua","HI","Hawaii","96734","(UTC-10)","21.595644","-158.039121"
"(808) 920-","Landline","Hawaii","Hilo","HI","Hawaii","96721","(UTC-10)","19.593456","-155.438015"
"(808) 654-","Landline","Kauai","Lihue","HI","Hawaii","96766","(UTC-10)","22.070553","-159.430328"
"(808) 662-","Landline","Maui","Lahaina","HI","Hawaii","96767","(UTC-10)","20.866638","-156.646667"
"(808) 537-","Landline","Honolulu","Honolulu","HI","Hawaii","96806","(UTC-10)","24.859832","-168.021815"
"(808) 971-","Landline","Honolulu","Honolulu","HI","Hawaii","96806","(UTC-10)","24.859832","-168.021815"
"(808) 599-","Landline","Honolulu","Honolulu","HI","Hawaii","96806","(UTC-10)","24.859832","-168.021815"
"(808) 554-","Cell Number","Honolulu","Honolulu","HI","Hawaii","96806","(UTC-10)","24.859832","-168.021815"
"(808) 334-","Landline","Hawaii","Hilo","HI","Hawaii","96721","(UTC-10)","19.593456","-155.438015"
"(808) 695-","Landline","Honolulu","Honolulu","HI","Hawaii","96806","(UTC-10)","24.859832","-168.021815"
"(808) 572-","Landline","Maui","Makawao","HI","Hawaii","96768","(UTC-10)","20.832664","-156.320242"
"(808) 626-","Landline","Honolulu","Honolulu","HI","Hawaii","96806","(UTC-10)","24.859832","-168.021815"
"(808) 721-","Cell Number","Honolulu","Honolulu","HI","Hawaii","96806","(UTC-10)","24.859832","-168.021815"
"(808) 229-","Landline","Maui","Wailuku","HI","Hawaii","96793","(UTC-10)","20.901536","-156.566493"
"(808) 725-","Unknown","Honolulu","Honolulu","HI","Hawaii","96806","(UTC-10)","24.859832","-168.021815"
"(808) 396-","Landline","Honolulu","Honolulu","HI","Hawaii","96806","(UTC-10)","24.859832","-168.021815"
"(808) 646-","Cell Number","Maui","Kaunakakai","HI","Hawaii","96748","(UTC-10)","21.092266","-157.012533"
"(808) 957-","Landline","Honolulu","Honolulu","HI","Hawaii","96806","(UTC-10)","24.859832","-168.021815"
"(808) 532-","Landline","Honolulu","Honolulu","HI","Hawaii","96806","(UTC-10)","24.859832","-168.021815"
"(808) 435-","Unknown","Maui","Lahaina","HI","Hawaii","96767","(UTC-10)","20.866638","-156.646667"
"(808) 544-","Landline","Honolulu","Honolulu","HI","Hawaii","96806","(UTC-10)","24.859832","-168.021815"
"(808) 483-","Landline","Honolulu","Aiea","HI","Hawaii","96701","(UTC-10)","21.39065","-157.927829"
"(808) 205-","Cell Number","Maui","Wailuku","HI","Hawaii","96793","(UTC-10)","20.901536","-156.566493"
"(808) 386-","Cell Number","Honolulu","Honolulu","HI","Hawaii","96806","(UTC-10)","24.859832","-168.021815"
"(808) 270-","Landline","Maui","Wailuku","HI","Hawaii","96793","(UTC-10)","20.901536","-156.566493"
"(808) 482-","Landline","Kauai","Lihue","HI","Hawaii","96766","(UTC-10)","22.070553","-159.430328"
"(808) 344-","Cell Number","Maui","Wailuku","HI","Hawaii","96793","(UTC-10)","20.901536","-156.566493"
"(808) 936-","Cell Number","Hawaii","Hilo","HI","Hawaii","96721","(UTC-10)","19.593456","-155.438015"
"(808) 471-","Landline","Honolulu","Honolulu","HI","Hawaii","96806","(UTC-10)","24.859832","-168.021815"
"(808) 988-","Landline","Honolulu","Honolulu","HI","Hawaii","96806","(UTC-10)","24.859832","-168.021815"
"(808) 664-","Landline","Honolulu","Honolulu","HI","Hawaii","96806","(UTC-10)","24.859832","-168.021815"
"(808) 886-","Landline","Hawaii","Hilo","HI","Hawaii","96721","(UTC-10)","19.593456","-155.438015"
"(808) 779-","Cell Number","Honolulu","Honolulu","HI","Hawaii","96806","(UTC-10)","24.859832","-168.021815"
"(808) 738-","Landline","Honolulu","Honolulu","HI","Hawaii","96806","(UTC-10)","24.859832","-168.021815"
"(808) 212-","Landline","Kauai","Lihue","HI","Hawaii","96766","(UTC-10)","22.070553","-159.430328"
"(808) 747-","Unknown","Hawaii","Hilo","HI","Hawaii","96721","(UTC-10)","19.593456","-155.438015"
"(808) 225-","Cell Number","Honolulu","Honolulu","HI","Hawaii","96806","(UTC-10)","24.859832","-168.021815"
"(808) 395-","Landline","Honolulu","Honolulu","HI","Hawaii","96806","(UTC-10)","24.859832","-168.021815"
"(808) 873-","Landline","Maui","Wailuku","HI","Hawaii","96793","(UTC-10)","20.901536","-156.566493"
"(808) 879-","Landline","Maui","Kihei","HI","Hawaii","96753","(UTC-10)","20.723542","-156.469915"
"(808) 820-","Landline","Kauai","Lihue","HI","Hawaii","96766","(UTC-10)","22.070553","-159.430328"
"(808) 586-","Landline","Honolulu","Honolulu","HI","Hawaii","96806","(UTC-10)","24.859832","-168.021815"
"(808) 557-","Cell Number","Hawaii","Hilo","HI","Hawaii","96721","(UTC-10)","19.593456","-155.438015"
"(808) 330-","Cell Number","Honolulu","Honolulu","HI","Hawaii","96806","(UTC-10)","24.859832","-168.021815"
"(808) 394-","Landline","Honolulu","Honolulu","HI","Hawaii","96806","(UTC-10)","24.859832","-168.021815"
"(808) 944-","Landline","Honolulu","Honolulu","HI","Hawaii","96806","(UTC-10)","24.859832","-168.021815"
"(808) 247-","Landline","Honolulu","Kaneohe","HI","Hawaii","96744","(UTC-10)","21.66875","-157.93955"
"(808) 259-","Landline","Honolulu","Waimanalo","HI","Hawaii","96795","(UTC-10)","24.859832","-168.021815"
"(808) 393-","Landline","Honolulu","Honolulu","HI","Hawaii","96806","(UTC-10)","24.859832","-168.021815"
"(808) 962-","Landline","Hawaii","Hilo","HI","Hawaii","96721","(UTC-10)","19.593456","-155.438015"
"(808) 489-","Landline","Honolulu","Honolulu","HI","Hawaii","96806","(UTC-10)","24.859832","-168.021815"
"(808) 684-","Landline","Honolulu","Waipahu","HI","Hawaii","96797","(UTC-10)","21.399548","-158.015151"
"(808) 781-","Cell Number","Honolulu","Honolulu","HI","Hawaii","96806","(UTC-10)","24.859832","-168.021815"
"(808) 245-","Landline","Kauai","Lihue","HI","Hawaii","96766","(UTC-10)","22.070553","-159.430328"
"(808) 732-","Landline","Honolulu","Honolulu","HI","Hawaii","96806","(UTC-10)","24.859832","-168.021815"
"(808) 826-","Landline","Kauai","Lihue","HI","Hawaii","96766","(UTC-10)","22.070553","-159.430328"
"(808) 454-","Landline","Honolulu","Pearl City","HI","Hawaii","96782","(UTC-10)","21.51195","-157.994662"
"(808) 373-","Landline","Honolulu","Honolulu","HI","Hawaii","96806","(UTC-10)","24.859832","-168.021815"
"(808) 552-","Landline","Maui","Kaunakakai","HI","Hawaii","96748","(UTC-10)","21.092266","-157.012533"
"(808) 622-","Landline","Honolulu","Honolulu","HI","Hawaii","96806","(UTC-10)","24.859832","-168.021815"
"(808) 723-","Cell Number","Honolulu","Honolulu","HI","Hawaii","96806","(UTC-10)","24.859832","-168.021815"
"(808) 754-","Cell Number","Honolulu","Mililani","HI","Hawaii","96789","(UTC-10)","21.458855","-158.012322"
"(808) 387-","Cell Number","Honolulu","Honolulu","HI","Hawaii","96806","(UTC-10)","24.859832","-168.021815"
"(808) 539-","Landline","Honolulu","Honolulu","HI","Hawaii","96806","(UTC-10)","24.859832","-168.021815"
"(808) 421-","Landline","Honolulu","Honolulu","HI","Hawaii","96806","(UTC-10)","24.859832","-168.021815"
"(808) 388-","Cell Number","Honolulu","Honolulu","HI","Hawaii","96806","(UTC-10)","24.859832","-168.021815"
"(808) 641-","Landline","Honolulu","Honolulu","HI","Hawaii","96806","(UTC-10)","24.859832","-168.021815"
"(808) 780-","Cell Number","Honolulu","Honolulu","HI","Hawaii","96806","(UTC-10)","24.859832","-168.021815"
"(808) 438-","Landline","Honolulu","Honolulu","HI","Hawaii","96806","(UTC-10)","24.859832","-168.021815"
"(808) 264-","Cell Number","Maui","Wailuku","HI","Hawaii","96793","(UTC-10)","20.901536","-156.566493"
"(808) 353-","Unknown","Kauai","Lihue","HI","Hawaii","96766","(UTC-10)","22.070553","-159.430328"
"(808) 232-","Landline","Honolulu","Honolulu","HI","Hawaii","96806","(UTC-10)","24.859832","-168.021815"
"(808) 323-","Landline","Hawaii","Hilo","HI","Hawaii","96721","(UTC-10)","19.593456","-155.438015"
"(808) 440-","Landline","Honolulu","Honolulu","HI","Hawaii","96806","(UTC-10)","24.859832","-168.021815"
"(808) 472-","Landline","Honolulu","Honolulu","HI","Hawaii","96806","(UTC-10)","24.859832","-168.021815"
"(808) 921-","Landline","Honolulu","Honolulu","HI","Hawaii","96806","(UTC-10)","24.859832","-168.021815"
"(808) 286-","Cell Number","Honolulu","Mililani","HI","Hawaii","96789","(UTC-10)","21.458855","-158.012322"
"(808) 529-","Landline","Honolulu","Honolulu","HI","Hawaii","96806","(UTC-10)","24.859832","-168.021815"
"(808) 638-","Landline","Honolulu","Honolulu","HI","Hawaii","96806","(UTC-10)","24.859832","-168.021815"
"(808) 526-","Landline","Honolulu","Honolulu","HI","Hawaii","96806","(UTC-10)","24.859832","-168.021815"
"(808) 568-","Landline","Maui","Lahaina","HI","Hawaii","96767","(UTC-10)","20.866638","-156.646667"
"(808) 930-","Landline","Hawaii","Hilo","HI","Hawaii","96721","(UTC-10)","19.593456","-155.438015"
"(808) 929-","Landline","Hawaii","Hilo","HI","Hawaii","96721","(UTC-10)","19.593456","-155.438015"
"(808) 343-","Cell Number","Honolulu","Mililani","HI","Hawaii","96789","(UTC-10)","21.458855","-158.012322"
"(808) 864-","Cell Number","Honolulu","Honolulu","HI","Hawaii","96806","(UTC-10)","24.859832","-168.021815"
"(808) 853-","Landline","Honolulu","Honolulu","HI","Hawaii","96806","(UTC-10)","24.859832","-168.021815"
"(808) 925-","Landline","Hawaii","Hilo","HI","Hawaii","96721","(UTC-10)","19.593456","-155.438015"
"(808) 336-","Cell Number","Maui","Kaunakakai","HI","Hawaii","96748","(UTC-10)","21.092266","-157.012533"
"(808) 276-","Cell Number","Maui","Wailuku","HI","Hawaii","96793","(UTC-10)","20.901536","-156.566493"
"(808) 434-","Landline","Honolulu","Honolulu","HI","Hawaii","96806","(UTC-10)","24.859832","-168.021815"
"(808) 362-","Cell Number","Honolulu","Honolulu","HI","Hawaii","96806","(UTC-10)","24.859832","-168.021815"
"(808) 671-","Landline","Honolulu","Waipahu","HI","Hawaii","96797","(UTC-10)","21.399548","-158.015151"
"(808) 389-","Cell Number","Honolulu","Honolulu","HI","Hawaii","96806","(UTC-10)","24.859832","-168.021815"
"(808) 660-","Landline","Maui","Kaunakakai","HI","Hawaii","96748","(UTC-10)","21.092266","-157.012533"
"(808) 473-","Landline","Honolulu","Honolulu","HI","Hawaii","96806","(UTC-10)","24.859832","-168.021815"
"(808) 645-","Cell Number","Kauai","Lihue","HI","Hawaii","96766","(UTC-10)","22.070553","-159.430328"
"(808) 217-","Landline","Hawaii","Hilo","HI","Hawaii","96721","(UTC-10)","19.593456","-155.438015"
"(808) 792-","Landline","Honolulu","Honolulu","HI","Hawaii","96806","(UTC-10)","24.859832","-168.021815"
"(808) 382-","Cell Number","Honolulu","Honolulu","HI","Hawaii","96806","(UTC-10)","24.859832","-168.021815"
"(808) 257-","Landline","Honolulu","Kailua","HI","Hawaii","96734","(UTC-10)","21.595644","-158.039121"
"(808) 661-","Landline","Maui","Lahaina","HI","Hawaii","96767","(UTC-10)","20.866638","-156.646667"
"(808) 577-","Landline","Honolulu","Honolulu","HI","Hawaii","96806","(UTC-10)","24.859832","-168.021815"
"(808) 251-","Cell Number","Honolulu","Honolulu","HI","Hawaii","96806","(UTC-10)","24.859832","-168.021815"
"(808) 587-","Landline","Honolulu","Honolulu","HI","Hawaii","96806","(UTC-10)","24.859832","-168.021815"
"(808) 945-","Landline","Honolulu","Honolulu","HI","Hawaii","96806","(UTC-10)","24.859832","-168.021815"
"(808) 722-","Cell Number","Honolulu","Honolulu","HI","Hawaii","96806","(UTC-10)","24.859832","-168.021815"
"(808) 361-","Cell Number","Honolulu","Honolulu","HI","Hawaii","96806","(UTC-10)","24.859832","-168.021815"
"(808) 206-","Landline","Honolulu","Honolulu","HI","Hawaii","96806","(UTC-10)","24.859832","-168.021815"
"(808) 540-","Landline","Honolulu","Honolulu","HI","Hawaii","96806","(UTC-10)","24.859832","-168.021815"
"(808) 230-","Landline","Honolulu","Kailua","HI","Hawaii","96734","(UTC-10)","21.595644","-158.039121"
"(808) 680-","Landline","Honolulu","Waipahu","HI","Hawaii","96797","(UTC-10)","21.399548","-158.015151"
"(808) 560-","Landline","Maui","Kaunakakai","HI","Hawaii","96748","(UTC-10)","21.092266","-157.012533"
"(808) 989-","Cell Number","Hawaii","Hilo","HI","Hawaii","96721","(UTC-10)","19.593456","-155.438015"
"(808) 642-","Landline","Maui","Kaunakakai","HI","Hawaii","96748","(UTC-10)","21.092266","-157.012533"
"(808) 372-","Cell Number","Honolulu","Honolulu","HI","Hawaii","96806","(UTC-10)","24.859832","-168.021815"
"(808) 341-","Cell Number","Honolulu","Mililani","HI","Hawaii","96789","(UTC-10)","21.458855","-158.012322"
"(808) 589-","Landline","Honolulu","Honolulu","HI","Hawaii","96806","(UTC-10)","24.859832","-168.021815"
"(808) 345-","Cell Number","Hawaii","Hilo","HI","Hawaii","96721","(UTC-10)","19.593456","-155.438015"
"(808) 968-","Landline","Hawaii","Mountain View","HI","Hawaii","96771","(UTC-10)","19.534945","-155.125657"
"(808) 458-","Cell Number","Honolulu","Honolulu","HI","Hawaii","96806","(UTC-10)","24.859832","-168.021815"
"(808) 457-","Landline","Honolulu","Honolulu","HI","Hawaii","96806","(UTC-10)","24.859832","-168.021815"
"(808) 419-","Unknown","Maui","Wailuku","HI","Hawaii","96793","(UTC-10)","20.901536","-156.566493"
"(808) 923-","Landline","Honolulu","Honolulu","HI","Hawaii","96806","(UTC-10)","24.859832","-168.021815"
"(808) 292-","Cell Number","Honolulu","Mililani","HI","Hawaii","96789","(UTC-10)","21.458855","-158.012322"
"(808) 231-","Cell Number","Honolulu","Honolulu","HI","Hawaii","96806","(UTC-10)","24.859832","-168.021815"
"(808) 315-","Unknown","Hawaii","Hilo","HI","Hawaii","96721","(UTC-10)","19.593456","-155.438015"
"(808) 858-","Cell Number","Honolulu","Honolulu","HI","Hawaii","96806","(UTC-10)","24.859832","-168.021815"
"(808) 239-","Landline","Honolulu","Kaneohe","HI","Hawaii","96744","(UTC-10)","21.66875","-157.93955"
"(808) 959-","Landline","Hawaii","Hilo","HI","Hawaii","96721","(UTC-10)","19.593456","-155.438015"
"(808) 848-","Landline","Honolulu","Honolulu","HI","Hawaii","96806","(UTC-10)","24.859832","-168.021815"
"(808) 675-","Landline","Honolulu","Waipahu","HI","Hawaii","96797","(UTC-10)","21.399548","-158.015151"
"(808) 469-","Unknown","Honolulu","Honolulu","HI","Hawaii","96806","(UTC-10)","24.859832","-168.021815"
"(808) 459-","Cell Number","Honolulu","Honolulu","HI","Hawaii","96806","(UTC-10)","24.859832","-168.021815"
"(808) 351-","Cell Number","Honolulu","Honolulu","HI","Hawaii","96806","(UTC-10)","24.859832","-168.021815"
"(808) 665-","Landline","Maui","Lahaina","HI","Hawaii","96767","(UTC-10)","20.866638","-156.646667"
"(808) 683-","Landline","Honolulu","Ewa Beach","HI","Hawaii","96706","(UTC-10)","21.34455","-158.01395"
"(808) 484-","Landline","Honolulu","Aiea","HI","Hawaii","96701","(UTC-10)","21.39065","-157.927829"
"(808) 987-","Cell Number","Hawaii","Hilo","HI","Hawaii","96721","(UTC-10)","19.593456","-155.438015"
"(808) 757-","Landline","Maui","Wailuku","HI","Hawaii","96793","(UTC-10)","20.901536","-156.566493"
"(808) 963-","Landline","Hawaii","Pepeekeo","HI","Hawaii","96783","(UTC-10)","19.819475","-155.106308"
"(808) 574-","Landline","Honolulu","Honolulu","HI","Hawaii","96806","(UTC-10)","24.859832","-168.021815"
"(808) 625-","Landline","Honolulu","Mililani","HI","Hawaii","96789","(UTC-10)","21.458855","-158.012322"
"(808) 216-","Cell Number","Honolulu","Honolulu","HI","Hawaii","96806","(UTC-10)","24.859832","-168.021815"
"(808) 295-","Cell Number","Honolulu","Mililani","HI","Hawaii","96789","(UTC-10)","21.458855","-158.012322"
"(808) 241-","Landline","Kauai","Lihue","HI","Hawaii","96766","(UTC-10)","22.070553","-159.430328"
"(808) 358-","Cell Number","Honolulu","Honolulu","HI","Hawaii","96806","(UTC-10)","24.859832","-168.021815"
"(808) 250-","Cell Number","Maui","Wailuku","HI","Hawaii","96793","(UTC-10)","20.901536","-156.566493"
"(808) 290-","Cell Number","Honolulu","Honolulu","HI","Hawaii","96806","(UTC-10)","24.859832","-168.021815"
"(808) 287-","Cell Number","Honolulu","Honolulu","HI","Hawaii","96806","(UTC-10)","24.859832","-168.021815"
"(808) 324-","Landline","Hawaii","Hilo","HI","Hawaii","96721","(UTC-10)","19.593456","-155.438015"
"(808) 461-","Unknown","Maui","Kaunakakai","HI","Hawaii","96748","(UTC-10)","21.092266","-157.012533"
"(808) 827-","Landline","Kauai","Lihue","HI","Hawaii","96766","(UTC-10)","22.070553","-159.430328"
"(808) 226-","Cell Number","Honolulu","Honolulu","HI","Hawaii","96806","(UTC-10)","24.859832","-168.021815"
"(808) 235-","Landline","Honolulu","Kaneohe","HI","Hawaii","96744","(UTC-10)","21.66875","-157.93955"
"(808) 551-","Cell Number","Honolulu","Honolulu","HI","Hawaii","96806","(UTC-10)","24.859832","-168.021815"
"(808) 545-","Landline","Honolulu","Honolulu","HI","Hawaii","96806","(UTC-10)","24.859832","-168.021815"
"(808) 488-","Landline","Honolulu","Aiea","HI","Hawaii","96701","(UTC-10)","21.39065","-157.927829"
"(808) 686-","Landline","Honolulu","Waipahu","HI","Hawaii","96797","(UTC-10)","21.399548","-158.015151"
"(808) 453-","Landline","Honolulu","Pearl City","HI","Hawaii","96782","(UTC-10)","21.51195","-157.994662"
"(808) 954-","Landline","Honolulu","Honolulu","HI","Hawaii","96806","(UTC-10)","24.859832","-168.021815"
"(808) 979-","Landline","Honolulu","Honolulu","HI","Hawaii","96806","(UTC-10)","24.859832","-168.021815"
"(808) 653-","Landline","Honolulu","Honolulu","HI","Hawaii","96806","(UTC-10)","24.859832","-168.021815"
"(808) 924-","Landline","Honolulu","Honolulu","HI","Hawaii","96806","(UTC-10)","24.859832","-168.021815"
"(808) 521-","Landline","Honolulu","Honolulu","HI","Hawaii","96806","(UTC-10)","24.859832","-168.021815"
"(808) 368-","Cell Number","Honolulu","Honolulu","HI","Hawaii","96806","(UTC-10)","24.859832","-168.021815"
"(808) 391-","Cell Number","Honolulu","Honolulu","HI","Hawaii","96806","(UTC-10)","24.859832","-168.021815"
"(808) 678-","Landline","Honolulu","Waipahu","HI","Hawaii","96797","(UTC-10)","21.399548","-158.015151"
"(808) 553-","Landline","Maui","Kaunakakai","HI","Hawaii","96748","(UTC-10)","21.092266","-157.012533"
"(808) 974-","Landline","Hawaii","Hilo","HI","Hawaii","96721","(UTC-10)","19.593456","-155.438015"
"(808) 477-","Landline","Honolulu","Honolulu","HI","Hawaii","96806","(UTC-10)","24.859832","-168.021815"
"(808) 734-","Landline","Honolulu","Honolulu","HI","Hawaii","96806","(UTC-10)","24.859832","-168.021815"
"(808) 564-","Landline","Honolulu","Honolulu","HI","Hawaii","96806","(UTC-10)","24.859832","-168.021815"
"(808) 961-","Landline","Hawaii","Hilo","HI","Hawaii","96721","(UTC-10)","19.593456","-155.438015"
"(808) 891-","Landline","Maui","Kihei","HI","Hawaii","96753","(UTC-10)","20.723542","-156.469915"
"(808) 228-","Cell Number","Honolulu","Honolulu","HI","Hawaii","96806","(UTC-10)","24.859832","-168.021815"
"(808) 533-","Landline","Honolulu","Honolulu","HI","Hawaii","96806","(UTC-10)","24.859832","-168.021815"
"(808) 776-","Landline","Hawaii","Hilo","HI","Hawaii","96721","(UTC-10)","19.593456","-155.438015"
"(808) 690-","Landline","Honolulu","Kapolei","HI","Hawaii","96707","(UTC-10)","21.341784","-158.091383"
"(808) 249-","Landline","Maui","Wailuku","HI","Hawaii","96793","(UTC-10)","20.901536","-156.566493"
"(808) 899-","Cell Number","Hawaii","Hilo","HI","Hawaii","96721","(UTC-10)","19.593456","-155.438015"
"(808) 672-","Landline","Honolulu","Honolulu","HI","Hawaii","96806","(UTC-10)","24.859832","-168.021815"
"(808) 591-","Landline","Honolulu","Honolulu","HI","Hawaii","96806","(UTC-10)","24.859832","-168.021815"
"(808) 938-","Cell Number","Hawaii","Hilo","HI","Hawaii","96721","(UTC-10)","19.593456","-155.438015"
"(808) 696-","Landline","Honolulu","Honolulu","HI","Hawaii","96806","(UTC-10)","24.859832","-168.021815"
"(808) 423-","Landline","Honolulu","Honolulu","HI","Hawaii","96806","(UTC-10)","24.859832","-168.021815"
"(808) 939-","Landline","Hawaii","Hilo","HI","Hawaii","96721","(UTC-10)","19.593456","-155.438015"
"(808) 823-","Landline","Kauai","Kapaa","HI","Hawaii","96746","(UTC-10)","22.074197","-159.406197"
"(808) 267-","Cell Number","Honolulu","Honolulu","HI","Hawaii","96806","(UTC-10)","24.859832","-168.021815"
"(808) 981-","Landline","Hawaii","Hilo","HI","Hawaii","96721","(UTC-10)","19.593456","-155.438015"
"(808) 728-","Landline","Honolulu","Honolulu","HI","Hawaii","96806","(UTC-10)","24.859832","-168.021815"
"(808) 681-","Landline","Honolulu","Ewa Beach","HI","Hawaii","96706","(UTC-10)","21.34455","-158.01395"
"(808) 567-","Landline","Maui","Kaunakakai","HI","Hawaii","96748","(UTC-10)","21.092266","-157.012533"
"(808) 755-","Landline","Kauai","Lihue","HI","Hawaii","96766","(UTC-10)","22.070553","-159.430328"
"(808) 385-","Cell Number","Maui","Wailuku","HI","Hawaii","96793","(UTC-10)","20.901536","-156.566493"
"(808) 946-","Landline","Honolulu","Honolulu","HI","Hawaii","96806","(UTC-10)","24.859832","-168.021815"
"(808) 883-","Landline","Hawaii","Hilo","HI","Hawaii","96721","(UTC-10)","19.593456","-155.438015"
"(808) 297-","Cell Number","Maui","Wailuku","HI","Hawaii","96793","(UTC-10)","20.901536","-156.566493"
"(808) 550-","Landline","Honolulu","Honolulu","HI","Hawaii","96806","(UTC-10)","24.859832","-168.021815"
"(808) 281-","Cell Number","Maui","Wailuku","HI","Hawaii","96793","(UTC-10)","20.901536","-156.566493"
"(808) 592-","Landline","Honolulu","Honolulu","HI","Hawaii","96806","(UTC-10)","24.859832","-168.021815"
"(808) 986-","Landline","Maui","Wailuku","HI","Hawaii","96793","(UTC-10)","20.901536","-156.566493"
"(808) 582-","Cell Number","Honolulu","Honolulu","HI","Hawaii","96806","(UTC-10)","24.859832","-168.021815"
"(808) 688-","Landline","Honolulu","Waipahu","HI","Hawaii","96797","(UTC-10)","21.399548","-158.015151"
"(808) 871-","Landline","Maui","Wailuku","HI","Hawaii","96793","(UTC-10)","20.901536","-156.566493"
"(808) 355-","Landline","Hawaii","Hilo","HI","Hawaii","96721","(UTC-10)","19.593456","-155.438015"
"(808) 571-","Cell Number","Honolulu","Honolulu","HI","Hawaii","96806","(UTC-10)","24.859832","-168.021815"
"(808) 952-","Landline","Honolulu","Honolulu","HI","Hawaii","96806","(UTC-10)","24.859832","-168.021815"
"(808) 982-","Landline","Hawaii","Keaau","HI","Hawaii","96749","(UTC-10)","19.581873","-155.032104"
"(808) 383-","Cell Number","Honolulu","Honolulu","HI","Hawaii","96806","(UTC-10)","24.859832","-168.021815"
"(808) 447-","Landline","Honolulu","Honolulu","HI","Hawaii","96806","(UTC-10)","24.859832","-168.021815"
"(808) 243-","Landline","Maui","Wailuku","HI","Hawaii","96793","(UTC-10)","20.901536","-156.566493"
"(808) 332-","Landline","Kauai","Kalaheo","HI","Hawaii","96741","(UTC-10)","21.925909","-159.530254"
"(808) 448-","Landline","Honolulu","Honolulu","HI","Hawaii","96806","(UTC-10)","24.859832","-168.021815"
"(808) 633-","Unknown","Maui","Wailuku","HI","Hawaii","96793","(UTC-10)","20.901536","-156.566493"
"(808) 269-","Cell Number","Maui","Wailuku","HI","Hawaii","96793","(UTC-10)","20.901536","-156.566493"
"(808) 739-","Landline","Honolulu","Honolulu","HI","Hawaii","96806","(UTC-10)","24.859832","-168.021815"
"(808) 242-","Landline","Maui","Wailuku","HI","Hawaii","96793","(UTC-10)","20.901536","-156.566493"
"(808) 990-","Cell Number","Hawaii","Hilo","HI","Hawaii","96721","(UTC-10)","19.593456","-155.438015"
"(808) 931-","Landline","Honolulu","Honolulu","HI","Hawaii","96806","(UTC-10)","24.859832","-168.021815"
"(808) 255-","Cell Number","Honolulu","Honolulu","HI","Hawaii","96806","(UTC-10)","24.859832","-168.021815"
"(808) 543-","Landline","Honolulu","Honolulu","HI","Hawaii","96806","(UTC-10)","24.859832","-168.021815"
"(808) 999-","Unknown","Maui","Lahaina","HI","Hawaii","96767","(UTC-10)","20.866638","-156.646667"
"(808) 215-","Landline","Maui","Lahaina","HI","Hawaii","96767","(UTC-10)","20.866638","-156.646667"
"(808) 271-","Cell Number","Honolulu","Mililani","HI","Hawaii","96789","(UTC-10)","21.458855","-158.012322"
"(808) 822-","Landline","Kauai","Kapaa","HI","Hawaii","96746","(UTC-10)","22.074197","-159.406197"
"(808) 478-","Cell Number","Honolulu","Honolulu","HI","Hawaii","96806","(UTC-10)","24.859832","-168.021815"
"(808) 854-","Landline","Hawaii","Hilo","HI","Hawaii","96721","(UTC-10)","19.593456","-155.438015"
"(808) 875-","Landline","Maui","Kihei","HI","Hawaii","96753","(UTC-10)","20.723542","-156.469915"
"(808) 246-","Landline","Kauai","Lihue","HI","Hawaii","96766","(UTC-10)","22.070553","-159.430328"
"(808) 576-","Landline","Honolulu","Honolulu","HI","Hawaii","96806","(UTC-10)","24.859832","-168.021815"
"(808) 874-","Landline","Maui","Kihei","HI","Hawaii","96753","(UTC-10)","20.723542","-156.469915"
"(808) 742-","Landline","Kauai","Koloa","HI","Hawaii","96756","(UTC-10)","22.028379","-159.432992"
"(808) 253-","Landline","Honolulu","Kailua","HI","Hawaii","96734","(UTC-10)","21.595644","-158.039121"
"(808) 523-","Landline","Honolulu","Honolulu","HI","Hawaii","96806","(UTC-10)","24.859832","-168.021815"
"(808) 221-","Cell Number","Honolulu","Honolulu","HI","Hawaii","96806","(UTC-10)","24.859832","-168.021815"
"(808) 485-","Landline","Honolulu","Aiea","HI","Hawaii","96701","(UTC-10)","21.39065","-157.927829"
"(808) 357-","Cell Number","Maui","Wailuku","HI","Hawaii","96793","(UTC-10)","20.901536","-156.566493"
"(808) 870-","Cell Number","Maui","Wailuku","HI","Hawaii","96793","(UTC-10)","20.901536","-156.566493"
"(808) 380-","Unknown","Honolulu","Honolulu","HI","Hawaii","96806","(UTC-10)","24.859832","-168.021815"
"(808) 337-","Landline","Kauai","Lihue","HI","Hawaii","96766","(UTC-10)","22.070553","-159.430328"
"(808) 327-","Landline","Hawaii","Hilo","HI","Hawaii","96721","(UTC-10)","19.593456","-155.438015"
"(808) 630-","Landline","Honolulu","Mililani","HI","Hawaii","96789","(UTC-10)","21.458855","-158.012322"
"(808) 694-","Unknown","Honolulu","Honolulu","HI","Hawaii","96806","(UTC-10)","24.859832","-168.021815"
"(808) 285-","Cell Number","Honolulu","Mililani","HI","Hawaii","96789","(UTC-10)","21.458855","-158.012322"
"(808) 744-","Unknown","Honolulu","Honolulu","HI","Hawaii","96806","(UTC-10)","24.859832","-168.021815"
"(808) 585-","Landline","Honolulu","Honolulu","HI","Hawaii","96806","(UTC-10)","24.859832","-168.021815"
"(808) 951-","Landline","Honolulu","Honolulu","HI","Hawaii","96806","(UTC-10)","24.859832","-168.021815"
"(808) 682-","Landline","Honolulu","Kapolei","HI","Hawaii","96707","(UTC-10)","21.341784","-158.091383"
"(808) 623-","Landline","Honolulu","Mililani","HI","Hawaii","96789","(UTC-10)","21.458855","-158.012322"
"(808) 443-","Landline","Hawaii","Hilo","HI","Hawaii","96721","(UTC-10)","19.593456","-155.438015"
"(808) 775-","Landline","Hawaii","Hilo","HI","Hawaii","96721","(UTC-10)","19.593456","-155.438015"
"(808) 277-","Cell Number","Honolulu","Honolulu","HI","Hawaii","96806","(UTC-10)","24.859832","-168.021815"
"(808) 522-","Landline","Honolulu","Honolulu","HI","Hawaii","96806","(UTC-10)","24.859832","-168.021815"
"(808) 772-","Cell Number","Honolulu","Mililani","HI","Hawaii","96789","(UTC-10)","21.458855","-158.012322"
"(808) 282-","Cell Number","Honolulu","Mililani","HI","Hawaii","96789","(UTC-10)","21.458855","-158.012322"
"(808) 620-","Landline","Honolulu","Honolulu","HI","Hawaii","96806","(UTC-10)","24.859832","-168.021815"
"(808) 872-","Landline","Maui","Wailuku","HI","Hawaii","96793","(UTC-10)","20.901536","-156.566493"
"(808) 778-","Cell Number","Honolulu","Honolulu","HI","Hawaii","96806","(UTC-10)","24.859832","-168.021815"
"(808) 580-","Cell Number","Honolulu","Honolulu","HI","Hawaii","96806","(UTC-10)","24.859832","-168.021815"
"(808) 224-","Cell Number","Honolulu","Honolulu","HI","Hawaii","96806","(UTC-10)","24.859832","-168.021815"
"(808) 487-","Landline","Honolulu","Aiea","HI","Hawaii","96701","(UTC-10)","21.39065","-157.927829"
"(808) 843-","Landline","Honolulu","Honolulu","HI","Hawaii","96806","(UTC-10)","24.859832","-168.021815"
"(808) 238-","Unknown","Hawaii","Hilo","HI","Hawaii","96721","(UTC-10)","19.593456","-155.438015"
"(808) 534-","Landline","Honolulu","Honolulu","HI","Hawaii","96806","(UTC-10)","24.859832","-168.021815"
"(808) 397-","Landline","Honolulu","Honolulu","HI","Hawaii","96806","(UTC-10)","24.859832","-168.021815"
"(808) 392-","Cell Number","Honolulu","Honolulu","HI","Hawaii","96806","(UTC-10)","24.859832","-168.021815"
"(808) 639-","Cell Number","Kauai","Lihue","HI","Hawaii","96766","(UTC-10)","22.070553","-159.430328"
"(808) 983-","Landline","Honolulu","Honolulu","HI","Hawaii","96806","(UTC-10)","24.859832","-168.021815"
"(808) 283-","Cell Number","Maui","Wailuku","HI","Hawaii","96793","(UTC-10)","20.901536","-156.566493"
"(808) 570-","Cell Number","Honolulu","Honolulu","HI","Hawaii","96806","(UTC-10)","24.859832","-168.021815"
"(808) 593-","Landline","Honolulu","Honolulu","HI","Hawaii","96806","(UTC-10)","24.859832","-168.021815"
"(808) 890-","Landline","Hawaii","Hilo","HI","Hawaii","96721","(UTC-10)","19.593456","-155.438015"
"(808) 691-","Landline","Honolulu","Waipahu","HI","Hawaii","96797","(UTC-10)","21.399548","-158.015151"
"(808) 575-","Landline","Maui","Haiku","HI","Hawaii","96708","(UTC-10)","20.849675","-156.165622"
"(808) 949-","Landline","Honolulu","Honolulu","HI","Hawaii","96806","(UTC-10)","24.859832","-168.021815"
