"Prefix","Usage","County","City","ShortState","LongState","Zip","Timezone","Latitude","Longitude"
"(208) 921-","Landline","Ada","Boise","ID","Idaho","83725","Mountain / Pacific","43.459855","-116.243984"
"(208) 723-","Landline","Ada","Boise","ID","Idaho","83725","Mountain / Pacific","43.459855","-116.243984"
"(208) 593-","Cell Number","Jerome","Jerome","ID","Idaho","83338","Mountain / Pacific","42.736869","-114.374568"
"(208) 673-","Landline","Cassia","Albion","ID","Idaho","83311","Mountain / Pacific","42.339326","-113.461324"
"(208) 498-","Landline","Canyon","Nampa","ID","Idaho","83687","Mountain / Pacific","43.602302","-116.552636"
"(208) 210-","Cell Number","Jerome","Jerome","ID","Idaho","83338","Mountain / Pacific","42.736869","-114.374568"
"(208) 288-","Landline","Ada","Meridian","ID","Idaho","83680","Mountain / Pacific","43.459855","-116.243984"
"(208) 743-","Landline","Nez Perce","Lewiston","ID","Idaho","83501","Mountain / Pacific","46.3646","-116.860852"
"(208) 232-","Landline","Bannock","Pocatello","ID","Idaho","83209","Mountain / Pacific","42.639474","-112.313836"
"(208) 470-","Cell Number","Canyon","Parma","ID","Idaho","83660","Mountain / Pacific","43.785082","-116.897455"
"(208) 273-","Landline","Kootenai","Plummer","ID","Idaho","83851","Mountain / Pacific","47.243487","-116.862018"
"(208) 597-","Cell Number","Bonner","Sandpoint","ID","Idaho","83864","Mountain / Pacific","48.299486","-116.553968"
"(208) 586-","Cell Number","Cassia","Burley","ID","Idaho","83318","Mountain / Pacific","42.399472","-113.848558"
"(208) 827-","Cell Number","Clearwater","Orofino","ID","Idaho","83544","Mountain / Pacific","46.4976","-116.184848"
"(208) 381-","Landline","Ada","Boise","ID","Idaho","83725","Mountain / Pacific","43.459855","-116.243984"
"(208) 704-","Cell Number","Kootenai","Coeur D Alene","ID","Idaho","83816","Mountain / Pacific","47.678798","-116.682718"
"(208) 460-","Landline","Ada","Boise","ID","Idaho","83725","Mountain / Pacific","43.459855","-116.243984"
"(208) 493-","Landline","Ada","Boise","ID","Idaho","83725","Mountain / Pacific","43.459855","-116.243984"
"(208) 930-","Unknown","Kootenai","Coeur D Alene","ID","Idaho","83816","Mountain / Pacific","47.678798","-116.682718"
"(208) 646-","Landline","Franklin","Franklin","ID","Idaho","83237","Mountain / Pacific","42.028792","-111.787055"
"(208) 993-","Cell Number","Lemhi","Salmon","ID","Idaho","83467","Mountain / Pacific","45.171856","-113.921041"
"(208) 840-","Cell Number","Franklin","Preston","ID","Idaho","83263","Mountain / Pacific","42.207376","-111.812126"
"(208) 461-","Landline","Canyon","Nampa","ID","Idaho","83687","Mountain / Pacific","43.602302","-116.552636"
"(208) 585-","Landline","Canyon","Middleton","ID","Idaho","83644","Mountain / Pacific","43.577401","-116.590338"
"(208) 219-","Cell Number","Cassia","Burley","ID","Idaho","83318","Mountain / Pacific","42.399472","-113.848558"
"(208) 490-","Cell Number","Twin Falls","Buhl","ID","Idaho","83316","Mountain / Pacific","42.586201","-114.829856"
"(208) 843-","Landline","Nez Perce","Lapwai","ID","Idaho","83540","Mountain / Pacific","46.402671","-116.805125"
"(208) 666-","Landline","Kootenai","Coeur D Alene","ID","Idaho","83816","Mountain / Pacific","47.678798","-116.682718"
"(208) 837-","Landline","Gooding","Hagerman","ID","Idaho","83332","Mountain / Pacific","42.807535","-114.86211"
"(208) 334-","Landline","Ada","Boise","ID","Idaho","83725","Mountain / Pacific","43.459855","-116.243984"
"(208) 332-","Landline","Ada","Boise","ID","Idaho","83725","Mountain / Pacific","43.459855","-116.243984"
"(208) 241-","Cell Number","Bannock","Pocatello","ID","Idaho","83209","Mountain / Pacific","42.639474","-112.313836"
"(208) 697-","Landline","Canyon","Nampa","ID","Idaho","83687","Mountain / Pacific","43.602302","-116.552636"
"(208) 862-","Landline","Cassia","Oakley","ID","Idaho","83346","Mountain / Pacific","42.193954","-113.872032"
"(208) 485-","Landline","Ada","Boise","ID","Idaho","83725","Mountain / Pacific","43.459855","-116.243984"
"(208) 442-","Landline","Canyon","Nampa","ID","Idaho","83687","Mountain / Pacific","43.602302","-116.552636"
"(208) 691-","Cell Number","Kootenai","Coeur D Alene","ID","Idaho","83816","Mountain / Pacific","47.678798","-116.682718"
"(208) 419-","Landline","Bonneville","Idaho Falls","ID","Idaho","83404","Mountain / Pacific","43.433036","-111.660433"
"(208) 998-","Cell Number","Canyon","Wilder","ID","Idaho","83676","Mountain / Pacific","43.657855","-116.919629"
"(208) 279-","Landline","Ada","Boise","ID","Idaho","83725","Mountain / Pacific","43.459855","-116.243984"
"(208) 833-","Cell Number","Bannock","Pocatello","ID","Idaho","83209","Mountain / Pacific","42.639474","-112.313836"
"(208) 863-","Cell Number","Ada","Boise","ID","Idaho","83725","Mountain / Pacific","43.459855","-116.243984"
"(208) 481-","Cell Number","Blaine","Hailey","ID","Idaho","83333","Mountain / Pacific","43.54195","-114.31008"
"(208) 884-","Landline","Ada","Meridian","ID","Idaho","83680","Mountain / Pacific","43.459855","-116.243984"
"(208) 642-","Landline","Payette","Payette","ID","Idaho","83661","Mountain / Pacific","44.063604","-116.750704"
"(208) 879-","Landline","Custer","Challis","ID","Idaho","83226","Mountain / Pacific","44.50599","-114.222666"
"(208) 638-","Landline","Cassia","Malta","ID","Idaho","83342","Mountain / Pacific","42.274076","-113.392736"
"(208) 731-","Cell Number","Twin Falls","Twin Falls","ID","Idaho","83303","Mountain / Pacific","42.456273","-114.519536"
"(208) 457-","Landline","Kootenai","Post Falls","ID","Idaho","83854","Mountain / Pacific","47.795737","-116.946395"
"(208) 418-","Landline","Latah","Troy","ID","Idaho","83871","Mountain / Pacific","46.75717","-116.714214"
"(208) 825-","Landline","Jerome","Eden","ID","Idaho","83325","Mountain / Pacific","42.586804","-114.246706"
"(208) 378-","Landline","Ada","Boise","ID","Idaho","83725","Mountain / Pacific","43.459855","-116.243984"
"(208) 531-","Landline","Minidoka","Rupert","ID","Idaho","83350","Mountain / Pacific","42.688753","-113.648077"
"(208) 610-","Cell Number","Bonner","Sandpoint","ID","Idaho","83864","Mountain / Pacific","48.299486","-116.553968"
"(208) 212-","Landline","Twin Falls","Twin Falls","ID","Idaho","83303","Mountain / Pacific","42.456273","-114.519536"
"(208) 544-","Landline","Lincoln","Shoshone","ID","Idaho","83352","Mountain / Pacific","43.059165","-114.414825"
"(208) 954-","Unknown","Ada","Boise","ID","Idaho","83725","Mountain / Pacific","43.459855","-116.243984"
"(208) 355-","Landline","Washington","Midvale","ID","Idaho","83645","Mountain / Pacific","44.38304","-116.651974"
"(208) 542-","Landline","Bonneville","Idaho Falls","ID","Idaho","83404","Mountain / Pacific","43.433036","-111.660433"
"(208) 342-","Landline","Ada","Boise","ID","Idaho","83725","Mountain / Pacific","43.459855","-116.243984"
"(208) 424-","Landline","Ada","Boise","ID","Idaho","83725","Mountain / Pacific","43.459855","-116.243984"
"(208) 347-","Landline","Adams","New Meadows","ID","Idaho","83654","Mountain / Pacific","45.086839","-116.303451"
"(208) 594-","Cell Number","Blaine","Hailey","ID","Idaho","83333","Mountain / Pacific","43.54195","-114.31008"
"(208) 716-","Cell Number","Madison","Rexburg","ID","Idaho","83441","Mountain / Pacific","43.776095","-111.691047"
"(208) 514-","Landline","Ada","Boise","ID","Idaho","83725","Mountain / Pacific","43.459855","-116.243984"
"(208) 403-","Cell Number","Bonneville","Idaho Falls","ID","Idaho","83404","Mountain / Pacific","43.433036","-111.660433"
"(208) 535-","Landline","Bonneville","Idaho Falls","ID","Idaho","83404","Mountain / Pacific","43.433036","-111.660433"
"(208) 725-","Landline","Blaine","Hailey","ID","Idaho","83333","Mountain / Pacific","43.54195","-114.31008"
"(208) 664-","Landline","Kootenai","Coeur D Alene","ID","Idaho","83816","Mountain / Pacific","47.678798","-116.682718"
"(208) 443-","Landline","Bonner","Nordman","ID","Idaho","83848","Mountain / Pacific","48.614631","-116.925844"
"(208) 906-","Landline","Ada","Boise","ID","Idaho","83725","Mountain / Pacific","43.459855","-116.243984"
"(208) 239-","Landline","Bannock","Pocatello","ID","Idaho","83209","Mountain / Pacific","42.639474","-112.313836"
"(208) 454-","Landline","Canyon","Caldwell","ID","Idaho","83607","Mountain / Pacific","43.618618","-116.750109"
"(208) 745-","Landline","Jefferson","Rigby","ID","Idaho","83442","Mountain / Pacific","43.692206","-111.889325"
"(208) 672-","Landline","Ada","Boise","ID","Idaho","83725","Mountain / Pacific","43.459855","-116.243984"
"(208) 776-","Landline","Bannock","Lava Hot Springs","ID","Idaho","83246","Mountain / Pacific","42.60197","-112.058039"
"(208) 681-","Cell Number","Bingham","Blackfoot","ID","Idaho","83221","Mountain / Pacific","43.251328","-112.464518"
"(208) 665-","Landline","Kootenai","Coeur D Alene","ID","Idaho","83816","Mountain / Pacific","47.678798","-116.682718"
"(208) 782-","Landline","Bingham","Blackfoot","ID","Idaho","83221","Mountain / Pacific","43.251328","-112.464518"
"(208) 895-","Landline","Ada","Meridian","ID","Idaho","83680","Mountain / Pacific","43.459855","-116.243984"
"(208) 455-","Landline","Canyon","Caldwell","ID","Idaho","83607","Mountain / Pacific","43.618618","-116.750109"
"(208) 579-","Cell Number","Canyon","Wilder","ID","Idaho","83676","Mountain / Pacific","43.657855","-116.919629"
"(208) 507-","Cell Number","Idaho","Grangeville","ID","Idaho","83530","Mountain / Pacific","45.869801","-116.19729"
"(208) 503-","Cell Number","Nez Perce","Lewiston","ID","Idaho","83501","Mountain / Pacific","46.3646","-116.860852"
"(208) 472-","Landline","Ada","Boise","ID","Idaho","83725","Mountain / Pacific","43.459855","-116.243984"
"(208) 688-","Cell Number","Caribou","Wayan","ID","Idaho","83285","Mountain / Pacific","42.892211","-111.267458"
"(208) 730-","Landline","Ada","Boise","ID","Idaho","83725","Mountain / Pacific","43.459855","-116.243984"
"(208) 852-","Landline","Franklin","Preston","ID","Idaho","83263","Mountain / Pacific","42.207376","-111.812126"
"(208) 350-","Landline","Ada","Boise","ID","Idaho","83725","Mountain / Pacific","43.459855","-116.243984"
"(208) 631-","Cell Number","Ada","Meridian","ID","Idaho","83680","Mountain / Pacific","43.459855","-116.243984"
"(208) 764-","Landline","Camas","Fairfield","ID","Idaho","83327","Mountain / Pacific","43.368419","-114.686706"
"(208) 749-","Cell Number","Twin Falls","Twin Falls","ID","Idaho","83303","Mountain / Pacific","42.456273","-114.519536"
"(208) 747-","Landline","Franklin","Dayton","ID","Idaho","83232","Mountain / Pacific","42.145827","-111.97748"
"(208) 423-","Landline","Twin Falls","Kimberly","ID","Idaho","83341","Mountain / Pacific","42.50541","-114.367966"
"(208) 964-","Cell Number","Kootenai","Coeur D Alene","ID","Idaho","83816","Mountain / Pacific","47.678798","-116.682718"
"(208) 796-","Landline","Elmore","Mountain Home","ID","Idaho","83647","Mountain / Pacific","43.156195","-115.720455"
"(208) 474-","Landline","Ada","Boise","ID","Idaho","83725","Mountain / Pacific","43.459855","-116.243984"
"(208) 914-","Landline","Ada","Boise","ID","Idaho","83725","Mountain / Pacific","43.459855","-116.243984"
"(208) 769-","Landline","Kootenai","Coeur D Alene","ID","Idaho","83816","Mountain / Pacific","47.678798","-116.682718"
"(208) 657-","Landline","Jefferson","Monteview","ID","Idaho","83435","Mountain / Pacific","43.871293","-112.447757"
"(208) 290-","Cell Number","Bonner","Sandpoint","ID","Idaho","83864","Mountain / Pacific","48.299486","-116.553968"
"(208) 414-","Landline","Washington","Weiser","ID","Idaho","83672","Mountain / Pacific","44.304193","-116.859937"
"(208) 231-","Landline","Kootenai","Worley","ID","Idaho","83876","Mountain / Pacific","47.456856","-116.898603"
"(208) 737-","Landline","Twin Falls","Twin Falls","ID","Idaho","83303","Mountain / Pacific","42.456273","-114.519536"
"(208) 280-","Cell Number","Twin Falls","Twin Falls","ID","Idaho","83303","Mountain / Pacific","42.456273","-114.519536"
"(208) 856-","Unknown","Canyon","Melba","ID","Idaho","83641","Mountain / Pacific","43.389331","-116.583102"
"(208) 860-","Cell Number","Ada","Boise","ID","Idaho","83725","Mountain / Pacific","43.459855","-116.243984"
"(208) 750-","Landline","Nez Perce","Lewiston","ID","Idaho","83501","Mountain / Pacific","46.3646","-116.860852"
"(208) 560-","Cell Number","Camas","Fairfield","ID","Idaho","83327","Mountain / Pacific","43.368419","-114.686706"
"(208) 925-","Unknown","Lewis","Craigmont","ID","Idaho","83523","Mountain / Pacific","46.269379","-116.539248"
"(208) 924-","Landline","Lewis","Craigmont","ID","Idaho","83523","Mountain / Pacific","46.269379","-116.539248"
"(208) 570-","Cell Number","Canyon","Boise","ID","Idaho","83725","Mountain / Pacific","43.459855","-116.243984"
"(208) 571-","Cell Number","Ada","Boise","ID","Idaho","83725","Mountain / Pacific","43.459855","-116.243984"
"(208) 523-","Landline","Bonneville","Idaho Falls","ID","Idaho","83404","Mountain / Pacific","43.433036","-111.660433"
"(208) 305-","Cell Number","Nez Perce","Lewiston","ID","Idaho","83501","Mountain / Pacific","46.3646","-116.860852"
"(208) 324-","Landline","Jerome","Jerome","ID","Idaho","83338","Mountain / Pacific","42.736869","-114.374568"
"(208) 329-","Cell Number","Jerome","Jerome","ID","Idaho","83338","Mountain / Pacific","42.736869","-114.374568"
"(208) 961-","Cell Number","Gooding","Gooding","ID","Idaho","83330","Mountain / Pacific","42.907488","-114.773963"
"(208) 434-","Landline","Minidoka","Rupert","ID","Idaho","83350","Mountain / Pacific","42.688753","-113.648077"
"(208) 394-","Landline","Lemhi","North Fork","ID","Idaho","83466","Mountain / Pacific","45.612948","-113.967272"
"(208) 937-","Landline","Lewis","Nezperce","ID","Idaho","83543","Mountain / Pacific","46.296282","-116.264274"
"(208) 899-","Cell Number","Canyon","Nampa","ID","Idaho","83687","Mountain / Pacific","43.602302","-116.552636"
"(208) 767-","Landline","Butte","Arco","ID","Idaho","83213","Mountain / Pacific","43.634236","-113.213308"
"(208) 300-","Cell Number","Minidoka","Rupert","ID","Idaho","83350","Mountain / Pacific","42.688753","-113.648077"
"(208) 335-","Landline","Power","Arbon","ID","Idaho","83212","Mountain / Pacific","42.512788","-112.542643"
"(208) 953-","Unknown","Payette","New Plymouth","ID","Idaho","83655","Mountain / Pacific","43.95779","-116.813237"
"(208) 538-","Landline","Jefferson","Ririe","ID","Idaho","83443","Mountain / Pacific","43.641033","-111.71458"
"(208) 738-","Landline","Twin Falls","Twin Falls","ID","Idaho","83303","Mountain / Pacific","42.456273","-114.519536"
"(208) 392-","Landline","Boise","Idaho City","ID","Idaho","83631","Mountain / Pacific","43.883371","-115.708048"
"(208) 934-","Landline","Gooding","Gooding","ID","Idaho","83330","Mountain / Pacific","42.907488","-114.773963"
"(208) 819-","Cell Number","Kootenai","Coeur D Alene","ID","Idaho","83816","Mountain / Pacific","47.678798","-116.682718"
"(208) 227-","Landline","Bonneville","Idaho Falls","ID","Idaho","83404","Mountain / Pacific","43.433036","-111.660433"
"(208) 973-","Cell Number","Bingham","Pingree","ID","Idaho","83262","Mountain / Pacific","43.133647","-112.629467"
"(208) 539-","Cell Number","Twin Falls","Twin Falls","ID","Idaho","83303","Mountain / Pacific","42.456273","-114.519536"
"(208) 929-","Cell Number","Kootenai","Coeur D Alene","ID","Idaho","83816","Mountain / Pacific","47.678798","-116.682718"
"(208) 623-","Landline","Kootenai","Spirit Lake","ID","Idaho","83869","Mountain / Pacific","47.944549","-116.811536"
"(208) 247-","Landline","Ada","Boise","ID","Idaho","83725","Mountain / Pacific","43.459855","-116.243984"
"(208) 371-","Cell Number","Ada","Boise","ID","Idaho","83725","Mountain / Pacific","43.459855","-116.243984"
"(208) 495-","Landline","Canyon","Melba","ID","Idaho","83641","Mountain / Pacific","43.389331","-116.583102"
"(208) 581-","Cell Number","Ada","Boise","ID","Idaho","83725","Mountain / Pacific","43.459855","-116.243984"
"(208) 820-","Unknown","Lewis","Kamiah","ID","Idaho","83536","Mountain / Pacific","46.223289","-116.034292"
"(208) 653-","Landline","Camas","Corral","ID","Idaho","83322","Mountain / Pacific","43.528155","-114.730694"
"(208) 551-","Cell Number","Gem","Sweet","ID","Idaho","83670","Mountain / Pacific","43.989971","-116.328567"
"(208) 480-","Unknown","Lewis","Nezperce","ID","Idaho","83543","Mountain / Pacific","46.296282","-116.264274"
"(208) 870-","Cell Number","Ada","Meridian","ID","Idaho","83680","Mountain / Pacific","43.459855","-116.243984"
"(208) 467-","Landline","Canyon","Nampa","ID","Idaho","83687","Mountain / Pacific","43.602302","-116.552636"
"(208) 692-","Landline","Ada","Boise","ID","Idaho","83725","Mountain / Pacific","43.459855","-116.243984"
"(208) 313-","Cell Number","Bonneville","Idaho Falls","ID","Idaho","83404","Mountain / Pacific","43.433036","-111.660433"
"(208) 881-","Landline","Bonneville","Idaho Falls","ID","Idaho","83404","Mountain / Pacific","43.433036","-111.660433"
"(208) 756-","Landline","Lemhi","Salmon","ID","Idaho","83467","Mountain / Pacific","45.171856","-113.921041"
"(208) 421-","Cell Number","Twin Falls","Kimberly","ID","Idaho","83341","Mountain / Pacific","42.50541","-114.367966"
"(208) 353-","Cell Number","Ada","Boise","ID","Idaho","83725","Mountain / Pacific","43.459855","-116.243984"
"(208) 554-","Landline","Butte","Moore","ID","Idaho","83255","Mountain / Pacific","43.729598","-113.4544"
"(208) 257-","Landline","Washington","Cambridge","ID","Idaho","83610","Mountain / Pacific","44.642508","-116.690316"
"(208) 230-","Cell Number","Payette","Payette","ID","Idaho","83661","Mountain / Pacific","44.063604","-116.750704"
"(208) 888-","Landline","Ada","Meridian","ID","Idaho","83680","Mountain / Pacific","43.459855","-116.243984"
"(208) 592-","Cell Number","Bonneville","Idaho Falls","ID","Idaho","83404","Mountain / Pacific","43.433036","-111.660433"
"(208) 869-","Cell Number","Ada","Boise","ID","Idaho","83725","Mountain / Pacific","43.459855","-116.243984"
"(208) 552-","Landline","Bonneville","Idaho Falls","ID","Idaho","83404","Mountain / Pacific","43.433036","-111.660433"
"(208) 824-","Landline","Cassia","Malta","ID","Idaho","83342","Mountain / Pacific","42.274076","-113.392736"
"(208) 240-","Cell Number","Bannock","Pocatello","ID","Idaho","83209","Mountain / Pacific","42.639474","-112.313836"
"(208) 791-","Cell Number","Nez Perce","Lewiston","ID","Idaho","83501","Mountain / Pacific","46.3646","-116.860852"
"(208) 622-","Landline","Blaine","Hailey","ID","Idaho","83333","Mountain / Pacific","43.54195","-114.31008"
"(208) 978-","Landline","Ada","Boise","ID","Idaho","83725","Mountain / Pacific","43.459855","-116.243984"
"(208) 876-","Landline","Lemhi","May","ID","Idaho","83253","Mountain / Pacific","44.968059","-113.816735"
"(208) 636-","Landline","Valley","Yellow Pine","ID","Idaho","83677","Mountain / Pacific","44.68367","-115.453583"
"(208) 272-","Landline","Ada","Boise","ID","Idaho","83725","Mountain / Pacific","43.459855","-116.243984"
"(208) 270-","Cell Number","Bonneville","Swan Valley","ID","Idaho","83449","Mountain / Pacific","43.509657","-111.402336"
"(208) 426-","Landline","Ada","Boise","ID","Idaho","83725","Mountain / Pacific","43.459855","-116.243984"
"(208) 458-","Landline","Fremont","Teton","ID","Idaho","83451","Mountain / Pacific","43.890665","-111.650418"
"(208) 651-","Cell Number","Kootenai","Coeur D Alene","ID","Idaho","83816","Mountain / Pacific","47.678798","-116.682718"
"(208) 680-","Cell Number","Bingham","Blackfoot","ID","Idaho","83221","Mountain / Pacific","43.251328","-112.464518"
"(208) 407-","Cell Number","Ada","Boise","ID","Idaho","83725","Mountain / Pacific","43.459855","-116.243984"
"(208) 741-","Cell Number","Payette","Payette","ID","Idaho","83661","Mountain / Pacific","44.063604","-116.750704"
"(208) 866-","Cell Number","Ada","Boise","ID","Idaho","83725","Mountain / Pacific","43.459855","-116.243984"
"(208) 487-","Landline","Lincoln","Richfield","ID","Idaho","83349","Mountain / Pacific","43.060804","-114.212408"
"(208) 813-","Cell Number","Gem","Sweet","ID","Idaho","83670","Mountain / Pacific","43.989971","-116.328567"
"(208) 338-","Landline","Ada","Boise","ID","Idaho","83725","Mountain / Pacific","43.459855","-116.243984"
"(208) 771-","Cell Number","Kootenai","Coeur D Alene","ID","Idaho","83816","Mountain / Pacific","47.678798","-116.682718"
"(208) 415-","Landline","Kootenai","Coeur D Alene","ID","Idaho","83816","Mountain / Pacific","47.678798","-116.682718"
"(208) 276-","Landline","Latah","Juliaetta","ID","Idaho","83535","Mountain / Pacific","46.582376","-116.739999"
"(208) 553-","Landline","Nez Perce","Lewiston","ID","Idaho","83501","Mountain / Pacific","46.3646","-116.860852"
"(208) 861-","Cell Number","Ada","Boise","ID","Idaho","83725","Mountain / Pacific","43.459855","-116.243984"
"(208) 222-","Landline","Kootenai","Bayview","ID","Idaho","83803","Mountain / Pacific","47.982174","-116.549408"
"(208) 644-","Landline","Jerome","Jerome","ID","Idaho","83338","Mountain / Pacific","42.736869","-114.374568"
"(208) 693-","Landline","Ada","Boise","ID","Idaho","83725","Mountain / Pacific","43.459855","-116.243984"
"(208) 658-","Landline","Ada","Boise","ID","Idaho","83725","Mountain / Pacific","43.459855","-116.243984"
"(208) 783-","Landline","Shoshone","Kellogg","ID","Idaho","83837","Mountain / Pacific","47.515352","-116.01766"
"(208) 543-","Landline","Twin Falls","Buhl","ID","Idaho","83316","Mountain / Pacific","42.586201","-114.829856"
"(208) 987-","Unknown","Benewah","Plummer","ID","Idaho","83851","Mountain / Pacific","47.243487","-116.862018"
"(208) 655-","Landline","Twin Falls","Rogerson","ID","Idaho","83302","Mountain / Pacific","42.166936","-114.815971"
"(208) 984-","Cell Number","Blaine","Carey","ID","Idaho","83320","Mountain / Pacific","43.391742","-114.076206"
"(208) 775-","Landline","Bannock","Inkom","ID","Idaho","83245","Mountain / Pacific","42.670637","-112.248038"
"(208) 315-","Cell Number","Valley","Mccall","ID","Idaho","83638","Mountain / Pacific","44.75196","-116.057987"
"(208) 289-","Landline","Latah","Kendrick","ID","Idaho","83537","Mountain / Pacific","46.663944","-116.573632"
"(208) 713-","Landline","Ada","Boise","ID","Idaho","83725","Mountain / Pacific","43.459855","-116.243984"
"(208) 661-","Cell Number","Kootenai","Coeur D Alene","ID","Idaho","83816","Mountain / Pacific","47.678798","-116.682718"
"(208) 541-","Unknown","Bonneville","Idaho Falls","ID","Idaho","83404","Mountain / Pacific","43.433036","-111.660433"
"(208) 835-","Landline","Latah","Troy","ID","Idaho","83871","Mountain / Pacific","46.75717","-116.714214"
"(208) 252-","Cell Number","Bannock","Pocatello","ID","Idaho","83209","Mountain / Pacific","42.639474","-112.313836"
"(208) 367-","Landline","Ada","Boise","ID","Idaho","83725","Mountain / Pacific","43.459855","-116.243984"
"(208) 867-","Cell Number","Ada","Boise","ID","Idaho","83725","Mountain / Pacific","43.459855","-116.243984"
"(208) 463-","Landline","Canyon","Nampa","ID","Idaho","83687","Mountain / Pacific","43.602302","-116.552636"
"(208) 249-","Cell Number","Canyon","Nampa","ID","Idaho","83687","Mountain / Pacific","43.602302","-116.552636"
"(208) 489-","Landline","Ada","Boise","ID","Idaho","83725","Mountain / Pacific","43.459855","-116.243984"
"(208) 343-","Landline","Ada","Boise","ID","Idaho","83725","Mountain / Pacific","43.459855","-116.243984"
"(208) 395-","Landline","Ada","Boise","ID","Idaho","83725","Mountain / Pacific","43.459855","-116.243984"
"(208) 545-","Landline","Ada","Boise","ID","Idaho","83725","Mountain / Pacific","43.459855","-116.243984"
"(208) 357-","Landline","Bingham","Shelley","ID","Idaho","83274","Mountain / Pacific","43.349659","-112.118813"
"(208) 339-","Cell Number","Bannock","Pocatello","ID","Idaho","83209","Mountain / Pacific","42.639474","-112.313836"
"(208) 206-","Cell Number","Bonneville","Idaho Falls","ID","Idaho","83404","Mountain / Pacific","43.433036","-111.660433"
"(208) 471-","Cell Number","Blaine","Hailey","ID","Idaho","83333","Mountain / Pacific","43.54195","-114.31008"
"(208) 450-","Cell Number","Blaine","Hailey","ID","Idaho","83333","Mountain / Pacific","43.54195","-114.31008"
"(208) 360-","Cell Number","Madison","Rexburg","ID","Idaho","83441","Mountain / Pacific","43.776095","-111.691047"
"(208) 620-","Cell Number","Kootenai","Coeur D Alene","ID","Idaho","83816","Mountain / Pacific","47.678798","-116.682718"
"(208) 799-","Landline","Nez Perce","Lewiston","ID","Idaho","83501","Mountain / Pacific","46.3646","-116.860852"
"(208) 991-","Unknown","Ada","Boise","ID","Idaho","83725","Mountain / Pacific","43.459855","-116.243984"
"(208) 336-","Landline","Ada","Boise","ID","Idaho","83725","Mountain / Pacific","43.459855","-116.243984"
"(208) 774-","Landline","Custer","Stanley","ID","Idaho","83278","Mountain / Pacific","44.371442","-114.856089"
"(208) 740-","Cell Number","Payette","Payette","ID","Idaho","83661","Mountain / Pacific","44.063604","-116.750704"
"(208) 330-","Landline","Ada","Boise","ID","Idaho","83725","Mountain / Pacific","43.459855","-116.243984"
"(208) 317-","Cell Number","Bannock","Pocatello","ID","Idaho","83209","Mountain / Pacific","42.639474","-112.313836"
"(208) 515-","Unknown","Ada","Boise","ID","Idaho","83725","Mountain / Pacific","43.459855","-116.243984"
"(208) 374-","Landline","Clark","Dubois","ID","Idaho","83423","Mountain / Pacific","44.177432","-112.219898"
"(208) 882-","Landline","Latah","Moscow","ID","Idaho","83843","Mountain / Pacific","46.735334","-116.870147"
"(208) 845-","Landline","Owyhee","Bruneau","ID","Idaho","83604","Mountain / Pacific","42.613957","-115.841917"
"(208) 871-","Cell Number","Ada","Meridian","ID","Idaho","83680","Mountain / Pacific","43.459855","-116.243984"
"(208) 437-","Landline","Bonner","Oldtown","ID","Idaho","83822","Mountain / Pacific","48.155185","-116.978066"
"(208) 558-","Landline","Fremont","Island Park","ID","Idaho","83429","Mountain / Pacific","44.408347","-111.427555"
"(208) 549-","Landline","Washington","Weiser","ID","Idaho","83672","Mountain / Pacific","44.304193","-116.859937"
"(208) 462-","Landline","Boise","Garden Valley","ID","Idaho","83622","Mountain / Pacific","44.091712","-115.909781"
"(208) 521-","Cell Number","Bonneville","Idaho Falls","ID","Idaho","83404","Mountain / Pacific","43.433036","-111.660433"
"(208) 433-","Landline","Ada","Boise","ID","Idaho","83725","Mountain / Pacific","43.459855","-116.243984"
"(208) 546-","Landline","Bannock","Nampa","ID","Idaho","83687","Mountain / Pacific","43.602302","-116.552636"
"(208) 203-","Cell Number","Cassia","Burley","ID","Idaho","83318","Mountain / Pacific","42.399472","-113.848558"
"(208) 377-","Landline","Ada","Boise","ID","Idaho","83725","Mountain / Pacific","43.459855","-116.243984"
"(208) 676-","Landline","Kootenai","Coeur D Alene","ID","Idaho","83816","Mountain / Pacific","47.678798","-116.682718"
"(208) 409-","Cell Number","Ada","Boise","ID","Idaho","83725","Mountain / Pacific","43.459855","-116.243984"
"(208) 451-","Cell Number","Idaho","Grangeville","ID","Idaho","83530","Mountain / Pacific","45.869801","-116.19729"
"(208) 948-","Cell Number","Jerome","Jerome","ID","Idaho","83338","Mountain / Pacific","42.736869","-114.374568"
"(208) 382-","Landline","Valley","Cascade","ID","Idaho","83611","Mountain / Pacific","44.692713","-115.641659"
"(208) 753-","Landline","Shoshone","Wallace","ID","Idaho","83873","Mountain / Pacific","47.553491","-116.01401"
"(208) 855-","Landline","Ada","Meridian","ID","Idaho","83680","Mountain / Pacific","43.459855","-116.243984"
"(208) 891-","Cell Number","Ada","Boise","ID","Idaho","83725","Mountain / Pacific","43.459855","-116.243984"
"(208) 491-","Cell Number","Valley","Mccall","ID","Idaho","83638","Mountain / Pacific","44.75196","-116.057987"
"(208) 369-","Cell Number","Gem","Emmett","ID","Idaho","83617","Mountain / Pacific","43.908876","-116.492657"
"(208) 938-","Landline","Ada","Boise","ID","Idaho","83725","Mountain / Pacific","43.459855","-116.243984"
"(208) 441-","Landline","Ada","Boise","ID","Idaho","83725","Mountain / Pacific","43.459855","-116.243984"
"(208) 235-","Landline","Bannock","Pocatello","ID","Idaho","83209","Mountain / Pacific","42.639474","-112.313836"
"(208) 432-","Landline","Twin Falls","Murtaugh","ID","Idaho","83344","Mountain / Pacific","42.476903","-114.120513"
"(208) 575-","Landline","Ada","Boise","ID","Idaho","83725","Mountain / Pacific","43.459855","-116.243984"
"(208) 354-","Landline","Teton","Driggs","ID","Idaho","83422","Mountain / Pacific","43.713752","-111.158402"
"(208) 684-","Landline","Bingham","Blackfoot","ID","Idaho","83221","Mountain / Pacific","43.251328","-112.464518"
"(208) 413-","Cell Number","Nez Perce","Lewiston","ID","Idaho","83501","Mountain / Pacific","46.3646","-116.860852"
"(208) 992-","Cell Number","Canyon","Parma","ID","Idaho","83660","Mountain / Pacific","43.785082","-116.897455"
"(208) 798-","Landline","Nez Perce","Lewiston","ID","Idaho","83501","Mountain / Pacific","46.3646","-116.860852"
"(208) 875-","Landline","Latah","Potlatch","ID","Idaho","83855","Mountain / Pacific","46.950211","-116.935859"
"(208) 744-","Landline","Shoshone","Mullan","ID","Idaho","83846","Mountain / Pacific","47.465825","-115.765951"
"(208) 763-","Landline","Kootenai","Coeur D Alene","ID","Idaho","83816","Mountain / Pacific","47.678798","-116.682718"
"(208) 316-","Cell Number","Jerome","Jerome","ID","Idaho","83338","Mountain / Pacific","42.736869","-114.374568"
"(208) 565-","Cell Number","Bannock","Inkom","ID","Idaho","83245","Mountain / Pacific","42.670637","-112.248038"
"(208) 788-","Landline","Blaine","Hailey","ID","Idaho","83333","Mountain / Pacific","43.54195","-114.31008"
"(208) 209-","Landline","Kootenai","Coeur D Alene","ID","Idaho","83816","Mountain / Pacific","47.678798","-116.682718"
"(208) 859-","Cell Number","Ada","Boise","ID","Idaho","83725","Mountain / Pacific","43.459855","-116.243984"
"(208) 844-","Cell Number","Bingham","Aberdeen","ID","Idaho","83210","Mountain / Pacific","43.004883","-112.839971"
"(208) 574-","Landline","Caribou","Wayan","ID","Idaho","83285","Mountain / Pacific","42.892211","-111.267458"
"(208) 534-","Landline","Bonneville","Idaho Falls","ID","Idaho","83404","Mountain / Pacific","43.433036","-111.660433"
"(208) 422-","Landline","Ada","Boise","ID","Idaho","83725","Mountain / Pacific","43.459855","-116.243984"
"(208) 868-","Landline","Elmore","Mountain Home","ID","Idaho","83647","Mountain / Pacific","43.156195","-115.720455"
"(208) 233-","Landline","Bannock","Pocatello","ID","Idaho","83209","Mountain / Pacific","42.639474","-112.313836"
"(208) 649-","Landline","Canyon","Caldwell","ID","Idaho","83607","Mountain / Pacific","43.618618","-116.750109"
"(208) 589-","Cell Number","Bannock","Pocatello","ID","Idaho","83209","Mountain / Pacific","42.639474","-112.313836"
"(208) 301-","Cell Number","Latah","Moscow","ID","Idaho","83843","Mountain / Pacific","46.735334","-116.870147"
"(208) 648-","Landline","Caribou","Bancroft","ID","Idaho","83217","Mountain / Pacific","42.813756","-111.52793"
"(208) 201-","Cell Number","Bonneville","Idaho Falls","ID","Idaho","83404","Mountain / Pacific","43.433036","-111.660433"
"(208) 894-","Landline","Custer","Ellis","ID","Idaho","83235","Mountain / Pacific","44.22397","-114.312713"
"(208) 466-","Landline","Canyon","Nampa","ID","Idaho","83687","Mountain / Pacific","43.602302","-116.552636"
"(208) 952-","Unknown","Kootenai","Coeur D Alene","ID","Idaho","83816","Mountain / Pacific","47.678798","-116.682718"
"(208) 410-","Cell Number","Twin Falls","Twin Falls","ID","Idaho","83303","Mountain / Pacific","42.456273","-114.519536"
"(208) 362-","Landline","Ada","Boise","ID","Idaho","83725","Mountain / Pacific","43.459855","-116.243984"
"(208) 260-","Cell Number","Minidoka","Rupert","ID","Idaho","83350","Mountain / Pacific","42.688753","-113.648077"
"(208) 935-","Landline","Lewis","Kamiah","ID","Idaho","83536","Mountain / Pacific","46.223289","-116.034292"
"(208) 562-","Landline","Ada","Boise","ID","Idaho","83725","Mountain / Pacific","43.459855","-116.243984"
"(208) 456-","Landline","Teton","Tetonia","ID","Idaho","83452","Mountain / Pacific","43.781382","-111.211829"
"(208) 826-","Landline","Latah","Deary","ID","Idaho","83823","Mountain / Pacific","46.777036","-116.525556"
"(208) 262-","Landline","Kootenai","Post Falls","ID","Idaho","83854","Mountain / Pacific","47.795737","-116.946395"
"(208) 945-","Landline","Bear Lake","Bern","ID","Idaho","83220","Mountain / Pacific","42.295466","-111.373414"
"(208) 259-","Landline","Boise","Lowman","ID","Idaho","83637","Mountain / Pacific","44.108217","-115.481823"
"(208) 364-","Landline","Ada","Boise","ID","Idaho","83725","Mountain / Pacific","43.459855","-116.243984"
"(208) 765-","Landline","Kootenai","Coeur D Alene","ID","Idaho","83816","Mountain / Pacific","47.678798","-116.682718"
"(208) 532-","Landline","Minidoka","Rupert","ID","Idaho","83350","Mountain / Pacific","42.688753","-113.648077"
"(208) 757-","Cell Number","Bonneville","Idaho Falls","ID","Idaho","83404","Mountain / Pacific","43.433036","-111.660433"
"(208) 794-","Cell Number","Ada","Boise","ID","Idaho","83725","Mountain / Pacific","43.459855","-116.243984"
"(208) 492-","Unknown","Ada","Boise","ID","Idaho","83725","Mountain / Pacific","43.459855","-116.243984"
"(208) 626-","Cell Number","Bingham","Pingree","ID","Idaho","83262","Mountain / Pacific","43.133647","-112.629467"
"(208) 736-","Landline","Twin Falls","Twin Falls","ID","Idaho","83303","Mountain / Pacific","42.456273","-114.519536"
"(208) 370-","Cell Number","Owyhee","Homedale","ID","Idaho","83628","Mountain / Pacific","43.635593","-116.96811"
"(208) 584-","Landline","Gem","Sweet","ID","Idaho","83670","Mountain / Pacific","43.989971","-116.328567"
"(208) 667-","Landline","Kootenai","Coeur D Alene","ID","Idaho","83816","Mountain / Pacific","47.678798","-116.682718"
"(208) 721-","Cell Number","Blaine","Hailey","ID","Idaho","83333","Mountain / Pacific","43.54195","-114.31008"
"(208) 831-","Cell Number","Owyhee","Marsing","ID","Idaho","83639","Mountain / Pacific","43.388977","-116.731362"
"(208) 908-","Unknown","Ada","Boise","ID","Idaho","83725","Mountain / Pacific","43.459855","-116.243984"
"(208) 528-","Landline","Bonneville","Idaho Falls","ID","Idaho","83404","Mountain / Pacific","43.433036","-111.660433"
"(208) 446-","Landline","Kootenai","Coeur D Alene","ID","Idaho","83816","Mountain / Pacific","47.678798","-116.682718"
"(208) 777-","Landline","Kootenai","Post Falls","ID","Idaho","83854","Mountain / Pacific","47.795737","-116.946395"
"(208) 550-","Cell Number","Washington","Weiser","ID","Idaho","83672","Mountain / Pacific","44.304193","-116.859937"
"(208) 793-","Landline","Boise","Horseshoe Bend","ID","Idaho","83629","Mountain / Pacific","43.969086","-116.11845"
"(208) 755-","Cell Number","Kootenai","Coeur D Alene","ID","Idaho","83816","Mountain / Pacific","47.678798","-116.682718"
"(208) 662-","Landline","Jefferson","Hamer","ID","Idaho","83425","Mountain / Pacific","43.878511","-112.260858"
"(208) 556-","Landline","Shoshone","Wallace","ID","Idaho","83873","Mountain / Pacific","47.553491","-116.01401"
"(208) 244-","Cell Number","Bannock","Pocatello","ID","Idaho","83209","Mountain / Pacific","42.639474","-112.313836"
"(208) 221-","Cell Number","Bannock","Pocatello","ID","Idaho","83209","Mountain / Pacific","42.639474","-112.313836"
"(208) 848-","Landline","Nez Perce","Lewiston","ID","Idaho","83501","Mountain / Pacific","46.3646","-116.860852"
"(208) 345-","Landline","Ada","Boise","ID","Idaho","83725","Mountain / Pacific","43.459855","-116.243984"
"(208) 630-","Landline","Valley","Mccall","ID","Idaho","83638","Mountain / Pacific","44.75196","-116.057987"
"(208) 453-","Landline","Canyon","Caldwell","ID","Idaho","83607","Mountain / Pacific","43.618618","-116.750109"
"(208) 847-","Landline","Bear Lake","Montpelier","ID","Idaho","83254","Mountain / Pacific","42.28644","-111.29681"
"(208) 643-","Landline","Bingham","Blackfoot","ID","Idaho","83221","Mountain / Pacific","43.251328","-112.464518"
"(208) 396-","Landline","Ada","Boise","ID","Idaho","83725","Mountain / Pacific","43.459855","-116.243984"
"(208) 388-","Landline","Ada","Boise","ID","Idaho","83725","Mountain / Pacific","43.459855","-116.243984"
"(208) 320-","Cell Number","Jerome","Jerome","ID","Idaho","83338","Mountain / Pacific","42.736869","-114.374568"
"(208) 274-","Landline","Benewah","Desmet","ID","Idaho","83824","Mountain / Pacific","47.146411","-116.915483"
"(208) 615-","Unknown","Canyon","Nampa","ID","Idaho","83687","Mountain / Pacific","43.602302","-116.552636"
"(208) 965-","Unknown","Canyon","Nampa","ID","Idaho","83687","Mountain / Pacific","43.602302","-116.552636"
"(208) 669-","Cell Number","Latah","Moscow","ID","Idaho","83843","Mountain / Pacific","46.735334","-116.870147"
"(208) 735-","Landline","Twin Falls","Twin Falls","ID","Idaho","83303","Mountain / Pacific","42.456273","-114.519536"
"(208) 358-","Cell Number","Twin Falls","Twin Falls","ID","Idaho","83303","Mountain / Pacific","42.456273","-114.519536"
"(208) 778-","Landline","Clark","Spencer","ID","Idaho","83446","Mountain / Pacific","44.271785","-112.306237"
"(208) 229-","Landline","Ada","Boise","ID","Idaho","83725","Mountain / Pacific","43.459855","-116.243984"
"(208) 337-","Landline","Owyhee","Homedale","ID","Idaho","83628","Mountain / Pacific","43.635593","-116.96811"
"(208) 919-","Cell Number","Ada","Boise","ID","Idaho","83725","Mountain / Pacific","43.459855","-116.243984"
"(208) 428-","Landline","Bonner","Priest River","ID","Idaho","83856","Mountain / Pacific","48.324253","-116.669154"
"(208) 333-","Landline","Ada","Boise","ID","Idaho","83725","Mountain / Pacific","43.459855","-116.243984"
"(208) 483-","Landline","Bonneville","Swan Valley","ID","Idaho","83449","Mountain / Pacific","43.509657","-111.402336"
"(208) 309-","Cell Number","Blaine","Hailey","ID","Idaho","83333","Mountain / Pacific","43.54195","-114.31008"
"(208) 256-","Landline","Adams","Indian Valley","ID","Idaho","83632","Mountain / Pacific","44.560567","-116.462903"
"(208) 975-","Landline","Ada","Boise","ID","Idaho","83725","Mountain / Pacific","43.459855","-116.243984"
"(208) 858-","Landline","Latah","Viola","ID","Idaho","83872","Mountain / Pacific","46.871724","-116.967516"
"(208) 726-","Landline","Blaine","Hailey","ID","Idaho","83333","Mountain / Pacific","43.54195","-114.31008"
"(208) 512-","Cell Number","Shoshone","Kellogg","ID","Idaho","83837","Mountain / Pacific","47.515352","-116.01766"
"(208) 898-","Landline","Ada","Meridian","ID","Idaho","83680","Mountain / Pacific","43.459855","-116.243984"
"(208) 573-","Cell Number","Ada","Boise","ID","Idaho","83725","Mountain / Pacific","43.459855","-116.243984"
"(208) 246-","Landline","Ada","Boise","ID","Idaho","83725","Mountain / Pacific","43.459855","-116.243984"
"(208) 352-","Landline","Gooding","Bliss","ID","Idaho","83314","Mountain / Pacific","42.918993","-114.887601"
"(208) 540-","Cell Number","Caribou","Soda Springs","ID","Idaho","83276","Mountain / Pacific","42.772866","-111.634757"
"(208) 652-","Landline","Fremont","Ashton","ID","Idaho","83420","Mountain / Pacific","44.015259","-111.42527"
"(208) 295-","Landline","Boundary","Bonners Ferry","ID","Idaho","83805","Mountain / Pacific","48.814078","-116.398202"
"(208) 675-","Unknown","Caribou","Soda Springs","ID","Idaho","83276","Mountain / Pacific","42.772866","-111.634757"
"(208) 639-","Landline","Ada","Boise","ID","Idaho","83725","Mountain / Pacific","43.459855","-116.243984"
"(208) 625-","Cell Number","Kootenai","Coeur D Alene","ID","Idaho","83816","Mountain / Pacific","47.678798","-116.682718"
"(208) 983-","Landline","Idaho","Grangeville","ID","Idaho","83530","Mountain / Pacific","45.869801","-116.19729"
"(208) 238-","Landline","Bannock","Pocatello","ID","Idaho","83209","Mountain / Pacific","42.639474","-112.313836"
"(208) 618-","Landline","Kootenai","Coeur D Alene","ID","Idaho","83816","Mountain / Pacific","47.678798","-116.682718"
"(208) 322-","Landline","Ada","Boise","ID","Idaho","83725","Mountain / Pacific","43.459855","-116.243984"
"(208) 297-","Cell Number","Kootenai","Boise","ID","Idaho","83725","Mountain / Pacific","43.459855","-116.243984"
"(208) 398-","Landline","Gem","Emmett","ID","Idaho","83617","Mountain / Pacific","43.908876","-116.492657"
"(208) 583-","Landline","Owyhee","Murphy","ID","Idaho","83650","Mountain / Pacific","42.838437","-116.032163"
"(208) 980-","Unknown","Bingham","Blackfoot","ID","Idaho","83221","Mountain / Pacific","43.251328","-112.464518"
"(208) 526-","Landline","Bonneville","Idaho Falls","ID","Idaho","83404","Mountain / Pacific","43.433036","-111.660433"
"(208) 941-","Cell Number","Ada","Boise","ID","Idaho","83725","Mountain / Pacific","43.459855","-116.243984"
"(208) 448-","Landline","Bonner","Priest River","ID","Idaho","83856","Mountain / Pacific","48.324253","-116.669154"
"(208) 758-","Unknown","Kootenai","Coeur D Alene","ID","Idaho","83816","Mountain / Pacific","47.678798","-116.682718"
"(208) 264-","Landline","Bonner","Hope","ID","Idaho","83836","Mountain / Pacific","48.248701","-116.279202"
"(208) 699-","Cell Number","Kootenai","Coeur D Alene","ID","Idaho","83816","Mountain / Pacific","47.678798","-116.682718"
"(208) 331-","Landline","Ada","Boise","ID","Idaho","83725","Mountain / Pacific","43.459855","-116.243984"
"(208) 830-","Cell Number","Ada","Boise","ID","Idaho","83725","Mountain / Pacific","43.459855","-116.243984"
"(208) 465-","Landline","Canyon","Nampa","ID","Idaho","83687","Mountain / Pacific","43.602302","-116.552636"
"(208) 505-","Unknown","Ada","Boise","ID","Idaho","83725","Mountain / Pacific","43.459855","-116.243984"
"(208) 781-","Cell Number","Boise","Horseshoe Bend","ID","Idaho","83629","Mountain / Pacific","43.969086","-116.11845"
"(208) 942-","Landline","Clearwater","Pierce","ID","Idaho","83546","Mountain / Pacific","46.443665","-115.804849"
"(208) 294-","Cell Number","Owyhee","Homedale","ID","Idaho","83628","Mountain / Pacific","43.635593","-116.96811"
"(208) 677-","Landline","Cassia","Burley","ID","Idaho","83318","Mountain / Pacific","42.399472","-113.848558"
"(208) 469-","Cell Number","Valley","Mccall","ID","Idaho","83638","Mountain / Pacific","44.75196","-116.057987"
"(208) 319-","Landline","Ada","Boise","ID","Idaho","83725","Mountain / Pacific","43.459855","-116.243984"
"(208) 431-","Cell Number","Minidoka","Rupert","ID","Idaho","83350","Mountain / Pacific","42.688753","-113.648077"
"(208) 530-","Cell Number","Caribou","Soda Springs","ID","Idaho","83276","Mountain / Pacific","42.772866","-111.634757"
"(208) 850-","Cell Number","Ada","Boise","ID","Idaho","83725","Mountain / Pacific","43.459855","-116.243984"
"(208) 533-","Landline","Bonneville","Idaho Falls","ID","Idaho","83404","Mountain / Pacific","43.433036","-111.660433"
"(208) 328-","Landline","Bingham","Pingree","ID","Idaho","83262","Mountain / Pacific","43.133647","-112.629467"
"(208) 399-","Cell Number","Teton","Driggs","ID","Idaho","83422","Mountain / Pacific","43.713752","-111.158402"
"(208) 444-","Cell Number","Kootenai","Coeur D Alene","ID","Idaho","83816","Mountain / Pacific","47.678798","-116.682718"
"(208) 561-","Landline","Kootenai","Bayview","ID","Idaho","83803","Mountain / Pacific","47.982174","-116.549408"
"(208) 420-","Cell Number","Twin Falls","Kimberly","ID","Idaho","83341","Mountain / Pacific","42.50541","-114.367966"
"(208) 883-","Landline","Latah","Moscow","ID","Idaho","83843","Mountain / Pacific","46.735334","-116.870147"
"(208) 406-","Cell Number","Bannock","Pocatello","ID","Idaho","83209","Mountain / Pacific","42.639474","-112.313836"
"(208) 787-","Landline","Teton","Victor","ID","Idaho","83455","Mountain / Pacific","43.63848","-111.132302"
"(208) 940-","Cell Number","Lemhi","Salmon","ID","Idaho","83467","Mountain / Pacific","45.171856","-113.921041"
"(208) 340-","Cell Number","Ada","Boise","ID","Idaho","83725","Mountain / Pacific","43.459855","-116.243984"
"(208) 577-","Landline","Ada","Boise","ID","Idaho","83725","Mountain / Pacific","43.459855","-116.243984"
"(208) 312-","Cell Number","Cassia","Burley","ID","Idaho","83318","Mountain / Pacific","42.399472","-113.848558"
"(208) 237-","Landline","Bannock","Pocatello","ID","Idaho","83209","Mountain / Pacific","42.639474","-112.313836"
"(208) 663-","Landline","Jefferson","Terreton","ID","Idaho","83450","Mountain / Pacific","43.85886","-112.439084"
"(208) 284-","Cell Number","Ada","Boise","ID","Idaho","83725","Mountain / Pacific","43.459855","-116.243984"
"(208) 977-","Landline","Ada","Boise","ID","Idaho","83725","Mountain / Pacific","43.459855","-116.243984"
"(208) 255-","Landline","Bonner","Sandpoint","ID","Idaho","83864","Mountain / Pacific","48.299486","-116.553968"
"(208) 834-","Landline","Owyhee","Grand View","ID","Idaho","83624","Mountain / Pacific","43.300562","-116.510261"
"(208) 536-","Landline","Gooding","Wendell","ID","Idaho","83355","Mountain / Pacific","42.747536","-114.730593"
"(208) 310-","Cell Number","Latah","Moscow","ID","Idaho","83843","Mountain / Pacific","46.735334","-116.870147"
"(208) 365-","Landline","Gem","Emmett","ID","Idaho","83617","Mountain / Pacific","43.908876","-116.492657"
"(208) 344-","Landline","Ada","Boise","ID","Idaho","83725","Mountain / Pacific","43.459855","-116.243984"
"(208) 380-","Cell Number","Bannock","Pocatello","ID","Idaho","83209","Mountain / Pacific","42.639474","-112.313836"
"(208) 760-","Cell Number","Bannock","Inkom","ID","Idaho","83245","Mountain / Pacific","42.670637","-112.248038"
"(208) 956-","Unknown","Kootenai","Coeur D Alene","ID","Idaho","83816","Mountain / Pacific","47.678798","-116.682718"
"(208) 368-","Landline","Ada","Boise","ID","Idaho","83725","Mountain / Pacific","43.459855","-116.243984"
"(208) 795-","Landline","Canyon","Caldwell","ID","Idaho","83607","Mountain / Pacific","43.618618","-116.750109"
"(208) 529-","Landline","Bonneville","Idaho Falls","ID","Idaho","83404","Mountain / Pacific","43.433036","-111.660433"
"(208) 720-","Cell Number","Blaine","Hailey","ID","Idaho","83333","Mountain / Pacific","43.54195","-114.31008"
"(208) 728-","Landline","Ada","Boise","ID","Idaho","83725","Mountain / Pacific","43.459855","-116.243984"
"(208) 254-","Landline","Bannock","Mccammon","ID","Idaho","83250","Mountain / Pacific","42.611881","-112.207443"
"(208) 955-","Landline","Ada","Meridian","ID","Idaho","83680","Mountain / Pacific","43.459855","-116.243984"
"(208) 979-","Landline","Ada","Boise","ID","Idaho","83725","Mountain / Pacific","43.459855","-116.243984"
"(208) 968-","Unknown","Ada","Boise","ID","Idaho","83725","Mountain / Pacific","43.459855","-116.243984"
"(208) 734-","Landline","Twin Falls","Twin Falls","ID","Idaho","83303","Mountain / Pacific","42.456273","-114.519536"
"(208) 779-","Landline","Canyon","Caldwell","ID","Idaho","83607","Mountain / Pacific","43.618618","-116.750109"
"(208) 234-","Landline","Bannock","Pocatello","ID","Idaho","83209","Mountain / Pacific","42.639474","-112.313836"
"(208) 327-","Landline","Ada","Boise","ID","Idaho","83725","Mountain / Pacific","43.459855","-116.243984"
"(208) 304-","Cell Number","Bonner","Sandpoint","ID","Idaho","83864","Mountain / Pacific","48.299486","-116.553968"
"(208) 429-","Landline","Ada","Boise","ID","Idaho","83725","Mountain / Pacific","43.459855","-116.243984"
"(208) 218-","Unknown","Kootenai","Coeur D Alene","ID","Idaho","83816","Mountain / Pacific","47.678798","-116.682718"
"(208) 215-","Landline","Kootenai","Coeur D Alene","ID","Idaho","83816","Mountain / Pacific","47.678798","-116.682718"
"(208) 877-","Landline","Latah","Deary","ID","Idaho","83823","Mountain / Pacific","46.777036","-116.525556"
"(208) 854-","Landline","Ada","Boise","ID","Idaho","83725","Mountain / Pacific","43.459855","-116.243984"
"(208) 897-","Landline","Bannock","Downey","ID","Idaho","83234","Mountain / Pacific","42.473005","-112.120195"
"(208) 251-","Cell Number","Bannock","Pocatello","ID","Idaho","83209","Mountain / Pacific","42.639474","-112.313836"
"(208) 878-","Landline","Minidoka","Rupert","ID","Idaho","83350","Mountain / Pacific","42.688753","-113.648077"
"(208) 752-","Landline","Shoshone","Wallace","ID","Idaho","83873","Mountain / Pacific","47.553491","-116.01401"
"(208) 650-","Cell Number","Cassia","Burley","ID","Idaho","83318","Mountain / Pacific","42.399472","-113.848558"
"(208) 846-","Landline","Ada","Meridian","ID","Idaho","83680","Mountain / Pacific","43.459855","-116.243984"
"(208) 690-","Cell Number","Bingham","Blackfoot","ID","Idaho","83221","Mountain / Pacific","43.251328","-112.464518"
"(208) 375-","Landline","Ada","Boise","ID","Idaho","83725","Mountain / Pacific","43.459855","-116.243984"
"(208) 268-","Landline","Benewah","Desmet","ID","Idaho","83824","Mountain / Pacific","47.146411","-116.915483"
"(208) 520-","Cell Number","Bonneville","Idaho Falls","ID","Idaho","83404","Mountain / Pacific","43.433036","-111.660433"
"(208) 739-","Cell Number","Payette","Payette","ID","Idaho","83661","Mountain / Pacific","44.063604","-116.750704"
"(208) 286-","Landline","Ada","Star","ID","Idaho","83669","Mountain / Pacific","43.713037","-116.485429"
"(208) 685-","Landline","Ada","Boise","ID","Idaho","83725","Mountain / Pacific","43.459855","-116.243984"
"(208) 893-","Landline","Ada","Meridian","ID","Idaho","83680","Mountain / Pacific","43.459855","-116.243984"
"(208) 851-","Cell Number","Franklin","Preston","ID","Idaho","83263","Mountain / Pacific","42.207376","-111.812126"
"(208) 427-","Landline","Franklin","Grace","ID","Idaho","83241","Mountain / Pacific","42.525874","-111.76691"
"(208) 220-","Cell Number","Power","American Falls","ID","Idaho","83211","Mountain / Pacific","42.635233","-112.945777"
"(208) 277-","Landline","Kootenai","Coeur D Alene","ID","Idaho","83816","Mountain / Pacific","47.678798","-116.682718"
"(208) 349-","Landline","Cassia","Declo","ID","Idaho","83323","Mountain / Pacific","42.524527","-113.433757"
"(208) 436-","Landline","Minidoka","Rupert","ID","Idaho","83350","Mountain / Pacific","42.688753","-113.648077"
"(208) 484-","Cell Number","Ada","Boise","ID","Idaho","83725","Mountain / Pacific","43.459855","-116.243984"
"(208) 390-","Cell Number","Madison","Rexburg","ID","Idaho","83441","Mountain / Pacific","43.776095","-111.691047"
"(208) 486-","Landline","Nez Perce","Peck","ID","Idaho","83545","Mountain / Pacific","46.451381","-116.517114"
"(208) 722-","Landline","Canyon","Parma","ID","Idaho","83660","Mountain / Pacific","43.785082","-116.897455"
"(208) 477-","Landline","Gem","Emmett","ID","Idaho","83617","Mountain / Pacific","43.908876","-116.492657"
"(208) 751-","Unknown","Jerome","Jerome","ID","Idaho","83338","Mountain / Pacific","42.736869","-114.374568"
"(208) 746-","Landline","Nez Perce","Lewiston","ID","Idaho","83501","Mountain / Pacific","46.3646","-116.860852"
"(208) 770-","Unknown","Kootenai","Coeur D Alene","ID","Idaho","83816","Mountain / Pacific","47.678798","-116.682718"
"(208) 225-","Landline","Bear Lake","Geneva","ID","Idaho","83238","Mountain / Pacific","42.331048","-111.088609"
"(208) 947-","Landline","Ada","Boise","ID","Idaho","83725","Mountain / Pacific","43.459855","-116.243984"
"(208) 732-","Landline","Twin Falls","Twin Falls","ID","Idaho","83303","Mountain / Pacific","42.456273","-114.519536"
"(208) 922-","Landline","Ada","Kuna","ID","Idaho","83634","Mountain / Pacific","43.459904","-116.338457"
"(208) 660-","Cell Number","Kootenai","Coeur D Alene","ID","Idaho","83816","Mountain / Pacific","47.678798","-116.682718"
"(208) 373-","Landline","Ada","Boise","ID","Idaho","83725","Mountain / Pacific","43.459855","-116.243984"
"(208) 645-","Landline","Cassia","Malta","ID","Idaho","83342","Mountain / Pacific","42.274076","-113.392736"
"(208) 839-","Landline","Idaho","White Bird","ID","Idaho","83554","Mountain / Pacific","45.889314","-115.557407"
"(208) 994-","Unknown","Ada","Boise","ID","Idaho","83725","Mountain / Pacific","43.459855","-116.243984"
"(208) 204-","Cell Number","Bonneville","Idaho Falls","ID","Idaho","83404","Mountain / Pacific","43.433036","-111.660433"
"(208) 323-","Landline","Ada","Boise","ID","Idaho","83725","Mountain / Pacific","43.459855","-116.243984"
"(208) 604-","Cell Number","Bingham","Blackfoot","ID","Idaho","83221","Mountain / Pacific","43.251328","-112.464518"
"(208) 223-","Cell Number","Bannock","Pocatello","ID","Idaho","83209","Mountain / Pacific","42.639474","-112.313836"
"(208) 376-","Landline","Ada","Boise","ID","Idaho","83725","Mountain / Pacific","43.459855","-116.243984"
"(208) 361-","Landline","Ada","Boise","ID","Idaho","83725","Mountain / Pacific","43.459855","-116.243984"
"(208) 768-","Landline","Lemhi","Leadore","ID","Idaho","83464","Mountain / Pacific","44.968059","-113.816735"
"(208) 694-","Landline","Ada","Boise","ID","Idaho","83725","Mountain / Pacific","43.459855","-116.243984"
"(208) 214-","Landline","Kootenai","Harrison","ID","Idaho","83833","Mountain / Pacific","47.501761","-116.751226"
"(208) 266-","Landline","Bonner","Clark Fork","ID","Idaho","83811","Mountain / Pacific","48.115891","-116.128983"
"(208) 806-","Landline","Blaine","Hailey","ID","Idaho","83333","Mountain / Pacific","43.54195","-114.31008"
"(208) 759-","Landline","Owyhee","Bruneau","ID","Idaho","83604","Mountain / Pacific","42.613957","-115.841917"
"(208) 275-","Landline","Ada","Boise","ID","Idaho","83725","Mountain / Pacific","43.459855","-116.243984"
"(208) 709-","Cell Number","Bonneville","Idaho Falls","ID","Idaho","83404","Mountain / Pacific","43.433036","-111.660433"
"(208) 566-","Cell Number","Canyon","Parma","ID","Idaho","83660","Mountain / Pacific","43.785082","-116.897455"
"(208) 640-","Cell Number","Kootenai","Coeur D Alene","ID","Idaho","83816","Mountain / Pacific","47.678798","-116.682718"
"(208) 226-","Landline","Power","American Falls","ID","Idaho","83211","Mountain / Pacific","42.635233","-112.945777"
"(208) 269-","Cell Number","Power","American Falls","ID","Idaho","83211","Mountain / Pacific","42.635233","-112.945777"
"(208) 452-","Landline","Payette","Fruitland","ID","Idaho","83619","Mountain / Pacific","43.974615","-116.900775"
"(208) 619-","Landline","Kootenai","Coeur D Alene","ID","Idaho","83816","Mountain / Pacific","47.678798","-116.682718"
"(208) 306-","Cell Number","Bonner","Priest River","ID","Idaho","83856","Mountain / Pacific","48.324253","-116.669154"
"(208) 445-","Landline","Ada","Boise","ID","Idaho","83725","Mountain / Pacific","43.459855","-116.243984"
"(208) 242-","Landline","Bannock","Pocatello","ID","Idaho","83209","Mountain / Pacific","42.639474","-112.313836"
"(208) 559-","Landline","Ada","Boise","ID","Idaho","83725","Mountain / Pacific","43.459855","-116.243984"
"(208) 202-","Cell Number","Ada","Boise","ID","Idaho","83725","Mountain / Pacific","43.459855","-116.243984"
"(208) 379-","Landline","Ada","Boise","ID","Idaho","83725","Mountain / Pacific","43.459855","-116.243984"
"(208) 717-","Landline","Nez Perce","Lewiston","ID","Idaho","83501","Mountain / Pacific","46.3646","-116.860852"
"(208) 372-","Landline","Fremont","Saint Anthony","ID","Idaho","83445","Mountain / Pacific","43.962969","-111.703605"
"(208) 857-","Landline","Twin Falls","Rogerson","ID","Idaho","83302","Mountain / Pacific","42.166936","-114.815971"
"(208) 727-","Landline","Blaine","Hailey","ID","Idaho","83333","Mountain / Pacific","43.54195","-114.31008"
"(208) 476-","Landline","Clearwater","Orofino","ID","Idaho","83544","Mountain / Pacific","46.4976","-116.184848"
"(208) 425-","Landline","Caribou","Grace","ID","Idaho","83241","Mountain / Pacific","42.525874","-111.76691"
"(208) 449-","Landline","Kootenai","Coeur D Alene","ID","Idaho","83816","Mountain / Pacific","47.678798","-116.682718"
"(208) 915-","Landline","Bannock","Pocatello","ID","Idaho","83209","Mountain / Pacific","42.639474","-112.313836"
"(208) 892-","Landline","Latah","Moscow","ID","Idaho","83843","Mountain / Pacific","46.735334","-116.870147"
"(208) 904-","Landline","Bannock","Inkom","ID","Idaho","83245","Mountain / Pacific","42.670637","-112.248038"
"(208) 797-","Landline","Kootenai","Coeur D Alene","ID","Idaho","83816","Mountain / Pacific","47.678798","-116.682718"
"(208) 468-","Landline","Canyon","Nampa","ID","Idaho","83687","Mountain / Pacific","43.602302","-116.552636"
"(208) 890-","Cell Number","Ada","Boise","ID","Idaho","83725","Mountain / Pacific","43.459855","-116.243984"
"(208) 656-","Landline","Madison","Rexburg","ID","Idaho","83441","Mountain / Pacific","43.776095","-111.691047"
"(208) 359-","Landline","Madison","Rexburg","ID","Idaho","83441","Mountain / Pacific","43.776095","-111.691047"
"(208) 205-","Cell Number","Blaine","Hailey","ID","Idaho","83333","Mountain / Pacific","43.54195","-114.31008"
"(208) 459-","Landline","Canyon","Caldwell","ID","Idaho","83607","Mountain / Pacific","43.618618","-116.750109"
"(208) 213-","Cell Number","Bannock","Inkom","ID","Idaho","83245","Mountain / Pacific","42.670637","-112.248038"
"(208) 405-","Cell Number","Payette","Payette","ID","Idaho","83661","Mountain / Pacific","44.063604","-116.750704"
"(208) 902-","Landline","Kootenai","Harrison","ID","Idaho","83833","Mountain / Pacific","47.501761","-116.751226"
"(208) 886-","Landline","Lincoln","Shoshone","ID","Idaho","83352","Mountain / Pacific","43.059165","-114.414825"
"(208) 707-","Cell Number","Canyon","Parma","ID","Idaho","83660","Mountain / Pacific","43.785082","-116.897455"
"(208) 629-","Landline","Ada","Boise","ID","Idaho","83725","Mountain / Pacific","43.459855","-116.243984"
"(208) 563-","Cell Number","Payette","Payette","ID","Idaho","83661","Mountain / Pacific","44.063604","-116.750704"
"(208) 682-","Landline","Shoshone","Pinehurst","ID","Idaho","83850","Mountain / Pacific","47.494941","-116.041059"
"(208) 384-","Landline","Ada","Boise","ID","Idaho","83725","Mountain / Pacific","43.459855","-116.243984"
"(208) 951-","Unknown","Benewah","Desmet","ID","Idaho","83824","Mountain / Pacific","47.146411","-116.915483"
"(208) 299-","Cell Number","Nez Perce","Lewiston","ID","Idaho","83501","Mountain / Pacific","46.3646","-116.860852"
"(208) 903-","Landline","Latah","Juliaetta","ID","Idaho","83535","Mountain / Pacific","46.582376","-116.739999"
"(208) 627-","Cell Number","Bonner","Sandpoint","ID","Idaho","83864","Mountain / Pacific","48.299486","-116.553968"
"(208) 282-","Landline","Bannock","Pocatello","ID","Idaho","83209","Mountain / Pacific","42.639474","-112.313836"
"(208) 564-","Landline","Caribou","Wayan","ID","Idaho","83285","Mountain / Pacific","42.892211","-111.267458"
"(208) 679-","Landline","Minidoka","Heyburn","ID","Idaho","83336","Mountain / Pacific","42.564732","-113.809824"
"(208) 326-","Landline","Twin Falls","Filer","ID","Idaho","83328","Mountain / Pacific","42.54076","-114.623799"
"(208) 647-","Landline","Cassia","Burley","ID","Idaho","83318","Mountain / Pacific","42.399472","-113.848558"
"(208) 880-","Cell Number","Canyon","Nampa","ID","Idaho","83687","Mountain / Pacific","43.602302","-116.552636"
"(208) 386-","Landline","Ada","Boise","ID","Idaho","83725","Mountain / Pacific","43.459855","-116.243984"
"(208) 537-","Landline","Twin Falls","Castleford","ID","Idaho","83321","Mountain / Pacific","42.402884","-114.784168"
"(208) 258-","Landline","Adams","Boise","ID","Idaho","83725","Mountain / Pacific","43.459855","-116.243984"
"(208) 786-","Landline","Shoshone","Kellogg","ID","Idaho","83837","Mountain / Pacific","47.515352","-116.01766"
"(208) 385-","Landline","Ada","Boise","ID","Idaho","83725","Mountain / Pacific","43.459855","-116.243984"
"(208) 557-","Landline","Bonneville","Idaho Falls","ID","Idaho","83404","Mountain / Pacific","43.433036","-111.660433"
"(208) 402-","Landline","Canyon","Caldwell","ID","Idaho","83607","Mountain / Pacific","43.618618","-116.750109"
"(208) 687-","Landline","Kootenai","Rathdrum","ID","Idaho","83858","Mountain / Pacific","47.845814","-116.839411"
"(208) 818-","Cell Number","Bonneville","Idaho Falls","ID","Idaho","83404","Mountain / Pacific","43.433036","-111.660433"
"(208) 439-","Landline","Ada","Boise","ID","Idaho","83725","Mountain / Pacific","43.459855","-116.243984"
"(208) 821-","Landline","Bonneville","Idaho Falls","ID","Idaho","83404","Mountain / Pacific","43.433036","-111.660433"
"(208) 435-","Landline","Clearwater","Weippe","ID","Idaho","83553","Mountain / Pacific","46.381159","-115.918826"
"(208) 224-","Landline","Latah","Genesee","ID","Idaho","83832","Mountain / Pacific","46.604181","-116.903754"
"(208) 668-","Landline","Latah","Potlatch","ID","Idaho","83855","Mountain / Pacific","46.950211","-116.935859"
"(208) 784-","Landline","Shoshone","Kellogg","ID","Idaho","83837","Mountain / Pacific","47.515352","-116.01766"
"(208) 250-","Cell Number","Canyon","Nampa","ID","Idaho","83687","Mountain / Pacific","43.602302","-116.552636"
"(208) 988-","Landline","Ada","Boise","ID","Idaho","83725","Mountain / Pacific","43.459855","-116.243984"
"(208) 963-","Cell Number","Ada","Boise","ID","Idaho","83725","Mountain / Pacific","43.459855","-116.243984"
"(208) 823-","Landline","Blaine","Carey","ID","Idaho","83320","Mountain / Pacific","43.391742","-114.076206"
"(208) 927-","Cell Number","Camas","Fairfield","ID","Idaho","83327","Mountain / Pacific","43.368419","-114.686706"
"(208) 926-","Landline","Idaho","Kooskia","ID","Idaho","83539","Mountain / Pacific","46.115992","-115.945949"
"(208) 678-","Landline","Cassia","Burley","ID","Idaho","83318","Mountain / Pacific","42.399472","-113.848558"
"(208) 263-","Landline","Bonner","Sandpoint","ID","Idaho","83864","Mountain / Pacific","48.299486","-116.553968"
"(208) 841-","Cell Number","Ada","Boise","ID","Idaho","83725","Mountain / Pacific","43.459855","-116.243984"
"(208) 703-","Cell Number","Ada","Boise","ID","Idaho","83725","Mountain / Pacific","43.459855","-116.243984"
"(208) 351-","Cell Number","Madison","Rexburg","ID","Idaho","83441","Mountain / Pacific","43.776095","-111.691047"
"(208) 475-","Landline","Ada","Boise","ID","Idaho","83725","Mountain / Pacific","43.459855","-116.243984"
"(208) 479-","Unknown","Bannock","Inkom","ID","Idaho","83245","Mountain / Pacific","42.670637","-112.248038"
"(208) 905-","Cell Number","Valley","Mccall","ID","Idaho","83638","Mountain / Pacific","44.75196","-116.057987"
"(208) 909-","Unknown","Bannock","Pocatello","ID","Idaho","83209","Mountain / Pacific","42.639474","-112.313836"
"(208) 683-","Landline","Kootenai","Bayview","ID","Idaho","83803","Mountain / Pacific","47.982174","-116.549408"
"(208) 714-","Landline","Kootenai","Coeur D Alene","ID","Idaho","83816","Mountain / Pacific","47.678798","-116.682718"
"(208) 842-","Landline","Idaho","Elk City","ID","Idaho","83525","Mountain / Pacific","45.822931","-115.791688"
"(208) 341-","Landline","Ada","Boise","ID","Idaho","83725","Mountain / Pacific","43.459855","-116.243984"
"(208) 308-","Cell Number","Twin Falls","Twin Falls","ID","Idaho","83303","Mountain / Pacific","42.456273","-114.519536"
"(208) 393-","Landline","Ada","Boise","ID","Idaho","83725","Mountain / Pacific","43.459855","-116.243984"
"(208) 482-","Landline","Canyon","Wilder","ID","Idaho","83676","Mountain / Pacific","43.657855","-116.919629"
"(208) 236-","Landline","Bannock","Pocatello","ID","Idaho","83209","Mountain / Pacific","42.639474","-112.313836"
"(208) 928-","Unknown","Blaine","Hailey","ID","Idaho","83333","Mountain / Pacific","43.54195","-114.31008"
"(208) 634-","Landline","Valley","Mccall","ID","Idaho","83638","Mountain / Pacific","44.75196","-116.057987"
"(208) 303-","Cell Number","Lemhi","Salmon","ID","Idaho","83467","Mountain / Pacific","45.171856","-113.921041"
"(208) 887-","Landline","Ada","Meridian","ID","Idaho","83680","Mountain / Pacific","43.459855","-116.243984"
"(208) 389-","Landline","Ada","Boise","ID","Idaho","83725","Mountain / Pacific","43.459855","-116.243984"
"(208) 705-","Cell Number","Bannock","Inkom","ID","Idaho","83245","Mountain / Pacific","42.670637","-112.248038"
"(208) 318-","Landline","Canyon","Nampa","ID","Idaho","83687","Mountain / Pacific","43.602302","-116.552636"
"(208) 383-","Landline","Ada","Boise","ID","Idaho","83725","Mountain / Pacific","43.459855","-116.243984"
"(208) 689-","Landline","Kootenai","Harrison","ID","Idaho","83833","Mountain / Pacific","47.501761","-116.751226"
"(208) 283-","Cell Number","Ada","Boise","ID","Idaho","83725","Mountain / Pacific","43.459855","-116.243984"
"(208) 761-","Cell Number","Ada","Boise","ID","Idaho","83725","Mountain / Pacific","43.459855","-116.243984"
"(208) 321-","Landline","Ada","Boise","ID","Idaho","83725","Mountain / Pacific","43.459855","-116.243984"
"(208) 522-","Landline","Bonneville","Idaho Falls","ID","Idaho","83404","Mountain / Pacific","43.433036","-111.660433"
"(208) 416-","Landline","Kootenai","Coeur D Alene","ID","Idaho","83816","Mountain / Pacific","47.678798","-116.682718"
"(208) 748-","Landline","Nez Perce","Lewiston","ID","Idaho","83501","Mountain / Pacific","46.3646","-116.860852"
"(208) 287-","Landline","Ada","Boise","ID","Idaho","83725","Mountain / Pacific","43.459855","-116.243984"
"(208) 267-","Landline","Boundary","Moyie Springs","ID","Idaho","83845","Mountain / Pacific","48.695988","-116.305402"
"(208) 478-","Landline","Bannock","Pocatello","ID","Idaho","83209","Mountain / Pacific","42.639474","-112.313836"
"(208) 464-","Landline","Clearwater","Pierce","ID","Idaho","83546","Mountain / Pacific","46.443665","-115.804849"
"(208) 931-","Cell Number","Minidoka","Rupert","ID","Idaho","83350","Mountain / Pacific","42.688753","-113.648077"
"(208) 412-","Cell Number","Ada","Meridian","ID","Idaho","83680","Mountain / Pacific","43.459855","-116.243984"
"(208) 864-","Landline","Boise","Lowman","ID","Idaho","83637","Mountain / Pacific","44.108217","-115.481823"
"(208) 325-","Landline","Valley","Donnelly","ID","Idaho","83615","Mountain / Pacific","44.665905","-116.036911"
"(208) 939-","Landline","Ada","Boise","ID","Idaho","83725","Mountain / Pacific","43.459855","-116.243984"
"(208) 417-","Landline","Bannock","Pocatello","ID","Idaho","83209","Mountain / Pacific","42.639474","-112.313836"
"(208) 291-","Cell Number","Payette","Payette","ID","Idaho","83661","Mountain / Pacific","44.063604","-116.750704"
"(208) 253-","Landline","Adams","Council","ID","Idaho","83612","Mountain / Pacific","44.853452","-116.548601"
"(208) 944-","Landline","Jerome","Jerome","ID","Idaho","83338","Mountain / Pacific","42.736869","-114.374568"
"(208) 654-","Landline","Cassia","Albion","ID","Idaho","83311","Mountain / Pacific","42.339326","-113.461324"
"(208) 816-","Landline","Nez Perce","Lewiston","ID","Idaho","83501","Mountain / Pacific","46.3646","-116.860852"
"(208) 348-","Landline","Ada","Boise","ID","Idaho","83725","Mountain / Pacific","43.459855","-116.243984"
"(208) 356-","Landline","Madison","Rexburg","ID","Idaho","83441","Mountain / Pacific","43.776095","-111.691047"
"(208) 547-","Landline","Caribou","Soda Springs","ID","Idaho","83276","Mountain / Pacific","42.772866","-111.634757"
"(208) 932-","Landline","Bonneville","Idaho Falls","ID","Idaho","83404","Mountain / Pacific","43.433036","-111.660433"
"(208) 933-","Landline","Jerome","Jerome","ID","Idaho","83338","Mountain / Pacific","42.736869","-114.374568"
"(208) 473-","Unknown","Ada","Boise","ID","Idaho","83725","Mountain / Pacific","43.459855","-116.243984"
"(208) 207-","Cell Number","Payette","Payette","ID","Idaho","83661","Mountain / Pacific","44.063604","-116.750704"
"(208) 569-","Cell Number","Bonneville","Idaho Falls","ID","Idaho","83404","Mountain / Pacific","43.433036","-111.660433"
"(208) 248-","Landline","Ada","Boise","ID","Idaho","83725","Mountain / Pacific","43.459855","-116.243984"
"(208) 885-","Landline","Latah","Moscow","ID","Idaho","83843","Mountain / Pacific","46.735334","-116.870147"
"(208) 659-","Cell Number","Kootenai","Coeur D Alene","ID","Idaho","83816","Mountain / Pacific","47.678798","-116.682718"
"(208) 808-","Cell Number","Cassia","Burley","ID","Idaho","83318","Mountain / Pacific","42.399472","-113.848558"
"(208) 298-","Landline","Nez Perce","Lewiston","ID","Idaho","83501","Mountain / Pacific","46.3646","-116.860852"
"(208) 624-","Landline","Fremont","Saint Anthony","ID","Idaho","83445","Mountain / Pacific","43.962969","-111.703605"
"(208) 293-","Landline","Twin Falls","Twin Falls","ID","Idaho","83303","Mountain / Pacific","42.456273","-114.519536"
"(208) 612-","Landline","Fremont","Saint Anthony","ID","Idaho","83445","Mountain / Pacific","43.962969","-111.703605"
"(208) 853-","Landline","Ada","Boise","ID","Idaho","83725","Mountain / Pacific","43.459855","-116.243984"
"(208) 686-","Landline","Benewah","Plummer","ID","Idaho","83851","Mountain / Pacific","47.243487","-116.862018"
"(208) 995-","Unknown","Ada","Boise","ID","Idaho","83725","Mountain / Pacific","43.459855","-116.243984"
"(208) 838-","Landline","Custer","Clayton","ID","Idaho","83227","Mountain / Pacific","44.22397","-114.312713"
"(208) 962-","Landline","Idaho","Cottonwood","ID","Idaho","83522","Mountain / Pacific","45.688686","-115.596198"
"(208) 792-","Landline","Nez Perce","Lewiston","ID","Idaho","83501","Mountain / Pacific","46.3646","-116.860852"
"(208) 754-","Landline","Jefferson","Rigby","ID","Idaho","83442","Mountain / Pacific","43.692206","-111.889325"
"(208) 499-","Cell Number","Bonneville","Irwin","ID","Idaho","83428","Mountain / Pacific","43.386149","-111.25273"
"(208) 896-","Landline","Owyhee","Marsing","ID","Idaho","83639","Mountain / Pacific","43.388977","-116.731362"
"(208) 595-","Landline","Jerome","Jerome","ID","Idaho","83338","Mountain / Pacific","42.736869","-114.374568"
"(208) 527-","Landline","Butte","Arco","ID","Idaho","83213","Mountain / Pacific","43.634236","-113.213308"
"(208) 596-","Cell Number","Latah","Moscow","ID","Idaho","83843","Mountain / Pacific","46.735334","-116.870147"
"(208) 936-","Unknown","Canyon","Nampa","ID","Idaho","83687","Mountain / Pacific","43.602302","-116.552636"
"(208) 712-","Landline","Kootenai","Rathdrum","ID","Idaho","83858","Mountain / Pacific","47.845814","-116.839411"
"(208) 946-","Landline","Bonner","Sandpoint","ID","Idaho","83864","Mountain / Pacific","48.299486","-116.553968"
"(208) 637-","Landline","Bannock","Pocatello","ID","Idaho","83209","Mountain / Pacific","42.639474","-112.313836"
"(208) 628-","Landline","Idaho","Riggins","ID","Idaho","83549","Mountain / Pacific","45.400163","-116.351079"
"(208) 397-","Landline","Bingham","Aberdeen","ID","Idaho","83210","Mountain / Pacific","43.004883","-112.839971"
"(208) 302-","Unknown","Ada","Boise","ID","Idaho","83725","Mountain / Pacific","43.459855","-116.243984"
"(208) 525-","Landline","Bonneville","Idaho Falls","ID","Idaho","83404","Mountain / Pacific","43.433036","-111.660433"
"(208) 632-","Landline","Valley","Mccall","ID","Idaho","83638","Mountain / Pacific","44.75196","-116.057987"
"(208) 814-","Unknown","Twin Falls","Twin Falls","ID","Idaho","83303","Mountain / Pacific","42.456273","-114.519536"
"(208) 698-","Landline","Oneida","Holbrook","ID","Idaho","83243","Mountain / Pacific","42.234859","-112.599201"
"(208) 865-","Landline","Lemhi","Salmon","ID","Idaho","83467","Mountain / Pacific","45.171856","-113.921041"
"(208) 524-","Landline","Bonneville","Idaho Falls","ID","Idaho","83404","Mountain / Pacific","43.433036","-111.660433"
"(208) 401-","Landline","Ada","Meridian","ID","Idaho","83680","Mountain / Pacific","43.459855","-116.243984"
"(208) 346-","Landline","Bingham","Firth","ID","Idaho","83236","Mountain / Pacific","43.303218","-112.10957"
"(208) 785-","Landline","Bingham","Blackfoot","ID","Idaho","83221","Mountain / Pacific","43.251328","-112.464518"
"(208) 572-","Unknown","Cassia","Burley","ID","Idaho","83318","Mountain / Pacific","42.399472","-113.848558"
"(208) 621-","Landline","Nez Perce","Lewiston","ID","Idaho","83501","Mountain / Pacific","46.3646","-116.860852"
"(208) 440-","Cell Number","Ada","Boise","ID","Idaho","83725","Mountain / Pacific","43.459855","-116.243984"
"(208) 261-","Unknown","Cassia","Burley","ID","Idaho","83318","Mountain / Pacific","42.399472","-113.848558"
"(208) 674-","Landline","Canyon","Parma","ID","Idaho","83660","Mountain / Pacific","43.785082","-116.897455"
"(208) 271-","Cell Number","Valley","Mccall","ID","Idaho","83638","Mountain / Pacific","44.75196","-116.057987"
"(208) 608-","Cell Number","Ada","Boise","ID","Idaho","83725","Mountain / Pacific","43.459855","-116.243984"
"(208) 567-","Landline","Ada","Boise","ID","Idaho","83725","Mountain / Pacific","43.459855","-116.243984"
"(208) 296-","Cell Number","Owyhee","Marsing","ID","Idaho","83639","Mountain / Pacific","43.388977","-116.731362"
"(208) 588-","Landline","Custer","Mackay","ID","Idaho","83251","Mountain / Pacific","44.017199","-113.740599"
"(208) 292-","Landline","Kootenai","Coeur D Alene","ID","Idaho","83816","Mountain / Pacific","47.678798","-116.682718"
"(208) 200-","Cell Number","Bonneville","Idaho Falls","ID","Idaho","83404","Mountain / Pacific","43.433036","-111.660433"
"(208) 708-","Cell Number","Bannock","Inkom","ID","Idaho","83245","Mountain / Pacific","42.670637","-112.248038"
"(208) 790-","Cell Number","Nez Perce","Lewiston","ID","Idaho","83501","Mountain / Pacific","46.3646","-116.860852"
"(208) 829-","Landline","Jerome","Eden","ID","Idaho","83325","Mountain / Pacific","42.586804","-114.246706"
"(208) 228-","Landline","Jefferson","Roberts","ID","Idaho","83444","Mountain / Pacific","43.698922","-112.173195"
"(208) 285-","Landline","Latah","Genesee","ID","Idaho","83832","Mountain / Pacific","46.604181","-116.903754"
"(208) 578-","Landline","Blaine","Hailey","ID","Idaho","83333","Mountain / Pacific","43.54195","-114.31008"
"(208) 706-","Landline","Ada","Meridian","ID","Idaho","83680","Mountain / Pacific","43.459855","-116.243984"
"(208) 633-","Landline","Valley","Yellow Pine","ID","Idaho","83677","Mountain / Pacific","44.68367","-115.453583"
"(208) 724-","Landline","Ada","Boise","ID","Idaho","83725","Mountain / Pacific","43.459855","-116.243984"
"(208) 670-","Cell Number","Cassia","Burley","ID","Idaho","83318","Mountain / Pacific","42.399472","-113.848558"
"(208) 773-","Landline","Kootenai","Post Falls","ID","Idaho","83854","Mountain / Pacific","47.795737","-116.946395"
"(208) 243-","Cell Number","Bonneville","Idaho Falls","ID","Idaho","83404","Mountain / Pacific","43.433036","-111.660433"
"(208) 733-","Landline","Twin Falls","Twin Falls","ID","Idaho","83303","Mountain / Pacific","42.456273","-114.519536"
"(208) 438-","Landline","Minidoka","Heyburn","ID","Idaho","83336","Mountain / Pacific","42.564732","-113.809824"
"(208) 602-","Cell Number","Ada","Boise","ID","Idaho","83725","Mountain / Pacific","43.459855","-116.243984"
"(208) 404-","Cell Number","Twin Falls","Twin Falls","ID","Idaho","83303","Mountain / Pacific","42.456273","-114.519536"
"(208) 430-","Unknown","Cassia","Burley","ID","Idaho","83318","Mountain / Pacific","42.399472","-113.848558"
"(208) 366-","Landline","Elmore","Glenns Ferry","ID","Idaho","83623","Mountain / Pacific","42.950333","-115.310227"
"(208) 387-","Landline","Ada","Boise","ID","Idaho","83725","Mountain / Pacific","43.459855","-116.243984"
"(208) 281-","Cell Number","Blaine","Carey","ID","Idaho","83320","Mountain / Pacific","43.391742","-114.076206"
"(208) 496-","Landline","Madison","Rexburg","ID","Idaho","83441","Mountain / Pacific","43.776095","-111.691047"
"(208) 874-","Landline","Latah","Moscow","ID","Idaho","83843","Mountain / Pacific","46.735334","-116.870147"
"(208) 447-","Landline","Ada","Boise","ID","Idaho","83725","Mountain / Pacific","43.459855","-116.243984"
"(208) 548-","Landline","Power","Rockland","ID","Idaho","83271","Mountain / Pacific","42.490846","-112.836032"
"(208) 969-","Cell Number","Gooding","Gooding","ID","Idaho","83330","Mountain / Pacific","42.907488","-114.773963"
"(208) 363-","Landline","Ada","Boise","ID","Idaho","83725","Mountain / Pacific","43.459855","-116.243984"
"(208) 822-","Landline","Ada","Meridian","ID","Idaho","83680","Mountain / Pacific","43.459855","-116.243984"
"(208) 265-","Landline","Bonner","Sandpoint","ID","Idaho","83864","Mountain / Pacific","48.299486","-116.553968"
"(208) 873-","Landline","Caribou","Wayan","ID","Idaho","83285","Mountain / Pacific","42.892211","-111.267458"
"(208) 989-","Cell Number","Canyon","Nampa","ID","Idaho","83687","Mountain / Pacific","43.602302","-116.552636"
"(208) 695-","Landline","Ada","Meridian","ID","Idaho","83680","Mountain / Pacific","43.459855","-116.243984"
"(208) 836-","Landline","Nez Perce","Culdesac","ID","Idaho","83524","Mountain / Pacific","46.401878","-116.651362"
"(208) 641-","Cell Number","Kootenai","Coeur D Alene","ID","Idaho","83816","Mountain / Pacific","47.678798","-116.682718"
"(208) 278-","Landline","Payette","New Plymouth","ID","Idaho","83655","Mountain / Pacific","43.95779","-116.813237"
"(208) 949-","Landline","Ada","Boise","ID","Idaho","83725","Mountain / Pacific","43.459855","-116.243984"
