"Prefix","Usage","County","City","ShortState","LongState","Zip","Timezone","Latitude","Longitude"
"(620) 205-","Cell Number","Montgomery","Independence","KS","Kansas","67301","Central / Mountain","37.180636","-95.756197"
"(785) 793-","Landline","Osage","Scranton","KS","Kansas","66537","Central / Mountain","38.74633","-95.675159"
"(316) 807-","Cell Number","Sedgwick","Wichita","KS","Kansas","67206","Central","37.613954","-97.342752"
"(620) 603-","Landline","Barton","Great Bend","KS","Kansas","67530","Central / Mountain","38.393567","-98.775074"
"(316) 587-","Unknown","Harvey","Newton","KS","Kansas","67114","Central","38.044857","-97.317279"
"(785) 818-","Landline","Cloud","Concordia","KS","Kansas","66901","Central / Mountain","39.551634","-97.656764"
"(620) 263-","Landline","Coffey","Burlington","KS","Kansas","66839","Central / Mountain","38.236316","-95.733598"
"(785) 273-","Landline","Shawnee","Topeka","KS","Kansas","66616","Central / Mountain","39.065477","-95.626357"
"(785) 384-","Cell Number","Lincoln","Lincoln","KS","Kansas","67455","Central / Mountain","39.102718","-98.214909"
"(620) 597-","Landline","Labette","Oswego","KS","Kansas","67356","Central / Mountain","37.18919","-95.242611"
"(620) 851-","Cell Number","Pawnee","Larned","KS","Kansas","67550","Central / Mountain","38.194644","-99.10096"
"(785) 240-","Landline","Geary","Junction City","KS","Kansas","66441","Central / Mountain","39.026465","-96.783359"
"(620) 262-","Landline","Cowley","Winfield","KS","Kansas","67156","Central / Mountain","37.232126","-96.996334"
"(785) 268-","Cell Number","Marshall","Marysville","KS","Kansas","66508","Central / Mountain","39.863544","-96.617219"
"(785) 771-","Landline","Jackson","Delia","KS","Kansas","66418","Central / Mountain","39.300065","-95.900691"
"(620) 855-","Landline","Gray","Cimarron","KS","Kansas","67835","Central / Mountain","37.803608","-100.338634"
"(620) 427-","Landline","Greenwood","Madison","KS","Kansas","66860","Central / Mountain","38.061943","-96.144795"
"(785) 943-","Landline","Wallace","Weskan","KS","Kansas","67762","Central / Mountain","38.916183","-101.762678"
"(620) 252-","Landline","Montgomery","Coffeyville","KS","Kansas","67337","Central / Mountain","37.146267","-95.748313"
"(785) 593-","Landline","Cloud","Glasco","KS","Kansas","67445","Central / Mountain","39.36117","-97.83825"
"(785) 381-","Unknown","Lincoln","Sylvan Grove","KS","Kansas","67481","Central / Mountain","38.969795","-98.435528"
"(785) 810-","Unknown","Ellsworth","Ellsworth","KS","Kansas","67439","Central / Mountain","38.696579","-98.205437"
"(620) 443-","Landline","Lyon","Americus","KS","Kansas","66835","Central / Mountain","38.556174","-96.261884"
"(316) 201-","Landline","Sedgwick","Wichita","KS","Kansas","67206","Central","37.613954","-97.342752"
"(785) 257-","Landline","Dickinson","Woodbine","KS","Kansas","67492","Central / Mountain","38.812401","-96.964022"
"(620) 422-","Landline","Reno","Nickerson","KS","Kansas","67561","Central / Mountain","38.100868","-98.105772"
"(913) 954-","Unknown","Wyandotte","Kansas City","KS","Kansas","66160","Central","39.096551","-94.749538"
"(913) 752-","Landline","Johnson","Lenexa","KS","Kansas","66215","Central","38.949007","-94.740503"
"(316) 213-","Cell Number","Sedgwick","Wichita","KS","Kansas","67206","Central","37.613954","-97.342752"
"(620) 525-","Landline","Hodgeman","Hanston","KS","Kansas","67849","Central / Mountain","38.121492","-99.709532"
"(316) 243-","Unknown","Sedgwick","Wichita","KS","Kansas","67206","Central","37.613954","-97.342752"
"(785) 855-","Landline","Thomas","Rexford","KS","Kansas","67753","Central / Mountain","39.390715","-101.049033"
"(620) 878-","Landline","Marion","Florence","KS","Kansas","66851","Central / Mountain","38.293353","-96.974518"
"(913) 538-","Landline","Johnson","Olathe","KS","Kansas","66051","Central","38.899901","-94.831991"
"(913) 396-","Landline","Johnson","Overland Park","KS","Kansas","66225","Central","38.899901","-94.831991"
"(785) 806-","Cell Number","Shawnee","Topeka","KS","Kansas","66616","Central / Mountain","39.065477","-95.626357"
"(316) 943-","Landline","Sedgwick","Wichita","KS","Kansas","67206","Central","37.613954","-97.342752"
"(620) 857-","Landline","Bourbon","Fulton","KS","Kansas","66738","Central / Mountain","38.01017","-94.720191"
"(913) 964-","Landline","Anderson","Bucyrus","KS","Kansas","66013","Central","38.676056","-94.685052"
"(785) 859-","Landline","Marshall","Marysville","KS","Kansas","66508","Central / Mountain","39.863544","-96.617219"
"(913) 791-","Landline","Johnson","Olathe","KS","Kansas","66051","Central","38.899901","-94.831991"
"(913) 533-","Landline","Miami","Bucyrus","KS","Kansas","66013","Central","38.676056","-94.685052"
"(620) 545-","Landline","Sedgwick","Clearwater","KS","Kansas","67026","Central / Mountain","37.548282","-97.488432"
"(316) 208-","Cell Number","Sedgwick","Wichita","KS","Kansas","67206","Central","37.613954","-97.342752"
"(785) 462-","Landline","Thomas","Colby","KS","Kansas","67701","Central / Mountain","39.40152","-100.973696"
"(620) 656-","Landline","Reno","Turon","KS","Kansas","67583","Central / Mountain","37.822393","-98.359075"
"(913) 955-","Landline","Wyandotte","Bonner Springs","KS","Kansas","66012","Central","39.068153","-94.763938"
"(620) 240-","Landline","Crawford","Pittsburg","KS","Kansas","66762","Central / Mountain","37.448044","-94.819212"
"(785) 922-","Landline","Dickinson","Chapman","KS","Kansas","67431","Central / Mountain","38.972672","-97.018914"
"(316) 206-","Landline","Sedgwick","Wichita","KS","Kansas","67206","Central","37.613954","-97.342752"
"(785) 737-","Landline","Rooks","Palco","KS","Kansas","67657","Central / Mountain","39.229778","-99.346263"
"(620) 272-","Landline","Finney","Garden City","KS","Kansas","67846","Central / Mountain","38.000771","-100.664407"
"(913) 563-","Landline","Wyandotte","Kansas City","KS","Kansas","66160","Central","39.096551","-94.749538"
"(785) 218-","Cell Number","Douglas","Lawrence","KS","Kansas","66047","Central / Mountain","38.88437","-95.338066"
"(620) 345-","Landline","Mcpherson","Moundridge","KS","Kansas","67107","Central / Mountain","38.217149","-97.523327"
"(913) 849-","Landline","Miami","Fontana","KS","Kansas","66026","Central","38.417885","-94.88344"
"(785) 825-","Landline","Saline","Salina","KS","Kansas","67401","Central / Mountain","38.823673","-97.642113"
"(785) 988-","Landline","Doniphan","Bendena","KS","Kansas","66008","Central / Mountain","39.712615","-95.186894"
"(913) 944-","Unknown","Wyandotte","Kansas City","KS","Kansas","66160","Central","39.096551","-94.749538"
"(785) 224-","Cell Number","Shawnee","Topeka","KS","Kansas","66616","Central / Mountain","39.065477","-95.626357"
"(620) 820-","Landline","Labette","Parsons","KS","Kansas","67357","Central / Mountain","37.217756","-95.266407"
"(913) 369-","Landline","Leavenworth","Tonganoxie","KS","Kansas","66086","Central","39.115489","-95.084717"
"(316) 730-","Landline","Sedgwick","Wichita","KS","Kansas","67206","Central","37.613954","-97.342752"
"(620) 740-","Cell Number","Harper","Harper","KS","Kansas","67058","Central / Mountain","37.291318","-98.038455"
"(316) 671-","Landline","Sedgwick","Wichita","KS","Kansas","67206","Central","37.613954","-97.342752"
"(620) 937-","Cell Number","Finney","Garden City","KS","Kansas","67846","Central / Mountain","38.000771","-100.664407"
"(316) 746-","Landline","Butler","Douglass","KS","Kansas","67039","Central","37.535867","-96.998807"
"(620) 406-","Cell Number","Meade","Meade","KS","Kansas","67864","Central / Mountain","37.238357","-100.316583"
"(620) 376-","Landline","Greeley","Tribune","KS","Kansas","67879","Central / Mountain","38.469704","-101.747853"
"(785) 679-","Landline","Marshall","Oketo","KS","Kansas","66518","Central / Mountain","39.964838","-96.551054"
"(620) 322-","Landline","Reno","Anthony","KS","Kansas","67003","Central / Mountain","37.111488","-98.048121"
"(785) 269-","Landline","Thomas","Colby","KS","Kansas","67701","Central / Mountain","39.40152","-100.973696"
"(620) 207-","Cell Number","Reno","Nickerson","KS","Kansas","67561","Central / Mountain","38.100868","-98.105772"
"(620) 910-","Landline","Pawnee","Larned","KS","Kansas","67550","Central / Mountain","38.194644","-99.10096"
"(620) 604-","Landline","Seward","Liberal","KS","Kansas","67901","Central / Mountain","37.043237","-100.873809"
"(785) 400-","Unknown","Ottawa","Tescott","KS","Kansas","67484","Central / Mountain","39.041646","-97.719466"
"(316) 308-","Landline","Sedgwick","Wichita","KS","Kansas","67206","Central","37.613954","-97.342752"
"(620) 474-","Cell Number","Reno","Hutchinson","KS","Kansas","67501","Central / Mountain","37.954312","-97.88569"
"(620) 386-","Landline","Mcpherson","Moundridge","KS","Kansas","67107","Central / Mountain","38.217149","-97.523327"
"(620) 431-","Landline","Neosho","Chanute","KS","Kansas","66720","Central / Mountain","37.609218","-95.416422"
"(913) 749-","Unknown","Wyandotte","Kansas City","KS","Kansas","66160","Central","39.096551","-94.749538"
"(620) 840-","Landline","Harper","Harper","KS","Kansas","67058","Central / Mountain","37.291318","-98.038455"
"(785) 260-","Cell Number","Gove","Quinter","KS","Kansas","67752","Central / Mountain","39.063613","-100.238001"
"(785) 313-","Cell Number","Riley","Manhattan","KS","Kansas","66502","Central / Mountain","39.209375","-96.564589"
"(785) 484-","Landline","Jefferson","Meriden","KS","Kansas","66512","Central / Mountain","39.202791","-95.530598"
"(785) 208-","Cell Number","Phillips","Phillipsburg","KS","Kansas","67661","Central / Mountain","39.779113","-99.346302"
"(913) 307-","Landline","Johnson","Lenexa","KS","Kansas","66215","Central","38.949007","-94.740503"
"(620) 534-","Landline","Rice","Sterling","KS","Kansas","67579","Central / Mountain","38.224187","-98.183033"
"(913) 393-","Landline","Johnson","Olathe","KS","Kansas","66051","Central","38.899901","-94.831991"
"(913) 603-","Unknown","Johnson","Gardner","KS","Kansas","66030","Central","38.814998","-94.94139"
"(620) 660-","Cell Number","Cowley","Arkansas City","KS","Kansas","67005","Central / Mountain","37.149582","-96.904215"
"(620) 336-","Landline","Montgomery","Cherryvale","KS","Kansas","67335","Central / Mountain","37.167997","-95.732508"
"(620) 340-","Landline","Lyon","Emporia","KS","Kansas","66801","Central / Mountain","38.434153","-96.152766"
"(620) 614-","Landline","Stafford","Macksville","KS","Kansas","67557","Central / Mountain","37.95853","-98.968997"
"(785) 917-","Cell Number","Douglas","Lawrence","KS","Kansas","66047","Central / Mountain","38.88437","-95.338066"
"(785) 536-","Landline","Saline","Gypsum","KS","Kansas","67448","Central / Mountain","38.710913","-97.492119"
"(785) 674-","Landline","Graham","Hill City","KS","Kansas","67642","Central / Mountain","39.366018","-99.842382"
"(913) 978-","Cell Number","Wyandotte","Kansas City","KS","Kansas","66160","Central","39.096551","-94.749538"
"(785) 952-","Unknown","Osborne","Osborne","KS","Kansas","67473","Central / Mountain","39.385738","-98.795417"
"(316) 942-","Landline","Sedgwick","Wichita","KS","Kansas","67206","Central","37.613954","-97.342752"
"(316) 409-","Cell Number","Sedgwick","Wichita","KS","Kansas","67206","Central","37.613954","-97.342752"
"(620) 499-","Landline","Hamilton","Syracuse","KS","Kansas","67878","Central / Mountain","37.986428","-101.751732"
"(620) 415-","Unknown","Cowley","Dexter","KS","Kansas","67038","Central / Mountain","37.178743","-96.715776"
"(785) 523-","Landline","Ottawa","Delphos","KS","Kansas","67436","Central / Mountain","39.263098","-97.714625"
"(620) 276-","Landline","Finney","Garden City","KS","Kansas","67846","Central / Mountain","38.000771","-100.664407"
"(620) 236-","Landline","Labette","Chetopa","KS","Kansas","67336","Central / Mountain","37.04542","-95.218047"
"(785) 207-","Cell Number","Shawnee","Topeka","KS","Kansas","66616","Central / Mountain","39.065477","-95.626357"
"(316) 210-","Cell Number","Sedgwick","Wichita","KS","Kansas","67206","Central","37.613954","-97.342752"
"(620) 893-","Landline","Pratt","Coats","KS","Kansas","67028","Central / Mountain","37.638236","-98.889244"
"(620) 927-","Unknown","Greeley","Tribune","KS","Kansas","67879","Central / Mountain","38.469704","-101.747853"
"(785) 424-","Landline","Douglas","Lawrence","KS","Kansas","66047","Central / Mountain","38.88437","-95.338066"
"(785) 714-","Landline","Saline","Salina","KS","Kansas","67401","Central / Mountain","38.823673","-97.642113"
"(785) 465-","Landline","Thomas","Colby","KS","Kansas","67701","Central / Mountain","39.40152","-100.973696"
"(620) 848-","Landline","Cherokee","Riverton","KS","Kansas","66770","Central / Mountain","37.073183","-94.758958"
"(785) 525-","Landline","Russell","Lucas","KS","Kansas","67648","Central / Mountain","39.008115","-98.754407"
"(785) 466-","Landline","Morris","Wilsey","KS","Kansas","66873","Central / Mountain","38.682093","-96.663865"
"(913) 636-","Cell Number","Wyandotte","Kansas City","KS","Kansas","66160","Central","39.096551","-94.749538"
"(913) 671-","Landline","Wyandotte","Kansas City","KS","Kansas","66160","Central","39.096551","-94.749538"
"(785) 786-","Landline","Jewell","Esbon","KS","Kansas","66941","Central / Mountain","39.820964","-98.433369"
"(620) 361-","Landline","Montgomery","Alden","KS","Kansas","67512","Central / Mountain","38.233295","-98.316515"
"(785) 626-","Landline","Rawlins","Atwood","KS","Kansas","67730","Central / Mountain","39.824688","-101.041371"
"(620) 235-","Landline","Crawford","Pittsburg","KS","Kansas","66762","Central / Mountain","37.448044","-94.819212"
"(785) 625-","Landline","Ellis","Hays","KS","Kansas","67601","Central / Mountain","38.878202","-99.334803"
"(620) 860-","Landline","Reno","Hutchinson","KS","Kansas","67501","Central / Mountain","37.954312","-97.88569"
"(785) 335-","Landline","Republic","Scandia","KS","Kansas","66966","Central / Mountain","39.794591","-97.783734"
"(620) 938-","Landline","Rice","Chase","KS","Kansas","67524","Central / Mountain","38.362338","-98.246676"
"(620) 478-","Landline","Kingman","Norwich","KS","Kansas","67118","Central / Mountain","37.486261","-97.923919"
"(913) 882-","Landline","Johnson","Edgerton","KS","Kansas","66021","Central","38.817766","-94.94316"
"(913) 646-","Cell Number","Wyandotte","Kansas City","KS","Kansas","66160","Central","39.096551","-94.749538"
"(620) 356-","Landline","Grant","Ulysses","KS","Kansas","67880","Central / Mountain","37.562467","-101.308565"
"(785) 728-","Landline","Sherman","Goodland","KS","Kansas","67735","Central / Mountain","39.358123","-101.798885"
"(620) 400-","Unknown","Barton","Great Bend","KS","Kansas","67530","Central / Mountain","38.393567","-98.775074"
"(785) 761-","Landline","Geary","Junction City","KS","Kansas","66441","Central / Mountain","39.026465","-96.783359"
"(316) 660-","Landline","Sedgwick","Wichita","KS","Kansas","67206","Central","37.613954","-97.342752"
"(316) 634-","Landline","Sedgwick","Wichita","KS","Kansas","67206","Central","37.613954","-97.342752"
"(316) 288-","Cell Number","Harvey","Newton","KS","Kansas","67114","Central","38.044857","-97.317279"
"(785) 326-","Landline","Republic","Munden","KS","Kansas","66959","Central / Mountain","39.860279","-97.498488"
"(785) 445-","Landline","Russell","Russell","KS","Kansas","67665","Central / Mountain","38.905159","-98.784797"
"(785) 469-","Unknown","Russell","Lucas","KS","Kansas","67648","Central / Mountain","39.008115","-98.754407"
"(620) 497-","Landline","Reno","Turon","KS","Kansas","67583","Central / Mountain","37.822393","-98.359075"
"(785) 842-","Landline","Douglas","Lawrence","KS","Kansas","66047","Central / Mountain","38.88437","-95.338066"
"(913) 961-","Cell Number","Wyandotte","Kansas City","KS","Kansas","66160","Central","39.096551","-94.749538"
"(620) 899-","Cell Number","Reno","Hutchinson","KS","Kansas","67501","Central / Mountain","37.954312","-97.88569"
"(316) 320-","Landline","Butler","El Dorado","KS","Kansas","67042","Central","37.830491","-96.865969"
"(913) 599-","Landline","Johnson","Lenexa","KS","Kansas","66215","Central","38.949007","-94.740503"
"(913) 440-","Landline","Johnson","Olathe","KS","Kansas","66051","Central","38.899901","-94.831991"
"(316) 751-","Landline","Harvey","Sedgwick","KS","Kansas","67135","Central","37.955789","-97.473214"
"(913) 387-","Landline","Johnson","Lenexa","KS","Kansas","66215","Central","38.949007","-94.740503"
"(620) 782-","Landline","Cowley","Udall","KS","Kansas","67146","Central / Mountain","37.387823","-97.117926"
"(316) 761-","Cell Number","Sedgwick","Wichita","KS","Kansas","67206","Central","37.613954","-97.342752"
"(913) 259-","Landline","Miami","Paola","KS","Kansas","66071","Central","38.577932","-94.880328"
"(913) 403-","Landline","Wyandotte","Kansas City","KS","Kansas","66160","Central","39.096551","-94.749538"
"(620) 392-","Landline","Lyon","Hartford","KS","Kansas","66854","Central / Mountain","38.345691","-96.103771"
"(913) 324-","Landline","Johnson","Olathe","KS","Kansas","66051","Central","38.899901","-94.831991"
"(913) 787-","Landline","Wyandotte","Kansas City","KS","Kansas","66160","Central","39.096551","-94.749538"
"(785) 299-","Cell Number","Gove","Quinter","KS","Kansas","67752","Central / Mountain","39.063613","-100.238001"
"(785) 270-","Landline","Shawnee","Topeka","KS","Kansas","66616","Central / Mountain","39.065477","-95.626357"
"(913) 574-","Landline","Wyandotte","Kansas City","KS","Kansas","66160","Central","39.096551","-94.749538"
"(785) 382-","Landline","Nemaha","Centralia","KS","Kansas","66415","Central / Mountain","39.697428","-96.032867"
"(785) 738-","Landline","Mitchell","Beloit","KS","Kansas","67420","Central / Mountain","39.441631","-98.119189"
"(913) 370-","Cell Number","Atchison","Atchison","KS","Kansas","66002","Central","39.535948","-95.225098"
"(316) 393-","Cell Number","Sedgwick","Wichita","KS","Kansas","67206","Central","37.613954","-97.342752"
"(785) 433-","Landline","Anderson","Garnett","KS","Kansas","66032","Central / Mountain","38.232767","-95.286458"
"(785) 298-","Landline","Cheyenne","Saint Francis","KS","Kansas","67756","Central / Mountain","39.680371","-101.909252"
"(316) 461-","Cell Number","Sedgwick","Wichita","KS","Kansas","67206","Central","37.613954","-97.342752"
"(620) 375-","Landline","Wichita","Leoti","KS","Kansas","67861","Central / Mountain","38.477827","-101.293036"
"(620) 283-","Unknown","Hamilton","Syracuse","KS","Kansas","67878","Central / Mountain","37.986428","-101.751732"
"(316) 436-","Landline","Sedgwick","Wichita","KS","Kansas","67206","Central","37.613954","-97.342752"
"(785) 205-","Cell Number","Rooks","Stockton","KS","Kansas","67669","Central / Mountain","39.412166","-99.369872"
"(785) 389-","Landline","Smith","Lebanon","KS","Kansas","66952","Central / Mountain","39.807699","-98.556016"
"(620) 922-","Landline","Labette","Edna","KS","Kansas","67342","Central / Mountain","37.071835","-95.347225"
"(316) 858-","Landline","Sedgwick","Wichita","KS","Kansas","67206","Central","37.613954","-97.342752"
"(785) 639-","Cell Number","Ellis","Hays","KS","Kansas","67601","Central / Mountain","38.878202","-99.334803"
"(620) 735-","Landline","Chase","Matfield Green","KS","Kansas","66862","Central / Mountain","38.303962","-96.597442"
"(913) 585-","Landline","Johnson","De Soto","KS","Kansas","66018","Central","38.946156","-94.97143"
"(316) 214-","Cell Number","Sedgwick","Wichita","KS","Kansas","67206","Central","37.613954","-97.342752"
"(620) 548-","Landline","Kiowa","Mullinville","KS","Kansas","67109","Central / Mountain","37.593142","-99.387747"
"(785) 812-","Landline","Douglas","Lawrence","KS","Kansas","66047","Central / Mountain","38.88437","-95.338066"
"(620) 702-","Landline","Montgomery","Cherryvale","KS","Kansas","67335","Central / Mountain","37.167997","-95.732508"
"(785) 766-","Cell Number","Douglas","Lawrence","KS","Kansas","66047","Central / Mountain","38.88437","-95.338066"
"(620) 645-","Landline","Woodson","Toronto","KS","Kansas","66777","Central / Mountain","37.814423","-95.88888"
"(913) 378-","Landline","Johnson","Lenexa","KS","Kansas","66215","Central","38.949007","-94.740503"
"(913) 294-","Landline","Miami","Paola","KS","Kansas","66071","Central","38.577932","-94.880328"
"(913) 514-","Landline","Wyandotte","Kansas City","KS","Kansas","66160","Central","39.096551","-94.749538"
"(620) 286-","Landline","Reno","Abbyville","KS","Kansas","67510","Central / Mountain","38.013705","-98.169523"
"(785) 235-","Landline","Shawnee","Topeka","KS","Kansas","66616","Central / Mountain","39.065477","-95.626357"
"(785) 561-","Unknown","Morris","Burdick","KS","Kansas","66838","Central / Mountain","38.565758","-96.801336"
"(913) 543-","Landline","Johnson","Bonner Springs","KS","Kansas","66012","Central","39.068153","-94.763938"
"(316) 264-","Landline","Sedgwick","Wichita","KS","Kansas","67206","Central","37.613954","-97.342752"
"(785) 394-","Landline","Rush","Alexander","KS","Kansas","67513","Central / Mountain","38.470116","-99.553222"
"(913) 795-","Landline","Linn","Mound City","KS","Kansas","66056","Central","38.243571","-94.766019"
"(785) 487-","Unknown","Brown","Horton","KS","Kansas","66439","Central / Mountain","39.664076","-95.527212"
"(785) 889-","Landline","Pottawatomie","Onaga","KS","Kansas","66521","Central / Mountain","39.442426","-96.34428"
"(913) 586-","Landline","Johnson","De Soto","KS","Kansas","66018","Central","38.946156","-94.97143"
"(785) 463-","Landline","Geary","Milford","KS","Kansas","66514","Central / Mountain","39.127855","-96.874028"
"(620) 414-","Unknown","Montgomery","Cherryvale","KS","Kansas","67335","Central / Mountain","37.167997","-95.732508"
"(913) 832-","Landline","Wyandotte","Kansas City","KS","Kansas","66160","Central","39.096551","-94.749538"
"(316) 880-","Cell Number","Sedgwick","Wichita","KS","Kansas","67206","Central","37.613954","-97.342752"
"(785) 739-","Landline","Jewell","Randall","KS","Kansas","66963","Central / Mountain","39.643012","-98.044991"
"(913) 833-","Landline","Atchison","Effingham","KS","Kansas","66023","Central","39.507561","-95.393716"
"(620) 654-","Landline","Mcpherson","Galva","KS","Kansas","67443","Central / Mountain","38.382827","-97.47325"
"(913) 748-","Landline","Wyandotte","Kansas City","KS","Kansas","66160","Central","39.096551","-94.749538"
"(620) 267-","Landline","Marion","Peabody","KS","Kansas","66866","Central / Mountain","38.134801","-97.003776"
"(620) 491-","Cell Number","Kingman","Kingman","KS","Kansas","67068","Central / Mountain","37.596364","-98.130432"
"(913) 322-","Landline","Johnson","Lenexa","KS","Kansas","66215","Central","38.949007","-94.740503"
"(316) 283-","Landline","Harvey","Newton","KS","Kansas","67114","Central","38.044857","-97.317279"
"(785) 341-","Cell Number","Riley","Manhattan","KS","Kansas","66502","Central / Mountain","39.209375","-96.564589"
"(785) 899-","Landline","Sherman","Goodland","KS","Kansas","67735","Central / Mountain","39.358123","-101.798885"
"(620) 282-","Cell Number","Barton","Great Bend","KS","Kansas","67530","Central / Mountain","38.393567","-98.775074"
"(620) 583-","Landline","Greenwood","Eureka","KS","Kansas","67045","Central / Mountain","37.755154","-96.170019"
"(620) 584-","Landline","Sedgwick","Clearwater","KS","Kansas","67026","Central / Mountain","37.548282","-97.488432"
"(913) 879-","Landline","Miami","Bucyrus","KS","Kansas","66013","Central","38.676056","-94.685052"
"(785) 554-","Cell Number","Shawnee","Topeka","KS","Kansas","66616","Central / Mountain","39.065477","-95.626357"
"(620) 625-","Landline","Woodson","Yates Center","KS","Kansas","66783","Central / Mountain","37.884741","-95.723555"
"(316) 445-","Landline","Sedgwick","Andale","KS","Kansas","67001","Central","37.779733","-97.636619"
"(620) 915-","Landline","Barber","Sharon","KS","Kansas","67138","Central / Mountain","37.224446","-98.42233"
"(316) 644-","Cell Number","Sedgwick","Wichita","KS","Kansas","67206","Central","37.613954","-97.342752"
"(785) 401-","Unknown","Mitchell","Tipton","KS","Kansas","67485","Central / Mountain","39.339425","-98.470261"
"(620) 895-","Landline","Pratt","Pratt","KS","Kansas","67124","Central / Mountain","37.63857","-98.758512"
"(316) 220-","Landline","Sedgwick","Wichita","KS","Kansas","67206","Central","37.613954","-97.342752"
"(620) 238-","Cell Number","Crawford","Girard","KS","Kansas","66743","Central / Mountain","37.471611","-94.881385"
"(785) 310-","Landline","Osage","Lyndon","KS","Kansas","66451","Central / Mountain","38.622848","-95.656131"
"(913) 262-","Landline","Wyandotte","Kansas City","KS","Kansas","66160","Central","39.096551","-94.749538"
"(785) 923-","Landline","Phillips","Long Island","KS","Kansas","67647","Central / Mountain","39.784708","-99.347075"
"(913) 221-","Cell Number","Johnson","Kansas City","KS","Kansas","66160","Central","39.096551","-94.749538"
"(785) 823-","Landline","Saline","Salina","KS","Kansas","67401","Central / Mountain","38.823673","-97.642113"
"(620) 500-","Unknown","Reno","Hutchinson","KS","Kansas","67501","Central / Mountain","37.954312","-97.88569"
"(785) 687-","Landline","Thomas","Rexford","KS","Kansas","67753","Central / Mountain","39.390715","-101.049033"
"(316) 221-","Landline","Sedgwick","Wichita","KS","Kansas","67206","Central","37.613954","-97.342752"
"(620) 861-","Cell Number","Haskell","Sublette","KS","Kansas","67877","Central / Mountain","37.482236","-100.848783"
"(316) 881-","Landline","Harvey","Sedgwick","KS","Kansas","67135","Central","37.955789","-97.473214"
"(785) 435-","Landline","Shawnee","Topeka","KS","Kansas","66616","Central / Mountain","39.065477","-95.626357"
"(913) 826-","Landline","Johnson","Lenexa","KS","Kansas","66215","Central","38.949007","-94.740503"
"(785) 214-","Cell Number","Franklin","Ottawa","KS","Kansas","66067","Central / Mountain","38.564337","-95.282668"
"(785) 984-","Landline","Osborne","Alton","KS","Kansas","67623","Central / Mountain","39.430147","-98.928883"
"(785) 540-","Landline","Phillips","Phillipsburg","KS","Kansas","67661","Central / Mountain","39.779113","-99.346302"
"(620) 364-","Landline","Coffey","Burlington","KS","Kansas","66839","Central / Mountain","38.236316","-95.733598"
"(913) 721-","Landline","Leavenworth","Basehor","KS","Kansas","66007","Central","39.133448","-94.947234"
"(620) 955-","Landline","Kingman","Kingman","KS","Kansas","67068","Central / Mountain","37.596364","-98.130432"
"(785) 735-","Landline","Ellis","Victoria","KS","Kansas","67671","Central / Mountain","38.915745","-99.141972"
"(785) 829-","Landline","Saline","Salina","KS","Kansas","67401","Central / Mountain","38.823673","-97.642113"
"(913) 488-","Cell Number","Johnson","Lenexa","KS","Kansas","66215","Central","38.949007","-94.740503"
"(785) 874-","Landline","Norton","Norton","KS","Kansas","67654","Central / Mountain","39.827955","-99.891726"
"(785) 953-","Cell Number","Logan","Oakley","KS","Kansas","67748","Central / Mountain","38.945805","-100.970176"
"(913) 610-","Cell Number","Wyandotte","Kansas City","KS","Kansas","66160","Central","39.096551","-94.749538"
"(785) 221-","Cell Number","Shawnee","Topeka","KS","Kansas","66616","Central / Mountain","39.065477","-95.626357"
"(620) 796-","Unknown","Barton","Great Bend","KS","Kansas","67530","Central / Mountain","38.393567","-98.775074"
"(620) 982-","Landline","Barton","Pawnee Rock","KS","Kansas","67567","Central / Mountain","38.451554","-98.959346"
"(620) 539-","Landline","Clark","Ashland","KS","Kansas","67831","Central / Mountain","37.171946","-99.769576"
"(785) 340-","Landline","Riley","Manhattan","KS","Kansas","66502","Central / Mountain","39.209375","-96.564589"
"(620) 515-","Cell Number","Montgomery","Coffeyville","KS","Kansas","67337","Central / Mountain","37.146267","-95.748313"
"(785) 309-","Landline","Saline","Salina","KS","Kansas","67401","Central / Mountain","38.823673","-97.642113"
"(316) 281-","Landline","Harvey","Newton","KS","Kansas","67114","Central","38.044857","-97.317279"
"(620) 452-","Unknown","Barton","Albert","KS","Kansas","67511","Central / Mountain","38.420451","-98.913448"
"(620) 518-","Unknown","Clark","Ashland","KS","Kansas","67831","Central / Mountain","37.171946","-99.769576"
"(913) 321-","Landline","Wyandotte","Kansas City","KS","Kansas","66160","Central","39.096551","-94.749538"
"(620) 513-","Landline","Reno","Hutchinson","KS","Kansas","67501","Central / Mountain","37.954312","-97.88569"
"(316) 284-","Landline","Harvey","Newton","KS","Kansas","67114","Central","38.044857","-97.317279"
"(620) 231-","Landline","Crawford","Pittsburg","KS","Kansas","66762","Central / Mountain","37.448044","-94.819212"
"(620) 326-","Landline","Sumner","Wellington","KS","Kansas","67152","Central / Mountain","37.280877","-97.42223"
"(785) 510-","Unknown","Washington","Washington","KS","Kansas","66968","Central / Mountain","39.781107","-97.054286"
"(785) 418-","Cell Number","Franklin","Ottawa","KS","Kansas","66067","Central / Mountain","38.564337","-95.282668"
"(620) 307-","Landline","Cowley","Arkansas City","KS","Kansas","67005","Central / Mountain","37.149582","-96.904215"
"(620) 649-","Landline","Haskell","Satanta","KS","Kansas","67870","Central / Mountain","37.441023","-100.998474"
"(620) 434-","Landline","Sumner","Mayfield","KS","Kansas","67103","Central / Mountain","37.268787","-97.556978"
"(785) 210-","Landline","Geary","Junction City","KS","Kansas","66441","Central / Mountain","39.026465","-96.783359"
"(620) 909-","Landline","Scott","Scott City","KS","Kansas","67871","Central / Mountain","38.482307","-100.906427"
"(913) 285-","Cell Number","Miami","Paola","KS","Kansas","66071","Central","38.577932","-94.880328"
"(316) 390-","Cell Number","Sedgwick","Wichita","KS","Kansas","67206","Central","37.613954","-97.342752"
"(620) 393-","Unknown","Hodgeman","Jetmore","KS","Kansas","67854","Central / Mountain","38.023937","-99.893681"
"(913) 269-","Cell Number","Johnson","Lenexa","KS","Kansas","66215","Central","38.949007","-94.740503"
"(620) 904-","Landline","Rice","Sterling","KS","Kansas","67579","Central / Mountain","38.224187","-98.183033"
"(620) 765-","Landline","Finney","Garden City","KS","Kansas","67846","Central / Mountain","38.000771","-100.664407"
"(785) 331-","Landline","Douglas","Lawrence","KS","Kansas","66047","Central / Mountain","38.88437","-95.338066"
"(913) 747-","Landline","Johnson","Lenexa","KS","Kansas","66215","Central","38.949007","-94.740503"
"(785) 232-","Landline","Shawnee","Topeka","KS","Kansas","66616","Central / Mountain","39.065477","-95.626357"
"(316) 742-","Landline","Butler","Leon","KS","Kansas","67074","Central","37.66475","-96.748795"
"(316) 869-","Landline","Sedgwick","Wichita","KS","Kansas","67206","Central","37.613954","-97.342752"
"(620) 239-","Landline","Barber","Hazelton","KS","Kansas","67061","Central / Mountain","37.114569","-98.410166"
"(785) 474-","Landline","Brown","Powhattan","KS","Kansas","66527","Central / Mountain","39.761448","-95.635089"
"(785) 356-","Landline","Rush","Bison","KS","Kansas","67520","Central / Mountain","38.563156","-99.195772"
"(316) 974-","Landline","Sedgwick","Cheney","KS","Kansas","67025","Central","37.633711","-97.73513"
"(785) 695-","Landline","Smith","Kensington","KS","Kansas","66951","Central / Mountain","39.783621","-98.796287"
"(620) 659-","Landline","Edwards","Kinsley","KS","Kansas","67547","Central / Mountain","37.91204","-99.478881"
"(785) 385-","Landline","Russell","Russell","KS","Kansas","67665","Central / Mountain","38.905159","-98.784797"
"(620) 934-","Cell Number","Barton","Pawnee Rock","KS","Kansas","67567","Central / Mountain","38.451554","-98.959346"
"(620) 273-","Landline","Chase","Cottonwood Falls","KS","Kansas","66845","Central / Mountain","38.37674","-96.54945"
"(913) 284-","Cell Number","Johnson","Kansas City","KS","Kansas","66160","Central","39.096551","-94.749538"
"(785) 482-","Landline","Morris","White City","KS","Kansas","66872","Central / Mountain","38.783116","-96.779581"
"(620) 741-","Landline","Cowley","Arkansas City","KS","Kansas","67005","Central / Mountain","37.149582","-96.904215"
"(913) 471-","Landline","Linn","Prescott","KS","Kansas","66767","Central","38.178868","-94.705448"
"(620) 617-","Cell Number","Barton","Great Bend","KS","Kansas","67530","Central / Mountain","38.393567","-98.775074"
"(620) 200-","Cell Number","Reno","Hutchinson","KS","Kansas","67501","Central / Mountain","37.954312","-97.88569"
"(620) 337-","Unknown","Harper","Attica","KS","Kansas","67009","Central / Mountain","37.224885","-98.210087"
"(785) 653-","Landline","Phillips","Long Island","KS","Kansas","67647","Central / Mountain","39.784708","-99.347075"
"(785) 307-","Cell Number","Geary","Junction City","KS","Kansas","66441","Central / Mountain","39.026465","-96.783359"
"(913) 613-","Cell Number","Wyandotte","Kansas City","KS","Kansas","66160","Central","39.096551","-94.749538"
"(785) 477-","Unknown","Riley","Manhattan","KS","Kansas","66502","Central / Mountain","39.209375","-96.564589"
"(620) 891-","Cell Number","Montgomery","Cherryvale","KS","Kansas","67335","Central / Mountain","37.167997","-95.732508"
"(785) 438-","Landline","Shawnee","Topeka","KS","Kansas","66616","Central / Mountain","39.065477","-95.626357"
"(620) 382-","Landline","Marion","Marion","KS","Kansas","66861","Central / Mountain","38.284561","-96.965255"
"(785) 440-","Landline","Shawnee","Topeka","KS","Kansas","66616","Central / Mountain","39.065477","-95.626357"
"(620) 367-","Landline","Harvey","Hesston","KS","Kansas","67062","Central / Mountain","38.137404","-97.443222"
"(785) 569-","Landline","Mitchell","Beloit","KS","Kansas","67420","Central / Mountain","39.441631","-98.119189"
"(620) 921-","Landline","Reno","Hutchinson","KS","Kansas","67501","Central / Mountain","37.954312","-97.88569"
"(620) 430-","Cell Number","Ford","Dodge City","KS","Kansas","67801","Central / Mountain","37.690531","-99.902421"
"(785) 364-","Landline","Jackson","Holton","KS","Kansas","66436","Central / Mountain","39.481012","-95.765586"
"(620) 678-","Landline","Greenwood","Hamilton","KS","Kansas","66853","Central / Mountain","37.980393","-96.199508"
"(785) 760-","Cell Number","Douglas","Lawrence","KS","Kansas","66047","Central / Mountain","38.88437","-95.338066"
"(785) 271-","Landline","Shawnee","Topeka","KS","Kansas","66616","Central / Mountain","39.065477","-95.626357"
"(785) 512-","Unknown","Dickinson","Hope","KS","Kansas","67451","Central / Mountain","38.826292","-97.121874"
"(316) 670-","Landline","Sedgwick","Wichita","KS","Kansas","67206","Central","37.613954","-97.342752"
"(913) 232-","Landline","Wyandotte","Kansas City","KS","Kansas","66160","Central","39.096551","-94.749538"
"(785) 821-","Cell Number","Sherman","Goodland","KS","Kansas","67735","Central / Mountain","39.358123","-101.798885"
"(620) 344-","Cell Number","Lyon","Emporia","KS","Kansas","66801","Central / Mountain","38.434153","-96.152766"
"(316) 519-","Cell Number","Sedgwick","Wichita","KS","Kansas","67206","Central","37.613954","-97.342752"
"(785) 733-","Landline","Coffey","Waverly","KS","Kansas","66871","Central / Mountain","38.346908","-95.628088"
"(316) 621-","Landline","Butler","El Dorado","KS","Kansas","67042","Central","37.830491","-96.865969"
"(785) 986-","Landline","Jackson","Hoyt","KS","Kansas","66440","Central / Mountain","39.305187","-95.685374"
"(316) 779-","Landline","Sedgwick","Valley Center","KS","Kansas","67147","Central","37.845078","-97.335537"
"(913) 310-","Landline","Johnson","Lenexa","KS","Kansas","66215","Central","38.949007","-94.740503"
"(316) 530-","Landline","Butler","Benton","KS","Kansas","67017","Central","37.831767","-97.097363"
"(785) 632-","Landline","Clay","Clay Center","KS","Kansas","67432","Central / Mountain","39.349452","-97.164849"
"(785) 529-","Landline","Mitchell","Hunter","KS","Kansas","67452","Central / Mountain","39.287497","-98.433673"
"(620) 401-","Unknown","Wichita","Leoti","KS","Kansas","67861","Central / Mountain","38.477827","-101.293036"
"(785) 377-","Unknown","Marshall","Blue Rapids","KS","Kansas","66411","Central / Mountain","39.713306","-96.563601"
"(785) 549-","Landline","Osage","Melvern","KS","Kansas","66510","Central / Mountain","38.499728","-95.611239"
"(785) 614-","Cell Number","Cloud","Concordia","KS","Kansas","66901","Central / Mountain","39.551634","-97.656764"
"(620) 651-","Unknown","Kearny","Deerfield","KS","Kansas","67838","Central / Mountain","37.964591","-101.190998"
"(913) 273-","Landline","Wyandotte","Kansas City","KS","Kansas","66160","Central","39.096551","-94.749538"
"(620) 624-","Landline","Seward","Liberal","KS","Kansas","67901","Central / Mountain","37.043237","-100.873809"
"(316) 536-","Landline","Butler","Towanda","KS","Kansas","67144","Central","37.905383","-96.85903"
"(316) 838-","Landline","Sedgwick","Wichita","KS","Kansas","67206","Central","37.613954","-97.342752"
"(620) 517-","Unknown","Sumner","Caldwell","KS","Kansas","67022","Central / Mountain","37.133257","-97.601664"
"(785) 983-","Landline","Morris","Burdick","KS","Kansas","66838","Central / Mountain","38.565758","-96.801336"
"(316) 570-","Landline","Sedgwick","Wichita","KS","Kansas","67206","Central","37.613954","-97.342752"
"(913) 647-","Landline","Johnson","Lenexa","KS","Kansas","66215","Central","38.949007","-94.740503"
"(913) 608-","Unknown","Wyandotte","Kansas City","KS","Kansas","66160","Central","39.096551","-94.749538"
"(620) 279-","Landline","Chase","Strong City","KS","Kansas","66869","Central / Mountain","38.390683","-96.538737"
"(913) 827-","Unknown","Wyandotte","Kansas City","KS","Kansas","66160","Central","39.096551","-94.749538"
"(620) 274-","Landline","Chase","Cedar Point","KS","Kansas","66843","Central / Mountain","38.260042","-96.822766"
"(913) 754-","Landline","Johnson","Lenexa","KS","Kansas","66215","Central","38.949007","-94.740503"
"(620) 324-","Landline","Edwards","Lewis","KS","Kansas","67552","Central / Mountain","37.936208","-99.254501"
"(913) 424-","Landline","Wyandotte","Kansas City","KS","Kansas","66160","Central","39.096551","-94.749538"
"(785) 337-","Landline","Washington","Hanover","KS","Kansas","66945","Central / Mountain","39.867079","-96.896534"
"(316) 377-","Cell Number","Butler","El Dorado","KS","Kansas","67042","Central","37.830491","-96.865969"
"(620) 960-","Cell Number","Reno","Hutchinson","KS","Kansas","67501","Central / Mountain","37.954312","-97.88569"
"(620) 398-","Landline","Lane","Healy","KS","Kansas","67850","Central / Mountain","38.578991","-100.600786"
"(913) 738-","Landline","Wyandotte","Kansas City","KS","Kansas","66160","Central","39.096551","-94.749538"
"(620) 405-","Unknown","Allen","La Harpe","KS","Kansas","66751","Central / Mountain","37.914528","-95.255758"
"(620) 965-","Landline","Butler","Latham","KS","Kansas","67072","Central / Mountain","37.606889","-96.658181"
"(620) 738-","Landline","Comanche","Wilmore","KS","Kansas","67155","Central / Mountain","37.191758","-99.272769"
"(620) 564-","Landline","Barton","Ellinwood","KS","Kansas","67526","Central / Mountain","38.46396","-98.733001"
"(785) 556-","Cell Number","Riley","Manhattan","KS","Kansas","66502","Central / Mountain","39.209375","-96.564589"
"(913) 728-","Landline","Leavenworth","Basehor","KS","Kansas","66007","Central","39.133448","-94.947234"
"(785) 328-","Landline","Jackson","Holton","KS","Kansas","66436","Central / Mountain","39.481012","-95.765586"
"(785) 492-","Unknown","Geary","Junction City","KS","Kansas","66441","Central / Mountain","39.026465","-96.783359"
"(620) 338-","Landline","Ford","Dodge City","KS","Kansas","67801","Central / Mountain","37.690531","-99.902421"
"(620) 501-","Landline","Barber","Medicine Lodge","KS","Kansas","67104","Central / Mountain","37.291739","-98.620996"
"(913) 302-","Cell Number","Wyandotte","Kansas City","KS","Kansas","66160","Central","39.096551","-94.749538"
"(913) 299-","Landline","Wyandotte","Kansas City","KS","Kansas","66160","Central","39.096551","-94.749538"
"(316) 871-","Cell Number","Sedgwick","Wichita","KS","Kansas","67206","Central","37.613954","-97.342752"
"(785) 217-","Landline","Shawnee","Topeka","KS","Kansas","66616","Central / Mountain","39.065477","-95.626357"
"(620) 360-","Cell Number","Morton","Elkhart","KS","Kansas","67950","Central / Mountain","37.00405","-101.896973"
"(316) 247-","Unknown","Sedgwick","Wichita","KS","Kansas","67206","Central","37.613954","-97.342752"
"(620) 335-","Landline","Gray","Ingalls","KS","Kansas","67853","Central / Mountain","37.789051","-100.46093"
"(913) 888-","Landline","Johnson","Lenexa","KS","Kansas","66215","Central","38.949007","-94.740503"
"(785) 300-","Unknown","Nemaha","Sabetha","KS","Kansas","66534","Central / Mountain","39.899941","-95.802372"
"(620) 329-","Landline","Elk","Elk Falls","KS","Kansas","67345","Central / Mountain","37.383228","-96.272149"
"(785) 220-","Cell Number","Shawnee","Topeka","KS","Kansas","66616","Central / Mountain","39.065477","-95.626357"
"(620) 554-","Unknown","Grant","Ulysses","KS","Kansas","67880","Central / Mountain","37.562467","-101.308565"
"(620) 728-","Landline","Reno","Hutchinson","KS","Kansas","67501","Central / Mountain","37.954312","-97.88569"
"(316) 207-","Cell Number","Sedgwick","Wichita","KS","Kansas","67206","Central","37.613954","-97.342752"
"(316) 550-","Landline","Sedgwick","Goddard","KS","Kansas","67052","Central","37.663432","-97.579616"
"(913) 544-","Landline","Johnson","Kansas City","KS","Kansas","66160","Central","39.096551","-94.749538"
"(785) 650-","Landline","Ellis","Hays","KS","Kansas","67601","Central / Mountain","38.878202","-99.334803"
"(913) 477-","Landline","Johnson","Lenexa","KS","Kansas","66215","Central","38.949007","-94.740503"
"(620) 270-","Landline","Montgomery","Caney","KS","Kansas","67333","Central / Mountain","37.048046","-95.884949"
"(620) 698-","Landline","Wilson","Fredonia","KS","Kansas","66736","Central / Mountain","37.571672","-95.748418"
"(620) 390-","Unknown","Ford","Dodge City","KS","Kansas","67801","Central / Mountain","37.690531","-99.902421"
"(620) 846-","Landline","Gray","Montezuma","KS","Kansas","67867","Central / Mountain","37.598638","-100.415568"
"(785) 282-","Landline","Smith","Smith Center","KS","Kansas","66967","Central / Mountain","39.788577","-98.673356"
"(913) 644-","Cell Number","Wyandotte","Kansas City","KS","Kansas","66160","Central","39.096551","-94.749538"
"(316) 444-","Landline","Sedgwick","Andale","KS","Kansas","67001","Central","37.779733","-97.636619"
"(620) 952-","Cell Number","Grant","Ulysses","KS","Kansas","67880","Central / Mountain","37.562467","-101.308565"
"(913) 410-","Landline","Johnson","Overland Park","KS","Kansas","66225","Central","38.899901","-94.831991"
"(620) 481-","Cell Number","Lyon","Emporia","KS","Kansas","66801","Central / Mountain","38.434153","-96.152766"
"(620) 378-","Landline","Wilson","Fredonia","KS","Kansas","66736","Central / Mountain","37.571672","-95.748418"
"(913) 915-","Cell Number","Johnson","Overland Park","KS","Kansas","66225","Central","38.899901","-94.831991"
"(620) 793-","Landline","Barton","Great Bend","KS","Kansas","67530","Central / Mountain","38.393567","-98.775074"
"(620) 495-","Landline","Stanton","Johnson","KS","Kansas","67855","Central / Mountain","37.562997","-101.707858"
"(620) 874-","Landline","Scott","Scott City","KS","Kansas","67871","Central / Mountain","38.482307","-100.906427"
"(316) 619-","Cell Number","Sedgwick","Wichita","KS","Kansas","67206","Central","37.613954","-97.342752"
"(620) 218-","Cell Number","Cowley","Winfield","KS","Kansas","67156","Central / Mountain","37.232126","-96.996334"
"(316) 416-","Landline","Butler","Whitewater","KS","Kansas","67154","Central","37.977983","-97.088361"
"(620) 220-","Cell Number","Chase","Cottonwood Falls","KS","Kansas","66845","Central / Mountain","38.37674","-96.54945"
"(620) 319-","Landline","Chautauqua","Sedan","KS","Kansas","67361","Central / Mountain","37.134351","-96.219212"
"(620) 940-","Landline","Rice","Chase","KS","Kansas","67524","Central / Mountain","38.362338","-98.246676"
"(785) 655-","Landline","Dickinson","Solomon","KS","Kansas","67480","Central / Mountain","38.910885","-97.339456"
"(785) 973-","Landline","Phillips","Prairie View","KS","Kansas","67664","Central / Mountain","39.75337","-99.348129"
"(785) 537-","Landline","Riley","Manhattan","KS","Kansas","66502","Central / Mountain","39.209375","-96.564589"
"(620) 369-","Landline","Ford","Ford","KS","Kansas","67842","Central / Mountain","37.587839","-99.799449"
"(785) 776-","Landline","Riley","Manhattan","KS","Kansas","66502","Central / Mountain","39.209375","-96.564589"
"(785) 890-","Landline","Sherman","Goodland","KS","Kansas","67735","Central / Mountain","39.358123","-101.798885"
"(620) 752-","Landline","Butler","Potwin","KS","Kansas","67123","Central / Mountain","37.937595","-97.038364"
"(785) 250-","Cell Number","Shawnee","Topeka","KS","Kansas","66616","Central / Mountain","39.065477","-95.626357"
"(785) 362-","Landline","Nemaha","Wetmore","KS","Kansas","66550","Central / Mountain","39.636115","-95.811894"
"(913) 341-","Landline","Johnson","Overland Park","KS","Kansas","66225","Central","38.899901","-94.831991"
"(620) 306-","Cell Number","Montgomery","Caney","KS","Kansas","67333","Central / Mountain","37.048046","-95.884949"
"(620) 305-","Cell Number","Neosho","Chanute","KS","Kansas","66720","Central / Mountain","37.609218","-95.416422"
"(785) 530-","Unknown","Geary","Junction City","KS","Kansas","66441","Central / Mountain","39.026465","-96.783359"
"(913) 226-","Cell Number","Johnson","Lenexa","KS","Kansas","66215","Central","38.949007","-94.740503"
"(620) 710-","Landline","Chautauqua","Sedan","KS","Kansas","67361","Central / Mountain","37.134351","-96.219212"
"(316) 217-","Cell Number","Butler","Whitewater","KS","Kansas","67154","Central","37.977983","-97.088361"
"(785) 731-","Landline","Ness","Arnold","KS","Kansas","67515","Central / Mountain","38.479822","-99.916519"
"(913) 596-","Landline","Wyandotte","Kansas City","KS","Kansas","66160","Central","39.096551","-94.749538"
"(620) 688-","Cell Number","Montgomery","Coffeyville","KS","Kansas","67337","Central / Mountain","37.146267","-95.748313"
"(620) 388-","Cell Number","Pratt","Pratt","KS","Kansas","67124","Central / Mountain","37.63857","-98.758512"
"(913) 583-","Landline","Johnson","De Soto","KS","Kansas","66018","Central","38.946156","-94.97143"
"(620) 473-","Landline","Allen","Humboldt","KS","Kansas","66748","Central / Mountain","37.829342","-95.34549"
"(316) 282-","Landline","Harvey","Newton","KS","Kansas","67114","Central","38.044857","-97.317279"
"(785) 446-","Landline","Cloud","Clyde","KS","Kansas","66938","Central / Mountain","39.59127","-97.398639"
"(913) 569-","Landline","Linn","Prescott","KS","Kansas","66767","Central","38.178868","-94.705448"
"(620) 647-","Landline","Elk","Moline","KS","Kansas","67353","Central / Mountain","37.357438","-96.373849"
"(913) 575-","Unknown","Wyandotte","Kansas City","KS","Kansas","66160","Central","39.096551","-94.749538"
"(785) 226-","Cell Number","Geary","Junction City","KS","Kansas","66441","Central / Mountain","39.026465","-96.783359"
"(316) 686-","Landline","Sedgwick","Wichita","KS","Kansas","67206","Central","37.613954","-97.342752"
"(785) 290-","Landline","Shawnee","Topeka","KS","Kansas","66616","Central / Mountain","39.065477","-95.626357"
"(785) 387-","Landline","Rush","Otis","KS","Kansas","67565","Central / Mountain","38.53527","-99.053404"
"(785) 751-","Landline","Logan","Winona","KS","Kansas","67764","Central / Mountain","38.921702","-101.094305"
"(316) 491-","Landline","Sedgwick","Wichita","KS","Kansas","67206","Central","37.613954","-97.342752"
"(785) 370-","Landline","Riley","Manhattan","KS","Kansas","66502","Central / Mountain","39.209375","-96.564589"
"(913) 592-","Landline","Johnson","Spring Hill","KS","Kansas","66083","Central","38.789323","-94.788441"
"(620) 490-","Cell Number","Coffey","Burlington","KS","Kansas","66839","Central / Mountain","38.236316","-95.733598"
"(620) 275-","Landline","Finney","Garden City","KS","Kansas","67846","Central / Mountain","38.000771","-100.664407"
"(785) 706-","Landline","Riley","Manhattan","KS","Kansas","66502","Central / Mountain","39.209375","-96.564589"
"(316) 305-","Cell Number","Sedgwick","Wichita","KS","Kansas","67206","Central","37.613954","-97.342752"
"(785) 726-","Landline","Ellis","Ellis","KS","Kansas","67637","Central / Mountain","38.950015","-99.336337"
"(785) 979-","Cell Number","Douglas","Lawrence","KS","Kansas","66047","Central / Mountain","38.88437","-95.338066"
"(785) 472-","Landline","Ellsworth","Ellsworth","KS","Kansas","67439","Central / Mountain","38.696579","-98.205437"
"(620) 244-","Landline","Neosho","Erie","KS","Kansas","66733","Central / Mountain","37.580055","-95.29892"
"(316) 541-","Landline","Butler","Towanda","KS","Kansas","67144","Central","37.905383","-96.85903"
"(316) 337-","Landline","Sedgwick","Wichita","KS","Kansas","67206","Central","37.613954","-97.342752"
"(316) 651-","Landline","Sedgwick","Wichita","KS","Kansas","67206","Central","37.613954","-97.342752"
"(785) 647-","Landline","Jewell","Burr Oak","KS","Kansas","66936","Central / Mountain","39.784792","-98.218469"
"(620) 331-","Landline","Montgomery","Independence","KS","Kansas","67301","Central / Mountain","37.180636","-95.756197"
"(785) 392-","Landline","Ottawa","Minneapolis","KS","Kansas","67467","Central / Mountain","39.141097","-97.650674"
"(785) 686-","Landline","Smith","Smith Center","KS","Kansas","66967","Central / Mountain","39.788577","-98.673356"
"(913) 565-","Landline","Leavenworth","Leavenworth","KS","Kansas","66048","Central","39.279656","-94.982216"
"(620) 343-","Landline","Lyon","Emporia","KS","Kansas","66801","Central / Mountain","38.434153","-96.152766"
"(785) 559-","Landline","Shawnee","Topeka","KS","Kansas","66616","Central / Mountain","39.065477","-95.626357"
"(785) 869-","Landline","Franklin","Lane","KS","Kansas","66042","Central / Mountain","38.550993","-95.263735"
"(785) 668-","Landline","Saline","Falun","KS","Kansas","67442","Central / Mountain","38.69098","-97.787364"
"(785) 945-","Landline","Jefferson","Valley Falls","KS","Kansas","66088","Central / Mountain","39.248329","-95.428183"
"(620) 743-","Landline","Bourbon","Mapleton","KS","Kansas","66754","Central / Mountain","37.855416","-94.850996"
"(316) 975-","Landline","Butler","Whitewater","KS","Kansas","67154","Central","37.977983","-97.088361"
"(785) 885-","Landline","Osborne","Natoma","KS","Kansas","67651","Central / Mountain","39.227878","-98.945419"
"(316) 778-","Landline","Butler","Benton","KS","Kansas","67017","Central","37.831767","-97.097363"
"(785) 314-","Cell Number","Osborne","Osborne","KS","Kansas","67473","Central / Mountain","39.385738","-98.795417"
"(620) 877-","Landline","Marion","Hillsboro","KS","Kansas","67063","Central / Mountain","38.347988","-97.205656"
"(913) 631-","Landline","Wyandotte","Kansas City","KS","Kansas","66160","Central","39.096551","-94.749538"
"(620) 483-","Landline","Marion","Lehigh","KS","Kansas","67073","Central / Mountain","38.372882","-97.302858"
"(785) 865-","Landline","Douglas","Lawrence","KS","Kansas","66047","Central / Mountain","38.88437","-95.338066"
"(620) 742-","Unknown","Cherokee","Galena","KS","Kansas","66739","Central / Mountain","37.15456","-94.833896"
"(316) 928-","Landline","Sedgwick","Wichita","KS","Kansas","67206","Central","37.613954","-97.342752"
"(913) 732-","Unknown","Johnson","Olathe","KS","Kansas","66051","Central","38.899901","-94.831991"
"(620) 468-","Landline","Allen","Iola","KS","Kansas","66749","Central / Mountain","37.885757","-95.391057"
"(785) 713-","Cell Number","Marshall","Marysville","KS","Kansas","66508","Central / Mountain","39.863544","-96.617219"
"(785) 322-","Landline","Rawlins","Herndon","KS","Kansas","67739","Central / Mountain","39.909207","-100.784803"
"(620) 255-","Cell Number","Ford","Dodge City","KS","Kansas","67801","Central / Mountain","37.690531","-99.902421"
"(785) 633-","Cell Number","Shawnee","Topeka","KS","Kansas","66616","Central / Mountain","39.065477","-95.626357"
"(785) 391-","Landline","Ness","Utica","KS","Kansas","67584","Central / Mountain","38.641893","-100.170396"
"(785) 778-","Landline","Washington","Haddam","KS","Kansas","66944","Central / Mountain","39.83551","-97.269445"
"(316) 223-","Landline","Sedgwick","Wichita","KS","Kansas","67206","Central","37.613954","-97.342752"
"(913) 775-","Cell Number","Leavenworth","Leavenworth","KS","Kansas","66048","Central","39.279656","-94.982216"
"(785) 345-","Landline","Osborne","Osborne","KS","Kansas","67473","Central / Mountain","39.385738","-98.795417"
"(316) 517-","Landline","Sedgwick","Wichita","KS","Kansas","67206","Central","37.613954","-97.342752"
"(785) 283-","Landline","Ottawa","Tescott","KS","Kansas","67484","Central / Mountain","39.041646","-97.719466"
"(620) 357-","Landline","Hodgeman","Jetmore","KS","Kansas","67854","Central / Mountain","38.023937","-99.893681"
"(785) 841-","Landline","Douglas","Lawrence","KS","Kansas","66047","Central / Mountain","38.88437","-95.338066"
"(620) 628-","Landline","Mcpherson","Canton","KS","Kansas","67428","Central / Mountain","38.392631","-97.426953"
"(785) 827-","Landline","Saline","Salina","KS","Kansas","67401","Central / Mountain","38.823673","-97.642113"
"(785) 854-","Landline","Phillips","Long Island","KS","Kansas","67647","Central / Mountain","39.784708","-99.347075"
"(913) 706-","Cell Number","Johnson","Lenexa","KS","Kansas","66215","Central","38.949007","-94.740503"
"(620) 371-","Unknown","Ford","Dodge City","KS","Kansas","67801","Central / Mountain","37.690531","-99.902421"
"(785) 395-","Landline","Riley","Manhattan","KS","Kansas","66502","Central / Mountain","39.209375","-96.564589"
"(785) 643-","Cell Number","Saline","Salina","KS","Kansas","67401","Central / Mountain","38.823673","-97.642113"
"(785) 662-","Landline","Rooks","Palco","KS","Kansas","67657","Central / Mountain","39.229778","-99.346263"
"(785) 533-","Cell Number","Phillips","Phillipsburg","KS","Kansas","67661","Central / Mountain","39.779113","-99.346302"
"(785) 301-","Unknown","Ellis","Hays","KS","Kansas","67601","Central / Mountain","38.878202","-99.334803"
"(620) 447-","Landline","Sumner","Geuda Springs","KS","Kansas","67051","Central / Mountain","37.139313","-97.458635"
"(620) 234-","Landline","Stafford","Stafford","KS","Kansas","67578","Central / Mountain","37.961811","-98.775"
"(316) 244-","Unknown","Butler","El Dorado","KS","Kansas","67042","Central","37.830491","-96.865969"
"(785) 431-","Landline","Shawnee","Topeka","KS","Kansas","66616","Central / Mountain","39.065477","-95.626357"
"(316) 677-","Landline","Sedgwick","Wichita","KS","Kansas","67206","Central","37.613954","-97.342752"
"(785) 234-","Landline","Shawnee","Topeka","KS","Kansas","66616","Central / Mountain","39.065477","-95.626357"
"(785) 493-","Landline","Saline","Salina","KS","Kansas","67401","Central / Mountain","38.823673","-97.642113"
"(620) 543-","Landline","Reno","Buhler","KS","Kansas","67522","Central / Mountain","38.122794","-97.766352"
"(316) 265-","Landline","Sedgwick","Wichita","KS","Kansas","67206","Central","37.613954","-97.342752"
"(620) 926-","Cell Number","Montgomery","Independence","KS","Kansas","67301","Central / Mountain","37.180636","-95.756197"
"(620) 569-","Landline","Pawnee","Larned","KS","Kansas","67550","Central / Mountain","38.194644","-99.10096"
"(913) 712-","Landline","Johnson","Olathe","KS","Kansas","66051","Central","38.899901","-94.831991"
"(620) 389-","Landline","Cherokee","Riverton","KS","Kansas","66770","Central / Mountain","37.073183","-94.758958"
"(316) 616-","Landline","Sedgwick","Wichita","KS","Kansas","67206","Central","37.613954","-97.342752"
"(316) 941-","Landline","Sedgwick","Wichita","KS","Kansas","67206","Central","37.613954","-97.342752"
"(620) 285-","Landline","Pawnee","Larned","KS","Kansas","67550","Central / Mountain","38.194644","-99.10096"
"(913) 947-","Landline","Anderson","Bucyrus","KS","Kansas","66013","Central","38.676056","-94.685052"
"(785) 547-","Landline","Brown","Horton","KS","Kansas","66439","Central / Mountain","39.664076","-95.527212"
"(913) 963-","Cell Number","Wyandotte","Kansas City","KS","Kansas","66160","Central","39.096551","-94.749538"
"(913) 907-","Landline","Wyandotte","Kansas City","KS","Kansas","66160","Central","39.096551","-94.749538"
"(913) 271-","Cell Number","Wyandotte","Kansas City","KS","Kansas","66160","Central","39.096551","-94.749538"
"(785) 542-","Landline","Douglas","Eudora","KS","Kansas","66025","Central / Mountain","38.879142","-95.125903"
"(620) 226-","Landline","Labette","Bartlett","KS","Kansas","67332","Central / Mountain","37.045463","-95.229916"
"(785) 680-","Cell Number","Gove","Quinter","KS","Kansas","67752","Central / Mountain","39.063613","-100.238001"
"(620) 968-","Cell Number","Sumner","Wellington","KS","Kansas","67152","Central / Mountain","37.280877","-97.42223"
"(785) 291-","Landline","Shawnee","Topeka","KS","Kansas","66616","Central / Mountain","39.065477","-95.626357"
"(785) 403-","Landline","Jefferson","Meriden","KS","Kansas","66512","Central / Mountain","39.202791","-95.530598"
"(913) 481-","Cell Number","Johnson","Lenexa","KS","Kansas","66215","Central","38.949007","-94.740503"
"(785) 428-","Landline","Jewell","Jewell","KS","Kansas","66949","Central / Mountain","39.671874","-98.147215"
"(785) 685-","Landline","Brown","Hiawatha","KS","Kansas","66434","Central / Mountain","39.791367","-95.600405"
"(913) 684-","Landline","Leavenworth","Leavenworth","KS","Kansas","66048","Central","39.279656","-94.982216"
"(620) 593-","Landline","Morton","Rolla","KS","Kansas","67954","Central / Mountain","37.081137","-101.60469"
"(620) 622-","Landline","Comanche","Protection","KS","Kansas","67127","Central / Mountain","37.200135","-99.482888"
"(785) 434-","Landline","Rooks","Plainville","KS","Kansas","67663","Central / Mountain","39.248844","-99.316373"
"(785) 357-","Landline","Shawnee","Topeka","KS","Kansas","66616","Central / Mountain","39.065477","-95.626357"
"(785) 426-","Landline","Rawlins","Mc Donald","KS","Kansas","67745","Central / Mountain","39.785619","-101.370071"
"(785) 696-","Landline","Wabaunsee","Harveyville","KS","Kansas","66431","Central / Mountain","38.789698","-95.963421"
"(913) 927-","Cell Number","Johnson","Overland Park","KS","Kansas","66225","Central","38.899901","-94.831991"
"(620) 786-","Landline","Barton","Great Bend","KS","Kansas","67530","Central / Mountain","38.393567","-98.775074"
"(620) 964-","Landline","Coffey","Le Roy","KS","Kansas","66857","Central / Mountain","38.11486","-95.685599"
"(785) 481-","Landline","Ness","Arnold","KS","Kansas","67515","Central / Mountain","38.479822","-99.916519"
"(785) 239-","Landline","Geary","Junction City","KS","Kansas","66441","Central / Mountain","39.026465","-96.783359"
"(620) 246-","Landline","Barber","Isabel","KS","Kansas","67065","Central / Mountain","37.427542","-98.551564"
"(316) 681-","Landline","Sedgwick","Wichita","KS","Kansas","67206","Central","37.613954","-97.342752"
"(913) 220-","Cell Number","Johnson","Kansas City","KS","Kansas","66160","Central","39.096551","-94.749538"
"(785) 367-","Landline","Osage","Osage City","KS","Kansas","66523","Central / Mountain","38.629558","-95.737112"
"(620) 264-","Cell Number","Pawnee","Larned","KS","Kansas","67550","Central / Mountain","38.194644","-99.10096"
"(620) 669-","Landline","Reno","Hutchinson","KS","Kansas","67501","Central / Mountain","37.954312","-97.88569"
"(620) 826-","Landline","Ford","Bucklin","KS","Kansas","67834","Central / Mountain","37.690525","-99.882532"
"(316) 529-","Landline","Sedgwick","Wichita","KS","Kansas","67206","Central","37.613954","-97.342752"
"(620) 835-","Unknown","Morton","Rolla","KS","Kansas","67954","Central / Mountain","37.081137","-101.60469"
"(913) 240-","Cell Number","Leavenworth","Leavenworth","KS","Kansas","66048","Central","39.279656","-94.982216"
"(785) 797-","Landline","Phillips","Long Island","KS","Kansas","67647","Central / Mountain","39.784708","-99.347075"
"(620) 680-","Cell Number","Rice","Lyons","KS","Kansas","67554","Central / Mountain","38.376979","-98.193184"
"(620) 983-","Landline","Marion","Peabody","KS","Kansas","66866","Central / Mountain","38.134801","-97.003776"
"(620) 224-","Landline","Bourbon","Fort Scott","KS","Kansas","66701","Central / Mountain","37.821629","-94.714793"
"(620) 591-","Cell Number","Lyon","Emporia","KS","Kansas","66801","Central / Mountain","38.434153","-96.152766"
"(620) 221-","Landline","Cowley","Winfield","KS","Kansas","67156","Central / Mountain","37.232126","-96.996334"
"(785) 339-","Landline","Shawnee","Topeka","KS","Kansas","66616","Central / Mountain","39.065477","-95.626357"
"(913) 534-","Landline","Wyandotte","Kansas City","KS","Kansas","66160","Central","39.096551","-94.749538"
"(785) 851-","Cell Number","Jackson","Holton","KS","Kansas","66436","Central / Mountain","39.481012","-95.765586"
"(620) 979-","Landline","Cherokee","Treece","KS","Kansas","66778","Central / Mountain","37.14002","-94.881789"
"(913) 709-","Cell Number","Wyandotte","Kansas City","KS","Kansas","66160","Central","39.096551","-94.749538"
"(316) 291-","Landline","Sedgwick","Wichita","KS","Kansas","67206","Central","37.613954","-97.342752"
"(316) 542-","Landline","Sedgwick","Cheney","KS","Kansas","67025","Central","37.633711","-97.73513"
"(620) 408-","Landline","Ford","Dodge City","KS","Kansas","67801","Central / Mountain","37.690531","-99.902421"
"(620) 442-","Landline","Cowley","Arkansas City","KS","Kansas","67005","Central / Mountain","37.149582","-96.904215"
"(620) 768-","Landline","Bourbon","Fort Scott","KS","Kansas","66701","Central / Mountain","37.821629","-94.714793"
"(785) 201-","Landline","Saline","Salina","KS","Kansas","67401","Central / Mountain","38.823673","-97.642113"
"(316) 312-","Cell Number","Sedgwick","Wichita","KS","Kansas","67206","Central","37.613954","-97.342752"
"(620) 885-","Landline","Clark","Minneola","KS","Kansas","67865","Central / Mountain","37.442546","-100.008811"
"(785) 294-","Cell Number","Nemaha","Seneca","KS","Kansas","66538","Central / Mountain","39.847328","-96.031629"
"(785) 830-","Landline","Douglas","Lawrence","KS","Kansas","66047","Central / Mountain","38.88437","-95.338066"
"(785) 654-","Landline","Osage","Burlingame","KS","Kansas","66413","Central / Mountain","38.73799","-95.815754"
"(620) 249-","Cell Number","Crawford","Pittsburg","KS","Kansas","66762","Central / Mountain","37.448044","-94.819212"
"(620) 222-","Cell Number","Cowley","Winfield","KS","Kansas","67156","Central / Mountain","37.232126","-96.996334"
"(620) 514-","Landline","Sumner","Wellington","KS","Kansas","67152","Central / Mountain","37.280877","-97.42223"
"(785) 334-","Unknown","Nemaha","Seneca","KS","Kansas","66538","Central / Mountain","39.847328","-96.031629"
"(620) 984-","Landline","Barber","Hazelton","KS","Kansas","67061","Central / Mountain","37.114569","-98.410166"
"(913) 541-","Landline","Johnson","Lenexa","KS","Kansas","66215","Central","38.949007","-94.740503"
"(785) 468-","Landline","Pottawatomie","Olsburg","KS","Kansas","66520","Central / Mountain","39.411089","-96.439613"
"(620) 933-","Landline","Pratt","Pratt","KS","Kansas","67124","Central / Mountain","37.63857","-98.758512"
"(785) 439-","Landline","Cloud","Jamestown","KS","Kansas","66948","Central / Mountain","39.598963","-97.86117"
"(785) 460-","Landline","Thomas","Colby","KS","Kansas","67701","Central / Mountain","39.40152","-100.973696"
"(316) 789-","Landline","Sedgwick","Derby","KS","Kansas","67037","Central","37.566129","-97.228475"
"(785) 246-","Landline","Shawnee","Topeka","KS","Kansas","66616","Central / Mountain","39.065477","-95.626357"
"(913) 495-","Landline","Johnson","Lenexa","KS","Kansas","66215","Central","38.949007","-94.740503"
"(913) 976-","Unknown","Wyandotte","Kansas City","KS","Kansas","66160","Central","39.096551","-94.749538"
"(620) 621-","Cell Number","Seward","Liberal","KS","Kansas","67901","Central / Mountain","37.043237","-100.873809"
"(316) 944-","Landline","Sedgwick","Wichita","KS","Kansas","67206","Central","37.613954","-97.342752"
"(785) 635-","Cell Number","Ellis","Hays","KS","Kansas","67601","Central / Mountain","38.878202","-99.334803"
"(316) 978-","Landline","Sedgwick","Wichita","KS","Kansas","67206","Central","37.613954","-97.342752"
"(785) 998-","Landline","Russell","Dorrance","KS","Kansas","67634","Central / Mountain","38.821918","-98.775418"
"(785) 212-","Cell Number","Mcpherson","Lindsborg","KS","Kansas","67456","Central / Mountain","38.497407","-97.628859"
"(316) 292-","Landline","Sedgwick","Wichita","KS","Kansas","67206","Central","37.613954","-97.342752"
"(785) 933-","Landline","Jackson","Netawaka","KS","Kansas","66516","Central / Mountain","39.601523","-95.716332"
"(913) 416-","Cell Number","Leavenworth","Tonganoxie","KS","Kansas","66086","Central","39.115489","-95.084717"
"(785) 727-","Landline","Douglas","Lawrence","KS","Kansas","66047","Central / Mountain","38.88437","-95.338066"
"(316) 772-","Landline","Harvey","Sedgwick","KS","Kansas","67135","Central","37.955789","-97.473214"
"(316) 721-","Landline","Sedgwick","Wichita","KS","Kansas","67206","Central","37.613954","-97.342752"
"(785) 241-","Cell Number","Franklin","Ottawa","KS","Kansas","66067","Central / Mountain","38.564337","-95.282668"
"(785) 676-","Landline","Shawnee","Topeka","KS","Kansas","66616","Central / Mountain","39.065477","-95.626357"
"(316) 612-","Landline","Sedgwick","Wichita","KS","Kansas","67206","Central","37.613954","-97.342752"
"(620) 615-","Cell Number","Reno","Hutchinson","KS","Kansas","67501","Central / Mountain","37.954312","-97.88569"
"(316) 522-","Landline","Sedgwick","Wichita","KS","Kansas","67206","Central","37.613954","-97.342752"
"(913) 702-","Landline","Leavenworth","Leavenworth","KS","Kansas","66048","Central","39.279656","-94.982216"
"(913) 279-","Landline","Wyandotte","Kansas City","KS","Kansas","66160","Central","39.096551","-94.749538"
"(913) 499-","Landline","Wyandotte","Kansas City","KS","Kansas","66160","Central","39.096551","-94.749538"
"(620) 325-","Landline","Wilson","Neodesha","KS","Kansas","66757","Central / Mountain","37.56084","-95.668445"
"(620) 486-","Landline","Reno","Sylvia","KS","Kansas","67581","Central / Mountain","38.006382","-98.121898"
"(620) 770-","Landline","Pratt","Pratt","KS","Kansas","67124","Central / Mountain","37.63857","-98.758512"
"(785) 880-","Cell Number","Douglas","Lawrence","KS","Kansas","66047","Central / Mountain","38.88437","-95.338066"
"(913) 722-","Landline","Wyandotte","Kansas City","KS","Kansas","66160","Central","39.096551","-94.749538"
"(913) 385-","Landline","Johnson","Overland Park","KS","Kansas","66225","Central","38.899901","-94.831991"
"(620) 674-","Landline","Cherokee","Columbus","KS","Kansas","66725","Central / Mountain","37.169887","-94.889857"
"(620) 912-","Landline","Neosho","Erie","KS","Kansas","66733","Central / Mountain","37.580055","-95.29892"
"(785) 833-","Unknown","Saline","Salina","KS","Kansas","67401","Central / Mountain","38.823673","-97.642113"
"(785) 729-","Landline","Republic","Agenda","KS","Kansas","66930","Central / Mountain","39.70438","-97.446521"
"(785) 736-","Landline","Marshall","Home","KS","Kansas","66438","Central / Mountain","39.848788","-96.506345"
"(785) 425-","Landline","Rooks","Stockton","KS","Kansas","67669","Central / Mountain","39.412166","-99.369872"
"(785) 223-","Landline","Geary","Junction City","KS","Kansas","66441","Central / Mountain","39.026465","-96.783359"
"(316) 993-","Cell Number","Sedgwick","Wichita","KS","Kansas","67206","Central","37.613954","-97.342752"
"(620) 381-","Landline","Marion","Marion","KS","Kansas","66861","Central / Mountain","38.284561","-96.965255"
"(620) 567-","Landline","Reno","Partridge","KS","Kansas","67566","Central / Mountain","38.005705","-97.977327"
"(620) 353-","Landline","Grant","Ulysses","KS","Kansas","67880","Central / Mountain","37.562467","-101.308565"
"(913) 567-","Cell Number","Johnson","Overland Park","KS","Kansas","66225","Central","38.899901","-94.831991"
"(785) 436-","Landline","Lincoln","Beverly","KS","Kansas","67423","Central / Mountain","39.045239","-98.209248"
"(785) 730-","Landline","Shawnee","Topeka","KS","Kansas","66616","Central / Mountain","39.065477","-95.626357"
"(785) 589-","Landline","Wabaunsee","Harveyville","KS","Kansas","66431","Central / Mountain","38.789698","-95.963421"
"(913) 642-","Landline","Johnson","Overland Park","KS","Kansas","66225","Central","38.899901","-94.831991"
"(620) 763-","Landline","Neosho","Galesburg","KS","Kansas","66740","Central / Mountain","37.472432","-95.370691"
"(785) 286-","Landline","Shawnee","Topeka","KS","Kansas","66616","Central / Mountain","39.065477","-95.626357"
"(620) 457-","Landline","Crawford","Cherokee","KS","Kansas","66724","Central / Mountain","37.368216","-94.832276"
"(620) 346-","Landline","Chautauqua","Sedan","KS","Kansas","67361","Central / Mountain","37.134351","-96.219212"
"(620) 565-","Landline","Chautauqua","Cedar Vale","KS","Kansas","67024","Central / Mountain","37.130234","-96.444127"
"(785) 989-","Landline","Doniphan","Wathena","KS","Kansas","66090","Central / Mountain","39.806075","-95.083528"
"(913) 639-","Cell Number","Wyandotte","Kansas City","KS","Kansas","66160","Central","39.096551","-94.749538"
"(785) 817-","Landline","Shawnee","Topeka","KS","Kansas","66616","Central / Mountain","39.065477","-95.626357"
"(620) 521-","Cell Number","Finney","Garden City","KS","Kansas","67846","Central / Mountain","38.000771","-100.664407"
"(785) 848-","Landline","Ness","Utica","KS","Kansas","67584","Central / Mountain","38.641893","-100.170396"
"(913) 381-","Landline","Johnson","Overland Park","KS","Kansas","66225","Central","38.899901","-94.831991"
"(620) 332-","Landline","Montgomery","Independence","KS","Kansas","67301","Central / Mountain","37.180636","-95.756197"
"(785) 252-","Landline","Ellsworth","Holyrood","KS","Kansas","67450","Central / Mountain","38.613667","-98.420938"
"(620) 352-","Unknown","Pratt","Iuka","KS","Kansas","67066","Central / Mountain","37.75535","-98.756921"
"(620) 351-","Unknown","Stanton","Johnson","KS","Kansas","67855","Central / Mountain","37.562997","-101.707858"
"(316) 249-","Unknown","Sedgwick","Wichita","KS","Kansas","67206","Central","37.613954","-97.342752"
"(620) 714-","Landline","Montgomery","Independence","KS","Kansas","67301","Central / Mountain","37.180636","-95.756197"
"(620) 379-","Landline","Wichita","Marienthal","KS","Kansas","67863","Central / Mountain","38.483749","-101.283946"
"(620) 225-","Landline","Ford","Dodge City","KS","Kansas","67801","Central / Mountain","37.690531","-99.902421"
"(316) 640-","Cell Number","Sedgwick","Wichita","KS","Kansas","67206","Central","37.613954","-97.342752"
"(913) 677-","Landline","Wyandotte","Kansas City","KS","Kansas","66160","Central","39.096551","-94.749538"
"(620) 451-","Unknown","Hamilton","Syracuse","KS","Kansas","67878","Central / Mountain","37.986428","-101.751732"
"(620) 295-","Unknown","Lane","Dighton","KS","Kansas","67839","Central / Mountain","38.474188","-100.464651"
"(785) 450-","Unknown","Saline","Assaria","KS","Kansas","67416","Central / Mountain","38.688891","-97.59426"
"(913) 547-","Cell Number","Leavenworth","Leavenworth","KS","Kansas","66048","Central","39.279656","-94.982216"
"(620) 718-","Landline","Mcpherson","Mcpherson","KS","Kansas","67460","Central / Mountain","38.376302","-97.670184"
"(785) 338-","Landline","Shawnee","Topeka","KS","Kansas","66616","Central / Mountain","39.065477","-95.626357"
"(620) 836-","Landline","Coffey","Gridley","KS","Kansas","66852","Central / Mountain","38.105539","-95.794536"
"(913) 908-","Cell Number","Johnson","Lenexa","KS","Kansas","66215","Central","38.949007","-94.740503"
"(620) 348-","Landline","Stafford","Macksville","KS","Kansas","67557","Central / Mountain","37.95853","-98.968997"
"(785) 371-","Landline","Douglas","Lawrence","KS","Kansas","66047","Central / Mountain","38.88437","-95.338066"
"(913) 212-","Cell Number","Miami","Louisburg","KS","Kansas","66053","Central","38.587195","-94.689876"
"(913) 297-","Landline","Leavenworth","Leavenworth","KS","Kansas","66048","Central","39.279656","-94.982216"
"(785) 398-","Landline","Rush","Alexander","KS","Kansas","67513","Central / Mountain","38.470116","-99.553222"
"(785) 380-","Landline","Shawnee","Topeka","KS","Kansas","66616","Central / Mountain","39.065477","-95.626357"
"(316) 512-","Landline","Sedgwick","Wichita","KS","Kansas","67206","Central","37.613954","-97.342752"
"(785) 689-","Landline","Phillips","Logan","KS","Kansas","67646","Central / Mountain","39.664328","-99.568879"
"(785) 688-","Landline","Rooks","Plainville","KS","Kansas","67663","Central / Mountain","39.248844","-99.316373"
"(913) 562-","Landline","Johnson","Kansas City","KS","Kansas","66160","Central","39.096551","-94.749538"
"(913) 756-","Landline","Linn","Blue Mound","KS","Kansas","66010","Central","38.089756","-95.007693"
"(785) 741-","Cell Number","Brown","Hiawatha","KS","Kansas","66434","Central / Mountain","39.791367","-95.600405"
"(785) 548-","Landline","Brown","Everest","KS","Kansas","66424","Central / Mountain","39.699141","-95.462469"
"(785) 600-","Unknown","Cloud","Clyde","KS","Kansas","66938","Central / Mountain","39.59127","-97.398639"
"(316) 352-","Landline","Sedgwick","Wichita","KS","Kansas","67206","Central","37.613954","-97.342752"
"(620) 426-","Landline","Kearny","Deerfield","KS","Kansas","67838","Central / Mountain","37.964591","-101.190998"
"(620) 488-","Landline","Sumner","Belle Plaine","KS","Kansas","67013","Central / Mountain","37.359755","-97.287694"
"(620) 228-","Cell Number","Allen","Iola","KS","Kansas","66749","Central / Mountain","37.885757","-95.391057"
"(316) 927-","Landline","Sedgwick","Mulvane","KS","Kansas","67110","Central","37.3732","-97.441654"
"(620) 894-","Cell Number","Rice","Lyons","KS","Kansas","67554","Central / Mountain","38.376979","-98.193184"
"(785) 486-","Landline","Brown","Horton","KS","Kansas","66439","Central / Mountain","39.664076","-95.527212"
"(316) 842-","Landline","Harvey","Newton","KS","Kansas","67114","Central","38.044857","-97.317279"
"(316) 448-","Landline","Sedgwick","Wichita","KS","Kansas","67206","Central","37.613954","-97.342752"
"(620) 266-","Landline","Marion","Hillsboro","KS","Kansas","67063","Central / Mountain","38.347988","-97.205656"
"(620) 313-","Cell Number","Montgomery","Liberty","KS","Kansas","67351","Central / Mountain","37.09922","-95.583588"
"(620) 697-","Landline","Morton","Elkhart","KS","Kansas","67950","Central / Mountain","37.00405","-101.896973"
"(785) 567-","Landline","Norton","Lenora","KS","Kansas","67645","Central / Mountain","39.610503","-100.002777"
"(620) 992-","Cell Number","Barton","Claflin","KS","Kansas","67525","Central / Mountain","38.565876","-98.627068"
"(785) 375-","Cell Number","Geary","Junction City","KS","Kansas","66441","Central / Mountain","39.026465","-96.783359"
"(316) 682-","Landline","Sedgwick","Wichita","KS","Kansas","67206","Central","37.613954","-97.342752"
"(620) 384-","Landline","Hamilton","Syracuse","KS","Kansas","67878","Central / Mountain","37.986428","-101.751732"
"(620) 459-","Landline","Reno","Pretty Prairie","KS","Kansas","67570","Central / Mountain","37.813853","-97.99759"
"(785) 816-","Landline","Franklin","Wellsville","KS","Kansas","66092","Central / Mountain","38.642244","-95.149986"
"(316) 466-","Cell Number","Sedgwick","Wichita","KS","Kansas","67206","Central","37.613954","-97.342752"
"(785) 527-","Landline","Republic","Belleville","KS","Kansas","66935","Central / Mountain","39.836218","-97.601461"
"(316) 516-","Cell Number","Sedgwick","Wichita","KS","Kansas","67206","Central","37.613954","-97.342752"
"(316) 630-","Landline","Sedgwick","Wichita","KS","Kansas","67206","Central","37.613954","-97.342752"
"(913) 893-","Landline","Johnson","Edgerton","KS","Kansas","66021","Central","38.817766","-94.94316"
"(316) 776-","Landline","Butler","Rose Hill","KS","Kansas","67133","Central","37.56297","-97.090019"
"(620) 349-","Unknown","Kiowa","Haviland","KS","Kansas","67059","Central / Mountain","37.612557","-99.192552"
"(620) 260-","Landline","Finney","Garden City","KS","Kansas","67846","Central / Mountain","38.000771","-100.664407"
"(316) 263-","Landline","Sedgwick","Wichita","KS","Kansas","67206","Central","37.613954","-97.342752"
"(785) 336-","Landline","Nemaha","Seneca","KS","Kansas","66538","Central / Mountain","39.847328","-96.031629"
"(785) 505-","Landline","Douglas","Lawrence","KS","Kansas","66047","Central / Mountain","38.88437","-95.338066"
"(913) 981-","Landline","Wyandotte","Kansas City","KS","Kansas","66160","Central","39.096551","-94.749538"
"(620) 507-","Landline","Sumner","Wellington","KS","Kansas","67152","Central / Mountain","37.280877","-97.42223"
"(913) 633-","Unknown","Wyandotte","Kansas City","KS","Kansas","66160","Central","39.096551","-94.749538"
"(913) 530-","Cell Number","Wyandotte","Kansas City","KS","Kansas","66160","Central","39.096551","-94.749538"
"(316) 719-","Unknown","Sedgwick","Wichita","KS","Kansas","67206","Central","37.613954","-97.342752"
"(620) 705-","Landline","Cowley","Winfield","KS","Kansas","67156","Central / Mountain","37.232126","-96.996334"
"(785) 732-","Landline","Republic","Agenda","KS","Kansas","66930","Central / Mountain","39.70438","-97.446521"
"(316) 440-","Landline","Sedgwick","Wichita","KS","Kansas","67206","Central","37.613954","-97.342752"
"(785) 630-","Landline","Clay","Clay Center","KS","Kansas","67432","Central / Mountain","39.349452","-97.164849"
"(913) 256-","Landline","Miami","Osawatomie","KS","Kansas","66064","Central","38.558533","-94.891655"
"(785) 794-","Landline","Jewell","Formoso","KS","Kansas","66942","Central / Mountain","39.778286","-97.993161"
"(785) 557-","Unknown","Osborne","Downs","KS","Kansas","67437","Central / Mountain","39.449456","-98.581432"
"(620) 873-","Landline","Meade","Meade","KS","Kansas","67864","Central / Mountain","37.238357","-100.316583"
"(785) 624-","Landline","Ellis","Hays","KS","Kansas","67601","Central / Mountain","38.878202","-99.334803"
"(620) 425-","Cell Number","Montgomery","Coffeyville","KS","Kansas","67337","Central / Mountain","37.146267","-95.748313"
"(785) 378-","Landline","Jewell","Mankato","KS","Kansas","66956","Central / Mountain","39.787529","-98.20595"
"(785) 718-","Landline","Doniphan","Troy","KS","Kansas","66087","Central / Mountain","39.790573","-95.143417"
"(913) 723-","Landline","Leavenworth","Linwood","KS","Kansas","66052","Central","39.00755","-95.056044"
"(785) 867-","Landline","Anderson","Greeley","KS","Kansas","66033","Central / Mountain","38.346417","-95.139231"
"(620) 479-","Landline","Cherokee","Scammon","KS","Kansas","66773","Central / Mountain","37.280945","-94.809198"
"(913) 422-","Landline","Johnson","Shawnee","KS","Kansas","66216","Central","39.014655","-94.741448"
"(620) 736-","Landline","Greenwood","Severy","KS","Kansas","67137","Central / Mountain","37.61705","-96.225157"
"(316) 609-","Landline","Sedgwick","Wichita","KS","Kansas","67206","Central","37.613954","-97.342752"
"(316) 691-","Landline","Sedgwick","Wichita","KS","Kansas","67206","Central","37.613954","-97.342752"
"(785) 454-","Landline","Osborne","Downs","KS","Kansas","67437","Central / Mountain","39.449456","-98.581432"
"(913) 367-","Landline","Atchison","Atchison","KS","Kansas","66002","Central","39.535948","-95.225098"
"(785) 820-","Landline","Saline","Salina","KS","Kansas","67401","Central / Mountain","38.823673","-97.642113"
"(620) 560-","Landline","Reno","Hutchinson","KS","Kansas","67501","Central / Mountain","37.954312","-97.88569"
"(620) 446-","Cell Number","Cowley","Arkansas City","KS","Kansas","67005","Central / Mountain","37.149582","-96.904215"
"(913) 890-","Landline","Johnson","Lenexa","KS","Kansas","66215","Central","38.949007","-94.740503"
"(620) 254-","Landline","Harper","Attica","KS","Kansas","67009","Central / Mountain","37.224885","-98.210087"
"(785) 572-","Unknown","Marshall","Frankfort","KS","Kansas","66427","Central / Mountain","39.733313","-96.522272"
"(620) 865-","Landline","Gray","Ensign","KS","Kansas","67841","Central / Mountain","37.624913","-100.27543"
"(316) 304-","Cell Number","Sedgwick","Wichita","KS","Kansas","67206","Central","37.613954","-97.342752"
"(620) 753-","Landline","Chase","Matfield Green","KS","Kansas","66862","Central / Mountain","38.303962","-96.597442"
"(620) 454-","Cell Number","Montgomery","Independence","KS","Kansas","67301","Central / Mountain","37.180636","-95.756197"
"(620) 362-","Landline","Crawford","Farlington","KS","Kansas","66734","Central / Mountain","37.624035","-94.798259"
"(316) 821-","Landline","Sedgwick","Wichita","KS","Kansas","67206","Central","37.613954","-97.342752"
"(316) 684-","Landline","Sedgwick","Wichita","KS","Kansas","67206","Central","37.613954","-97.342752"
"(785) 393-","Cell Number","Douglas","Lawrence","KS","Kansas","66047","Central / Mountain","38.88437","-95.338066"
"(620) 253-","Cell Number","Ford","Dodge City","KS","Kansas","67801","Central / Mountain","37.690531","-99.902421"
"(620) 646-","Landline","Meade","Fowler","KS","Kansas","67844","Central / Mountain","37.279983","-100.211034"
"(620) 201-","Cell Number","Gray","Cimarron","KS","Kansas","67835","Central / Mountain","37.803608","-100.338634"
"(620) 829-","Landline","Bourbon","Redfield","KS","Kansas","66769","Central / Mountain","37.836666","-94.880482"
"(785) 526-","Landline","Lincoln","Sylvan Grove","KS","Kansas","67481","Central / Mountain","38.969795","-98.435528"
"(620) 608-","Landline","Wilson","Neodesha","KS","Kansas","66757","Central / Mountain","37.56084","-95.668445"
"(316) 830-","Landline","Harvey","Halstead","KS","Kansas","67056","Central","38.02428","-97.509713"
"(620) 704-","Cell Number","Crawford","Pittsburg","KS","Kansas","66762","Central / Mountain","37.448044","-94.819212"
"(620) 370-","Cell Number","Seward","Liberal","KS","Kansas","67901","Central / Mountain","37.043237","-100.873809"
"(316) 477-","Landline","Butler","Whitewater","KS","Kansas","67154","Central","37.977983","-97.088361"
"(620) 805-","Landline","Finney","Garden City","KS","Kansas","67846","Central / Mountain","38.000771","-100.664407"
"(316) 835-","Landline","Harvey","Halstead","KS","Kansas","67056","Central","38.02428","-97.509713"
"(785) 353-","Landline","Marshall","Home","KS","Kansas","66438","Central / Mountain","39.848788","-96.506345"
"(620) 372-","Landline","Hamilton","Syracuse","KS","Kansas","67878","Central / Mountain","37.986428","-101.751732"
"(620) 489-","Landline","Mcpherson","Windom","KS","Kansas","67491","Central / Mountain","38.389365","-97.694453"
"(913) 731-","Cell Number","Miami","Osawatomie","KS","Kansas","66064","Central","38.558533","-94.891655"
"(913) 314-","Cell Number","Johnson","Overland Park","KS","Kansas","66225","Central","38.899901","-94.831991"
"(620) 876-","Landline","Cowley","Dexter","KS","Kansas","67038","Central / Mountain","37.178743","-96.715776"
"(620) 947-","Landline","Marion","Hillsboro","KS","Kansas","67063","Central / Mountain","38.347988","-97.205656"
"(316) 828-","Landline","Sedgwick","Wichita","KS","Kansas","67206","Central","37.613954","-97.342752"
"(785) 245-","Landline","Washington","Haddam","KS","Kansas","66944","Central / Mountain","39.83551","-97.269445"
"(913) 605-","Unknown","Johnson","Gardner","KS","Kansas","66030","Central","38.814998","-94.94139"
"(316) 573-","Landline","Sedgwick","Wichita","KS","Kansas","67206","Central","37.613954","-97.342752"
"(316) 347-","Unknown","Sedgwick","Wichita","KS","Kansas","67206","Central","37.613954","-97.342752"
"(913) 829-","Landline","Johnson","Olathe","KS","Kansas","66051","Central","38.899901","-94.831991"
"(913) 465-","Cell Number","Johnson","Lenexa","KS","Kansas","66215","Central","38.949007","-94.740503"
"(316) 322-","Landline","Butler","El Dorado","KS","Kansas","67042","Central","37.830491","-96.865969"
"(913) 766-","Landline","Wyandotte","Kansas City","KS","Kansas","66160","Central","39.096551","-94.749538"
"(620) 595-","Unknown","Stevens","Moscow","KS","Kansas","67952","Central / Mountain","37.325308","-101.205904"
"(913) 768-","Landline","Johnson","Olathe","KS","Kansas","66051","Central","38.899901","-94.831991"
"(785) 449-","Landline","Wabaunsee","Eskridge","KS","Kansas","66423","Central / Mountain","38.858895","-96.145799"
"(785) 747-","Landline","Washington","Greenleaf","KS","Kansas","66943","Central / Mountain","39.687997","-96.975097"
"(785) 543-","Landline","Phillips","Phillipsburg","KS","Kansas","67661","Central / Mountain","39.779113","-99.346302"
"(785) 800-","Unknown","Ottawa","Delphos","KS","Kansas","67436","Central / Mountain","39.263098","-97.714625"
"(620) 385-","Landline","Ford","Spearville","KS","Kansas","67876","Central / Mountain","37.729884","-99.715817"
"(316) 631-","Landline","Sedgwick","Wichita","KS","Kansas","67206","Central","37.613954","-97.342752"
"(785) 669-","Landline","Norton","Almena","KS","Kansas","67622","Central / Mountain","39.891272","-99.711523"
"(785) 991-","Cell Number","Brown","Horton","KS","Kansas","66439","Central / Mountain","39.664076","-95.527212"
"(785) 906-","Cell Number","Mcpherson","Lindsborg","KS","Kansas","67456","Central / Mountain","38.497407","-97.628859"
"(785) 995-","Unknown","Sherman","Goodland","KS","Kansas","67735","Central / Mountain","39.358123","-101.798885"
"(316) 641-","Cell Number","Sedgwick","Wichita","KS","Kansas","67206","Central","37.613954","-97.342752"
"(620) 588-","Landline","Barton","Claflin","KS","Kansas","67525","Central / Mountain","38.565876","-98.627068"
"(316) 351-","Landline","Sedgwick","Derby","KS","Kansas","67037","Central","37.566129","-97.228475"
"(785) 584-","Landline","Shawnee","Rossville","KS","Kansas","66533","Central / Mountain","39.158392","-95.959031"
"(785) 261-","Landline","Ellis","Hays","KS","Kansas","67601","Central / Mountain","38.878202","-99.334803"
"(913) 573-","Landline","Wyandotte","Kansas City","KS","Kansas","66160","Central","39.096551","-94.749538"
"(785) 358-","Landline","Republic","Munden","KS","Kansas","66959","Central / Mountain","39.860279","-97.498488"
"(913) 742-","Unknown","Wyandotte","Kansas City","KS","Kansas","66160","Central","39.096551","-94.749538"
"(316) 425-","Landline","Sedgwick","Wichita","KS","Kansas","67206","Central","37.613954","-97.342752"
"(913) 288-","Landline","Wyandotte","Kansas City","KS","Kansas","66160","Central","39.096551","-94.749538"
"(785) 595-","Landline","Doniphan","White Cloud","KS","Kansas","66094","Central / Mountain","39.873744","-95.29357"
"(785) 515-","Unknown","Saline","Salina","KS","Kansas","67401","Central / Mountain","38.823673","-97.642113"
"(913) 894-","Landline","Johnson","Lenexa","KS","Kansas","66215","Central","38.949007","-94.740503"
"(620) 438-","Landline","Cowley","Burden","KS","Kansas","67019","Central / Mountain","37.37062","-96.759983"
"(785) 489-","Landline","Anderson","Westphalia","KS","Kansas","66093","Central / Mountain","38.210603","-95.457728"
"(620) 663-","Landline","Reno","Hutchinson","KS","Kansas","67501","Central / Mountain","37.954312","-97.88569"
"(913) 406-","Cell Number","Wyandotte","Kansas City","KS","Kansas","66160","Central","39.096551","-94.749538"
"(913) 301-","Landline","Leavenworth","Linwood","KS","Kansas","66052","Central","39.00755","-95.056044"
"(620) 843-","Landline","Butler","Latham","KS","Kansas","67072","Central / Mountain","37.606889","-96.658181"
"(913) 839-","Landline","Johnson","Olathe","KS","Kansas","66051","Central","38.899901","-94.831991"
"(913) 617-","Cell Number","Wyandotte","Kansas City","KS","Kansas","66160","Central","39.096551","-94.749538"
"(785) 927-","Unknown","Marshall","Home","KS","Kansas","66438","Central / Mountain","39.848788","-96.506345"
"(785) 278-","Landline","Jewell","Webber","KS","Kansas","66970","Central / Mountain","39.935373","-98.035371"
"(620) 509-","Landline","Rice","Lyons","KS","Kansas","67554","Central / Mountain","38.376979","-98.193184"
"(785) 296-","Landline","Shawnee","Topeka","KS","Kansas","66616","Central / Mountain","39.065477","-95.626357"
"(785) 779-","Landline","Smith","Kensington","KS","Kansas","66951","Central / Mountain","39.783621","-98.796287"
"(316) 219-","Landline","Sedgwick","Wichita","KS","Kansas","67206","Central","37.613954","-97.342752"
"(785) 565-","Landline","Riley","Manhattan","KS","Kansas","66502","Central / Mountain","39.209375","-96.564589"
"(785) 204-","Landline","Anderson","Garnett","KS","Kansas","66032","Central / Mountain","38.232767","-95.286458"
"(620) 839-","Landline","Neosho","Thayer","KS","Kansas","66776","Central / Mountain","37.480322","-95.452585"
"(316) 655-","Cell Number","Sedgwick","Wichita","KS","Kansas","67206","Central","37.613954","-97.342752"
"(785) 274-","Landline","Shawnee","Topeka","KS","Kansas","66616","Central / Mountain","39.065477","-95.626357"
"(785) 875-","Landline","Jewell","Webber","KS","Kansas","66970","Central / Mountain","39.935373","-98.035371"
"(620) 339-","Landline","Ford","Dodge City","KS","Kansas","67801","Central / Mountain","37.690531","-99.902421"
"(316) 558-","Landline","Sedgwick","Mulvane","KS","Kansas","67110","Central","37.3732","-97.441654"
"(316) 209-","Cell Number","Sedgwick","Wichita","KS","Kansas","67206","Central","37.613954","-97.342752"
"(913) 529-","Landline","Wyandotte","Kansas City","KS","Kansas","66160","Central","39.096551","-94.749538"
"(785) 265-","Landline","Washington","Morrowville","KS","Kansas","66958","Central / Mountain","39.885808","-97.172061"
"(620) 566-","Cell Number","Barton","Ellinwood","KS","Kansas","67526","Central / Mountain","38.46396","-98.733001"
"(316) 452-","Landline","Butler","El Dorado","KS","Kansas","67042","Central","37.830491","-96.865969"
"(620) 582-","Landline","Comanche","Coldwater","KS","Kansas","67029","Central / Mountain","37.25486","-99.322574"
"(620) 506-","Landline","Cowley","Arkansas City","KS","Kansas","67005","Central / Mountain","37.149582","-96.904215"
"(620) 342-","Landline","Lyon","Emporia","KS","Kansas","66801","Central / Mountain","38.434153","-96.152766"
"(316) 650-","Cell Number","Sedgwick","Wichita","KS","Kansas","67206","Central","37.613954","-97.342752"
"(913) 383-","Landline","Johnson","Overland Park","KS","Kansas","66225","Central","38.899901","-94.831991"
"(620) 435-","Landline","Sumner","Argonia","KS","Kansas","67004","Central / Mountain","37.248959","-97.690887"
"(785) 342-","Cell Number","Saline","Salina","KS","Kansas","67401","Central / Mountain","38.823673","-97.642113"
"(620) 259-","Landline","Reno","Hutchinson","KS","Kansas","67501","Central / Mountain","37.954312","-97.88569"
"(913) 489-","Landline","Johnson","Olathe","KS","Kansas","66051","Central","38.899901","-94.831991"
"(316) 285-","Unknown","Sedgwick","Wichita","KS","Kansas","67206","Central","37.613954","-97.342752"
"(785) 419-","Unknown","Doniphan","Wathena","KS","Kansas","66090","Central / Mountain","39.806075","-95.083528"
"(913) 937-","Landline","Miami","Paola","KS","Kansas","66071","Central","38.577932","-94.880328"
"(785) 690-","Landline","Douglas","Eudora","KS","Kansas","66025","Central / Mountain","38.879142","-95.125903"
"(913) 549-","Landline","Johnson","Kansas City","KS","Kansas","66160","Central","39.096551","-94.749538"
"(913) 982-","Landline","Wyandotte","Kansas City","KS","Kansas","66160","Central","39.096551","-94.749538"
"(620) 402-","Landline","Cowley","Winfield","KS","Kansas","67156","Central / Mountain","37.232126","-96.996334"
"(913) 724-","Landline","Leavenworth","Basehor","KS","Kansas","66007","Central","39.133448","-94.947234"
"(316) 383-","Landline","Sedgwick","Wichita","KS","Kansas","67206","Central","37.613954","-97.342752"
"(913) 342-","Landline","Wyandotte","Kansas City","KS","Kansas","66160","Central","39.096551","-94.749538"
"(785) 982-","Unknown","Doniphan","Troy","KS","Kansas","66087","Central / Mountain","39.790573","-95.143417"
"(620) 277-","Landline","Finney","Holcomb","KS","Kansas","67851","Central / Mountain","38.098129","-100.961803"
"(785) 531-","Cell Number","Ellsworth","Ellsworth","KS","Kansas","67439","Central / Mountain","38.696579","-98.205437"
"(913) 953-","Unknown","Wyandotte","Kansas City","KS","Kansas","66160","Central","39.096551","-94.749538"
"(913) 375-","Landline","Wyandotte","Kansas City","KS","Kansas","66160","Central","39.096551","-94.749538"
"(785) 373-","Landline","Mitchell","Tipton","KS","Kansas","67485","Central / Mountain","39.339425","-98.470261"
"(316) 218-","Landline","Butler","Andover","KS","Kansas","67002","Central","37.701532","-97.098431"
"(785) 545-","Landline","Mitchell","Glen Elder","KS","Kansas","67446","Central / Mountain","39.501034","-98.302257"
"(620) 373-","Landline","Hamilton","Kendall","KS","Kansas","67857","Central / Mountain","37.999701","-101.785968"
"(620) 350-","Unknown","Mcpherson","Canton","KS","Kansas","67428","Central / Mountain","38.392631","-97.426953"
"(620) 334-","Unknown","Mcpherson","Galva","KS","Kansas","67443","Central / Mountain","38.382827","-97.47325"
"(785) 262-","Landline","Cloud","Concordia","KS","Kansas","66901","Central / Mountain","39.551634","-97.656764"
"(785) 831-","Landline","Mitchell","Beloit","KS","Kansas","67420","Central / Mountain","39.441631","-98.119189"
"(620) 869-","Landline","Harvey","Hesston","KS","Kansas","67062","Central / Mountain","38.137404","-97.443222"
"(785) 754-","Landline","Gove","Quinter","KS","Kansas","67752","Central / Mountain","39.063613","-100.238001"
"(620) 269-","Landline","Chautauqua","Cedar Vale","KS","Kansas","67024","Central / Mountain","37.130234","-96.444127"
"(913) 553-","Unknown","Wyandotte","Kansas City","KS","Kansas","66160","Central","39.096551","-94.749538"
"(913) 351-","Landline","Leavenworth","Lansing","KS","Kansas","66043","Central","39.233204","-94.883026"
"(913) 682-","Landline","Leavenworth","Leavenworth","KS","Kansas","66048","Central","39.279656","-94.982216"
"(913) 217-","Landline","Johnson","Kansas City","KS","Kansas","66160","Central","39.096551","-94.749538"
"(785) 292-","Landline","Marshall","Frankfort","KS","Kansas","66427","Central / Mountain","39.733313","-96.522272"
"(316) 323-","Landline","Butler","El Dorado","KS","Kansas","67042","Central","37.830491","-96.865969"
"(785) 236-","Cell Number","Riley","Manhattan","KS","Kansas","66502","Central / Mountain","39.209375","-96.564589"
"(785) 876-","Landline","Jefferson","Ozawkie","KS","Kansas","66070","Central / Mountain","39.17715","-95.456501"
"(785) 502-","Unknown","Saline","Salina","KS","Kansas","67401","Central / Mountain","38.823673","-97.642113"
"(620) 237-","Landline","Allen","Moran","KS","Kansas","66755","Central / Mountain","37.914394","-95.197671"
"(316) 847-","Landline","Sedgwick","Wichita","KS","Kansas","67206","Central","37.613954","-97.342752"
"(620) 966-","Landline","Reno","Hutchinson","KS","Kansas","67501","Central / Mountain","37.954312","-97.88569"
"(620) 623-","Landline","Hodgeman","Hanston","KS","Kansas","67849","Central / Mountain","38.121492","-99.709532"
"(913) 390-","Landline","Johnson","Olathe","KS","Kansas","66051","Central","38.899901","-94.831991"
"(913) 487-","Landline","Johnson","Lenexa","KS","Kansas","66215","Central","38.949007","-94.740503"
"(913) 255-","Landline","Atchison","Lancaster","KS","Kansas","66041","Central","39.536445","-95.306304"
"(785) 759-","Landline","Osage","Quenemo","KS","Kansas","66528","Central / Mountain","38.634939","-95.55521"
"(316) 523-","Landline","Sedgwick","Wichita","KS","Kansas","67206","Central","37.613954","-97.342752"
"(316) 531-","Landline","Sedgwick","Garden Plain","KS","Kansas","67050","Central","37.674242","-97.654917"
"(913) 707-","Cell Number","Johnson","Lenexa","KS","Kansas","66215","Central","38.949007","-94.740503"
"(316) 524-","Landline","Sedgwick","Wichita","KS","Kansas","67206","Central","37.613954","-97.342752"
"(913) 758-","Landline","Leavenworth","Leavenworth","KS","Kansas","66048","Central","39.279656","-94.982216"
"(913) 627-","Landline","Wyandotte","Kansas City","KS","Kansas","66160","Central","39.096551","-94.749538"
"(316) 215-","Landline","Harvey","Sedgwick","KS","Kansas","67135","Central","37.955789","-97.473214"
"(620) 797-","Cell Number","Barton","Great Bend","KS","Kansas","67530","Central / Mountain","38.393567","-98.775074"
"(785) 742-","Landline","Brown","Hiawatha","KS","Kansas","66434","Central / Mountain","39.791367","-95.600405"
"(620) 230-","Landline","Crawford","Pittsburg","KS","Kansas","66762","Central / Mountain","37.448044","-94.819212"
"(620) 547-","Landline","Crawford","Hepler","KS","Kansas","66746","Central / Mountain","37.638333","-94.942113"
"(785) 379-","Landline","Shawnee","Topeka","KS","Kansas","66616","Central / Mountain","39.065477","-95.626357"
"(620) 217-","Cell Number","Harvey","Hesston","KS","Kansas","67062","Central / Mountain","38.137404","-97.443222"
"(620) 837-","Landline","Harvey","Walton","KS","Kansas","67151","Central / Mountain","38.123189","-97.244464"
"(913) 236-","Landline","Wyandotte","Kansas City","KS","Kansas","66160","Central","39.096551","-94.749538"
"(620) 790-","Landline","Sumner","Belle Plaine","KS","Kansas","67013","Central / Mountain","37.359755","-97.287694"
"(620) 538-","Landline","Reno","Arlington","KS","Kansas","67514","Central / Mountain","37.829877","-98.196898"
"(785) 586-","Landline","Thomas","Levant","KS","Kansas","67743","Central / Mountain","39.413268","-101.148818"
"(785) 893-","Cell Number","Franklin","Ottawa","KS","Kansas","66067","Central / Mountain","38.564337","-95.282668"
"(316) 262-","Landline","Sedgwick","Wichita","KS","Kansas","67206","Central","37.613954","-97.342752"
"(913) 204-","Landline","Jefferson","Mc Louth","KS","Kansas","66054","Central","39.198095","-95.231788"
"(620) 939-","Landline","Bourbon","Bronson","KS","Kansas","66716","Central / Mountain","37.874455","-95.02624"
"(316) 729-","Landline","Sedgwick","Wichita","KS","Kansas","67206","Central","37.613954","-97.342752"
"(620) 670-","Landline","Crawford","Pittsburg","KS","Kansas","66762","Central / Mountain","37.448044","-94.819212"
"(785) 497-","Landline","Morris","Wilsey","KS","Kansas","66873","Central / Mountain","38.682093","-96.663865"
"(913) 364-","Landline","Leavenworth","Leavenworth","KS","Kansas","66048","Central","39.279656","-94.982216"
"(316) 925-","Landline","Sedgwick","Kechi","KS","Kansas","67067","Central","37.810488","-97.259353"
"(316) 395-","Landline","Sedgwick","Andale","KS","Kansas","67001","Central","37.779733","-97.636619"
"(785) 229-","Landline","Franklin","Ottawa","KS","Kansas","66067","Central / Mountain","38.564337","-95.282668"
"(913) 461-","Cell Number","Johnson","Lenexa","KS","Kansas","66215","Central","38.949007","-94.740503"
"(785) 544-","Landline","Brown","Robinson","KS","Kansas","66532","Central / Mountain","39.818216","-95.456658"
"(316) 773-","Landline","Sedgwick","Wichita","KS","Kansas","67206","Central","37.613954","-97.342752"
"(785) 694-","Landline","Thomas","Brewster","KS","Kansas","67732","Central / Mountain","39.358974","-101.061905"
"(316) 303-","Landline","Sedgwick","Wichita","KS","Kansas","67206","Central","37.613954","-97.342752"
"(316) 350-","Landline","Butler","Augusta","KS","Kansas","67010","Central","37.674347","-96.970128"
"(785) 822-","Landline","Saline","Salina","KS","Kansas","67401","Central / Mountain","38.823673","-97.642113"
"(913) 831-","Landline","Wyandotte","Kansas City","KS","Kansas","66160","Central","39.096551","-94.749538"
"(913) 306-","Cell Number","Leavenworth","Leavenworth","KS","Kansas","66048","Central","39.279656","-94.982216"
"(620) 575-","Landline","Grant","Ulysses","KS","Kansas","67880","Central / Mountain","37.562467","-101.308565"
"(913) 928-","Landline","Johnson","Lenexa","KS","Kansas","66215","Central","38.949007","-94.740503"
"(785) 562-","Landline","Marshall","Marysville","KS","Kansas","66508","Central / Mountain","39.863544","-96.617219"
"(620) 675-","Landline","Haskell","Sublette","KS","Kansas","67877","Central / Mountain","37.482236","-100.848783"
"(913) 558-","Cell Number","Wyandotte","Kansas City","KS","Kansas","66160","Central","39.096551","-94.749538"
"(785) 969-","Cell Number","Shawnee","Topeka","KS","Kansas","66616","Central / Mountain","39.065477","-95.626357"
"(785) 712-","Cell Number","Riley","Manhattan","KS","Kansas","66502","Central / Mountain","39.209375","-96.564589"
"(913) 219-","Cell Number","Johnson","Lenexa","KS","Kansas","66215","Central","38.949007","-94.740503"
"(785) 346-","Landline","Osborne","Osborne","KS","Kansas","67473","Central / Mountain","39.385738","-98.795417"
"(913) 764-","Landline","Johnson","Olathe","KS","Kansas","66051","Central","38.899901","-94.831991"
"(620) 719-","Cell Number","Crawford","Pittsburg","KS","Kansas","66762","Central / Mountain","37.448044","-94.819212"
"(785) 877-","Landline","Norton","Norton","KS","Kansas","67654","Central / Mountain","39.827955","-99.891726"
"(785) 707-","Landline","Clay","Wakefield","KS","Kansas","67487","Central / Mountain","39.190937","-97.075406"
"(620) 758-","Landline","Chautauqua","Cedar Vale","KS","Kansas","67024","Central / Mountain","37.130234","-96.444127"
"(620) 607-","Landline","Wilson","Fredonia","KS","Kansas","66736","Central / Mountain","37.571672","-95.748418"
"(785) 672-","Landline","Logan","Oakley","KS","Kansas","67748","Central / Mountain","38.945805","-100.970176"
"(620) 421-","Landline","Labette","Parsons","KS","Kansas","67357","Central / Mountain","37.217756","-95.266407"
"(785) 640-","Cell Number","Shawnee","Topeka","KS","Kansas","66616","Central / Mountain","39.065477","-95.626357"
"(913) 208-","Cell Number","Johnson","Overland Park","KS","Kansas","66225","Central","38.899901","-94.831991"
"(785) 631-","Cell Number","Logan","Oakley","KS","Kansas","67748","Central / Mountain","38.945805","-100.970176"
"(785) 323-","Landline","Riley","Manhattan","KS","Kansas","66502","Central / Mountain","39.209375","-96.564589"
"(316) 990-","Cell Number","Sedgwick","Wichita","KS","Kansas","67206","Central","37.613954","-97.342752"
"(316) 727-","Cell Number","Harvey","Newton","KS","Kansas","67114","Central","38.044857","-97.317279"
"(913) 522-","Cell Number","Wyandotte","Kansas City","KS","Kansas","66160","Central","39.096551","-94.749538"
"(913) 713-","Landline","Wyandotte","Kansas City","KS","Kansas","66160","Central","39.096551","-94.749538"
"(620) 916-","Landline","Harper","Harper","KS","Kansas","67058","Central / Mountain","37.291318","-98.038455"
"(785) 966-","Landline","Jackson","Mayetta","KS","Kansas","66509","Central / Mountain","39.312432","-95.760939"
"(316) 259-","Cell Number","Sedgwick","Wichita","KS","Kansas","67206","Central","37.613954","-97.342752"
"(620) 341-","Landline","Lyon","Emporia","KS","Kansas","66801","Central / Mountain","38.434153","-96.152766"
"(316) 462-","Landline","Sedgwick","Wichita","KS","Kansas","67206","Central","37.613954","-97.342752"
"(913) 254-","Landline","Johnson","Olathe","KS","Kansas","66051","Central","38.899901","-94.831991"
"(620) 598-","Landline","Stevens","Moscow","KS","Kansas","67952","Central / Mountain","37.325308","-101.205904"
"(620) 784-","Landline","Labette","Altamont","KS","Kansas","67330","Central / Mountain","37.222616","-95.360819"
"(785) 442-","Landline","Doniphan","Highland","KS","Kansas","66035","Central / Mountain","39.878677","-95.227692"
"(620) 766-","Cell Number","Morris","Council Grove","KS","Kansas","66846","Central / Mountain","38.69588","-96.5469"
"(913) 744-","Cell Number","Johnson","Lenexa","KS","Kansas","66215","Central","38.949007","-94.740503"
"(785) 451-","Unknown","Ellsworth","Holyrood","KS","Kansas","67450","Central / Mountain","38.613667","-98.420938"
"(316) 260-","Landline","Sedgwick","Wichita","KS","Kansas","67206","Central","37.613954","-97.342752"
"(620) 546-","Landline","Pratt","Iuka","KS","Kansas","67066","Central / Mountain","37.75535","-98.756921"
"(620) 585-","Landline","Mcpherson","Inman","KS","Kansas","67546","Central / Mountain","38.246179","-97.795694"
"(620) 875-","Cell Number","Crawford","Pittsburg","KS","Kansas","66762","Central / Mountain","37.448044","-94.819212"
"(785) 248-","Cell Number","Franklin","Ottawa","KS","Kansas","66067","Central / Mountain","38.564337","-95.282668"
"(785) 275-","Landline","Cloud","Concordia","KS","Kansas","66901","Central / Mountain","39.551634","-97.656764"
"(785) 249-","Cell Number","Shawnee","Topeka","KS","Kansas","66616","Central / Mountain","39.065477","-95.626357"
"(620) 436-","Unknown","Kearny","Lakin","KS","Kansas","67860","Central / Mountain","37.938907","-101.264981"
"(785) 374-","Landline","Republic","Courtland","KS","Kansas","66939","Central / Mountain","39.746555","-97.666524"
"(316) 321-","Landline","Butler","El Dorado","KS","Kansas","67042","Central","37.830491","-96.865969"
"(913) 432-","Landline","Wyandotte","Kansas City","KS","Kansas","66160","Central","39.096551","-94.749538"
"(620) 354-","Landline","Crawford","Walnut","KS","Kansas","66780","Central / Mountain","37.57292","-94.856834"
"(316) 295-","Landline","Sedgwick","Wichita","KS","Kansas","67206","Central","37.613954","-97.342752"
"(316) 251-","Unknown","Butler","El Dorado","KS","Kansas","67042","Central","37.830491","-96.865969"
"(620) 482-","Landline","Seward","Liberal","KS","Kansas","67901","Central / Mountain","37.043237","-100.873809"
"(620) 903-","Landline","Montgomery","Cherryvale","KS","Kansas","67335","Central / Mountain","37.167997","-95.732508"
"(620) 902-","Landline","Neosho","Chanute","KS","Kansas","66720","Central / Mountain","37.609218","-95.416422"
"(785) 832-","Landline","Douglas","Lawrence","KS","Kansas","66047","Central / Mountain","38.88437","-95.338066"
"(620) 229-","Landline","Cowley","Winfield","KS","Kansas","67156","Central / Mountain","37.232126","-96.996334"
"(785) 866-","Landline","Nemaha","Wetmore","KS","Kansas","66550","Central / Mountain","39.636115","-95.811894"
"(913) 991-","Unknown","Wyandotte","Kansas City","KS","Kansas","66160","Central","39.096551","-94.749538"
"(785) 709-","Unknown","Morris","Dwight","KS","Kansas","66849","Central / Mountain","38.826679","-96.579805"
"(620) 374-","Landline","Elk","Howard","KS","Kansas","67349","Central / Mountain","37.419933","-96.278611"
"(913) 653-","Unknown","Wyandotte","Kansas City","KS","Kansas","66160","Central","39.096551","-94.749538"
"(620) 504-","Landline","Mcpherson","Mcpherson","KS","Kansas","67460","Central / Mountain","38.376302","-97.670184"
"(620) 280-","Cell Number","Wichita","Leoti","KS","Kansas","67861","Central / Mountain","38.477827","-101.293036"
"(316) 676-","Landline","Sedgwick","Wichita","KS","Kansas","67206","Central","37.613954","-97.342752"
"(785) 267-","Landline","Shawnee","Topeka","KS","Kansas","66616","Central / Mountain","39.065477","-95.626357"
"(620) 380-","Landline","Allen","Iola","KS","Kansas","66749","Central / Mountain","37.885757","-95.391057"
"(785) 575-","Landline","Shawnee","Topeka","KS","Kansas","66616","Central / Mountain","39.065477","-95.626357"
"(785) 347-","Landline","Decatur","Norcatur","KS","Kansas","67653","Central / Mountain","39.837074","-100.188191"
"(913) 624-","Landline","Wyandotte","Kansas City","KS","Kansas","66160","Central","39.096551","-94.749538"
"(316) 252-","Unknown","Sedgwick","Wichita","KS","Kansas","67206","Central","37.613954","-97.342752"
"(316) 268-","Landline","Sedgwick","Wichita","KS","Kansas","67206","Central","37.613954","-97.342752"
"(620) 644-","Landline","Bourbon","Fort Scott","KS","Kansas","66701","Central / Mountain","37.821629","-94.714793"
"(316) 804-","Landline","Harvey","Newton","KS","Kansas","67114","Central","38.044857","-97.317279"
"(785) 441-","Landline","Russell","Russell","KS","Kansas","67665","Central / Mountain","38.905159","-98.784797"
"(316) 806-","Cell Number","Sedgwick","Wichita","KS","Kansas","67206","Central","37.613954","-97.342752"
"(785) 638-","Landline","Phillips","Agra","KS","Kansas","67621","Central / Mountain","39.760857","-99.119565"
"(316) 744-","Landline","Sedgwick","Kechi","KS","Kansas","67067","Central","37.810488","-97.259353"
"(785) 318-","Cell Number","Shawnee","Lecompton","KS","Kansas","66050","Central / Mountain","39.004574","-95.417804"
"(316) 661-","Landline","Sedgwick","Mount Hope","KS","Kansas","67108","Central","37.823852","-97.637834"
"(620) 562-","Landline","Rice","Bushton","KS","Kansas","67427","Central / Mountain","38.463875","-98.387168"
"(316) 973-","Landline","Sedgwick","Wichita","KS","Kansas","67206","Central","37.613954","-97.342752"
"(785) 293-","Landline","Riley","Leonardville","KS","Kansas","66449","Central / Mountain","39.401675","-96.848345"
"(620) 355-","Landline","Kearny","Lakin","KS","Kansas","67860","Central / Mountain","37.938907","-101.264981"
"(316) 453-","Landline","Sedgwick","Mount Hope","KS","Kansas","67108","Central","37.823852","-97.637834"
"(316) 683-","Landline","Sedgwick","Wichita","KS","Kansas","67206","Central","37.613954","-97.342752"
"(316) 526-","Landline","Sedgwick","Wichita","KS","Kansas","67206","Central","37.613954","-97.342752"
"(620) 204-","Cell Number","Rice","Sterling","KS","Kansas","67579","Central / Mountain","38.224187","-98.183033"
"(913) 694-","Landline","Wyandotte","Kansas City","KS","Kansas","66160","Central","39.096551","-94.749538"
"(785) 483-","Landline","Russell","Russell","KS","Kansas","67665","Central / Mountain","38.905159","-98.784797"
"(620) 808-","Landline","Montgomery","Coffeyville","KS","Kansas","67337","Central / Mountain","37.146267","-95.748313"
"(785) 938-","Landline","Gove","Gove","KS","Kansas","67736","Central / Mountain","38.915304","-100.483367"
"(620) 717-","Landline","Labette","Parsons","KS","Kansas","67357","Central / Mountain","37.217756","-95.266407"
"(620) 897-","Landline","Rice","Little River","KS","Kansas","67457","Central / Mountain","38.378672","-98.095004"
"(316) 554-","Landline","Sedgwick","Wichita","KS","Kansas","67206","Central","37.613954","-97.342752"
"(620) 672-","Landline","Pratt","Pratt","KS","Kansas","67124","Central / Mountain","37.63857","-98.758512"
"(785) 413-","Unknown","Cloud","Miltonvale","KS","Kansas","67466","Central / Mountain","39.349959","-97.454812"
"(913) 967-","Landline","Johnson","Overland Park","KS","Kansas","66225","Central","38.899901","-94.831991"
"(913) 689-","Unknown","Wyandotte","Kansas City","KS","Kansas","66160","Central","39.096551","-94.749538"
"(913) 652-","Landline","Johnson","Overland Park","KS","Kansas","66225","Central","38.899901","-94.831991"
"(620) 804-","Cell Number","Pawnee","Larned","KS","Kansas","67550","Central / Mountain","38.194644","-99.10096"
"(620) 247-","Landline","Barber","Lake City","KS","Kansas","67071","Central / Mountain","37.264177","-98.818915"
"(316) 253-","Cell Number","Sedgwick","Wichita","KS","Kansas","67206","Central","37.613954","-97.342752"
"(785) 407-","Unknown","Ottawa","Minneapolis","KS","Kansas","67467","Central / Mountain","39.141097","-97.650674"
"(785) 215-","Landline","Shawnee","Topeka","KS","Kansas","66616","Central / Mountain","39.065477","-95.626357"
"(913) 384-","Landline","Wyandotte","Kansas City","KS","Kansas","66160","Central","39.096551","-94.749538"
"(620) 772-","Landline","Mcpherson","Inman","KS","Kansas","67546","Central / Mountain","38.246179","-97.795694"
"(913) 828-","Landline","Leavenworth","Leavenworth","KS","Kansas","66048","Central","39.279656","-94.982216"
"(913) 233-","Landline","Wyandotte","Kansas City","KS","Kansas","66160","Central","39.096551","-94.749538"
"(620) 288-","Cell Number","Wilson","Fredonia","KS","Kansas","66736","Central / Mountain","37.571672","-95.748418"
"(785) 835-","Landline","Franklin","Richmond","KS","Kansas","66080","Central / Mountain","38.436338","-95.312506"
"(316) 315-","Landline","Sedgwick","Wichita","KS","Kansas","67206","Central","37.613954","-97.342752"
"(620) 626-","Landline","Seward","Liberal","KS","Kansas","67901","Central / Mountain","37.043237","-100.873809"
"(785) 458-","Landline","Pottawatomie","Wamego","KS","Kansas","66547","Central / Mountain","39.298416","-96.341383"
"(316) 239-","Landline","Sedgwick","Wichita","KS","Kansas","67206","Central","37.613954","-97.342752"
"(620) 412-","Landline","Lyon","Emporia","KS","Kansas","66801","Central / Mountain","38.434153","-96.152766"
"(785) 200-","Landline","Dickinson","Abilene","KS","Kansas","67410","Central / Mountain","38.9111","-97.195283"
"(316) 765-","Landline","Sedgwick","Wichita","KS","Kansas","67206","Central","37.613954","-97.342752"
"(785) 546-","Landline","Mcpherson","Marquette","KS","Kansas","67464","Central / Mountain","38.529808","-97.675384"
"(316) 633-","Landline","Sedgwick","Wichita","KS","Kansas","67206","Central","37.613954","-97.342752"
"(620) 636-","Cell Number","Wilson","Fredonia","KS","Kansas","66736","Central / Mountain","37.571672","-95.748418"
"(785) 522-","Landline","Jackson","Circleville","KS","Kansas","66416","Central / Mountain","39.528134","-95.848729"
"(316) 250-","Cell Number","Sedgwick","Wichita","KS","Kansas","67206","Central","37.613954","-97.342752"
"(620) 731-","Landline","Woodson","Toronto","KS","Kansas","66777","Central / Mountain","37.814423","-95.88888"
"(785) 289-","Cell Number","Shawnee","Topeka","KS","Kansas","66616","Central / Mountain","39.065477","-95.626357"
"(785) 819-","Cell Number","Saline","Salina","KS","Kansas","67401","Central / Mountain","38.823673","-97.642113"
"(316) 946-","Landline","Sedgwick","Wichita","KS","Kansas","67206","Central","37.613954","-97.342752"
"(913) 676-","Landline","Wyandotte","Kansas City","KS","Kansas","66160","Central","39.096551","-94.749538"
"(785) 231-","Landline","Shawnee","Topeka","KS","Kansas","66616","Central / Mountain","39.065477","-95.626357"
"(785) 255-","Landline","Franklin","Ottawa","KS","Kansas","66067","Central / Mountain","38.564337","-95.282668"
"(620) 586-","Landline","Barton","Olmitz","KS","Kansas","67564","Central / Mountain","38.543586","-98.895484"
"(785) 464-","Landline","Cloud","Miltonvale","KS","Kansas","67466","Central / Mountain","39.349959","-97.454812"
"(785) 617-","Cell Number","Pottawatomie","Wamego","KS","Kansas","66547","Central / Mountain","39.298416","-96.341383"
"(785) 280-","Cell Number","Dickinson","Hope","KS","Kansas","67451","Central / Mountain","38.826292","-97.121874"
"(620) 206-","Cell Number","Chautauqua","Cedar Vale","KS","Kansas","67024","Central / Mountain","37.130234","-96.444127"
"(785) 560-","Landline","Riley","Manhattan","KS","Kansas","66502","Central / Mountain","39.209375","-96.564589"
"(785) 383-","Cell Number","Shawnee","Topeka","KS","Kansas","66616","Central / Mountain","39.065477","-95.626357"
"(620) 864-","Landline","Sumner","South Haven","KS","Kansas","67140","Central / Mountain","37.136607","-97.329247"
"(913) 774-","Landline","Jefferson","Winchester","KS","Kansas","66097","Central","39.2314","-95.285222"
"(316) 665-","Landline","Sedgwick","Wichita","KS","Kansas","67206","Central","37.613954","-97.342752"
"(913) 577-","Landline","Johnson","Lenexa","KS","Kansas","66215","Central","38.949007","-94.740503"
"(785) 577-","Cell Number","Saline","Salina","KS","Kansas","67401","Central / Mountain","38.823673","-97.642113"
"(913) 602-","Unknown","Wyandotte","Kansas City","KS","Kansas","66160","Central","39.096551","-94.749538"
"(620) 755-","Cell Number","Mcpherson","Mcpherson","KS","Kansas","67460","Central / Mountain","38.376302","-97.670184"
"(785) 467-","Landline","Brown","Fairview","KS","Kansas","66425","Central / Mountain","39.821847","-95.727038"
"(785) 408-","Landline","Shawnee","Topeka","KS","Kansas","66616","Central / Mountain","39.065477","-95.626357"
"(620) 440-","Cell Number","Sumner","Wellington","KS","Kansas","67152","Central / Mountain","37.280877","-97.42223"
"(785) 838-","Landline","Douglas","Lawrence","KS","Kansas","66047","Central / Mountain","38.88437","-95.338066"
"(620) 632-","Landline","Crawford","Mc Cune","KS","Kansas","66753","Central / Mountain","37.448486","-94.856644"
"(785) 219-","Landline","Osage","Osage City","KS","Kansas","66523","Central / Mountain","38.629558","-95.737112"
"(620) 708-","Landline","Reno","Hutchinson","KS","Kansas","67501","Central / Mountain","37.954312","-97.88569"
"(785) 266-","Landline","Shawnee","Topeka","KS","Kansas","66616","Central / Mountain","39.065477","-95.626357"
"(913) 250-","Landline","Leavenworth","Leavenworth","KS","Kansas","66048","Central","39.279656","-94.982216"
"(785) 872-","Landline","Atchison","Muscotah","KS","Kansas","66058","Central / Mountain","39.529523","-95.483992"
"(785) 939-","Landline","Nemaha","Goff","KS","Kansas","66428","Central / Mountain","39.664216","-95.930454"
"(620) 963-","Landline","Coffey","Le Roy","KS","Kansas","66857","Central / Mountain","38.11486","-95.685599"
"(785) 351-","Cell Number","Rush","La Crosse","KS","Kansas","67548","Central / Mountain","38.531867","-99.300546"
"(785) 237-","Landline","Republic","Republic","KS","Kansas","66964","Central / Mountain","39.875728","-97.628516"
"(620) 268-","Landline","Stafford","Stafford","KS","Kansas","67578","Central / Mountain","37.961811","-98.775"
"(785) 409-","Unknown","Shawnee","Topeka","KS","Kansas","66616","Central / Mountain","39.065477","-95.626357"
"(620) 214-","Cell Number","Scott","Scott City","KS","Kansas","67871","Central / Mountain","38.482307","-100.906427"
"(316) 734-","Cell Number","Sedgwick","Wichita","KS","Kansas","67206","Central","37.613954","-97.342752"
"(620) 853-","Landline","Greenwood","Eureka","KS","Kansas","67045","Central / Mountain","37.755154","-96.170019"
"(620) 330-","Landline","Montgomery","Independence","KS","Kansas","67301","Central / Mountain","37.180636","-95.756197"
"(316) 799-","Landline","Butler","Whitewater","KS","Kansas","67154","Central","37.977983","-97.088361"
"(620) 724-","Landline","Crawford","Girard","KS","Kansas","66743","Central / Mountain","37.471611","-94.881385"
"(913) 687-","Unknown","Wyandotte","Kansas City","KS","Kansas","66160","Central","39.096551","-94.749538"
"(620) 920-","Cell Number","Wilson","Neodesha","KS","Kansas","66757","Central / Mountain","37.56084","-95.668445"
"(785) 471-","Cell Number","Ellis","Ellis","KS","Kansas","67637","Central / Mountain","38.950015","-99.336337"
"(316) 945-","Landline","Sedgwick","Wichita","KS","Kansas","67206","Central","37.613954","-97.342752"
"(785) 222-","Landline","Rush","La Crosse","KS","Kansas","67548","Central / Mountain","38.531867","-99.300546"
"(913) 956-","Unknown","Wyandotte","Kansas City","KS","Kansas","66160","Central","39.096551","-94.749538"
"(785) 813-","Landline","Douglas","Lawrence","KS","Kansas","66047","Central / Mountain","38.88437","-95.338066"
"(620) 215-","Cell Number","Bourbon","Fort Scott","KS","Kansas","66701","Central / Mountain","37.821629","-94.714793"
"(913) 206-","Cell Number","Wyandotte","Kansas City","KS","Kansas","66160","Central","39.096551","-94.749538"
"(620) 383-","Unknown","Cherokee","Galena","KS","Kansas","66739","Central / Mountain","37.15456","-94.833896"
"(785) 405-","Unknown","Thomas","Brewster","KS","Kansas","67732","Central / Mountain","39.358974","-101.061905"
"(620) 251-","Landline","Montgomery","Coffeyville","KS","Kansas","67337","Central / Mountain","37.146267","-95.748313"
"(620) 679-","Landline","Cherokee","Treece","KS","Kansas","66778","Central / Mountain","37.14002","-94.881789"
"(785) 787-","Cell Number","Saline","Salina","KS","Kansas","67401","Central / Mountain","38.823673","-97.642113"
"(620) 596-","Landline","Reno","Turon","KS","Kansas","67583","Central / Mountain","37.822393","-98.359075"
"(620) 258-","Landline","Reno","Pretty Prairie","KS","Kansas","67570","Central / Mountain","37.813853","-97.99759"
"(785) 256-","Landline","Shawnee","Topeka","KS","Kansas","66616","Central / Mountain","39.065477","-95.626357"
"(620) 956-","Landline","Elk","Howard","KS","Kansas","67349","Central / Mountain","37.419933","-96.278611"
"(785) 996-","Landline","Clay","Wakefield","KS","Kansas","67487","Central / Mountain","39.190937","-97.075406"
"(785) 485-","Landline","Riley","Riley","KS","Kansas","66531","Central / Mountain","39.300456","-96.822207"
"(785) 670-","Landline","Shawnee","Topeka","KS","Kansas","66616","Central / Mountain","39.065477","-95.626357"
"(913) 971-","Landline","Johnson","Olathe","KS","Kansas","66051","Central","38.899901","-94.831991"
"(785) 745-","Landline","Jewell","Esbon","KS","Kansas","66941","Central / Mountain","39.820964","-98.433369"
"(620) 487-","Landline","Lyon","Emporia","KS","Kansas","66801","Central / Mountain","38.434153","-96.152766"
"(316) 866-","Landline","Sedgwick","Wichita","KS","Kansas","67206","Central","37.613954","-97.342752"
"(620) 358-","Landline","Elk","Grenola","KS","Kansas","67346","Central / Mountain","37.406927","-96.384362"
"(316) 883-","Landline","Sedgwick","Goddard","KS","Kansas","67052","Central","37.663432","-97.579616"
"(620) 948-","Landline","Montgomery","Coffeyville","KS","Kansas","67337","Central / Mountain","37.146267","-95.748313"
"(620) 298-","Landline","Kingman","Cunningham","KS","Kansas","67035","Central / Mountain","37.630922","-98.35639"
"(620) 278-","Landline","Rice","Sterling","KS","Kansas","67579","Central / Mountain","38.224187","-98.183033"
"(913) 261-","Landline","Wyandotte","Kansas City","KS","Kansas","66160","Central","39.096551","-94.749538"
"(785) 620-","Cell Number","Smith","Smith Center","KS","Kansas","66967","Central / Mountain","39.788577","-98.673356"
"(620) 290-","Cell Number","Finney","Garden City","KS","Kansas","67846","Central / Mountain","38.000771","-100.664407"
"(913) 783-","Landline","Miami","Paola","KS","Kansas","66071","Central","38.577932","-94.880328"
"(913) 782-","Landline","Johnson","Olathe","KS","Kansas","66051","Central","38.899901","-94.831991"
"(620) 694-","Landline","Reno","Hutchinson","KS","Kansas","67501","Central / Mountain","37.954312","-97.88569"
"(620) 931-","Landline","Reno","Hutchinson","KS","Kansas","67501","Central / Mountain","37.954312","-97.88569"
"(785) 756-","Landline","Osage","Lyndon","KS","Kansas","66451","Central / Mountain","38.622848","-95.656131"
"(785) 550-","Cell Number","Douglas","Lawrence","KS","Kansas","66047","Central / Mountain","38.88437","-95.338066"
"(785) 944-","Landline","Clay","Green","KS","Kansas","67447","Central / Mountain","39.480323","-97.01489"
"(913) 680-","Landline","Leavenworth","Leavenworth","KS","Kansas","66048","Central","39.279656","-94.982216"
"(316) 749-","Landline","Sedgwick","Wichita","KS","Kansas","67206","Central","37.613954","-97.342752"
"(620) 397-","Landline","Lane","Dighton","KS","Kansas","67839","Central / Mountain","38.474188","-100.464651"
"(785) 344-","Landline","Douglas","Lawrence","KS","Kansas","66047","Central / Mountain","38.88437","-95.338066"
"(620) 550-","Cell Number","Montgomery","Independence","KS","Kansas","67301","Central / Mountain","37.180636","-95.756197"
"(785) 634-","Cell Number","Thomas","Colby","KS","Kansas","67701","Central / Mountain","39.40152","-100.973696"
"(913) 693-","Landline","Wyandotte","Kansas City","KS","Kansas","66160","Central","39.096551","-94.749538"
"(913) 755-","Landline","Miami","Osawatomie","KS","Kansas","66064","Central","38.558533","-94.891655"
"(785) 535-","Landline","Pottawatomie","Emmett","KS","Kansas","66422","Central / Mountain","39.347682","-96.10416"
"(913) 200-","Unknown","Wyandotte","Kansas City","KS","Kansas","66160","Central","39.096551","-94.749538"
"(913) 564-","Landline","Johnson","Lenexa","KS","Kansas","66215","Central","38.949007","-94.740503"
"(316) 775-","Landline","Butler","Augusta","KS","Kansas","67010","Central","37.674347","-96.970128"
"(620) 410-","Unknown","Reno","Sylvia","KS","Kansas","67581","Central / Mountain","38.006382","-98.121898"
"(620) 795-","Landline","Labette","Oswego","KS","Kansas","67356","Central / Mountain","37.18919","-95.242611"
"(620) 723-","Landline","Kiowa","Greensburg","KS","Kansas","67054","Central / Mountain","37.607534","-99.204968"
"(620) 456-","Landline","Sumner","Conway Springs","KS","Kansas","67031","Central / Mountain","37.394301","-97.658248"
"(785) 444-","Unknown","Doniphan","Highland","KS","Kansas","66035","Central / Mountain","39.878677","-95.227692"
"(785) 856-","Landline","Douglas","Lawrence","KS","Kansas","66047","Central / Mountain","38.88437","-95.338066"
"(620) 886-","Landline","Barber","Medicine Lodge","KS","Kansas","67104","Central / Mountain","37.291739","-98.620996"
"(316) 844-","Landline","Sedgwick","Wichita","KS","Kansas","67206","Central","37.613954","-97.342752"
"(785) 677-","Unknown","Sheridan","Hoxie","KS","Kansas","67740","Central / Mountain","39.355013","-100.440513"
"(913) 946-","Landline","Leavenworth","Leavenworth","KS","Kansas","66048","Central","39.279656","-94.982216"
"(620) 347-","Landline","Crawford","Arma","KS","Kansas","66712","Central / Mountain","37.557295","-94.694906"
"(620) 241-","Landline","Mcpherson","Mcpherson","KS","Kansas","67460","Central / Mountain","38.376302","-97.670184"
"(913) 735-","Unknown","Wyandotte","Kansas City","KS","Kansas","66160","Central","39.096551","-94.749538"
"(785) 657-","Landline","Sheridan","Hoxie","KS","Kansas","67740","Central / Mountain","39.355013","-100.440513"
"(785) 259-","Cell Number","Ellis","Hays","KS","Kansas","67601","Central / Mountain","38.878202","-99.334803"
"(913) 312-","Landline","Wyandotte","Kansas City","KS","Kansas","66160","Central","39.096551","-94.749538"
"(913) 796-","Landline","Jefferson","Mc Louth","KS","Kansas","66054","Central","39.198095","-95.231788"
"(785) 317-","Cell Number","Riley","Manhattan","KS","Kansas","66502","Central / Mountain","39.209375","-96.564589"
"(913) 998-","Unknown","Wyandotte","Kansas City","KS","Kansas","66160","Central","39.096551","-94.749538"
"(913) 535-","Landline","Johnson","Shawnee","KS","Kansas","66216","Central","39.014655","-94.741448"
"(620) 455-","Landline","Sumner","Oxford","KS","Kansas","67119","Central / Mountain","37.231595","-97.212224"
"(620) 366-","Cell Number","Lyon","Emporia","KS","Kansas","66801","Central / Mountain","38.434153","-96.152766"
"(785) 228-","Landline","Shawnee","Topeka","KS","Kansas","66616","Central / Mountain","39.065477","-95.626357"
"(785) 868-","Landline","Nemaha","Corning","KS","Kansas","66417","Central / Mountain","39.654314","-96.031758"
"(785) 753-","Landline","Jewell","Webber","KS","Kansas","66970","Central / Mountain","39.935373","-98.035371"
"(785) 276-","Landline","Shawnee","Topeka","KS","Kansas","66616","Central / Mountain","39.065477","-95.626357"
"(913) 362-","Landline","Wyandotte","Kansas City","KS","Kansas","66160","Central","39.096551","-94.749538"
"(913) 400-","Landline","Wyandotte","Kansas City","KS","Kansas","66160","Central","39.096551","-94.749538"
"(913) 484-","Cell Number","Johnson","Lenexa","KS","Kansas","66215","Central","38.949007","-94.740503"
"(785) 524-","Landline","Lincoln","Lincoln","KS","Kansas","67455","Central / Mountain","39.102718","-98.214909"
"(785) 992-","Landline","Franklin","Ottawa","KS","Kansas","66067","Central / Mountain","38.564337","-95.282668"
"(785) 891-","Landline","Wallace","Wallace","KS","Kansas","67761","Central / Mountain","38.916183","-101.762678"
"(785) 350-","Landline","Shawnee","Topeka","KS","Kansas","66616","Central / Mountain","39.065477","-95.626357"
"(785) 330-","Landline","Douglas","Lawrence","KS","Kansas","66047","Central / Mountain","38.88437","-95.338066"
"(620) 725-","Landline","Chautauqua","Sedan","KS","Kansas","67361","Central / Mountain","37.134351","-96.219212"
"(620) 901-","Landline","Allen","Iola","KS","Kansas","66749","Central / Mountain","37.885757","-95.391057"
"(913) 638-","Cell Number","Johnson","Lenexa","KS","Kansas","66215","Central","38.949007","-94.740503"
"(785) 836-","Landline","Osage","Carbondale","KS","Kansas","66414","Central / Mountain","38.811675","-95.706138"
"(785) 443-","Cell Number","Thomas","Colby","KS","Kansas","67701","Central / Mountain","39.40152","-100.973696"
"(316) 733-","Landline","Butler","Andover","KS","Kansas","67002","Central","37.701532","-97.098431"
"(785) 698-","Landline","Russell","Luray","KS","Kansas","67649","Central / Mountain","39.08201","-98.651072"
"(620) 988-","Cell Number","Montgomery","Coffeyville","KS","Kansas","67337","Central / Mountain","37.146267","-95.748313"
"(785) 678-","Landline","Decatur","Jennings","KS","Kansas","67643","Central / Mountain","39.679281","-100.294812"
"(785) 853-","Landline","Marshall","Summerfield","KS","Kansas","66541","Central / Mountain","39.847244","-96.510692"
"(913) 568-","Cell Number","Johnson","Lenexa","KS","Kansas","66215","Central","38.949007","-94.740503"
"(620) 930-","Landline","Barber","Sharon","KS","Kansas","67138","Central / Mountain","37.224446","-98.42233"
"(620) 321-","Unknown","Rice","Bushton","KS","Kansas","67427","Central / Mountain","38.463875","-98.387168"
"(785) 349-","Landline","Morris","White City","KS","Kansas","66872","Central / Mountain","38.783116","-96.779581"
"(913) 710-","Cell Number","Wyandotte","Kansas City","KS","Kansas","66160","Central","39.096551","-94.749538"
"(316) 688-","Landline","Sedgwick","Wichita","KS","Kansas","67206","Central","37.613954","-97.342752"
"(913) 837-","Landline","Miami","Louisburg","KS","Kansas","66053","Central","38.587195","-94.689876"
"(316) 413-","Landline","Sedgwick","Goddard","KS","Kansas","67052","Central","37.663432","-97.579616"
"(316) 841-","Cell Number","Sedgwick","Wichita","KS","Kansas","67206","Central","37.613954","-97.342752"
"(620) 746-","Unknown","Haskell","Satanta","KS","Kansas","67870","Central / Mountain","37.441023","-100.998474"
"(785) 203-","Cell Number","Rooks","Plainville","KS","Kansas","67663","Central / Mountain","39.248844","-99.316373"
"(913) 238-","Cell Number","Johnson","Overland Park","KS","Kansas","66225","Central","38.899901","-94.831991"
"(785) 644-","Unknown","Doniphan","Highland","KS","Kansas","66035","Central / Mountain","39.878677","-95.227692"
"(620) 391-","Cell Number","Seward","Liberal","KS","Kansas","67901","Central / Mountain","37.043237","-100.873809"
"(785) 343-","Landline","Rush","Alexander","KS","Kansas","67513","Central / Mountain","38.470116","-99.553222"
"(785) 423-","Cell Number","Douglas","Lawrence","KS","Kansas","66047","Central / Mountain","38.88437","-95.338066"
"(785) 388-","Landline","Cloud","Miltonvale","KS","Kansas","67466","Central / Mountain","39.349959","-97.454812"
"(913) 428-","Landline","Wyandotte","Kansas City","KS","Kansas","66160","Central","39.096551","-94.749538"
"(620) 297-","Landline","Kingman","Murdock","KS","Kansas","67111","Central / Mountain","37.619803","-97.963093"
"(316) 313-","Landline","Butler","El Dorado","KS","Kansas","67042","Central","37.830491","-96.865969"
"(620) 510-","Landline","Haskell","Sublette","KS","Kansas","67877","Central / Mountain","37.482236","-100.848783"
"(785) 692-","Landline","Washington","Palmer","KS","Kansas","66962","Central / Mountain","39.610229","-97.12993"
"(785) 915-","Landline","Franklin","Ottawa","KS","Kansas","66067","Central / Mountain","38.564337","-95.282668"
"(620) 320-","Unknown","Stafford","Macksville","KS","Kansas","67557","Central / Mountain","37.95853","-98.968997"
"(620) 923-","Landline","Barton","Albert","KS","Kansas","67511","Central / Mountain","38.420451","-98.913448"
"(316) 962-","Landline","Sedgwick","Wichita","KS","Kansas","67206","Central","37.613954","-97.342752"
"(785) 365-","Cell Number","Ellis","Hays","KS","Kansas","67601","Central / Mountain","38.878202","-99.334803"
"(913) 417-","Landline","Leavenworth","Tonganoxie","KS","Kansas","66086","Central","39.115489","-95.084717"
"(316) 680-","Cell Number","Sedgwick","Wichita","KS","Kansas","67206","Central","37.613954","-97.342752"
"(316) 258-","Cell Number","Sedgwick","Wichita","KS","Kansas","67206","Central","37.613954","-97.342752"
"(785) 781-","Landline","Mitchell","Cawker City","KS","Kansas","67430","Central / Mountain","39.451105","-98.187156"
"(913) 727-","Landline","Leavenworth","Leavenworth","KS","Kansas","66048","Central","39.279656","-94.982216"
"(913) 438-","Landline","Johnson","Lenexa","KS","Kansas","66215","Central","38.949007","-94.740503"
"(785) 858-","Landline","Nemaha","Bern","KS","Kansas","66408","Central / Mountain","39.960927","-95.967077"
"(620) 720-","Landline","Barton","Pawnee Rock","KS","Kansas","67567","Central / Mountain","38.451554","-98.959346"
"(785) 871-","Landline","Norton","Norton","KS","Kansas","67654","Central / Mountain","39.827955","-99.891726"
"(620) 605-","Cell Number","Labette","Parsons","KS","Kansas","67357","Central / Mountain","37.217756","-95.266407"
"(785) 724-","Landline","Shawnee","Topeka","KS","Kansas","66616","Central / Mountain","39.065477","-95.626357"
"(785) 312-","Landline","Douglas","Lawrence","KS","Kansas","66047","Central / Mountain","38.88437","-95.338066"
"(620) 914-","Landline","Harper","Anthony","KS","Kansas","67003","Central / Mountain","37.111488","-98.048121"
"(785) 363-","Landline","Marshall","Blue Rapids","KS","Kansas","66411","Central / Mountain","39.713306","-96.563601"
"(913) 730-","Landline","Wyandotte","Kansas City","KS","Kansas","66160","Central","39.096551","-94.749538"
"(785) 987-","Landline","Republic","Munden","KS","Kansas","66959","Central / Mountain","39.860279","-97.498488"
"(913) 912-","Unknown","Wyandotte","Kansas City","KS","Kansas","66160","Central","39.096551","-94.749538"
"(785) 863-","Landline","Jefferson","Oskaloosa","KS","Kansas","66066","Central / Mountain","39.255747","-95.356589"
"(316) 822-","Cell Number","Sedgwick","Wichita","KS","Kansas","67206","Central","37.613954","-97.342752"
"(620) 287-","Landline","Finney","Garden City","KS","Kansas","67846","Central / Mountain","38.000771","-100.664407"
"(620) 896-","Landline","Harper","Harper","KS","Kansas","67058","Central / Mountain","37.291318","-98.038455"
"(785) 355-","Landline","Rush","Bison","KS","Kansas","67520","Central / Mountain","38.563156","-99.195772"
"(913) 648-","Landline","Johnson","Overland Park","KS","Kansas","66225","Central","38.899901","-94.831991"
"(620) 541-","Unknown","Stevens","Hugoton","KS","Kansas","67951","Central / Mountain","37.243161","-101.281684"
"(913) 948-","Unknown","Wyandotte","Kansas City","KS","Kansas","66160","Central","39.096551","-94.749538"
"(913) 621-","Landline","Wyandotte","Kansas City","KS","Kansas","66160","Central","39.096551","-94.749538"
"(913) 859-","Landline","Johnson","Lenexa","KS","Kansas","66215","Central","38.949007","-94.740503"
"(316) 722-","Landline","Sedgwick","Wichita","KS","Kansas","67206","Central","37.613954","-97.342752"
"(785) 455-","Landline","Washington","Clifton","KS","Kansas","66937","Central / Mountain","39.655509","-97.17341"
"(620) 223-","Landline","Bourbon","Fort Scott","KS","Kansas","66701","Central / Mountain","37.821629","-94.714793"
"(620) 368-","Landline","Crawford","Hepler","KS","Kansas","66746","Central / Mountain","37.638333","-94.942113"
"(620) 441-","Landline","Cowley","Arkansas City","KS","Kansas","67005","Central / Mountain","37.149582","-96.904215"
"(620) 845-","Landline","Sumner","Caldwell","KS","Kansas","67022","Central / Mountain","37.133257","-97.601664"
"(785) 216-","Cell Number","Graham","Hill City","KS","Kansas","67642","Central / Mountain","39.366018","-99.842382"
"(785) 376-","Landline","Saline","Salina","KS","Kansas","67401","Central / Mountain","38.823673","-97.642113"
"(785) 285-","Cell Number","Nemaha","Sabetha","KS","Kansas","66534","Central / Mountain","39.899941","-95.802372"
"(785) 288-","Cell Number","Brown","Hiawatha","KS","Kansas","66434","Central / Mountain","39.791367","-95.600405"
"(316) 636-","Landline","Sedgwick","Wichita","KS","Kansas","67206","Central","37.613954","-97.342752"
"(785) 763-","Landline","Washington","Barnes","KS","Kansas","66933","Central / Mountain","39.681367","-96.862609"
"(785) 459-","Landline","Brown","Morrill","KS","Kansas","66515","Central / Mountain","39.923097","-95.694761"
"(913) 614-","Cell Number","Wyandotte","Kansas City","KS","Kansas","66160","Central","39.096551","-94.749538"
"(620) 754-","Landline","Allen","Savonburg","KS","Kansas","66772","Central / Mountain","37.768978","-95.24453"
"(316) 706-","Cell Number","Sedgwick","Wichita","KS","Kansas","67206","Central","37.613954","-97.342752"
"(785) 896-","Landline","Decatur","Oberlin","KS","Kansas","67749","Central / Mountain","39.820834","-100.529554"
"(620) 640-","Cell Number","Finney","Garden City","KS","Kansas","67846","Central / Mountain","38.000771","-100.664407"
"(316) 755-","Landline","Sedgwick","Valley Center","KS","Kansas","67147","Central","37.845078","-97.335537"
"(913) 578-","Cell Number","Leavenworth","Leavenworth","KS","Kansas","66048","Central","39.279656","-94.982216"
"(620) 399-","Landline","Sumner","Wellington","KS","Kansas","67152","Central / Mountain","37.280877","-97.42223"
"(620) 327-","Landline","Harvey","Hesston","KS","Kansas","67062","Central / Mountain","38.137404","-97.443222"
"(785) 478-","Landline","Shawnee","Topeka","KS","Kansas","66616","Central / Mountain","39.065477","-95.626357"
"(785) 666-","Landline","Russell","Bunker Hill","KS","Kansas","67626","Central / Mountain","38.868931","-98.676303"
"(620) 712-","Landline","Mcpherson","Inman","KS","Kansas","67546","Central / Mountain","38.246179","-97.795694"
"(913) 695-","Landline","Johnson","Olathe","KS","Kansas","66051","Central","38.899901","-94.831991"
"(620) 867-","Landline","Sumner","Belle Plaine","KS","Kansas","67013","Central / Mountain","37.359755","-97.287694"
"(620) 762-","Cell Number","Cherokee","Columbus","KS","Kansas","66725","Central / Mountain","37.169887","-94.889857"
"(913) 674-","Landline","Atchison","Atchison","KS","Kansas","66002","Central","39.535948","-95.225098"
"(316) 540-","Landline","Sedgwick","Cheney","KS","Kansas","67025","Central","37.633711","-97.73513"
"(913) 951-","Unknown","Wyandotte","Kansas City","KS","Kansas","66160","Central","39.096551","-94.749538"
"(785) 254-","Landline","Saline","Gypsum","KS","Kansas","67448","Central / Mountain","38.710913","-97.492119"
"(785) 333-","Unknown","Saline","Gypsum","KS","Kansas","67448","Central / Mountain","38.710913","-97.492119"
"(316) 559-","Landline","Sedgwick","Wichita","KS","Kansas","67206","Central","37.613954","-97.342752"
"(913) 815-","Landline","Johnson","Olathe","KS","Kansas","66051","Central","38.899901","-94.831991"
"(913) 634-","Cell Number","Wyandotte","Kansas City","KS","Kansas","66160","Central","39.096551","-94.749538"
"(785) 470-","Landline","Decatur","Oberlin","KS","Kansas","67749","Central / Mountain","39.820834","-100.529554"
"(785) 667-","Landline","Saline","Assaria","KS","Kansas","67416","Central / Mountain","38.688891","-97.59426"
"(913) 248-","Landline","Wyandotte","Kansas City","KS","Kansas","66160","Central","39.096551","-94.749538"
"(620) 879-","Landline","Montgomery","Caney","KS","Kansas","67333","Central / Mountain","37.048046","-95.884949"
"(785) 581-","Unknown","Shawnee","Topeka","KS","Kansas","66616","Central / Mountain","39.065477","-95.626357"
"(620) 485-","Landline","Montgomery","Liberty","KS","Kansas","67351","Central / Mountain","37.09922","-95.583588"
"(785) 302-","Cell Number","Phillips","Phillipsburg","KS","Kansas","67661","Central / Mountain","39.779113","-99.346302"
"(316) 969-","Cell Number","Sedgwick","Wichita","KS","Kansas","67206","Central","37.613954","-97.342752"
"(785) 253-","Cell Number","Shawnee","Topeka","KS","Kansas","66616","Central / Mountain","39.065477","-95.626357"
"(913) 757-","Landline","Miami","Fontana","KS","Kansas","66026","Central","38.417885","-94.88344"
"(785) 879-","Landline","Brown","Powhattan","KS","Kansas","66527","Central / Mountain","39.761448","-95.635089"
"(316) 836-","Landline","Harvey","Newton","KS","Kansas","67114","Central","38.044857","-97.317279"
"(620) 528-","Landline","Lyon","Allen","KS","Kansas","66833","Central / Mountain","38.652011","-96.173461"
"(620) 359-","Cell Number","Sumner","Wellington","KS","Kansas","67152","Central / Mountain","37.280877","-97.42223"
"(620) 505-","Cell Number","Montgomery","Coffeyville","KS","Kansas","67337","Central / Mountain","37.146267","-95.748313"
"(913) 352-","Landline","Linn","Pleasanton","KS","Kansas","66075","Central","38.176349","-94.713323"
"(316) 992-","Cell Number","Sedgwick","Wichita","KS","Kansas","67206","Central","37.613954","-97.342752"
"(316) 832-","Landline","Sedgwick","Wichita","KS","Kansas","67206","Central","37.613954","-97.342752"
"(620) 394-","Landline","Cowley","Burden","KS","Kansas","67019","Central / Mountain","37.37062","-96.759983"
"(620) 892-","Landline","Sumner","Caldwell","KS","Kansas","67022","Central / Mountain","37.133257","-97.601664"
"(620) 693-","Landline","Harper","Bluff City","KS","Kansas","67018","Central / Mountain","37.062263","-97.865887"
"(316) 535-","Landline","Sedgwick","Garden Plain","KS","Kansas","67050","Central","37.674242","-97.654917"
"(620) 516-","Unknown","Reno","Arlington","KS","Kansas","67514","Central / Mountain","37.829877","-98.196898"
"(785) 955-","Cell Number","Republic","Belleville","KS","Kansas","66935","Central / Mountain","39.836218","-97.601461"
"(785) 765-","Landline","Wabaunsee","Alma","KS","Kansas","66401","Central / Mountain","38.953556","-96.204558"
"(316) 854-","Landline","Sedgwick","Wichita","KS","Kansas","67206","Central","37.613954","-97.342752"
"(785) 948-","Landline","Pottawatomie","Havensville","KS","Kansas","66432","Central / Mountain","39.44655","-96.37473"
"(913) 651-","Landline","Leavenworth","Leavenworth","KS","Kansas","66048","Central","39.279656","-94.982216"
"(913) 439-","Landline","Wyandotte","Kansas City","KS","Kansas","66160","Central","39.096551","-94.749538"
"(620) 530-","Landline","Sedgwick","Clearwater","KS","Kansas","67026","Central / Mountain","37.548282","-97.488432"
"(785) 935-","Landline","Jackson","Denison","KS","Kansas","66419","Central / Mountain","39.353979","-95.612718"
"(785) 656-","Cell Number","Ellis","Hays","KS","Kansas","67601","Central / Mountain","38.878202","-99.334803"
"(785) 324-","Cell Number","Russell","Russell","KS","Kansas","67665","Central / Mountain","38.905159","-98.784797"
"(620) 532-","Landline","Kingman","Kingman","KS","Kansas","67068","Central / Mountain","37.596364","-98.130432"
"(316) 300-","Landline","Sedgwick","Wichita","KS","Kansas","67206","Central","37.613954","-97.342752"
"(620) 726-","Landline","Marion","Burns","KS","Kansas","66840","Central / Mountain","38.089221","-96.888518"
"(913) 397-","Landline","Johnson","Olathe","KS","Kansas","66051","Central","38.899901","-94.831991"
"(785) 277-","Landline","Lincoln","Sylvan Grove","KS","Kansas","67481","Central / Mountain","38.969795","-98.435528"
"(913) 962-","Landline","Wyandotte","Kansas City","KS","Kansas","66160","Central","39.096551","-94.749538"
"(913) 473-","Cell Number","Johnson","Lenexa","KS","Kansas","66215","Central","38.949007","-94.740503"
"(913) 551-","Landline","Wyandotte","Kansas City","KS","Kansas","66160","Central","39.096551","-94.749538"
"(785) 303-","Cell Number","Rooks","Palco","KS","Kansas","67657","Central / Mountain","39.229778","-99.346263"
"(913) 980-","Cell Number","Wyandotte","Kansas City","KS","Kansas","66160","Central","39.096551","-94.749538"
"(620) 798-","Landline","Mcpherson","Mcpherson","KS","Kansas","67460","Central / Mountain","38.376302","-97.670184"
"(620) 233-","Cell Number","Edwards","Kinsley","KS","Kansas","67547","Central / Mountain","37.91204","-99.478881"
"(620) 203-","Cell Number","Coffey","Burlington","KS","Kansas","66839","Central / Mountain","38.236316","-95.733598"
"(913) 281-","Landline","Wyandotte","Kansas City","KS","Kansas","66160","Central","39.096551","-94.749538"
"(913) 664-","Landline","Johnson","Overland Park","KS","Kansas","66225","Central","38.899901","-94.831991"
"(913) 290-","Cell Number","Leavenworth","Leavenworth","KS","Kansas","66048","Central","39.279656","-94.982216"
"(785) 949-","Landline","Saline","Gypsum","KS","Kansas","67448","Central / Mountain","38.710913","-97.492119"
"(785) 564-","Landline","Riley","Manhattan","KS","Kansas","66502","Central / Mountain","39.209375","-96.564589"
"(785) 430-","Landline","Shawnee","Topeka","KS","Kansas","66616","Central / Mountain","39.065477","-95.626357"
"(785) 764-","Cell Number","Douglas","Lawrence","KS","Kansas","66047","Central / Mountain","38.88437","-95.338066"
"(620) 462-","Unknown","Reno","Partridge","KS","Kansas","67566","Central / Mountain","38.005705","-97.977327"
"(620) 791-","Landline","Barton","Great Bend","KS","Kansas","67530","Central / Mountain","38.393567","-98.775074"
"(913) 441-","Landline","Johnson","Shawnee","KS","Kansas","66216","Central","39.014655","-94.741448"
"(785) 619-","Unknown","Marshall","Home","KS","Kansas","66438","Central / Mountain","39.848788","-96.506345"
"(913) 576-","Landline","Wyandotte","Kansas City","KS","Kansas","66160","Central","39.096551","-94.749538"
"(913) 526-","Cell Number","Johnson","Kansas City","KS","Kansas","66160","Central","39.096551","-94.749538"
"(913) 449-","Cell Number","Wyandotte","Kansas City","KS","Kansas","66160","Central","39.096551","-94.749538"
"(785) 665-","Landline","Osage","Overbrook","KS","Kansas","66524","Central / Mountain","38.724549","-95.574894"
"(785) 368-","Landline","Shawnee","Topeka","KS","Kansas","66616","Central / Mountain","39.065477","-95.626357"
"(316) 833-","Landline","Sedgwick","Wichita","KS","Kansas","67206","Central","37.613954","-97.342752"
"(620) 767-","Landline","Morris","Council Grove","KS","Kansas","66846","Central / Mountain","38.69588","-96.5469"
"(316) 687-","Landline","Sedgwick","Wichita","KS","Kansas","67206","Central","37.613954","-97.342752"
"(785) 354-","Landline","Shawnee","Topeka","KS","Kansas","66616","Central / Mountain","39.065477","-95.626357"
"(785) 664-","Landline","Norton","Almena","KS","Kansas","67622","Central / Mountain","39.891272","-99.711523"
"(785) 202-","Cell Number","Norton","Norton","KS","Kansas","67654","Central / Mountain","39.827955","-99.891726"
"(785) 242-","Landline","Franklin","Ottawa","KS","Kansas","66067","Central / Mountain","38.564337","-95.282668"
"(620) 245-","Landline","Mcpherson","Mcpherson","KS","Kansas","67460","Central / Mountain","38.376302","-97.670184"
"(785) 284-","Landline","Nemaha","Sabetha","KS","Kansas","66534","Central / Mountain","39.899941","-95.802372"
"(785) 456-","Landline","Pottawatomie","Wamego","KS","Kansas","66547","Central / Mountain","39.298416","-96.341383"
"(785) 926-","Landline","Clay","Morganville","KS","Kansas","67468","Central / Mountain","39.328382","-97.164888"
"(913) 588-","Landline","Johnson","Lenexa","KS","Kansas","66215","Central","38.949007","-94.740503"
"(316) 261-","Landline","Sedgwick","Wichita","KS","Kansas","67206","Central","37.613954","-97.342752"
"(620) 715-","Landline","Montgomery","Independence","KS","Kansas","67301","Central / Mountain","37.180636","-95.756197"
"(620) 781-","Cell Number","Scott","Scott City","KS","Kansas","67871","Central / Mountain","38.482307","-100.906427"
"(913) 715-","Landline","Johnson","Olathe","KS","Kansas","66051","Central","38.899901","-94.831991"
"(316) 371-","Cell Number","Sedgwick","Wichita","KS","Kansas","67206","Central","37.613954","-97.342752"
"(620) 464-","Landline","Montgomery","Coffeyville","KS","Kansas","67337","Central / Mountain","37.146267","-95.748313"
"(785) 815-","Landline","Jackson","Circleville","KS","Kansas","66416","Central / Mountain","39.528134","-95.848729"
"(913) 905-","Landline","Johnson","Kansas City","KS","Kansas","66160","Central","39.096551","-94.749538"
"(913) 845-","Landline","Leavenworth","Tonganoxie","KS","Kansas","66086","Central","39.115489","-95.084717"
"(620) 553-","Cell Number","Kingman","Kingman","KS","Kansas","67068","Central / Mountain","37.596364","-98.130432"
"(913) 789-","Landline","Wyandotte","Kansas City","KS","Kansas","66160","Central","39.096551","-94.749538"
"(620) 986-","Landline","Cowley","Rock","KS","Kansas","67131","Central / Mountain","37.441278","-97.005906"
"(785) 799-","Landline","Marshall","Home","KS","Kansas","66438","Central / Mountain","39.848788","-96.506345"
"(316) 500-","Landline","Sedgwick","Wichita","KS","Kansas","67206","Central","37.613954","-97.342752"
"(620) 453-","Cell Number","Stevens","Hugoton","KS","Kansas","67951","Central / Mountain","37.243161","-101.281684"
"(620) 568-","Landline","Wilson","Altoona","KS","Kansas","66710","Central / Mountain","37.525023","-95.661801"
"(785) 900-","Unknown","Cloud","Glasco","KS","Kansas","67445","Central / Mountain","39.36117","-97.83825"
"(785) 416-","Unknown","Ottawa","Bennington","KS","Kansas","67422","Central / Mountain","39.019928","-97.622108"
"(785) 629-","Landline","Marshall","Marysville","KS","Kansas","66508","Central / Mountain","39.863544","-96.617219"
"(620) 801-","Landline","Ford","Dodge City","KS","Kansas","67801","Central / Mountain","37.690531","-99.902421"
"(620) 692-","Landline","Woodson","Toronto","KS","Kansas","66777","Central / Mountain","37.814423","-95.88888"
"(913) 649-","Landline","Johnson","Overland Park","KS","Kansas","66225","Central","38.899901","-94.831991"
"(620) 827-","Landline","Cherokee","Scammon","KS","Kansas","66773","Central / Mountain","37.280945","-94.809198"
"(620) 664-","Landline","Reno","Hutchinson","KS","Kansas","67501","Central / Mountain","37.954312","-97.88569"
"(620) 429-","Landline","Cherokee","Columbus","KS","Kansas","66725","Central / Mountain","37.169887","-94.889857"
"(785) 579-","Unknown","Geary","Junction City","KS","Kansas","66441","Central / Mountain","39.026465","-96.783359"
"(785) 238-","Landline","Geary","Junction City","KS","Kansas","66441","Central / Mountain","39.026465","-96.783359"
"(785) 213-","Cell Number","Shawnee","Topeka","KS","Kansas","66616","Central / Mountain","39.065477","-95.626357"
"(785) 404-","Landline","Saline","Salina","KS","Kansas","67401","Central / Mountain","38.823673","-97.642113"
"(620) 658-","Landline","Greenwood","Fall River","KS","Kansas","67047","Central / Mountain","37.607625","-96.029221"
"(785) 539-","Landline","Riley","Manhattan","KS","Kansas","66502","Central / Mountain","39.209375","-96.564589"
"(620) 789-","Cell Number","Ford","Dodge City","KS","Kansas","67801","Central / Mountain","37.690531","-99.902421"
"(620) 492-","Landline","Stanton","Johnson","KS","Kansas","67855","Central / Mountain","37.562997","-101.707858"
"(913) 641-","Cell Number","Wyandotte","Kansas City","KS","Kansas","66160","Central","39.096551","-94.749538"
"(785) 406-","Unknown","Washington","Greenleaf","KS","Kansas","66943","Central / Mountain","39.687997","-96.975097"
"(316) 652-","Landline","Sedgwick","Wichita","KS","Kansas","67206","Central","37.613954","-97.342752"
"(785) 566-","Landline","Franklin","Pomona","KS","Kansas","66076","Central / Mountain","38.61504","-95.3418"
"(316) 469-","Landline","Sedgwick","Wichita","KS","Kansas","67206","Central","37.613954","-97.342752"
"(785) 623-","Landline","Ellis","Hays","KS","Kansas","67601","Central / Mountain","38.878202","-99.334803"
"(620) 665-","Landline","Reno","Hutchinson","KS","Kansas","67501","Central / Mountain","37.954312","-97.88569"
"(913) 287-","Landline","Wyandotte","Kansas City","KS","Kansas","66160","Central","39.096551","-94.749538"
"(785) 396-","Landline","Pottawatomie","Onaga","KS","Kansas","66521","Central / Mountain","39.442426","-96.34428"
"(785) 828-","Landline","Osage","Lyndon","KS","Kansas","66451","Central / Mountain","38.622848","-95.656131"
"(620) 824-","Landline","Rice","Geneseo","KS","Kansas","67444","Central / Mountain","38.362194","-98.15843"
"(785) 427-","Landline","Cloud","Miltonvale","KS","Kansas","67466","Central / Mountain","39.349959","-97.454812"
"(913) 548-","Landline","Wyandotte","Kansas City","KS","Kansas","66160","Central","39.096551","-94.749538"
"(785) 504-","Landline","Anderson","Garnett","KS","Kansas","66032","Central / Mountain","38.232767","-95.286458"
"(620) 643-","Landline","Cherokee","Weir","KS","Kansas","66781","Central / Mountain","37.258838","-94.734382"
"(620) 779-","Cell Number","Montgomery","Independence","KS","Kansas","67301","Central / Mountain","37.180636","-95.756197"
"(316) 518-","Cell Number","Sedgwick","Wichita","KS","Kansas","67206","Central","37.613954","-97.342752"
"(316) 771-","Landline","Sedgwick","Kechi","KS","Kansas","67067","Central","37.810488","-97.259353"
"(620) 309-","Landline","Seward","Liberal","KS","Kansas","67901","Central / Mountain","37.043237","-100.873809"
"(785) 769-","Landline","Trego","Collyer","KS","Kansas","67631","Central / Mountain","38.91436","-99.872931"
"(913) 626-","Landline","Wyandotte","Kansas City","KS","Kansas","66160","Central","39.096551","-94.749538"
"(620) 756-","Landline","Bourbon","Uniontown","KS","Kansas","66779","Central / Mountain","37.847185","-94.975786"
"(316) 737-","Cell Number","Sedgwick","Wichita","KS","Kansas","67206","Central","37.613954","-97.342752"
"(620) 289-","Landline","Montgomery","Caney","KS","Kansas","67333","Central / Mountain","37.048046","-95.884949"
"(913) 328-","Landline","Wyandotte","Kansas City","KS","Kansas","66160","Central","39.096551","-94.749538"
"(620) 642-","Landline","Elk","Longton","KS","Kansas","67352","Central / Mountain","37.374756","-96.13358"
"(913) 594-","Cell Number","Miami","Paola","KS","Kansas","66071","Central","38.577932","-94.880328"
"(785) 777-","Unknown","Clay","Clay Center","KS","Kansas","67432","Central / Mountain","39.349452","-97.164849"
"(913) 656-","Cell Number","Wyandotte","Kansas City","KS","Kansas","66160","Central","39.096551","-94.749538"
"(620) 709-","Landline","Montgomery","Coffeyville","KS","Kansas","67337","Central / Mountain","37.146267","-95.748313"
"(913) 371-","Landline","Wyandotte","Kansas City","KS","Kansas","66160","Central","39.096551","-94.749538"
"(316) 768-","Landline","Sedgwick","Wichita","KS","Kansas","67206","Central","37.613954","-97.342752"
"(620) 783-","Landline","Cherokee","Galena","KS","Kansas","66739","Central / Mountain","37.15456","-94.833896"
"(913) 515-","Cell Number","Wyandotte","Kansas City","KS","Kansas","66160","Central","39.096551","-94.749538"
"(785) 399-","Landline","Sherman","Kanorado","KS","Kansas","67741","Central / Mountain","39.365231","-101.967481"
"(620) 872-","Landline","Scott","Scott City","KS","Kansas","67871","Central / Mountain","38.482307","-100.906427"
"(785) 429-","Landline","Smith","Athol","KS","Kansas","66932","Central / Mountain","39.766784","-98.919297"
"(913) 933-","Landline","Leavenworth","Basehor","KS","Kansas","66007","Central","39.133448","-94.947234"
"(785) 675-","Landline","Sheridan","Hoxie","KS","Kansas","67740","Central / Mountain","39.355013","-100.440513"
"(620) 592-","Landline","Morton","Richfield","KS","Kansas","67953","Central / Mountain","37.191239","-101.798749"
"(913) 268-","Landline","Wyandotte","Kansas City","KS","Kansas","66160","Central","39.096551","-94.749538"
"(913) 898-","Landline","Linn","Parker","KS","Kansas","66072","Central","38.255903","-94.852908"
"(785) 473-","Unknown","Riley","Manhattan","KS","Kansas","66502","Central / Mountain","39.209375","-96.564589"
"(785) 850-","Cell Number","Doniphan","Troy","KS","Kansas","66087","Central / Mountain","39.790573","-95.143417"
"(785) 627-","Landline","Graham","Morland","KS","Kansas","67650","Central / Mountain","39.352426","-100.075464"
"(913) 645-","Cell Number","Wyandotte","Kansas City","KS","Kansas","66160","Central","39.096551","-94.749538"
"(620) 242-","Landline","Mcpherson","Mcpherson","KS","Kansas","67460","Central / Mountain","38.376302","-97.670184"
"(620) 395-","Landline","Crawford","Arcadia","KS","Kansas","66711","Central / Mountain","37.601241","-94.697518"
"(913) 952-","Unknown","Wyandotte","Kansas City","KS","Kansas","66160","Central","39.096551","-94.749538"
"(620) 363-","Cell Number","Allen","Iola","KS","Kansas","66749","Central / Mountain","37.885757","-95.391057"
"(785) 571-","Unknown","Dickinson","Abilene","KS","Kansas","67410","Central / Mountain","38.9111","-97.195283"
"(620) 639-","Cell Number","Barton","Great Bend","KS","Kansas","67530","Central / Mountain","38.393567","-98.775074"
"(316) 667-","Landline","Sedgwick","Mount Hope","KS","Kansas","67108","Central","37.823852","-97.637834"
"(913) 901-","Landline","Johnson","Overland Park","KS","Kansas","66225","Central","38.899901","-94.831991"
"(316) 299-","Landline","Sedgwick","Wichita","KS","Kansas","67206","Central","37.613954","-97.342752"
"(620) 750-","Cell Number","Greenwood","Eureka","KS","Kansas","67045","Central / Mountain","37.755154","-96.170019"
"(785) 990-","Unknown","Doniphan","Wathena","KS","Kansas","66090","Central / Mountain","39.806075","-95.083528"
"(620) 794-","Cell Number","Lyon","Emporia","KS","Kansas","66801","Central / Mountain","38.434153","-96.152766"
"(620) 216-","Cell Number","Chautauqua","Sedan","KS","Kansas","67361","Central / Mountain","37.134351","-96.219212"
"(913) 667-","Landline","Johnson","Shawnee","KS","Kansas","66216","Central","39.014655","-94.741448"
"(785) 568-","Landline","Cloud","Glasco","KS","Kansas","67445","Central / Mountain","39.36117","-97.83825"
"(785) 366-","Landline","Dickinson","Hope","KS","Kansas","67451","Central / Mountain","38.826292","-97.121874"
"(913) 705-","Cell Number","Leavenworth","Leavenworth","KS","Kansas","66048","Central","39.279656","-94.982216"
"(620) 957-","Landline","Marion","Marion","KS","Kansas","66861","Central / Mountain","38.284561","-96.965255"
"(913) 675-","Landline","Leavenworth","Leavenworth","KS","Kansas","66048","Central","39.279656","-94.982216"
"(785) 476-","Landline","Smith","Kensington","KS","Kansas","66951","Central / Mountain","39.783621","-98.796287"
"(620) 627-","Landline","Montgomery","Elk City","KS","Kansas","67344","Central / Mountain","37.288869","-95.908001"
"(620) 437-","Landline","Greenwood","Madison","KS","Kansas","66860","Central / Mountain","38.061943","-96.144795"
"(620) 652-","Landline","Wilson","Fredonia","KS","Kansas","66736","Central / Mountain","37.571672","-95.748418"
"(913) 620-","Cell Number","Wyandotte","Kansas City","KS","Kansas","66160","Central","39.096551","-94.749538"
"(620) 668-","Landline","Gray","Copeland","KS","Kansas","67837","Central / Mountain","37.738785","-100.505348"
"(620) 527-","Landline","Pawnee","Larned","KS","Kansas","67550","Central / Mountain","38.194644","-99.10096"
"(785) 582-","Landline","Shawnee","Silver Lake","KS","Kansas","66539","Central / Mountain","39.151302","-95.86381"
"(620) 757-","Cell Number","Lyon","Emporia","KS","Kansas","66801","Central / Mountain","38.434153","-96.152766"
"(620) 458-","Landline","Stafford","Hudson","KS","Kansas","67545","Central / Mountain","38.166197","-98.628964"
"(785) 432-","Cell Number","Ellis","Hays","KS","Kansas","67601","Central / Mountain","38.878202","-99.334803"
"(316) 361-","Landline","Butler","Andover","KS","Kansas","67002","Central","37.701532","-97.098431"
"(785) 608-","Cell Number","Shawnee","Topeka","KS","Kansas","66616","Central / Mountain","39.065477","-95.626357"
"(620) 328-","Landline","Labette","Mound Valley","KS","Kansas","67354","Central / Mountain","37.215113","-95.422081"
"(620) 209-","Landline","Reno","Pretty Prairie","KS","Kansas","67570","Central / Mountain","37.813853","-97.99759"
"(620) 682-","Landline","Ford","Dodge City","KS","Kansas","67801","Central / Mountain","37.690531","-99.902421"
"(913) 972-","Cell Number","Wyandotte","Kansas City","KS","Kansas","66160","Central","39.096551","-94.749538"
"(620) 657-","Landline","Haskell","Satanta","KS","Kansas","67870","Central / Mountain","37.441023","-100.998474"
"(785) 304-","Cell Number","Anderson","Garnett","KS","Kansas","66032","Central / Mountain","38.232767","-95.286458"
"(785) 914-","Landline","Saline","Salina","KS","Kansas","67401","Central / Mountain","38.823673","-97.642113"
"(316) 712-","Landline","Sedgwick","Wichita","KS","Kansas","67206","Central","37.613954","-97.342752"
"(316) 745-","Landline","Butler","Leon","KS","Kansas","67074","Central","37.66475","-96.748795"
"(785) 857-","Landline","Nemaha","Centralia","KS","Kansas","66415","Central / Mountain","39.697428","-96.032867"
"(785) 225-","Landline","Saline","Brookville","KS","Kansas","67425","Central / Mountain","38.783921","-97.854579"
"(316) 796-","Landline","Sedgwick","Wichita","KS","Kansas","67206","Central","37.613954","-97.342752"
"(620) 476-","Landline","Butler","Rosalia","KS","Kansas","67132","Central / Mountain","37.828375","-96.80597"
"(620) 862-","Landline","Kiowa","Haviland","KS","Kansas","67059","Central / Mountain","37.612557","-99.192552"
"(785) 693-","Landline","Decatur","Norcatur","KS","Kansas","67653","Central / Mountain","39.837074","-100.188191"
"(620) 404-","Cell Number","Crawford","Pittsburg","KS","Kansas","66762","Central / Mountain","37.448044","-94.819212"
"(785) 305-","Landline","Jackson","Holton","KS","Kansas","66436","Central / Mountain","39.481012","-95.765586"
"(785) 744-","Landline","Marshall","Home","KS","Kansas","66438","Central / Mountain","39.848788","-96.506345"
"(620) 256-","Landline","Coffey","Lebo","KS","Kansas","66856","Central / Mountain","38.237155","-95.790281"
"(785) 621-","Landline","Ellis","Hays","KS","Kansas","67601","Central / Mountain","38.878202","-99.334803"
"(620) 318-","Unknown","Kingman","Cunningham","KS","Kansas","67035","Central / Mountain","37.630922","-98.35639"
"(316) 290-","Landline","Sedgwick","Wichita","KS","Kansas","67206","Central","37.613954","-97.342752"
"(785) 717-","Landline","Geary","Junction City","KS","Kansas","66441","Central / Mountain","39.026465","-96.783359"
"(620) 561-","Cell Number","Ford","Dodge City","KS","Kansas","67801","Central / Mountain","37.690531","-99.902421"
"(620) 212-","Cell Number","Neosho","Chanute","KS","Kansas","66720","Central / Mountain","37.609218","-95.416422"
"(785) 792-","Landline","Lincoln","Barnard","KS","Kansas","67418","Central / Mountain","39.188663","-98.044605"
"(913) 788-","Landline","Wyandotte","Kansas City","KS","Kansas","66160","Central","39.096551","-94.749538"
"(785) 498-","Unknown","Ellis","Hays","KS","Kansas","67601","Central / Mountain","38.878202","-99.334803"
"(785) 457-","Landline","Pottawatomie","Westmoreland","KS","Kansas","66549","Central / Mountain","39.4138","-96.437389"
"(913) 945-","Unknown","Wyandotte","Kansas City","KS","Kansas","66160","Central","39.096551","-94.749538"
"(785) 834-","Landline","Jackson","Soldier","KS","Kansas","66540","Central / Mountain","39.478973","-95.825452"
"(913) 493-","Cell Number","Johnson","Lenexa","KS","Kansas","66215","Central","38.949007","-94.740503"
"(785) 506-","Landline","Shawnee","Topeka","KS","Kansas","66616","Central / Mountain","39.065477","-95.626357"
"(785) 272-","Landline","Shawnee","Topeka","KS","Kansas","66616","Central / Mountain","39.065477","-95.626357"
"(620) 962-","Landline","Harper","Freeport","KS","Kansas","67049","Central / Mountain","37.175377","-97.857243"
"(785) 622-","Landline","Norton","Lenora","KS","Kansas","67645","Central / Mountain","39.610503","-100.002777"
"(316) 685-","Landline","Sedgwick","Wichita","KS","Kansas","67206","Central","37.613954","-97.342752"
"(620) 480-","Cell Number","Mcpherson","Mcpherson","KS","Kansas","67460","Central / Mountain","38.376302","-97.670184"
"(913) 669-","Cell Number","Wyandotte","Kansas City","KS","Kansas","66160","Central","39.096551","-94.749538"
"(316) 695-","Cell Number","Sedgwick","Wichita","KS","Kansas","67206","Central","37.613954","-97.342752"
"(913) 957-","Unknown","Wyandotte","Kansas City","KS","Kansas","66160","Central","39.096551","-94.749538"
"(785) 965-","Landline","Marion","Tampa","KS","Kansas","67483","Central / Mountain","38.54879","-97.17004"
"(620) 428-","Landline","Stevens","Hugoton","KS","Kansas","67951","Central / Mountain","37.243161","-101.281684"
"(620) 432-","Landline","Neosho","Chanute","KS","Kansas","66720","Central / Mountain","37.609218","-95.416422"
"(785) 783-","Landline","Shawnee","Topeka","KS","Kansas","66616","Central / Mountain","39.065477","-95.626357"
"(913) 409-","Landline","Wyandotte","Kansas City","KS","Kansas","66160","Central","39.096551","-94.749538"
"(316) 613-","Landline","Sedgwick","Mulvane","KS","Kansas","67110","Central","37.3732","-97.441654"
"(620) 243-","Landline","Kingman","Zenda","KS","Kansas","67159","Central / Mountain","37.449631","-98.3057"
"(620) 396-","Landline","Cherokee","Weir","KS","Kansas","66781","Central / Mountain","37.258838","-94.734382"
"(785) 415-","Unknown","Rooks","Stockton","KS","Kansas","67669","Central / Mountain","39.412166","-99.369872"
"(316) 617-","Cell Number","Sedgwick","Wichita","KS","Kansas","67206","Central","37.613954","-97.342752"
"(620) 995-","Landline","Stafford","Macksville","KS","Kansas","67557","Central / Mountain","37.95853","-98.968997"
"(913) 486-","Cell Number","Johnson","Lenexa","KS","Kansas","66215","Central","38.949007","-94.740503"
"(913) 244-","Cell Number","Wyandotte","Kansas City","KS","Kansas","66160","Central","39.096551","-94.749538"
"(785) 348-","Landline","Washington","Linn","KS","Kansas","66953","Central / Mountain","39.784861","-97.168514"
"(620) 271-","Landline","Finney","Garden City","KS","Kansas","67846","Central / Mountain","38.000771","-100.664407"
"(785) 673-","Landline","Gove","Grainfield","KS","Kansas","67737","Central / Mountain","39.11464","-100.46688"
"(316) 648-","Cell Number","Sedgwick","Wichita","KS","Kansas","67206","Central","37.613954","-97.342752"
"(620) 587-","Landline","Barton","Claflin","KS","Kansas","67525","Central / Mountain","38.565876","-98.627068"
"(620) 637-","Landline","Woodson","Toronto","KS","Kansas","66777","Central / Mountain","37.814423","-95.88888"
"(785) 325-","Landline","Washington","Washington","KS","Kansas","66968","Central / Mountain","39.781107","-97.054286"
"(913) 601-","Unknown","Wyandotte","Kansas City","KS","Kansas","66160","Central","39.096551","-94.749538"
"(785) 513-","Unknown","Rawlins","Atwood","KS","Kansas","67730","Central / Mountain","39.824688","-101.041371"
"(785) 461-","Landline","Clay","Wakefield","KS","Kansas","67487","Central / Mountain","39.190937","-97.075406"
"(785) 658-","Landline","Ellsworth","Wilson","KS","Kansas","67490","Central / Mountain","38.784047","-98.271846"
"(785) 628-","Landline","Ellis","Hays","KS","Kansas","67601","Central / Mountain","38.878202","-99.334803"
"(913) 683-","Cell Number","Leavenworth","Leavenworth","KS","Kansas","66048","Central","39.279656","-94.982216"
"(620) 232-","Landline","Crawford","Pittsburg","KS","Kansas","66762","Central / Mountain","37.448044","-94.819212"
"(316) 889-","Landline","Butler","El Dorado","KS","Kansas","67042","Central","37.830491","-96.865969"
"(620) 787-","Landline","Lyon","Americus","KS","Kansas","66835","Central / Mountain","38.556174","-96.261884"
"(316) 747-","Landline","Butler","Douglass","KS","Kansas","67039","Central","37.535867","-96.998807"
"(620) 257-","Landline","Rice","Lyons","KS","Kansas","67554","Central / Mountain","38.376979","-98.193184"
"(785) 648-","Cell Number","Jewell","Mankato","KS","Kansas","66956","Central / Mountain","39.787529","-98.20595"
"(785) 499-","Landline","Morris","White City","KS","Kansas","66872","Central / Mountain","38.783116","-96.779581"
"(785) 798-","Landline","Ness","Ness City","KS","Kansas","67560","Central / Mountain","38.455316","-99.905723"
"(913) 895-","Landline","Johnson","Lenexa","KS","Kansas","66215","Central","38.949007","-94.740503"
"(785) 740-","Unknown","Brown","Hiawatha","KS","Kansas","66434","Central / Mountain","39.791367","-95.600405"
"(785) 534-","Cell Number","Mitchell","Beloit","KS","Kansas","67420","Central / Mountain","39.441631","-98.119189"
"(913) 850-","Unknown","Wyandotte","Kansas City","KS","Kansas","66160","Central","39.096551","-94.749538"
"(785) 942-","Landline","Russell","Waldo","KS","Kansas","67673","Central / Mountain","39.067957","-98.788651"
"(785) 767-","Landline","Washington","Bremen","KS","Kansas","66412","Central / Mountain","39.907206","-96.758998"
"(913) 773-","Landline","Leavenworth","Easton","KS","Kansas","66020","Central","39.339141","-95.099858"
"(316) 204-","Cell Number","Sedgwick","Wichita","KS","Kansas","67206","Central","37.613954","-97.342752"
"(785) 994-","Landline","Rooks","Woodston","KS","Kansas","67675","Central / Mountain","39.401699","-99.244147"
"(620) 803-","Landline","Lyon","Emporia","KS","Kansas","66801","Central / Mountain","38.434153","-96.152766"
"(620) 314-","Unknown","Butler","Rosalia","KS","Kansas","67132","Central / Mountain","37.828375","-96.80597"
"(785) 448-","Landline","Anderson","Garnett","KS","Kansas","66032","Central / Mountain","38.232767","-95.286458"
"(316) 579-","Cell Number","Sedgwick","Wichita","KS","Kansas","67206","Central","37.613954","-97.342752"
"(785) 636-","Landline","Wabaunsee","Paxico","KS","Kansas","66526","Central / Mountain","39.069282","-96.167821"
"(620) 544-","Landline","Stevens","Hugoton","KS","Kansas","67951","Central / Mountain","37.243161","-101.281684"
"(785) 864-","Landline","Douglas","Lawrence","KS","Kansas","66047","Central / Mountain","38.88437","-95.338066"
"(785) 699-","Landline","Marshall","Summerfield","KS","Kansas","66541","Central / Mountain","39.847244","-96.510692"
"(785) 297-","Landline","Shawnee","Topeka","KS","Kansas","66616","Central / Mountain","39.065477","-95.626357"
"(620) 951-","Cell Number","Harvey","Hesston","KS","Kansas","67062","Central / Mountain","38.137404","-97.443222"
"(785) 597-","Landline","Jefferson","Perry","KS","Kansas","66073","Central / Mountain","39.229717","-95.396681"
"(913) 377-","Landline","Miami","Louisburg","KS","Kansas","66053","Central","38.587195","-94.689876"
"(913) 207-","Cell Number","Johnson","Kansas City","KS","Kansas","66160","Central","39.096551","-94.749538"
"(913) 475-","Unknown","Wyandotte","Kansas City","KS","Kansas","66160","Central","39.096551","-94.749538"
"(785) 937-","Landline","Franklin","Princeton","KS","Kansas","66078","Central / Mountain","38.470428","-95.258362"
"(620) 308-","Unknown","Crawford","Pittsburg","KS","Kansas","66762","Central / Mountain","37.448044","-94.819212"
"(620) 917-","Landline","Kingman","Kingman","KS","Kansas","67068","Central / Mountain","37.596364","-98.130432"
"(913) 376-","Landline","Miami","Louisburg","KS","Kansas","66053","Central","38.587195","-94.689876"
"(316) 794-","Landline","Sedgwick","Goddard","KS","Kansas","67052","Central","37.663432","-97.579616"
"(913) 704-","Cell Number","Leavenworth","Leavenworth","KS","Kansas","66048","Central","39.279656","-94.982216"
"(913) 688-","Cell Number","Wyandotte","Kansas City","KS","Kansas","66160","Central","39.096551","-94.749538"
"(620) 662-","Landline","Reno","Hutchinson","KS","Kansas","67501","Central / Mountain","37.954312","-97.88569"
"(913) 993-","Landline","Johnson","Lenexa","KS","Kansas","66215","Central","38.949007","-94.740503"
"(785) 206-","Cell Number","Brown","Morrill","KS","Kansas","66515","Central / Mountain","39.923097","-95.694761"
"(913) 485-","Cell Number","Johnson","Lenexa","KS","Kansas","66215","Central","38.949007","-94.740503"
"(620) 227-","Landline","Ford","Dodge City","KS","Kansas","67801","Central / Mountain","37.690531","-99.902421"
"(620) 633-","Landline","Montgomery","Elk City","KS","Kansas","67344","Central / Mountain","37.288869","-95.908001"
"(785) 598-","Landline","Cloud","Aurora","KS","Kansas","67417","Central / Mountain","39.45212","-97.529562"
"(785) 541-","Cell Number","Washington","Washington","KS","Kansas","66968","Central / Mountain","39.781107","-97.054286"
"(620) 465-","Landline","Reno","Haven","KS","Kansas","67543","Central / Mountain","37.881183","-97.793755"
"(620) 594-","Landline","Pratt","Sawyer","KS","Kansas","67134","Central / Mountain","37.509541","-98.647923"
"(913) 593-","Cell Number","Johnson","Overland Park","KS","Kansas","66225","Central","38.899901","-94.831991"
"(785) 422-","Landline","Shawnee","Topeka","KS","Kansas","66616","Central / Mountain","39.065477","-95.626357"
"(913) 660-","Landline","Wyandotte","Kansas City","KS","Kansas","66160","Central","39.096551","-94.749538"
"(620) 403-","Landline","Montgomery","Caney","KS","Kansas","67333","Central / Mountain","37.048046","-95.884949"
"(913) 884-","Landline","Johnson","Gardner","KS","Kansas","66030","Central","38.814998","-94.94139"
"(620) 842-","Landline","Harper","Anthony","KS","Kansas","67003","Central / Mountain","37.111488","-98.048121"
"(316) 293-","Landline","Sedgwick","Wichita","KS","Kansas","67206","Central","37.613954","-97.342752"
"(620) 365-","Landline","Allen","Iola","KS","Kansas","66749","Central / Mountain","37.885757","-95.391057"
"(785) 985-","Landline","Doniphan","Troy","KS","Kansas","66087","Central / Mountain","39.790573","-95.143417"
"(913) 874-","Landline","Atchison","Lancaster","KS","Kansas","66041","Central","39.536445","-95.306304"
"(620) 417-","Unknown","Seward","Liberal","KS","Kansas","67901","Central / Mountain","37.043237","-100.873809"
"(620) 953-","Landline","Greenwood","Eureka","KS","Kansas","67045","Central / Mountain","37.755154","-96.170019"
"(620) 739-","Landline","Barber","Isabel","KS","Kansas","67065","Central / Mountain","37.427542","-98.551564"
"(620) 764-","Landline","Crawford","Mulberry","KS","Kansas","66756","Central / Mountain","37.54259","-94.661105"
"(913) 334-","Landline","Wyandotte","Kansas City","KS","Kansas","66160","Central","39.096551","-94.749538"
"(913) 871-","Landline","Johnson","Kansas City","KS","Kansas","66160","Central","39.096551","-94.749538"
"(913) 205-","Cell Number","Wyandotte","Kansas City","KS","Kansas","66160","Central","39.096551","-94.749538"
"(785) 528-","Landline","Osage","Osage City","KS","Kansas","66523","Central / Mountain","38.629558","-95.737112"
"(913) 686-","Landline","Johnson","Spring Hill","KS","Kansas","66083","Central","38.789323","-94.788441"
"(620) 629-","Landline","Seward","Liberal","KS","Kansas","67901","Central / Mountain","37.043237","-100.873809"
"(913) 579-","Cell Number","Johnson","Lenexa","KS","Kansas","66215","Central","38.949007","-94.740503"
"(785) 488-","Landline","Ottawa","Bennington","KS","Kansas","67422","Central / Mountain","39.019928","-97.622108"
"(316) 212-","Landline","Harvey","Newton","KS","Kansas","67114","Central","38.044857","-97.317279"
"(785) 637-","Landline","Russell","Gorham","KS","Kansas","67640","Central / Mountain","38.852325","-99.010803"
"(620) 687-","Cell Number","Crawford","Pittsburg","KS","Kansas","66762","Central / Mountain","37.448044","-94.819212"
"(785) 263-","Landline","Dickinson","Abilene","KS","Kansas","67410","Central / Mountain","38.9111","-97.195283"
"(620) 792-","Landline","Barton","Great Bend","KS","Kansas","67530","Central / Mountain","38.393567","-98.775074"
"(620) 537-","Landline","Wilson","Buffalo","KS","Kansas","66717","Central / Mountain","37.614292","-95.703647"
"(785) 615-","Cell Number","Douglas","Eudora","KS","Kansas","66025","Central / Mountain","38.879142","-95.125903"
"(785) 748-","Landline","Douglas","Lawrence","KS","Kansas","66047","Central / Mountain","38.88437","-95.338066"
"(785) 873-","Landline","Jackson","Whiting","KS","Kansas","66552","Central / Mountain","39.59411","-95.639154"
"(913) 909-","Cell Number","Wyandotte","Kansas City","KS","Kansas","66160","Central","39.096551","-94.749538"
"(785) 475-","Landline","Decatur","Oberlin","KS","Kansas","67749","Central / Mountain","39.820834","-100.529554"
"(316) 777-","Landline","Sedgwick","Mulvane","KS","Kansas","67110","Central","37.3732","-97.441654"
"(913) 708-","Landline","Johnson","Overland Park","KS","Kansas","66225","Central","38.899901","-94.831991"
"(785) 749-","Landline","Douglas","Lawrence","KS","Kansas","66047","Central / Mountain","38.88437","-95.338066"
"(316) 267-","Landline","Sedgwick","Wichita","KS","Kansas","67206","Central","37.613954","-97.342752"
"(620) 535-","Unknown","Cowley","Burden","KS","Kansas","67019","Central / Mountain","37.37062","-96.759983"
"(913) 917-","Cell Number","Johnson","Lenexa","KS","Kansas","66215","Central","38.949007","-94.740503"
"(785) 824-","Landline","Gove","Grinnell","KS","Kansas","67738","Central / Mountain","39.125891","-100.631872"
"(316) 435-","Unknown","Butler","El Dorado","KS","Kansas","67042","Central","37.830491","-96.865969"
"(620) 508-","Landline","Pratt","Pratt","KS","Kansas","67124","Central / Mountain","37.63857","-98.758512"
"(620) 424-","Landline","Grant","Ulysses","KS","Kansas","67880","Central / Mountain","37.562467","-101.308565"
"(316) 932-","Landline","Sedgwick","Wichita","KS","Kansas","67206","Central","37.613954","-97.342752"
"(785) 279-","Cell Number","Rush","La Crosse","KS","Kansas","67548","Central / Mountain","38.531867","-99.300546"
"(785) 887-","Landline","Shawnee","Lecompton","KS","Kansas","66050","Central / Mountain","39.004574","-95.417804"
"(913) 745-","Landline","Johnson","Lenexa","KS","Kansas","66215","Central","38.949007","-94.740503"
"(620) 600-","Unknown","Morton","Elkhart","KS","Kansas","67950","Central / Mountain","37.00405","-101.896973"
"(785) 243-","Landline","Cloud","Concordia","KS","Kansas","66901","Central / Mountain","39.551634","-97.656764"
"(785) 789-","Landline","Riley","Manhattan","KS","Kansas","66502","Central / Mountain","39.209375","-96.564589"
"(785) 762-","Landline","Geary","Junction City","KS","Kansas","66441","Central / Mountain","39.026465","-96.783359"
"(620) 202-","Cell Number","Cherokee","Galena","KS","Kansas","66739","Central / Mountain","37.15456","-94.833896"
"(785) 725-","Landline","Smith","Cedar","KS","Kansas","67628","Central / Mountain","39.784963","-98.785622"
"(785) 734-","Landline","Cheyenne","Bird City","KS","Kansas","67731","Central / Mountain","39.750443","-101.532798"
"(785) 227-","Landline","Mcpherson","Lindsborg","KS","Kansas","67456","Central / Mountain","38.497407","-97.628859"
"(785) 580-","Landline","Shawnee","Topeka","KS","Kansas","66616","Central / Mountain","39.065477","-95.626357"
"(620) 493-","Landline","Stanton","Manter","KS","Kansas","67862","Central / Mountain","37.536283","-101.904726"
"(785) 826-","Landline","Saline","Salina","KS","Kansas","67401","Central / Mountain","38.823673","-97.642113"
"(913) 780-","Landline","Johnson","Olathe","KS","Kansas","66051","Central","38.899901","-94.831991"
"(316) 494-","Landline","Sedgwick","Wichita","KS","Kansas","67206","Central","37.613954","-97.342752"
"(913) 940-","Cell Number","Johnson","Overland Park","KS","Kansas","66225","Central","38.899901","-94.831991"
"(913) 360-","Landline","Atchison","Atchison","KS","Kansas","66002","Central","39.535948","-95.225098"
"(316) 689-","Landline","Sedgwick","Wichita","KS","Kansas","67206","Central","37.613954","-97.342752"
"(785) 843-","Landline","Douglas","Lawrence","KS","Kansas","66047","Central / Mountain","38.88437","-95.338066"
"(620) 577-","Landline","Montgomery","Independence","KS","Kansas","67301","Central / Mountain","37.180636","-95.756197"
"(785) 452-","Landline","Saline","Salina","KS","Kansas","67401","Central / Mountain","38.823673","-97.642113"
"(620) 870-","Cell Number","Montgomery","Coffeyville","KS","Kansas","67337","Central / Mountain","37.146267","-95.748313"
"(785) 532-","Landline","Riley","Manhattan","KS","Kansas","66502","Central / Mountain","39.209375","-96.564589"
"(785) 845-","Cell Number","Shawnee","Topeka","KS","Kansas","66616","Central / Mountain","39.065477","-95.626357"
"(785) 746-","Landline","Franklin","Williamsburg","KS","Kansas","66095","Central / Mountain","38.47913","-95.406321"
"(785) 244-","Landline","Marshall","Home","KS","Kansas","66438","Central / Mountain","39.848788","-96.506345"
"(785) 320-","Landline","Riley","Manhattan","KS","Kansas","66502","Central / Mountain","39.209375","-96.564589"
"(620) 496-","Landline","Allen","La Harpe","KS","Kansas","66751","Central / Mountain","37.914528","-95.255758"
"(785) 697-","Landline","Smith","Gaylord","KS","Kansas","67638","Central / Mountain","39.64705","-98.846513"
"(620) 908-","Landline","Montgomery","Caney","KS","Kansas","67333","Central / Mountain","37.048046","-95.884949"
"(785) 264-","Landline","Phillips","Agra","KS","Kansas","67621","Central / Mountain","39.760857","-99.119565"
"(620) 463-","Landline","Harvey","Burrton","KS","Kansas","67020","Central / Mountain","38.021434","-97.537188"
"(785) 233-","Landline","Shawnee","Topeka","KS","Kansas","66616","Central / Mountain","39.065477","-95.626357"
"(785) 453-","Landline","Franklin","Pomona","KS","Kansas","66076","Central / Mountain","38.61504","-95.3418"
"(620) 716-","Landline","Wilson","Neodesha","KS","Kansas","66757","Central / Mountain","37.56084","-95.668445"
"(913) 938-","Landline","Johnson","Gardner","KS","Kansas","66030","Central","38.814998","-94.94139"
"(316) 618-","Landline","Sedgwick","Wichita","KS","Kansas","67206","Central","37.613954","-97.342752"
"(316) 977-","Landline","Sedgwick","Wichita","KS","Kansas","67206","Central","37.613954","-97.342752"
"(316) 334-","Cell Number","Sedgwick","Wichita","KS","Kansas","67206","Central","37.613954","-97.342752"
"(620) 868-","Cell Number","Barton","Great Bend","KS","Kansas","67530","Central / Mountain","38.393567","-98.775074"
"(785) 538-","Landline","Rawlins","Mc Donald","KS","Kansas","67745","Central / Mountain","39.785619","-101.370071"
"(620) 884-","Landline","Coffey","Le Roy","KS","Kansas","66857","Central / Mountain","38.11486","-95.685599"
"(785) 420-","Unknown","Ellsworth","Wilson","KS","Kansas","67490","Central / Mountain","38.784047","-98.271846"
"(620) 747-","Cell Number","Mcpherson","Moundridge","KS","Kansas","67107","Central / Mountain","38.217149","-97.523327"
"(620) 323-","Unknown","Marion","Lincolnville","KS","Kansas","66858","Central / Mountain","38.493293","-96.96264"
"(785) 671-","Landline","Logan","Oakley","KS","Kansas","67748","Central / Mountain","38.945805","-100.970176"
"(785) 925-","Cell Number","Shawnee","Topeka","KS","Kansas","66616","Central / Mountain","39.065477","-95.626357"
"(913) 227-","Landline","Johnson","Lenexa","KS","Kansas","66215","Central","38.949007","-94.740503"
"(620) 825-","Landline","Barber","Kiowa","KS","Kansas","67070","Central / Mountain","37.138561","-98.503736"
"(620) 450-","Landline","Pratt","Pratt","KS","Kansas","67124","Central / Mountain","37.63857","-98.758512"
"(316) 882-","Landline","Sedgwick","Wichita","KS","Kansas","67206","Central","37.613954","-97.342752"
"(913) 492-","Landline","Johnson","Lenexa","KS","Kansas","66215","Central","38.949007","-94.740503"
"(785) 479-","Landline","Dickinson","Hope","KS","Kansas","67451","Central / Mountain","38.826292","-97.121874"
"(785) 878-","Landline","Franklin","Rantoul","KS","Kansas","66079","Central / Mountain","38.550188","-95.138748"
"(620) 655-","Cell Number","Seward","Liberal","KS","Kansas","67901","Central / Mountain","37.043237","-100.873809"
"(913) 426-","Cell Number","Atchison","Atchison","KS","Kansas","66002","Central","39.535948","-95.225098"
"(785) 209-","Cell Number","Geary","Junction City","KS","Kansas","66441","Central / Mountain","39.026465","-96.783359"
"(620) 563-","Landline","Meade","Plains","KS","Kansas","67869","Central / Mountain","37.2419","-100.435253"
"(785) 361-","Landline","Republic","Republic","KS","Kansas","66964","Central / Mountain","39.875728","-97.628516"
"(785) 258-","Landline","Dickinson","Herington","KS","Kansas","67449","Central / Mountain","38.792473","-96.993297"
"(913) 999-","Unknown","Wyandotte","Kansas City","KS","Kansas","66160","Central","39.096551","-94.749538"
"(620) 802-","Landline","Reno","Hutchinson","KS","Kansas","67501","Central / Mountain","37.954312","-97.88569"
"(620) 250-","Cell Number","Meade","Plains","KS","Kansas","67869","Central / Mountain","37.2419","-100.435253"
"(620) 653-","Landline","Barton","Hoisington","KS","Kansas","67544","Central / Mountain","38.478935","-98.756485"
"(620) 423-","Landline","Labette","Parsons","KS","Kansas","67357","Central / Mountain","37.217756","-95.266407"
"(913) 856-","Landline","Johnson","Gardner","KS","Kansas","66030","Central","38.814998","-94.94139"
"(785) 924-","Landline","Jackson","Circleville","KS","Kansas","66416","Central / Mountain","39.528134","-95.848729"
"(913) 209-","Cell Number","Wyandotte","Kansas City","KS","Kansas","66160","Central","39.096551","-94.749538"
"(316) 269-","Landline","Sedgwick","Wichita","KS","Kansas","67206","Central","37.613954","-97.342752"
"(785) 372-","Landline","Ness","Bazine","KS","Kansas","67516","Central / Mountain","38.445565","-99.692538"
"(785) 844-","Cell Number","Pottawatomie","Wamego","KS","Kansas","66547","Central / Mountain","39.298416","-96.341383"
"(620) 635-","Landline","Clark","Ashland","KS","Kansas","67831","Central / Mountain","37.171946","-99.769576"
"(913) 231-","Cell Number","Wyandotte","Kansas City","KS","Kansas","66160","Central","39.096551","-94.749538"
"(620) 467-","Landline","Cowley","Cambridge","KS","Kansas","67023","Central / Mountain","37.309434","-96.717001"
"(785) 587-","Landline","Riley","Manhattan","KS","Kansas","66502","Central / Mountain","39.209375","-96.564589"
"(620) 296-","Landline","Barber","Hardtner","KS","Kansas","67057","Central / Mountain","37.076952","-98.751916"
"(620) 887-","Landline","Barber","Medicine Lodge","KS","Kansas","67104","Central / Mountain","37.291739","-98.620996"
"(620) 673-","Landline","Montgomery","Havana","KS","Kansas","67347","Central / Mountain","37.092548","-95.94175"
"(785) 501-","Unknown","Shawnee","Topeka","KS","Kansas","66616","Central / Mountain","39.065477","-95.626357"
"(913) 643-","Landline","Johnson","Kansas City","KS","Kansas","66160","Central","39.096551","-94.749538"
"(316) 831-","Landline","Sedgwick","Wichita","KS","Kansas","67206","Central","37.613954","-97.342752"
"(785) 883-","Landline","Franklin","Wellsville","KS","Kansas","66092","Central / Mountain","38.642244","-95.149986"
"(785) 386-","Landline","Sheridan","Selden","KS","Kansas","67757","Central / Mountain","39.541125","-100.567722"
"(620) 213-","Cell Number","Barber","Medicine Lodge","KS","Kansas","67104","Central / Mountain","37.291739","-98.620996"
"(620) 727-","Landline","Reno","Hutchinson","KS","Kansas","67501","Central / Mountain","37.954312","-97.88569"
"(620) 778-","Cell Number","Labette","Parsons","KS","Kansas","67357","Central / Mountain","37.217756","-95.266407"
"(785) 514-","Unknown","Rush","La Crosse","KS","Kansas","67548","Central / Mountain","38.531867","-99.300546"
"(785) 421-","Landline","Graham","Hill City","KS","Kansas","67642","Central / Mountain","39.366018","-99.842382"
"(316) 788-","Landline","Sedgwick","Derby","KS","Kansas","67037","Central","37.566129","-97.228475"
"(913) 662-","Landline","Leavenworth","Basehor","KS","Kansas","66007","Central","39.133448","-94.947234"
"(913) 557-","Landline","Miami","Paola","KS","Kansas","66071","Central","38.577932","-94.880328"
"(316) 266-","Landline","Sedgwick","Wichita","KS","Kansas","67206","Central","37.613954","-97.342752"
"(620) 409-","Unknown","Barber","Kiowa","KS","Kansas","67070","Central / Mountain","37.138561","-98.503736"
"(620) 967-","Landline","Sumner","Caldwell","KS","Kansas","67022","Central / Mountain","37.133257","-97.601664"
"(316) 708-","Cell Number","Sedgwick","Wichita","KS","Kansas","67206","Central","37.613954","-97.342752"
"(913) 609-","Unknown","Wyandotte","Kansas City","KS","Kansas","66160","Central","39.096551","-94.749538"
"(785) 230-","Cell Number","Shawnee","Topeka","KS","Kansas","66616","Central / Mountain","39.065477","-95.626357"
"(316) 759-","Landline","Sedgwick","Wichita","KS","Kansas","67206","Central","37.613954","-97.342752"
"(620) 248-","Landline","Barber","Sun City","KS","Kansas","67143","Central / Mountain","37.357385","-98.91273"
"(620) 834-","Landline","Mcpherson","Mcpherson","KS","Kansas","67460","Central / Mountain","38.376302","-97.670184"
"(785) 558-","Landline","Riley","Manhattan","KS","Kansas","66502","Central / Mountain","39.209375","-96.564589"
"(785) 839-","Landline","Rooks","Damar","KS","Kansas","67632","Central / Mountain","39.334908","-99.39947"
"(620) 433-","Landline","Neosho","Chanute","KS","Kansas","66720","Central / Mountain","37.609218","-95.416422"
"(785) 295-","Landline","Shawnee","Topeka","KS","Kansas","66616","Central / Mountain","39.065477","-95.626357"
"(620) 292-","Cell Number","Barton","Hoisington","KS","Kansas","67544","Central / Mountain","38.478935","-98.756485"
"(785) 691-","Landline","Douglas","Lawrence","KS","Kansas","66047","Central / Mountain","38.88437","-95.338066"
"(785) 846-","Landline","Logan","Winona","KS","Kansas","67764","Central / Mountain","38.921702","-101.094305"
"(316) 577-","Cell Number","Sedgwick","Wichita","KS","Kansas","67206","Central","37.613954","-97.342752"
"(913) 772-","Landline","Leavenworth","Leavenworth","KS","Kansas","66048","Central","39.279656","-94.982216"
"(785) 447-","Cell Number","Clay","Clay Center","KS","Kansas","67432","Central / Mountain","39.349452","-97.164849"
"(785) 784-","Landline","Geary","Junction City","KS","Kansas","66441","Central / Mountain","39.026465","-96.783359"
"(913) 725-","Landline","Wyandotte","Kansas City","KS","Kansas","66160","Central","39.096551","-94.749538"
"(785) 412-","Unknown","Mitchell","Glen Elder","KS","Kansas","67446","Central / Mountain","39.501034","-98.302257"
"(620) 475-","Landline","Lyon","Olpe","KS","Kansas","66865","Central / Mountain","38.354006","-96.1903"
"(316) 200-","Landline","Butler","Augusta","KS","Kansas","67010","Central","37.674347","-96.970128"
"(620) 294-","Landline","Barber","Sharon","KS","Kansas","67138","Central / Mountain","37.224446","-98.42233"
"(785) 770-","Landline","Riley","Manhattan","KS","Kansas","66502","Central / Mountain","39.209375","-96.564589"
"(620) 300-","Unknown","Barton","Great Bend","KS","Kansas","67530","Central / Mountain","38.393567","-98.775074"
"(785) 410-","Cell Number","Riley","Manhattan","KS","Kansas","66502","Central / Mountain","39.209375","-96.564589"
"(785) 840-","Landline","Douglas","Lawrence","KS","Kansas","66047","Central / Mountain","38.88437","-95.338066"
"(620) 699-","Landline","Lyon","Emporia","KS","Kansas","66801","Central / Mountain","38.434153","-96.152766"
"(913) 904-","Landline","Wyandotte","Kansas City","KS","Kansas","66160","Central","39.096551","-94.749538"
"(913) 800-","Unknown","Wyandotte","Kansas City","KS","Kansas","66160","Central","39.096551","-94.749538"
"(785) 500-","Unknown","Mitchell","Cawker City","KS","Kansas","67430","Central / Mountain","39.451105","-98.187156"
