"Prefix","Usage","County","City","ShortState","LongState","Zip","Timezone","Latitude","Longitude"
"(301) 408-","Landline","Prince George's","Hyattsville","MD","Maryland","20788","Eastern","38.969434","-76.950913"
"(410) 979-","Cell Number","Baltimore","Catonsville","MD","Maryland","21228","Eastern","39.274156","-76.631074"
"(301) 971-","Landline","Prince George's","Oxon Hill","MD","Maryland","20750","Eastern","38.833563","-76.877743"
"(410) 322-","Cell Number","Harford","Bel Air","MD","Maryland","21014","Eastern","39.547557","-76.321984"
"(301) 652-","Landline","Montgomery","Chevy Chase","MD","Maryland","20815","Eastern","38.983759","-77.079449"
"(410) 872-","Landline","Howard","Columbia","MD","Maryland","21045","Eastern","39.207806","-76.825475"
"(410) 765-","Landline","Anne Arundel","Linthicum Heights","MD","Maryland","21090","Eastern","39.068309","-76.631743"
"(410) 443-","Landline","Talbot","Easton","MD","Maryland","21601","Eastern","38.800714","-76.051486"
"(301) 439-","Landline","Prince George's","Hyattsville","MD","Maryland","20788","Eastern","38.969434","-76.950913"
"(410) 662-","Landline","Baltimore City","Baltimore","MD","Maryland","21213","Eastern","39.306606","-76.603338"
"(301) 355-","Landline","Montgomery","Gaithersburg","MD","Maryland","20886","Eastern","39.175703","-77.18725"
"(410) 695-","Landline","Anne Arundel","Odenton","MD","Maryland","21113","Eastern","38.975412","-76.586886"
"(410) 476-","Landline","Talbot","Trappe","MD","Maryland","21673","Eastern","38.664452","-76.058006"
"(410) 379-","Landline","Howard","Elkridge","MD","Maryland","21075","Eastern","39.205756","-76.753093"
"(301) 984-","Landline","Montgomery","Rockville","MD","Maryland","20857","Eastern","39.143979","-77.207617"
"(301) 543-","Landline","Prince George's","Laurel","MD","Maryland","20709","Eastern","38.833563","-76.877743"
"(301) 255-","Landline","Montgomery","Rockville","MD","Maryland","20857","Eastern","39.143979","-77.207617"
"(410) 805-","Cell Number","Baltimore","Towson","MD","Maryland","21204","Eastern","39.407156","-76.60379"
"(410) 608-","Cell Number","Baltimore","Catonsville","MD","Maryland","21228","Eastern","39.274156","-76.631074"
"(301) 345-","Landline","Prince George's","Greenbelt","MD","Maryland","20768","Eastern","38.833563","-76.877743"
"(301) 941-","Landline","Montgomery","Chevy Chase","MD","Maryland","20815","Eastern","38.983759","-77.079449"
"(301) 617-","Landline","Prince George's","Laurel","MD","Maryland","20709","Eastern","38.833563","-76.877743"
"(410) 208-","Landline","Worcester","Berlin","MD","Maryland","21811","Eastern","38.310447","-75.320901"
"(301) 969-","Unknown","Frederick","Brunswick","MD","Maryland","21716","Eastern","39.317945","-77.624701"
"(410) 755-","Landline","Cecil","Warwick","MD","Maryland","21912","Eastern","39.533058","-75.915203"
"(301) 840-","Landline","Montgomery","Gaithersburg","MD","Maryland","20886","Eastern","39.175703","-77.18725"
"(410) 261-","Landline","Baltimore City","Baltimore","MD","Maryland","21213","Eastern","39.306606","-76.603338"
"(410) 953-","Landline","Howard","Columbia","MD","Maryland","21045","Eastern","39.207806","-76.825475"
"(301) 514-","Cell Number","Frederick","Frederick","MD","Maryland","21709","Eastern","39.469961","-77.392139"
"(410) 948-","Cell Number","Baltimore","Catonsville","MD","Maryland","21228","Eastern","39.274156","-76.631074"
"(301) 470-","Landline","Prince George's","Laurel","MD","Maryland","20709","Eastern","38.833563","-76.877743"
"(410) 991-","Cell Number","Anne Arundel","Annapolis","MD","Maryland","21412","Eastern","38.974203","-76.594942"
"(410) 290-","Landline","Howard","Columbia","MD","Maryland","21045","Eastern","39.207806","-76.825475"
"(301) 879-","Landline","Montgomery","Silver Spring","MD","Maryland","20913","Eastern","38.833563","-76.877743"
"(410) 309-","Landline","Howard","Columbia","MD","Maryland","21045","Eastern","39.207806","-76.825475"
"(301) 344-","Landline","Prince George's","Greenbelt","MD","Maryland","20768","Eastern","38.833563","-76.877743"
"(410) 851-","Cell Number","Baltimore","Towson","MD","Maryland","21204","Eastern","39.407156","-76.60379"
"(301) 502-","Cell Number","Montgomery","Silver Spring","MD","Maryland","20913","Eastern","38.833563","-76.877743"
"(410) 516-","Landline","Baltimore City","Baltimore","MD","Maryland","21213","Eastern","39.306606","-76.603338"
"(410) 525-","Landline","Baltimore City","Baltimore","MD","Maryland","21213","Eastern","39.306606","-76.603338"
"(410) 618-","Cell Number","Wicomico","Salisbury","MD","Maryland","21803","Eastern","38.388434","-75.6276"
"(410) 692-","Landline","Harford","Jarrettsville","MD","Maryland","21084","Eastern","39.552706","-76.419734"
"(410) 982-","Landline","Baltimore City","Baltimore","MD","Maryland","21213","Eastern","39.306606","-76.603338"
"(301) 722-","Landline","Allegany","Cumberland","MD","Maryland","21503","Eastern","39.580691","-78.690593"
"(301) 572-","Landline","Prince George's","Beltsville","MD","Maryland","20704","Eastern","38.833563","-76.877743"
"(410) 526-","Landline","Baltimore","Reisterstown","MD","Maryland","21136","Eastern","39.487615","-76.796347"
"(410) 354-","Landline","Baltimore City","Baltimore","MD","Maryland","21213","Eastern","39.306606","-76.603338"
"(410) 801-","Cell Number","Baltimore City","Baltimore","MD","Maryland","21213","Eastern","39.306606","-76.603338"
"(410) 568-","Landline","Baltimore City","Baltimore","MD","Maryland","21213","Eastern","39.306606","-76.603338"
"(301) 686-","Landline","Prince George's","Oxon Hill","MD","Maryland","20750","Eastern","38.833563","-76.877743"
"(301) 339-","Landline","Montgomery","Rockville","MD","Maryland","20857","Eastern","39.143979","-77.207617"
"(301) 960-","Landline","Montgomery","Silver Spring","MD","Maryland","20913","Eastern","38.833563","-76.877743"
"(410) 985-","Landline","Howard","Jessup","MD","Maryland","20794","Eastern","39.155266","-76.813394"
"(410) 638-","Landline","Harford","Bel Air","MD","Maryland","21014","Eastern","39.547557","-76.321984"
"(410) 312-","Landline","Howard","Columbia","MD","Maryland","21045","Eastern","39.207806","-76.825475"
"(410) 664-","Landline","Baltimore City","Baltimore","MD","Maryland","21213","Eastern","39.306606","-76.603338"
"(410) 709-","Landline","Baltimore City","Baltimore","MD","Maryland","21213","Eastern","39.306606","-76.603338"
"(301) 464-","Landline","Prince George's","Bowie","MD","Maryland","20715","Eastern","38.982612","-76.74379"
"(410) 690-","Landline","Talbot","Wye Mills","MD","Maryland","21679","Eastern","38.91506","-76.073905"
"(410) 317-","Landline","Baltimore City","Baltimore","MD","Maryland","21213","Eastern","39.306606","-76.603338"
"(410) 344-","Landline","Baltimore","White Marsh","MD","Maryland","21162","Eastern","39.389457","-76.411976"
"(301) 343-","Cell Number","Prince George's","Capitol Heights","MD","Maryland","20790","Eastern","38.833563","-76.877743"
"(301) 914-","Cell Number","Prince George's","Greenbelt","MD","Maryland","20768","Eastern","38.833563","-76.877743"
"(410) 440-","Cell Number","Baltimore","Catonsville","MD","Maryland","21228","Eastern","39.274156","-76.631074"
"(410) 757-","Landline","Anne Arundel","Annapolis","MD","Maryland","21412","Eastern","38.974203","-76.594942"
"(410) 289-","Landline","Worcester","Ocean City","MD","Maryland","21843","Eastern","38.22309","-75.324057"
"(410) 259-","Cell Number","Carroll","Westminster","MD","Maryland","21158","Eastern","39.606981","-77.029403"
"(410) 876-","Landline","Carroll","Westminster","MD","Maryland","21158","Eastern","39.606981","-77.029403"
"(410) 517-","Landline","Baltimore","Reisterstown","MD","Maryland","21136","Eastern","39.487615","-76.796347"
"(410) 556-","Landline","Queen Anne's","Church Hill","MD","Maryland","21623","Eastern","39.1305","-75.961404"
"(301) 708-","Cell Number","Prince George's","Greenbelt","MD","Maryland","20768","Eastern","38.833563","-76.877743"
"(301) 957-","Landline","Prince George's","Laurel","MD","Maryland","20709","Eastern","38.833563","-76.877743"
"(410) 779-","Landline","Baltimore City","Baltimore","MD","Maryland","21213","Eastern","39.306606","-76.603338"
"(301) 376-","Cell Number","Prince George's","Laurel","MD","Maryland","20709","Eastern","38.833563","-76.877743"
"(301) 591-","Landline","Montgomery","Gaithersburg","MD","Maryland","20886","Eastern","39.175703","-77.18725"
"(410) 897-","Landline","Anne Arundel","Annapolis","MD","Maryland","21412","Eastern","38.974203","-76.594942"
"(410) 333-","Landline","Baltimore City","Baltimore","MD","Maryland","21213","Eastern","39.306606","-76.603338"
"(301) 896-","Landline","Montgomery","Rockville","MD","Maryland","20857","Eastern","39.143979","-77.207617"
"(301) 463-","Landline","Allegany","Lonaconing","MD","Maryland","21539","Eastern","39.571706","-78.934521"
"(410) 342-","Landline","Baltimore City","Baltimore","MD","Maryland","21213","Eastern","39.306606","-76.603338"
"(410) 353-","Cell Number","Anne Arundel","Annapolis","MD","Maryland","21412","Eastern","38.974203","-76.594942"
"(301) 643-","Cell Number","Charles","Waldorf","MD","Maryland","20603","Eastern","38.52115","-77.062012"
"(410) 468-","Landline","Baltimore City","Baltimore","MD","Maryland","21213","Eastern","39.306606","-76.603338"
"(301) 647-","Cell Number","Prince George's","Laurel","MD","Maryland","20709","Eastern","38.833563","-76.877743"
"(410) 781-","Landline","Carroll","Sykesville","MD","Maryland","21784","Eastern","39.45672","-76.969601"
"(410) 984-","Cell Number","Carroll","Sykesville","MD","Maryland","21784","Eastern","39.45672","-76.969601"
"(301) 404-","Cell Number","Prince George's","Beltsville","MD","Maryland","20704","Eastern","38.833563","-76.877743"
"(410) 574-","Landline","Baltimore","Essex","MD","Maryland","21221","Eastern","39.296007","-76.559787"
"(301) 963-","Landline","Montgomery","Gaithersburg","MD","Maryland","20886","Eastern","39.175703","-77.18725"
"(301) 621-","Landline","Prince George's","Glenn Dale","MD","Maryland","20769","Eastern","38.98346","-76.811392"
"(301) 479-","Landline","Prince George's","College Park","MD","Maryland","20742","Eastern","38.833563","-76.877743"
"(301) 346-","Cell Number","Montgomery","Silver Spring","MD","Maryland","20913","Eastern","38.833563","-76.877743"
"(301) 575-","Landline","Howard","Laurel","MD","Maryland","20709","Eastern","38.833563","-76.877743"
"(410) 697-","Landline","Anne Arundel","Millersville","MD","Maryland","21108","Eastern","38.986961","-76.582479"
"(410) 829-","Cell Number","Talbot","Easton","MD","Maryland","21601","Eastern","38.800714","-76.051486"
"(410) 557-","Landline","Harford","Jarrettsville","MD","Maryland","21084","Eastern","39.552706","-76.419734"
"(410) 938-","Landline","Baltimore","Towson","MD","Maryland","21204","Eastern","39.407156","-76.60379"
"(301) 894-","Landline","Prince George's","Temple Hills","MD","Maryland","20748","Eastern","38.817263","-76.935795"
"(301) 566-","Cell Number","Prince George's","Beltsville","MD","Maryland","20704","Eastern","38.833563","-76.877743"
"(301) 309-","Landline","Montgomery","Rockville","MD","Maryland","20857","Eastern","39.143979","-77.207617"
"(301) 972-","Landline","Montgomery","Gaithersburg","MD","Maryland","20886","Eastern","39.175703","-77.18725"
"(410) 406-","Landline","Baltimore City","Baltimore","MD","Maryland","21213","Eastern","39.306606","-76.603338"
"(301) 306-","Landline","Prince George's","Lanham","MD","Maryland","20703","Eastern","38.833563","-76.877743"
"(410) 887-","Landline","Baltimore","Towson","MD","Maryland","21204","Eastern","39.407156","-76.60379"
"(301) 739-","Landline","Washington","Hagerstown","MD","Maryland","21749","Eastern","39.520696","-77.916196"
"(301) 948-","Landline","Montgomery","Gaithersburg","MD","Maryland","20886","Eastern","39.175703","-77.18725"
"(410) 461-","Landline","Howard","Ellicott City","MD","Maryland","21042","Eastern","39.261897","-76.897247"
"(410) 751-","Landline","Carroll","Westminster","MD","Maryland","21158","Eastern","39.606981","-77.029403"
"(301) 766-","Landline","Washington","Hagerstown","MD","Maryland","21749","Eastern","39.520696","-77.916196"
"(410) 488-","Landline","Baltimore City","Baltimore","MD","Maryland","21213","Eastern","39.306606","-76.603338"
"(301) 772-","Landline","Prince George's","Hyattsville","MD","Maryland","20788","Eastern","38.969434","-76.950913"
"(301) 938-","Cell Number","Montgomery","Silver Spring","MD","Maryland","20913","Eastern","38.833563","-76.877743"
"(301) 490-","Landline","Prince George's","Laurel","MD","Maryland","20709","Eastern","38.833563","-76.877743"
"(301) 259-","Landline","Charles","Issue","MD","Maryland","20645","Eastern","38.298477","-76.88491"
"(410) 224-","Landline","Anne Arundel","Annapolis","MD","Maryland","21412","Eastern","38.974203","-76.594942"
"(410) 699-","Cell Number","Kent","Chestertown","MD","Maryland","21690","Eastern","39.034637","-76.092127"
"(410) 777-","Landline","Anne Arundel","Severna Park","MD","Maryland","21146","Eastern","38.951199","-76.603722"
"(301) 558-","Cell Number","Prince George's","College Park","MD","Maryland","20742","Eastern","38.833563","-76.877743"
"(301) 579-","Landline","Prince George's","Brandywine","MD","Maryland","20613","Eastern","38.658807","-76.824293"
"(301) 561-","Landline","Montgomery","Silver Spring","MD","Maryland","20913","Eastern","38.833563","-76.877743"
"(301) 968-","Landline","Montgomery","Bethesda","MD","Maryland","20894","Eastern","39.143979","-77.207617"
"(301) 825-","Landline","Montgomery","Rockville","MD","Maryland","20857","Eastern","39.143979","-77.207617"
"(301) 506-","Cell Number","Prince George's","Greenbelt","MD","Maryland","20768","Eastern","38.833563","-76.877743"
"(410) 684-","Landline","Anne Arundel","Linthicum Heights","MD","Maryland","21090","Eastern","39.068309","-76.631743"
"(301) 776-","Landline","Prince George's","Laurel","MD","Maryland","20709","Eastern","38.833563","-76.877743"
"(410) 272-","Landline","Harford","Aberdeen","MD","Maryland","21001","Eastern","39.499909","-76.231177"
"(301) 231-","Landline","Montgomery","Rockville","MD","Maryland","20857","Eastern","39.143979","-77.207617"
"(301) 516-","Landline","Prince George's","Suitland","MD","Maryland","20752","Eastern","38.833563","-76.877743"
"(301) 541-","Landline","Prince George's","Mount Rainier","MD","Maryland","20712","Eastern","38.94266","-76.967057"
"(301) 979-","Landline","Montgomery","Gaithersburg","MD","Maryland","20886","Eastern","39.175703","-77.18725"
"(410) 291-","Landline","Baltimore City","Baltimore","MD","Maryland","21213","Eastern","39.306606","-76.603338"
"(410) 524-","Landline","Worcester","Ocean City","MD","Maryland","21843","Eastern","38.22309","-75.324057"
"(410) 907-","Landline","Baltimore City","Baltimore","MD","Maryland","21213","Eastern","39.306606","-76.603338"
"(301) 930-","Cell Number","Montgomery","Silver Spring","MD","Maryland","20913","Eastern","38.833563","-76.877743"
"(301) 519-","Landline","Montgomery","Gaithersburg","MD","Maryland","20886","Eastern","39.175703","-77.18725"
"(410) 520-","Landline","Worcester","Ocean City","MD","Maryland","21843","Eastern","38.22309","-75.324057"
"(301) 834-","Landline","Frederick","Brunswick","MD","Maryland","21716","Eastern","39.317945","-77.624701"
"(301) 943-","Cell Number","Montgomery","Silver Spring","MD","Maryland","20913","Eastern","38.833563","-76.877743"
"(301) 317-","Landline","Prince George's","Laurel","MD","Maryland","20709","Eastern","38.833563","-76.877743"
"(410) 444-","Landline","Baltimore City","Baltimore","MD","Maryland","21213","Eastern","39.306606","-76.603338"
"(301) 796-","Landline","Prince George's","College Park","MD","Maryland","20742","Eastern","38.833563","-76.877743"
"(410) 747-","Landline","Baltimore","Catonsville","MD","Maryland","21228","Eastern","39.274156","-76.631074"
"(301) 869-","Landline","Montgomery","Gaithersburg","MD","Maryland","20886","Eastern","39.175703","-77.18725"
"(301) 893-","Landline","Charles","Waldorf","MD","Maryland","20603","Eastern","38.52115","-77.062012"
"(301) 280-","Landline","Montgomery","Chevy Chase","MD","Maryland","20815","Eastern","38.983759","-77.079449"
"(410) 207-","Cell Number","Baltimore City","Baltimore","MD","Maryland","21213","Eastern","39.306606","-76.603338"
"(301) 794-","Landline","Prince George's","Lanham","MD","Maryland","20703","Eastern","38.833563","-76.877743"
"(410) 602-","Landline","Baltimore","Pikesville","MD","Maryland","21208","Eastern","39.385156","-76.727036"
"(301) 525-","Landline","Montgomery","Gaithersburg","MD","Maryland","20886","Eastern","39.175703","-77.18725"
"(410) 677-","Landline","Wicomico","Salisbury","MD","Maryland","21803","Eastern","38.388434","-75.6276"
"(410) 780-","Landline","Baltimore","Essex","MD","Maryland","21221","Eastern","39.296007","-76.559787"
"(301) 932-","Landline","Charles","La Plata","MD","Maryland","20646","Eastern","38.513875","-77.01034"
"(410) 389-","Cell Number","Baltimore City","Baltimore","MD","Maryland","21213","Eastern","39.306606","-76.603338"
"(301) 649-","Landline","Montgomery","Silver Spring","MD","Maryland","20913","Eastern","38.833563","-76.877743"
"(410) 739-","Cell Number","Queen Anne's","Centreville","MD","Maryland","21617","Eastern","39.084003","-76.091375"
"(301) 663-","Landline","Frederick","Frederick","MD","Maryland","21709","Eastern","39.469961","-77.392139"
"(410) 576-","Landline","Baltimore City","Baltimore","MD","Maryland","21213","Eastern","39.306606","-76.603338"
"(410) 590-","Landline","Anne Arundel","Glen Burnie","MD","Maryland","21060","Eastern","39.170158","-76.579836"
"(301) 424-","Landline","Montgomery","Rockville","MD","Maryland","20857","Eastern","39.143979","-77.207617"
"(301) 341-","Landline","Prince George's","Hyattsville","MD","Maryland","20788","Eastern","38.969434","-76.950913"
"(410) 649-","Landline","Baltimore City","Baltimore","MD","Maryland","21213","Eastern","39.306606","-76.603338"
"(410) 848-","Landline","Carroll","Westminster","MD","Maryland","21158","Eastern","39.606981","-77.029403"
"(301) 515-","Landline","Montgomery","Gaithersburg","MD","Maryland","20886","Eastern","39.175703","-77.18725"
"(301) 705-","Landline","Charles","Waldorf","MD","Maryland","20603","Eastern","38.52115","-77.062012"
"(301) 265-","Landline","Prince George's","Fort Washington","MD","Maryland","20749","Eastern","38.833563","-76.877743"
"(301) 312-","Cell Number","Montgomery","Oxon Hill","MD","Maryland","20750","Eastern","38.833563","-76.877743"
"(301) 521-","Landline","Prince George's","Oxon Hill","MD","Maryland","20750","Eastern","38.833563","-76.877743"
"(410) 551-","Landline","Anne Arundel","Severn","MD","Maryland","21144","Eastern","38.983971","-76.623121"
"(410) 430-","Cell Number","Wicomico","Salisbury","MD","Maryland","21803","Eastern","38.388434","-75.6276"
"(410) 336-","Cell Number","Baltimore City","Baltimore","MD","Maryland","21213","Eastern","39.306606","-76.603338"
"(410) 296-","Landline","Baltimore","Towson","MD","Maryland","21204","Eastern","39.407156","-76.60379"
"(410) 696-","Landline","Baltimore City","Baltimore","MD","Maryland","21213","Eastern","39.306606","-76.603338"
"(301) 628-","Landline","Montgomery","Mount Rainier","MD","Maryland","20712","Eastern","38.94266","-76.967057"
"(301) 749-","Landline","Prince George's","Oxon Hill","MD","Maryland","20750","Eastern","38.833563","-76.877743"
"(410) 279-","Cell Number","Anne Arundel","Annapolis","MD","Maryland","21412","Eastern","38.974203","-76.594942"
"(301) 261-","Landline","Prince George's","Glenn Dale","MD","Maryland","20769","Eastern","38.98346","-76.811392"
"(301) 750-","Landline","Garrett","Friendsville","MD","Maryland","21531","Eastern","39.637098","-79.257117"
"(301) 335-","Cell Number","Montgomery","Bethesda","MD","Maryland","20894","Eastern","39.143979","-77.207617"
"(301) 620-","Landline","Frederick","Frederick","MD","Maryland","21709","Eastern","39.469961","-77.392139"
"(410) 643-","Landline","Queen Anne's","Stevensville","MD","Maryland","21666","Eastern","39.012075","-76.11568"
"(410) 417-","Cell Number","Howard","Edgewood","MD","Maryland","21040","Eastern","39.434799","-76.293579"
"(301) 887-","Landline","Prince George's","Hyattsville","MD","Maryland","20788","Eastern","38.969434","-76.950913"
"(410) 868-","Cell Number","Baltimore","Catonsville","MD","Maryland","21228","Eastern","39.274156","-76.631074"
"(410) 833-","Landline","Baltimore","Reisterstown","MD","Maryland","21136","Eastern","39.487615","-76.796347"
"(301) 622-","Landline","Montgomery","Silver Spring","MD","Maryland","20913","Eastern","38.833563","-76.877743"
"(301) 942-","Landline","Montgomery","Kensington","MD","Maryland","20895","Eastern","39.09538","-77.111555"
"(410) 456-","Cell Number","Baltimore City","Baltimore","MD","Maryland","21213","Eastern","39.306606","-76.603338"
"(301) 907-","Landline","Montgomery","Chevy Chase","MD","Maryland","20815","Eastern","38.983759","-77.079449"
"(410) 675-","Landline","Baltimore City","Baltimore","MD","Maryland","21213","Eastern","39.306606","-76.603338"
"(301) 416-","Landline","Washington","Williamsport","MD","Maryland","21795","Eastern","39.589123","-77.826258"
"(301) 419-","Landline","Prince George's","Beltsville","MD","Maryland","20704","Eastern","38.833563","-76.877743"
"(301) 465-","Cell Number","Frederick","Myersville","MD","Maryland","21773","Eastern","39.550036","-77.556275"
"(301) 379-","Cell Number","Prince George's","Beltsville","MD","Maryland","20704","Eastern","38.833563","-76.877743"
"(301) 200-","Unknown","Charles","Indian Head","MD","Maryland","20640","Eastern","38.453999","-77.052819"
"(410) 368-","Landline","Baltimore City","Baltimore","MD","Maryland","21213","Eastern","39.306606","-76.603338"
"(301) 277-","Landline","Prince George's","Hyattsville","MD","Maryland","20788","Eastern","38.969434","-76.950913"
"(301) 967-","Landline","Prince George's","Suitland","MD","Maryland","20752","Eastern","38.833563","-76.877743"
"(410) 382-","Cell Number","Baltimore City","Baltimore","MD","Maryland","21213","Eastern","39.306606","-76.603338"
"(301) 366-","Landline","Montgomery","Gaithersburg","MD","Maryland","20886","Eastern","39.175703","-77.18725"
"(301) 856-","Landline","Prince George's","Clinton","MD","Maryland","20735","Eastern","38.739765","-76.912096"
"(301) 276-","Landline","Prince George's","Hyattsville","MD","Maryland","20788","Eastern","38.969434","-76.950913"
"(410) 673-","Landline","Caroline","Preston","MD","Maryland","21655","Eastern","38.752146","-75.90765"
"(301) 420-","Landline","Prince George's","Suitland","MD","Maryland","20752","Eastern","38.833563","-76.877743"
"(410) 425-","Landline","Somerset","Ewell","MD","Maryland","21824","Eastern","37.983912","-76.035623"
"(410) 840-","Landline","Carroll","Westminster","MD","Maryland","21158","Eastern","39.606981","-77.029403"
"(410) 559-","Landline","Baltimore City","Baltimore","MD","Maryland","21213","Eastern","39.306606","-76.603338"
"(410) 250-","Landline","Worcester","Ocean City","MD","Maryland","21843","Eastern","38.22309","-75.324057"
"(410) 270-","Cell Number","Wicomico","Salisbury","MD","Maryland","21803","Eastern","38.388434","-75.6276"
"(410) 285-","Landline","Baltimore","Dundalk","MD","Maryland","21222","Eastern","39.325991","-76.451733"
"(301) 733-","Landline","Washington","Hagerstown","MD","Maryland","21749","Eastern","39.520696","-77.916196"
"(410) 434-","Cell Number","Baltimore","Towson","MD","Maryland","21204","Eastern","39.407156","-76.60379"
"(410) 508-","Landline","Anne Arundel","Glen Burnie","MD","Maryland","21060","Eastern","39.170158","-76.579836"
"(410) 237-","Landline","Baltimore City","Baltimore","MD","Maryland","21213","Eastern","39.306606","-76.603338"
"(301) 781-","Landline","Allegany","Frostburg","MD","Maryland","21532","Eastern","39.64206","-78.912502"
"(410) 558-","Landline","Baltimore City","Baltimore","MD","Maryland","21213","Eastern","39.306606","-76.603338"
"(301) 496-","Landline","Montgomery","Bethesda","MD","Maryland","20894","Eastern","39.143979","-77.207617"
"(301) 363-","Unknown","Montgomery","Damascus","MD","Maryland","20872","Eastern","39.285477","-77.215203"
"(301) 746-","Landline","Garrett","Accident","MD","Maryland","21520","Eastern","39.58935","-79.230969"
"(410) 975-","Landline","Anne Arundel","Severna Park","MD","Maryland","21146","Eastern","38.951199","-76.603722"
"(301) 909-","Landline","Prince George's","Hyattsville","MD","Maryland","20788","Eastern","38.969434","-76.950913"
"(301) 570-","Landline","Montgomery","Ashton","MD","Maryland","20861","Eastern","39.151468","-76.994498"
"(301) 669-","Landline","Prince George's","Suitland","MD","Maryland","20752","Eastern","38.833563","-76.877743"
"(301) 901-","Landline","Prince George's","Greenbelt","MD","Maryland","20768","Eastern","38.833563","-76.877743"
"(301) 635-","Landline","Frederick","Myersville","MD","Maryland","21773","Eastern","39.550036","-77.556275"
"(301) 437-","Cell Number","Prince George's","Beltsville","MD","Maryland","20704","Eastern","38.833563","-76.877743"
"(301) 364-","Landline","Prince George's","Hyattsville","MD","Maryland","20788","Eastern","38.969434","-76.950913"
"(301) 249-","Landline","Prince George's","Bowie","MD","Maryland","20715","Eastern","38.982612","-76.74379"
"(301) 866-","Landline","Saint Mary's","Lexington Park","MD","Maryland","20653","Eastern","38.232909","-76.430853"
"(410) 704-","Landline","Baltimore City","Baltimore","MD","Maryland","21213","Eastern","39.306606","-76.603338"
"(410) 458-","Cell Number","Baltimore City","Baltimore","MD","Maryland","21213","Eastern","39.306606","-76.603338"
"(410) 236-","Cell Number","Baltimore","Towson","MD","Maryland","21204","Eastern","39.407156","-76.60379"
"(301) 745-","Landline","Washington","Hagerstown","MD","Maryland","21749","Eastern","39.520696","-77.916196"
"(301) 771-","Cell Number","Montgomery","Chevy Chase","MD","Maryland","20815","Eastern","38.983759","-77.079449"
"(301) 588-","Landline","Montgomery","Silver Spring","MD","Maryland","20913","Eastern","38.833563","-76.877743"
"(410) 842-","Landline","Baltimore City","Baltimore","MD","Maryland","21213","Eastern","39.306606","-76.603338"
"(410) 464-","Landline","Baltimore City","Baltimore","MD","Maryland","21213","Eastern","39.306606","-76.603338"
"(410) 366-","Landline","Baltimore City","Baltimore","MD","Maryland","21213","Eastern","39.306606","-76.603338"
"(301) 608-","Landline","Montgomery","Silver Spring","MD","Maryland","20913","Eastern","38.833563","-76.877743"
"(410) 495-","Landline","Calvert","Port Republic","MD","Maryland","20676","Eastern","38.560231","-76.531761"
"(301) 863-","Landline","Saint Mary's","Lexington Park","MD","Maryland","20653","Eastern","38.232909","-76.430853"
"(301) 224-","Cell Number","Montgomery","Chevy Chase","MD","Maryland","20815","Eastern","38.983759","-77.079449"
"(301) 448-","Landline","Montgomery","Silver Spring","MD","Maryland","20913","Eastern","38.833563","-76.877743"
"(301) 330-","Landline","Montgomery","Gaithersburg","MD","Maryland","20886","Eastern","39.175703","-77.18725"
"(301) 927-","Landline","Prince George's","Hyattsville","MD","Maryland","20788","Eastern","38.969434","-76.950913"
"(301) 394-","Landline","Prince George's","Beltsville","MD","Maryland","20704","Eastern","38.833563","-76.877743"
"(301) 377-","Landline","Prince George's","Laurel","MD","Maryland","20709","Eastern","38.833563","-76.877743"
"(410) 752-","Landline","Baltimore City","Baltimore","MD","Maryland","21213","Eastern","39.306606","-76.603338"
"(301) 484-","Landline","Prince George's","Oxon Hill","MD","Maryland","20750","Eastern","38.833563","-76.877743"
"(410) 428-","Cell Number","Baltimore","Catonsville","MD","Maryland","21228","Eastern","39.274156","-76.631074"
"(410) 941-","Landline","Harford","Jarrettsville","MD","Maryland","21084","Eastern","39.552706","-76.419734"
"(301) 389-","Landline","Prince George's","Laurel","MD","Maryland","20709","Eastern","38.833563","-76.877743"
"(410) 641-","Landline","Worcester","Berlin","MD","Maryland","21811","Eastern","38.310447","-75.320901"
"(301) 861-","Landline","Charles","Waldorf","MD","Maryland","20603","Eastern","38.52115","-77.062012"
"(410) 345-","Landline","Baltimore","Pikesville","MD","Maryland","21208","Eastern","39.385156","-76.727036"
"(410) 591-","Cell Number","Baltimore City","Baltimore","MD","Maryland","21213","Eastern","39.306606","-76.603338"
"(410) 553-","Landline","Anne Arundel","Glen Burnie","MD","Maryland","21060","Eastern","39.170158","-76.579836"
"(301) 243-","Unknown","Montgomery","Bethesda","MD","Maryland","20894","Eastern","39.143979","-77.207617"
"(301) 384-","Landline","Montgomery","Silver Spring","MD","Maryland","20913","Eastern","38.833563","-76.877743"
"(301) 865-","Landline","Frederick","New Market","MD","Maryland","21774","Eastern","39.432571","-77.220932"
"(301) 847-","Landline","Prince George's","Beltsville","MD","Maryland","20704","Eastern","38.833563","-76.877743"
"(410) 689-","Landline","Baltimore City","Baltimore","MD","Maryland","21213","Eastern","39.306606","-76.603338"
"(301) 234-","Landline","Prince George's","Fort Washington","MD","Maryland","20749","Eastern","38.833563","-76.877743"
"(410) 939-","Landline","Harford","Havre De Grace","MD","Maryland","21078","Eastern","39.560095","-76.15517"
"(410) 582-","Landline","Anne Arundel","Glen Burnie","MD","Maryland","21060","Eastern","39.170158","-76.579836"
"(410) 661-","Landline","Baltimore","Parkville","MD","Maryland","21234","Eastern","39.413106","-76.530044"
"(410) 806-","Cell Number","Baltimore","Towson","MD","Maryland","21204","Eastern","39.407156","-76.60379"
"(301) 886-","Landline","Prince George's","Laurel","MD","Maryland","20709","Eastern","38.833563","-76.877743"
"(410) 313-","Landline","Howard","Ellicott City","MD","Maryland","21042","Eastern","39.261897","-76.897247"
"(410) 610-","Cell Number","Calvert","Prince Frederick","MD","Maryland","20678","Eastern","38.511282","-76.528578"
"(301) 400-","Unknown","Montgomery","Rockville","MD","Maryland","20857","Eastern","39.143979","-77.207617"
"(410) 577-","Landline","Baltimore City","Baltimore","MD","Maryland","21213","Eastern","39.306606","-76.603338"
"(410) 351-","Cell Number","Baltimore City","Baltimore","MD","Maryland","21213","Eastern","39.306606","-76.603338"
"(410) 474-","Cell Number","Calvert","Prince Frederick","MD","Maryland","20678","Eastern","38.511282","-76.528578"
"(410) 647-","Landline","Anne Arundel","Severna Park","MD","Maryland","21146","Eastern","38.951199","-76.603722"
"(410) 475-","Cell Number","Baltimore","Towson","MD","Maryland","21204","Eastern","39.407156","-76.60379"
"(301) 779-","Landline","Prince George's","Hyattsville","MD","Maryland","20788","Eastern","38.969434","-76.950913"
"(301) 842-","Landline","Washington","Clear Spring","MD","Maryland","21722","Eastern","39.665751","-77.906389"
"(301) 569-","Landline","Montgomery","Gaithersburg","MD","Maryland","20886","Eastern","39.175703","-77.18725"
"(301) 258-","Landline","Montgomery","Gaithersburg","MD","Maryland","20886","Eastern","39.175703","-77.18725"
"(301) 244-","Landline","Montgomery","Rockville","MD","Maryland","20857","Eastern","39.143979","-77.207617"
"(301) 371-","Landline","Frederick","Middletown","MD","Maryland","21769","Eastern","39.53503","-77.485034"
"(301) 222-","Landline","Montgomery","Bethesda","MD","Maryland","20894","Eastern","39.143979","-77.207617"
"(301) 435-","Landline","Montgomery","Bethesda","MD","Maryland","20894","Eastern","39.143979","-77.207617"
"(410) 421-","Landline","Anne Arundel","Severna Park","MD","Maryland","21146","Eastern","38.951199","-76.603722"
"(301) 661-","Cell Number","Montgomery","Bethesda","MD","Maryland","20894","Eastern","39.143979","-77.207617"
"(410) 260-","Landline","Anne Arundel","Annapolis","MD","Maryland","21412","Eastern","38.974203","-76.594942"
"(410) 903-","Cell Number","Anne Arundel","Baltimore","MD","Maryland","21213","Eastern","39.306606","-76.603338"
"(301) 723-","Landline","Allegany","Cumberland","MD","Maryland","21503","Eastern","39.580691","-78.690593"
"(301) 743-","Landline","Charles","Indian Head","MD","Maryland","20640","Eastern","38.453999","-77.052819"
"(301) 257-","Cell Number","Prince George's","Beltsville","MD","Maryland","20704","Eastern","38.833563","-76.877743"
"(410) 534-","Landline","Baltimore City","Baltimore","MD","Maryland","21213","Eastern","39.306606","-76.603338"
"(301) 603-","Landline","Montgomery","Rockville","MD","Maryland","20857","Eastern","39.143979","-77.207617"
"(301) 489-","Landline","Prince George's","Greenbelt","MD","Maryland","20768","Eastern","38.833563","-76.877743"
"(301) 485-","Landline","Prince George's","Oxon Hill","MD","Maryland","20750","Eastern","38.833563","-76.877743"
"(410) 232-","Cell Number","Baltimore City","Baltimore","MD","Maryland","21213","Eastern","39.306606","-76.603338"
"(301) 875-","Landline","Prince George's","Laurel","MD","Maryland","20709","Eastern","38.833563","-76.877743"
"(301) 493-","Landline","Montgomery","Rockville","MD","Maryland","20857","Eastern","39.143979","-77.207617"
"(301) 449-","Landline","Prince George's","Fort Washington","MD","Maryland","20749","Eastern","38.833563","-76.877743"
"(301) 631-","Landline","Frederick","Frederick","MD","Maryland","21709","Eastern","39.469961","-77.392139"
"(410) 490-","Cell Number","Queen Anne's","Centreville","MD","Maryland","21617","Eastern","39.084003","-76.091375"
"(301) 889-","Landline","Prince George's","Glenn Dale","MD","Maryland","20769","Eastern","38.98346","-76.811392"
"(410) 415-","Landline","Baltimore","Pikesville","MD","Maryland","21208","Eastern","39.385156","-76.727036"
"(410) 588-","Landline","Harford","Bel Air","MD","Maryland","21014","Eastern","39.547557","-76.321984"
"(410) 603-","Cell Number","Wicomico","Salisbury","MD","Maryland","21803","Eastern","38.388434","-75.6276"
"(301) 618-","Landline","Prince George's","Hyattsville","MD","Maryland","20788","Eastern","38.969434","-76.950913"
"(301) 623-","Landline","Prince George's","Mount Rainier","MD","Maryland","20712","Eastern","38.94266","-76.967057"
"(410) 931-","Landline","Baltimore","Parkville","MD","Maryland","21234","Eastern","39.413106","-76.530044"
"(410) 906-","Landline","Baltimore City","Baltimore","MD","Maryland","21213","Eastern","39.306606","-76.603338"
"(410) 960-","Cell Number","Baltimore City","Baltimore","MD","Maryland","21213","Eastern","39.306606","-76.603338"
"(301) 685-","Landline","Montgomery","Damascus","MD","Maryland","20872","Eastern","39.285477","-77.215203"
"(301) 393-","Landline","Washington","Hagerstown","MD","Maryland","21749","Eastern","39.520696","-77.916196"
"(410) 497-","Landline","Baltimore City","Baltimore","MD","Maryland","21213","Eastern","39.306606","-76.603338"
"(301) 333-","Landline","Prince George's","Capitol Heights","MD","Maryland","20790","Eastern","38.833563","-76.877743"
"(301) 925-","Landline","Prince George's","Hyattsville","MD","Maryland","20788","Eastern","38.969434","-76.950913"
"(301) 590-","Landline","Montgomery","Gaithersburg","MD","Maryland","20886","Eastern","39.175703","-77.18725"
"(410) 622-","Cell Number","Wicomico","Salisbury","MD","Maryland","21803","Eastern","38.388434","-75.6276"
"(301) 819-","Cell Number","Montgomery","Silver Spring","MD","Maryland","20913","Eastern","38.833563","-76.877743"
"(410) 439-","Landline","Anne Arundel","Pasadena","MD","Maryland","21123","Eastern","38.974203","-76.594942"
"(410) 507-","Cell Number","Anne Arundel","Annapolis","MD","Maryland","21412","Eastern","38.974203","-76.594942"
"(410) 823-","Landline","Baltimore","Towson","MD","Maryland","21204","Eastern","39.407156","-76.60379"
"(410) 506-","Landline","Cecil","Elkton","MD","Maryland","21922","Eastern","39.593612","-75.947332"
"(410) 893-","Landline","Harford","Bel Air","MD","Maryland","21014","Eastern","39.547557","-76.321984"
"(410) 899-","Cell Number","Baltimore","Towson","MD","Maryland","21204","Eastern","39.407156","-76.60379"
"(301) 586-","Landline","Prince George's","Beltsville","MD","Maryland","20704","Eastern","38.833563","-76.877743"
"(410) 352-","Landline","Worcester","Bishopville","MD","Maryland","21813","Eastern","38.421121","-75.19596"
"(301) 939-","Landline","Prince George's","Laurel","MD","Maryland","20709","Eastern","38.833563","-76.877743"
"(410) 469-","Landline","Baltimore City","Baltimore","MD","Maryland","21213","Eastern","39.306606","-76.603338"
"(410) 674-","Landline","Anne Arundel","Odenton","MD","Maryland","21113","Eastern","38.975412","-76.586886"
"(410) 586-","Landline","Calvert","Port Republic","MD","Maryland","20676","Eastern","38.560231","-76.531761"
"(410) 644-","Landline","Baltimore City","Baltimore","MD","Maryland","21213","Eastern","39.306606","-76.603338"
"(301) 636-","Landline","Prince George's","Hyattsville","MD","Maryland","20788","Eastern","38.969434","-76.950913"
"(301) 334-","Landline","Garrett","Oakland","MD","Maryland","21550","Eastern","39.43392","-79.316683"
"(410) 612-","Landline","Harford","Edgewood","MD","Maryland","21040","Eastern","39.434799","-76.293579"
"(410) 640-","Cell Number","Baltimore City","Baltimore","MD","Maryland","21213","Eastern","39.306606","-76.603338"
"(301) 481-","Cell Number","Saint Mary's","Leonardtown","MD","Maryland","20650","Eastern","38.278757","-76.655917"
"(301) 270-","Landline","Prince George's","Hyattsville","MD","Maryland","20788","Eastern","38.969434","-76.950913"
"(410) 995-","Landline","Howard","Ellicott City","MD","Maryland","21042","Eastern","39.261897","-76.897247"
"(410) 459-","Cell Number","Harford","Fallston","MD","Maryland","21047","Eastern","39.531206","-76.439035"
"(410) 566-","Landline","Baltimore City","Baltimore","MD","Maryland","21213","Eastern","39.306606","-76.603338"
"(410) 225-","Landline","Baltimore City","Baltimore","MD","Maryland","21213","Eastern","39.306606","-76.603338"
"(301) 917-","Landline","Montgomery","Rockville","MD","Maryland","20857","Eastern","39.143979","-77.207617"
"(410) 846-","Landline","Baltimore City","Baltimore","MD","Maryland","21213","Eastern","39.306606","-76.603338"
"(410) 808-","Cell Number","Harford","Fallston","MD","Maryland","21047","Eastern","39.531206","-76.439035"
"(301) 546-","Cell Number","Allegany","Cumberland","MD","Maryland","21503","Eastern","39.580691","-78.690593"
"(301) 495-","Landline","Montgomery","Silver Spring","MD","Maryland","20913","Eastern","38.833563","-76.877743"
"(301) 412-","Cell Number","Montgomery","Bethesda","MD","Maryland","20894","Eastern","39.143979","-77.207617"
"(301) 882-","Landline","Frederick","New Market","MD","Maryland","21774","Eastern","39.432571","-77.220932"
"(410) 310-","Cell Number","Talbot","Easton","MD","Maryland","21601","Eastern","38.800714","-76.051486"
"(301) 990-","Landline","Montgomery","Gaithersburg","MD","Maryland","20886","Eastern","39.175703","-77.18725"
"(301) 287-","Landline","Montgomery","Rockville","MD","Maryland","20857","Eastern","39.143979","-77.207617"
"(301) 809-","Landline","Prince George's","Bowie","MD","Maryland","20715","Eastern","38.982612","-76.74379"
"(410) 487-","Landline","Baltimore City","Baltimore","MD","Maryland","21213","Eastern","39.306606","-76.603338"
"(301) 846-","Landline","Frederick","Frederick","MD","Maryland","21709","Eastern","39.469961","-77.392139"
"(301) 806-","Cell Number","Prince George's","Beltsville","MD","Maryland","20704","Eastern","38.833563","-76.877743"
"(301) 503-","Cell Number","Montgomery","Bethesda","MD","Maryland","20894","Eastern","39.143979","-77.207617"
"(301) 827-","Landline","Montgomery","Bethesda","MD","Maryland","20894","Eastern","39.143979","-77.207617"
"(301) 444-","Landline","Montgomery","Gaithersburg","MD","Maryland","20886","Eastern","39.175703","-77.18725"
"(410) 639-","Landline","Kent","Rock Hall","MD","Maryland","21661","Eastern","39.117823","-76.223193"
"(410) 702-","Landline","Baltimore","Reisterstown","MD","Maryland","21136","Eastern","39.487615","-76.796347"
"(410) 626-","Landline","Anne Arundel","Annapolis","MD","Maryland","21412","Eastern","38.974203","-76.594942"
"(410) 949-","Landline","Baltimore City","Baltimore","MD","Maryland","21213","Eastern","39.306606","-76.603338"
"(301) 457-","Landline","Montgomery","Silver Spring","MD","Maryland","20913","Eastern","38.833563","-76.877743"
"(410) 255-","Landline","Anne Arundel","Pasadena","MD","Maryland","21123","Eastern","38.974203","-76.594942"
"(301) 689-","Landline","Allegany","Frostburg","MD","Maryland","21532","Eastern","39.64206","-78.912502"
"(301) 989-","Landline","Montgomery","Silver Spring","MD","Maryland","20913","Eastern","38.833563","-76.877743"
"(410) 585-","Landline","Baltimore","Baltimore","MD","Maryland","21213","Eastern","39.306606","-76.603338"
"(410) 703-","Cell Number","Anne Arundel","Annapolis","MD","Maryland","21412","Eastern","38.974203","-76.594942"
"(410) 929-","Unknown","Baltimore City","Baltimore","MD","Maryland","21213","Eastern","39.306606","-76.603338"
"(410) 637-","Landline","Baltimore City","Baltimore","MD","Maryland","21213","Eastern","39.306606","-76.603338"
"(301) 934-","Landline","Charles","La Plata","MD","Maryland","20646","Eastern","38.513875","-77.01034"
"(410) 607-","Cell Number","Baltimore","Towson","MD","Maryland","21204","Eastern","39.407156","-76.60379"
"(410) 579-","Landline","Howard","Elkridge","MD","Maryland","21075","Eastern","39.205756","-76.753093"
"(301) 805-","Landline","Prince George's","Bowie","MD","Maryland","20715","Eastern","38.982612","-76.74379"
"(301) 670-","Landline","Montgomery","Gaithersburg","MD","Maryland","20886","Eastern","39.175703","-77.18725"
"(301) 615-","Cell Number","Prince George's","Greenbelt","MD","Maryland","20768","Eastern","38.833563","-76.877743"
"(301) 602-","Cell Number","Montgomery","Silver Spring","MD","Maryland","20913","Eastern","38.833563","-76.877743"
"(410) 987-","Landline","Anne Arundel","Severn","MD","Maryland","21144","Eastern","38.983971","-76.623121"
"(301) 478-","Landline","Allegany","Oldtown","MD","Maryland","21555","Eastern","39.596645","-78.572564"
"(410) 825-","Landline","Baltimore","Towson","MD","Maryland","21204","Eastern","39.407156","-76.60379"
"(301) 563-","Landline","Montgomery","Silver Spring","MD","Maryland","20913","Eastern","38.833563","-76.877743"
"(410) 761-","Landline","Anne Arundel","Glen Burnie","MD","Maryland","21060","Eastern","39.170158","-76.579836"
"(410) 462-","Landline","Baltimore City","Baltimore","MD","Maryland","21213","Eastern","39.306606","-76.603338"
"(410) 844-","Landline","Baltimore City","Baltimore","MD","Maryland","21213","Eastern","39.306606","-76.603338"
"(301) 965-","Landline","Prince George's","Hyattsville","MD","Maryland","20788","Eastern","38.969434","-76.950913"
"(301) 674-","Cell Number","Montgomery","Bethesda","MD","Maryland","20894","Eastern","39.143979","-77.207617"
"(410) 564-","Landline","Baltimore City","Baltimore","MD","Maryland","21213","Eastern","39.306606","-76.603338"
"(410) 651-","Landline","Somerset","Princess Anne","MD","Maryland","21853","Eastern","38.200553","-75.75292"
"(301) 698-","Landline","Frederick","Frederick","MD","Maryland","21709","Eastern","39.469961","-77.392139"
"(301) 830-","Landline","Montgomery","Silver Spring","MD","Maryland","20913","Eastern","38.833563","-76.877743"
"(301) 918-","Landline","Prince George's","Lanham","MD","Maryland","20703","Eastern","38.833563","-76.877743"
"(410) 235-","Landline","Baltimore City","Baltimore","MD","Maryland","21213","Eastern","39.306606","-76.603338"
"(301) 688-","Landline","Prince George's","Laurel","MD","Maryland","20709","Eastern","38.833563","-76.877743"
"(410) 708-","Cell Number","Kent","Chestertown","MD","Maryland","21690","Eastern","39.034637","-76.092127"
"(410) 832-","Landline","Baltimore","Towson","MD","Maryland","21204","Eastern","39.407156","-76.60379"
"(410) 334-","Landline","Wicomico","Salisbury","MD","Maryland","21803","Eastern","38.388434","-75.6276"
"(301) 209-","Landline","Prince George's","Hyattsville","MD","Maryland","20788","Eastern","38.969434","-76.950913"
"(301) 610-","Landline","Montgomery","Rockville","MD","Maryland","20857","Eastern","39.143979","-77.207617"
"(410) 505-","Landline","Howard","Ellicott City","MD","Maryland","21042","Eastern","39.261897","-76.897247"
"(301) 954-","Landline","Prince George's","Hyattsville","MD","Maryland","20788","Eastern","38.969434","-76.950913"
"(410) 262-","Cell Number","Anne Arundel","Baltimore","MD","Maryland","21213","Eastern","39.306606","-76.603338"
"(410) 652-","Cell Number","Harford","Bel Air","MD","Maryland","21014","Eastern","39.547557","-76.321984"
"(410) 453-","Landline","Baltimore","Towson","MD","Maryland","21204","Eastern","39.407156","-76.60379"
"(301) 613-","Cell Number","Prince George's","Beltsville","MD","Maryland","20704","Eastern","38.833563","-76.877743"
"(410) 245-","Cell Number","Baltimore","Catonsville","MD","Maryland","21228","Eastern","39.274156","-76.631074"
"(301) 338-","Unknown","Allegany","Cumberland","MD","Maryland","21503","Eastern","39.580691","-78.690593"
"(301) 248-","Landline","Prince George's","Fort Washington","MD","Maryland","20749","Eastern","38.833563","-76.877743"
"(301) 492-","Landline","Montgomery","Chevy Chase","MD","Maryland","20815","Eastern","38.983759","-77.079449"
"(410) 955-","Landline","Baltimore City","Baltimore","MD","Maryland","21213","Eastern","39.306606","-76.603338"
"(301) 458-","Landline","Prince George's","Mount Rainier","MD","Maryland","20712","Eastern","38.94266","-76.967057"
"(410) 655-","Landline","Baltimore","Randallstown","MD","Maryland","21133","Eastern","39.377872","-76.816675"
"(410) 793-","Landline","Anne Arundel","Crofton","MD","Maryland","21114","Eastern","39.06436","-76.622577"
"(410) 858-","Landline","Anne Arundel","Annapolis","MD","Maryland","21412","Eastern","38.974203","-76.594942"
"(410) 937-","Cell Number","Harford","Fallston","MD","Maryland","21047","Eastern","39.531206","-76.439035"
"(410) 504-","Landline","Baltimore City","Baltimore","MD","Maryland","21213","Eastern","39.306606","-76.603338"
"(301) 929-","Landline","Montgomery","Kensington","MD","Maryland","20895","Eastern","39.09538","-77.111555"
"(410) 827-","Landline","Queen Anne's","Queenstown","MD","Maryland","21658","Eastern","39.00255","-76.142374"
"(301) 286-","Landline","Prince George's","Greenbelt","MD","Maryland","20768","Eastern","38.833563","-76.877743"
"(301) 472-","Landline","Saint Mary's","Mechanicsville","MD","Maryland","20659","Eastern","38.279211","-76.608406"
"(301) 443-","Landline","Montgomery","Rockville","MD","Maryland","20857","Eastern","39.143979","-77.207617"
"(410) 580-","Landline","Baltimore","Pikesville","MD","Maryland","21208","Eastern","39.385156","-76.727036"
"(410) 599-","Cell Number","Baltimore","Catonsville","MD","Maryland","21228","Eastern","39.274156","-76.631074"
"(410) 682-","Landline","Baltimore","Essex","MD","Maryland","21221","Eastern","39.296007","-76.559787"
"(301) 928-","Cell Number","Montgomery","Silver Spring","MD","Maryland","20913","Eastern","38.833563","-76.877743"
"(301) 974-","Landline","Prince George's","Laurel","MD","Maryland","20709","Eastern","38.833563","-76.877743"
"(301) 325-","Cell Number","Montgomery","Silver Spring","MD","Maryland","20913","Eastern","38.833563","-76.877743"
"(301) 282-","Landline","Montgomery","Silver Spring","MD","Maryland","20913","Eastern","38.833563","-76.877743"
"(301) 504-","Landline","Montgomery","Silver Spring","MD","Maryland","20913","Eastern","38.833563","-76.877743"
"(410) 657-","Landline","Baltimore City","Baltimore","MD","Maryland","21213","Eastern","39.306606","-76.603338"
"(410) 483-","Landline","Baltimore City","Baltimore","MD","Maryland","21213","Eastern","39.306606","-76.603338"
"(301) 696-","Landline","Frederick","Frederick","MD","Maryland","21709","Eastern","39.469961","-77.392139"
"(410) 670-","Landline","Harford","Edgewood","MD","Maryland","21040","Eastern","39.434799","-76.293579"
"(410) 560-","Landline","Baltimore","Towson","MD","Maryland","21204","Eastern","39.407156","-76.60379"
"(410) 401-","Landline","Baltimore City","Baltimore","MD","Maryland","21213","Eastern","39.306606","-76.603338"
"(410) 376-","Landline","Wicomico","Mardela Springs","MD","Maryland","21837","Eastern","38.458249","-75.754804"
"(410) 884-","Landline","Howard","Columbia","MD","Maryland","21045","Eastern","39.207806","-76.825475"
"(410) 583-","Landline","Baltimore","Towson","MD","Maryland","21204","Eastern","39.407156","-76.60379"
"(301) 895-","Landline","Garrett","Grantsville","MD","Maryland","21536","Eastern","39.655141","-79.124143"
"(301) 630-","Landline","Prince George's","Temple Hills","MD","Maryland","20748","Eastern","38.817263","-76.935795"
"(410) 812-","Cell Number","Baltimore","Towson","MD","Maryland","21204","Eastern","39.407156","-76.60379"
"(301) 751-","Cell Number","Charles","Waldorf","MD","Maryland","20603","Eastern","38.52115","-77.062012"
"(410) 339-","Landline","Baltimore","Towson","MD","Maryland","21204","Eastern","39.407156","-76.60379"
"(301) 208-","Landline","Montgomery","Gaithersburg","MD","Maryland","20886","Eastern","39.175703","-77.18725"
"(301) 592-","Landline","Montgomery","Silver Spring","MD","Maryland","20913","Eastern","38.833563","-76.877743"
"(301) 396-","Landline","Charles","Waldorf","MD","Maryland","20603","Eastern","38.52115","-77.062012"
"(301) 641-","Cell Number","Montgomery","Silver Spring","MD","Maryland","20913","Eastern","38.833563","-76.877743"
"(410) 775-","Landline","Carroll","Union Bridge","MD","Maryland","21791","Eastern","39.57985","-77.131896"
"(410) 596-","Cell Number","Carroll","Westminster","MD","Maryland","21158","Eastern","39.606981","-77.029403"
"(410) 787-","Landline","Anne Arundel","Glen Burnie","MD","Maryland","21060","Eastern","39.170158","-76.579836"
"(410) 698-","Landline","Baltimore","Fork","MD","Maryland","21051","Eastern","39.47314","-76.448385"
"(301) 387-","Landline","Garrett","Swanton","MD","Maryland","21561","Eastern","39.538568","-79.190791"
"(410) 550-","Landline","Baltimore City","Baltimore","MD","Maryland","21213","Eastern","39.306606","-76.603338"
"(410) 874-","Landline","Anne Arundel","Odenton","MD","Maryland","21113","Eastern","38.975412","-76.586886"
"(410) 734-","Landline","Harford","Churchville","MD","Maryland","21028","Eastern","39.563172","-76.236427"
"(301) 233-","Cell Number","Montgomery","Silver Spring","MD","Maryland","20913","Eastern","38.833563","-76.877743"
"(410) 404-","Cell Number","Baltimore City","Baltimore","MD","Maryland","21213","Eastern","39.306606","-76.603338"
"(301) 336-","Landline","Prince George's","Capitol Heights","MD","Maryland","20790","Eastern","38.833563","-76.877743"
"(410) 491-","Cell Number","Baltimore","Catonsville","MD","Maryland","21228","Eastern","39.274156","-76.631074"
"(301) 638-","Landline","Charles","Waldorf","MD","Maryland","20603","Eastern","38.52115","-77.062012"
"(301) 356-","Landline","Prince George's","Laurel","MD","Maryland","20709","Eastern","38.833563","-76.877743"
"(410) 660-","Unknown","Howard","Elkridge","MD","Maryland","21075","Eastern","39.205756","-76.753093"
"(410) 494-","Landline","Baltimore","Towson","MD","Maryland","21204","Eastern","39.407156","-76.60379"
"(301) 867-","Landline","Prince George's","Hyattsville","MD","Maryland","20788","Eastern","38.969434","-76.950913"
"(301) 314-","Landline","Prince George's","Hyattsville","MD","Maryland","20788","Eastern","38.969434","-76.950913"
"(410) 659-","Landline","Baltimore City","Baltimore","MD","Maryland","21213","Eastern","39.306606","-76.603338"
"(410) 338-","Landline","Baltimore City","Baltimore","MD","Maryland","21213","Eastern","39.306606","-76.603338"
"(301) 508-","Cell Number","Frederick","Myersville","MD","Maryland","21773","Eastern","39.550036","-77.556275"
"(301) 848-","Cell Number","Charles","Waldorf","MD","Maryland","20603","Eastern","38.52115","-77.062012"
"(410) 539-","Landline","Baltimore City","Baltimore","MD","Maryland","21213","Eastern","39.306606","-76.603338"
"(410) 473-","Cell Number","Baltimore","Towson","MD","Maryland","21204","Eastern","39.407156","-76.60379"
"(301) 793-","Cell Number","Montgomery","Silver Spring","MD","Maryland","20913","Eastern","38.833563","-76.877743"
"(410) 870-","Landline","Baltimore","Parkville","MD","Maryland","21234","Eastern","39.413106","-76.530044"
"(301) 764-","Landline","Charles","Waldorf","MD","Maryland","20603","Eastern","38.52115","-77.062012"
"(301) 981-","Landline","Prince George's","Mount Rainier","MD","Maryland","20712","Eastern","38.94266","-76.967057"
"(301) 297-","Landline","Prince George's","Fort Washington","MD","Maryland","20749","Eastern","38.833563","-76.877743"
"(410) 326-","Landline","Calvert","Solomons","MD","Maryland","20688","Eastern","38.37741","-76.440937"
"(301) 619-","Landline","Frederick","Frederick","MD","Maryland","21709","Eastern","39.469961","-77.392139"
"(410) 388-","Landline","Baltimore","Sparrows Point","MD","Maryland","21219","Eastern","39.229611","-76.445532"
"(410) 485-","Landline","Baltimore City","Baltimore","MD","Maryland","21213","Eastern","39.306606","-76.603338"
"(410) 238-","Landline","Baltimore","Essex","MD","Maryland","21221","Eastern","39.296007","-76.559787"
"(410) 276-","Landline","Baltimore City","Baltimore","MD","Maryland","21213","Eastern","39.306606","-76.603338"
"(410) 386-","Landline","Carroll","Westminster","MD","Maryland","21158","Eastern","39.606981","-77.029403"
"(301) 305-","Cell Number","Frederick","Frederick","MD","Maryland","21709","Eastern","39.469961","-77.392139"
"(301) 826-","Landline","Saint Mary's","Lexington Park","MD","Maryland","20653","Eastern","38.232909","-76.430853"
"(410) 392-","Landline","Cecil","Elkton","MD","Maryland","21922","Eastern","39.593612","-75.947332"
"(301) 986-","Landline","Montgomery","Chevy Chase","MD","Maryland","20815","Eastern","38.983759","-77.079449"
"(410) 544-","Landline","Anne Arundel","Severna Park","MD","Maryland","21146","Eastern","38.951199","-76.603722"
"(410) 302-","Cell Number","Baltimore","Catonsville","MD","Maryland","21228","Eastern","39.274156","-76.631074"
"(301) 633-","Cell Number","Montgomery","Bethesda","MD","Maryland","20894","Eastern","39.143979","-77.207617"
"(410) 231-","Cell Number","Calvert","Solomons","MD","Maryland","20688","Eastern","38.37741","-76.440937"
"(301) 718-","Landline","Montgomery","Chevy Chase","MD","Maryland","20815","Eastern","38.983759","-77.079449"
"(410) 951-","Landline","Baltimore City","Baltimore","MD","Maryland","21213","Eastern","39.306606","-76.603338"
"(410) 549-","Landline","Carroll","Sykesville","MD","Maryland","21784","Eastern","39.45672","-76.969601"
"(410) 901-","Landline","Dorchester","Cambridge","MD","Maryland","21613","Eastern","38.479813","-76.079864"
"(301) 565-","Landline","Montgomery","Silver Spring","MD","Maryland","20913","Eastern","38.833563","-76.877743"
"(301) 962-","Landline","Montgomery","Kensington","MD","Maryland","20895","Eastern","39.09538","-77.111555"
"(410) 500-","Landline","Baltimore City","Baltimore","MD","Maryland","21213","Eastern","39.306606","-76.603338"
"(301) 993-","Cell Number","Prince George's","Greenbelt","MD","Maryland","20768","Eastern","38.833563","-76.877743"
"(301) 353-","Landline","Montgomery","Gaithersburg","MD","Maryland","20886","Eastern","39.175703","-77.18725"
"(410) 712-","Landline","Howard","Elkridge","MD","Maryland","21075","Eastern","39.205756","-76.753093"
"(410) 575-","Landline","Harford","Aberdeen","MD","Maryland","21001","Eastern","39.499909","-76.231177"
"(410) 605-","Landline","Baltimore City","Baltimore","MD","Maryland","21213","Eastern","39.306606","-76.603338"
"(301) 768-","Landline","Montgomery","Silver Spring","MD","Maryland","20913","Eastern","38.833563","-76.877743"
"(410) 642-","Landline","Cecil","Perryville","MD","Maryland","21903","Eastern","39.571449","-76.033281"
"(301) 264-","Landline","Allegany","Mount Savage","MD","Maryland","21545","Eastern","39.695649","-78.872465"
"(301) 785-","Cell Number","Montgomery","Silver Spring","MD","Maryland","20913","Eastern","38.833563","-76.877743"
"(410) 251-","Cell Number","Wicomico","Salisbury","MD","Maryland","21803","Eastern","38.388434","-75.6276"
"(301) 223-","Landline","Washington","Williamsport","MD","Maryland","21795","Eastern","39.589123","-77.826258"
"(301) 482-","Landline","Montgomery","Damascus","MD","Maryland","20872","Eastern","39.285477","-77.215203"
"(301) 853-","Landline","Prince George's","Hyattsville","MD","Maryland","20788","Eastern","38.969434","-76.950913"
"(301) 757-","Landline","Saint Mary's","Patuxent River","MD","Maryland","20670","Eastern","38.281094","-76.420952"
"(410) 571-","Landline","Anne Arundel","Annapolis","MD","Maryland","21412","Eastern","38.974203","-76.594942"
"(410) 510-","Landline","Baltimore","Fork","MD","Maryland","21051","Eastern","39.47314","-76.448385"
"(301) 759-","Landline","Allegany","Cumberland","MD","Maryland","21503","Eastern","39.580691","-78.690593"
"(410) 219-","Landline","Wicomico","Salisbury","MD","Maryland","21803","Eastern","38.388434","-75.6276"
"(410) 769-","Landline","Baltimore","Towson","MD","Maryland","21204","Eastern","39.407156","-76.60379"
"(410) 942-","Landline","Harford","Havre De Grace","MD","Maryland","21078","Eastern","39.560095","-76.15517"
"(301) 683-","Landline","Prince George's","Mount Rainier","MD","Maryland","20712","Eastern","38.94266","-76.967057"
"(301) 461-","Cell Number","Montgomery","Rockville","MD","Maryland","20857","Eastern","39.143979","-77.207617"
"(301) 645-","Landline","Charles","Waldorf","MD","Maryland","20603","Eastern","38.52115","-77.062012"
"(301) 881-","Landline","Montgomery","Rockville","MD","Maryland","20857","Eastern","39.143979","-77.207617"
"(410) 399-","Landline","Harford","Bel Air","MD","Maryland","21014","Eastern","39.547557","-76.321984"
"(301) 600-","Unknown","Frederick","Frederick","MD","Maryland","21709","Eastern","39.469961","-77.392139"
"(301) 946-","Landline","Montgomery","Kensington","MD","Maryland","20895","Eastern","39.09538","-77.111555"
"(301) 414-","Landline","Montgomery","Damascus","MD","Maryland","20872","Eastern","39.285477","-77.215203"
"(410) 831-","Cell Number","Wicomico","Salisbury","MD","Maryland","21803","Eastern","38.388434","-75.6276"
"(301) 761-","Landline","Montgomery","Kensington","MD","Maryland","20895","Eastern","39.09538","-77.111555"
"(410) 432-","Landline","Anne Arundel","Severna Park","MD","Maryland","21146","Eastern","38.951199","-76.603722"
"(410) 629-","Landline","Worcester","Berlin","MD","Maryland","21811","Eastern","38.310447","-75.320901"
"(301) 433-","Landline","Prince George's","Fort Washington","MD","Maryland","20749","Eastern","38.833563","-76.877743"
"(301) 742-","Cell Number","Montgomery","Bethesda","MD","Maryland","20894","Eastern","39.143979","-77.207617"
"(301) 983-","Landline","Montgomery","Bethesda","MD","Maryland","20894","Eastern","39.143979","-77.207617"
"(301) 944-","Landline","Montgomery","Gaithersburg","MD","Maryland","20886","Eastern","39.175703","-77.18725"
"(410) 293-","Landline","Anne Arundel","Annapolis","MD","Maryland","21412","Eastern","38.974203","-76.594942"
"(410) 604-","Landline","Queen Anne's","Stevensville","MD","Maryland","21666","Eastern","39.012075","-76.11568"
"(301) 240-","Landline","Montgomery","Gaithersburg","MD","Maryland","20886","Eastern","39.175703","-77.18725"
"(301) 884-","Landline","Saint Mary's","Mechanicsville","MD","Maryland","20659","Eastern","38.279211","-76.608406"
"(410) 998-","Landline","Baltimore","Pikesville","MD","Maryland","21208","Eastern","39.385156","-76.727036"
"(410) 871-","Landline","Carroll","Westminster","MD","Maryland","21158","Eastern","39.606981","-77.029403"
"(301) 350-","Landline","Prince George's","Capitol Heights","MD","Maryland","20790","Eastern","38.833563","-76.877743"
"(301) 799-","Landline","Washington","Keedysville","MD","Maryland","21756","Eastern","39.458488","-77.693341"
"(301) 549-","Landline","Prince George's","Laurel","MD","Maryland","20709","Eastern","38.833563","-76.877743"
"(410) 694-","Landline","Anne Arundel","Linthicum Heights","MD","Maryland","21090","Eastern","39.068309","-76.631743"
"(301) 214-","Landline","Montgomery","Rockville","MD","Maryland","20857","Eastern","39.143979","-77.207617"
"(301) 451-","Landline","Montgomery","Bethesda","MD","Maryland","20894","Eastern","39.143979","-77.207617"
"(301) 808-","Landline","Prince George's","Capitol Heights","MD","Maryland","20790","Eastern","38.833563","-76.877743"
"(301) 773-","Landline","Prince George's","Hyattsville","MD","Maryland","20788","Eastern","38.969434","-76.950913"
"(301) 624-","Landline","Frederick","Frederick","MD","Maryland","21709","Eastern","39.469961","-77.392139"
"(301) 237-","Cell Number","Prince George's","Beltsville","MD","Maryland","20704","Eastern","38.833563","-76.877743"
"(301) 584-","Landline","Montgomery","Silver Spring","MD","Maryland","20913","Eastern","38.833563","-76.877743"
"(301) 937-","Landline","Prince George's","Beltsville","MD","Maryland","20704","Eastern","38.833563","-76.877743"
"(410) 772-","Landline","Howard","Columbia","MD","Maryland","21045","Eastern","39.207806","-76.825475"
"(301) 790-","Landline","Washington","Hagerstown","MD","Maryland","21749","Eastern","39.520696","-77.916196"
"(410) 754-","Landline","Caroline","Federalsburg","MD","Maryland","21632","Eastern","38.823318","-75.825197"
"(301) 374-","Landline","Charles","Waldorf","MD","Maryland","20603","Eastern","38.52115","-77.062012"
"(410) 578-","Landline","Baltimore City","Baltimore","MD","Maryland","21213","Eastern","39.306606","-76.603338"
"(410) 315-","Landline","Anne Arundel","Severna Park","MD","Maryland","21146","Eastern","38.951199","-76.603722"
"(301) 315-","Landline","Montgomery","Rockville","MD","Maryland","20857","Eastern","39.143979","-77.207617"
"(301) 319-","Landline","Montgomery","Rockville","MD","Maryland","20857","Eastern","39.143979","-77.207617"
"(301) 554-","Cell Number","Montgomery","Bethesda","MD","Maryland","20894","Eastern","39.143979","-77.207617"
"(410) 489-","Landline","Howard","Glenwood","MD","Maryland","21738","Eastern","39.281504","-77.025362"
"(410) 946-","Landline","Anne Arundel","Annapolis","MD","Maryland","21412","Eastern","38.974203","-76.594942"
"(410) 391-","Landline","Baltimore","Essex","MD","Maryland","21221","Eastern","39.296007","-76.559787"
"(301) 982-","Landline","Prince George's","Greenbelt","MD","Maryland","20768","Eastern","38.833563","-76.877743"
"(301) 500-","Unknown","Prince George's","Mount Rainier","MD","Maryland","20712","Eastern","38.94266","-76.967057"
"(410) 496-","Landline","Baltimore","Randallstown","MD","Maryland","21133","Eastern","39.377872","-76.816675"
"(410) 753-","Landline","Baltimore City","Baltimore","MD","Maryland","21213","Eastern","39.306606","-76.603338"
"(410) 672-","Landline","Anne Arundel","Odenton","MD","Maryland","21113","Eastern","38.975412","-76.586886"
"(410) 980-","Landline","Anne Arundel","Annapolis","MD","Maryland","21412","Eastern","38.974203","-76.594942"
"(301) 775-","Cell Number","Montgomery","Silver Spring","MD","Maryland","20913","Eastern","38.833563","-76.877743"
"(301) 284-","Landline","Montgomery","Rockville","MD","Maryland","20857","Eastern","39.143979","-77.207617"
"(301) 940-","Cell Number","Montgomery","Silver Spring","MD","Maryland","20913","Eastern","38.833563","-76.877743"
"(410) 408-","Cell Number","Baltimore","Towson","MD","Maryland","21204","Eastern","39.407156","-76.60379"
"(301) 571-","Landline","Montgomery","Rockville","MD","Maryland","20857","Eastern","39.143979","-77.207617"
"(301) 227-","Landline","Montgomery","Glen Echo","MD","Maryland","20812","Eastern","38.96851","-77.140801"
"(301) 324-","Landline","Prince George's","Capitol Heights","MD","Maryland","20790","Eastern","38.833563","-76.877743"
"(410) 513-","Landline","Baltimore City","Baltimore","MD","Maryland","21213","Eastern","39.306606","-76.603338"
"(301) 291-","Landline","Prince George's","Mount Rainier","MD","Maryland","20712","Eastern","38.94266","-76.967057"
"(410) 314-","Landline","Baltimore City","Baltimore","MD","Maryland","21213","Eastern","39.306606","-76.603338"
"(410) 617-","Landline","Baltimore City","Baltimore","MD","Maryland","21213","Eastern","39.306606","-76.603338"
"(301) 792-","Cell Number","Montgomery","Silver Spring","MD","Maryland","20913","Eastern","38.833563","-76.877743"
"(410) 503-","Cell Number","Howard","Elkridge","MD","Maryland","21075","Eastern","39.205756","-76.753093"
"(410) 686-","Landline","Baltimore","Essex","MD","Maryland","21221","Eastern","39.296007","-76.559787"
"(301) 762-","Landline","Montgomery","Rockville","MD","Maryland","20857","Eastern","39.143979","-77.207617"
"(301) 466-","Cell Number","Montgomery","Silver Spring","MD","Maryland","20913","Eastern","38.833563","-76.877743"
"(301) 553-","Cell Number","Charles","Waldorf","MD","Maryland","20603","Eastern","38.52115","-77.062012"
"(410) 246-","Landline","Baltimore City","Baltimore","MD","Maryland","21213","Eastern","39.306606","-76.603338"
"(301) 348-","Landline","Montgomery","Kensington","MD","Maryland","20895","Eastern","39.09538","-77.111555"
"(301) 432-","Landline","Washington","Keedysville","MD","Maryland","21756","Eastern","39.458488","-77.693341"
"(301) 836-","Landline","Prince George's","Temple Hills","MD","Maryland","20748","Eastern","38.817263","-76.935795"
"(301) 405-","Landline","Prince George's","Hyattsville","MD","Maryland","20788","Eastern","38.969434","-76.950913"
"(301) 218-","Landline","Prince George's","Bowie","MD","Maryland","20715","Eastern","38.982612","-76.74379"
"(410) 331-","Cell Number","Howard","Elkridge","MD","Maryland","21075","Eastern","39.205756","-76.753093"
"(301) 271-","Landline","Frederick","Thurmont","MD","Maryland","21788","Eastern","39.610876","-77.398931"
"(301) 835-","Cell Number","Washington","Hagerstown","MD","Maryland","21749","Eastern","39.520696","-77.916196"
"(410) 645-","Landline","Baltimore City","Baltimore","MD","Maryland","21213","Eastern","39.306606","-76.603338"
"(301) 535-","Cell Number","Charles","Waldorf","MD","Maryland","20603","Eastern","38.52115","-77.062012"
"(410) 646-","Landline","Baltimore City","Baltimore","MD","Maryland","21213","Eastern","39.306606","-76.603338"
"(410) 819-","Landline","Talbot","Easton","MD","Maryland","21601","Eastern","38.800714","-76.051486"
"(410) 854-","Landline","Anne Arundel","Odenton","MD","Maryland","21113","Eastern","38.975412","-76.586886"
"(301) 428-","Landline","Montgomery","Gaithersburg","MD","Maryland","20886","Eastern","39.175703","-77.18725"
"(301) 445-","Landline","Prince George's","Hyattsville","MD","Maryland","20788","Eastern","38.969434","-76.950913"
"(301) 598-","Landline","Montgomery","Rockville","MD","Maryland","20857","Eastern","39.143979","-77.207617"
"(410) 945-","Landline","Baltimore City","Baltimore","MD","Maryland","21213","Eastern","39.306606","-76.603338"
"(301) 756-","Landline","Prince George's","Laurel","MD","Maryland","20709","Eastern","38.833563","-76.877743"
"(301) 473-","Landline","Frederick","Frederick","MD","Maryland","21709","Eastern","39.469961","-77.392139"
"(410) 896-","Landline","Wicomico","Delmar","MD","Maryland","21875","Eastern","38.452527","-75.574165"
"(410) 538-","Landline","Harford","Edgewood","MD","Maryland","21040","Eastern","39.434799","-76.293579"
"(301) 949-","Landline","Montgomery","Kensington","MD","Maryland","20895","Eastern","39.09538","-77.111555"
"(301) 857-","Landline","Washington","Clear Spring","MD","Maryland","21722","Eastern","39.665751","-77.906389"
"(410) 282-","Landline","Baltimore","Dundalk","MD","Maryland","21222","Eastern","39.325991","-76.451733"
"(301) 712-","Landline","Frederick","Frederick","MD","Maryland","21709","Eastern","39.469961","-77.392139"
"(410) 701-","Landline","Baltimore City","Baltimore","MD","Maryland","21213","Eastern","39.306606","-76.603338"
"(301) 434-","Landline","Prince George's","Hyattsville","MD","Maryland","20788","Eastern","38.969434","-76.950913"
"(301) 734-","Landline","Montgomery","Silver Spring","MD","Maryland","20913","Eastern","38.833563","-76.877743"
"(410) 323-","Landline","Baltimore City","Baltimore","MD","Maryland","21213","Eastern","39.306606","-76.603338"
"(410) 878-","Landline","Baltimore City","Baltimore","MD","Maryland","21213","Eastern","39.306606","-76.603338"
"(301) 659-","Cell Number","Charles","Waldorf","MD","Maryland","20603","Eastern","38.52115","-77.062012"
"(301) 818-","Landline","Charles","Waldorf","MD","Maryland","20603","Eastern","38.52115","-77.062012"
"(410) 502-","Landline","Baltimore City","Baltimore","MD","Maryland","21213","Eastern","39.306606","-76.603338"
"(410) 707-","Cell Number","Howard","Columbia","MD","Maryland","21045","Eastern","39.207806","-76.825475"
"(410) 545-","Landline","Baltimore City","Baltimore","MD","Maryland","21213","Eastern","39.306606","-76.603338"
"(410) 902-","Landline","Baltimore","Pikesville","MD","Maryland","21208","Eastern","39.385156","-76.727036"
"(301) 601-","Landline","Montgomery","Gaithersburg","MD","Maryland","20886","Eastern","39.175703","-77.18725"
"(410) 800-","Landline","Baltimore City","Baltimore","MD","Maryland","21213","Eastern","39.306606","-76.603338"
"(301) 828-","Landline","Montgomery","Bethesda","MD","Maryland","20894","Eastern","39.143979","-77.207617"
"(410) 407-","Cell Number","Howard","Elkridge","MD","Maryland","21075","Eastern","39.205756","-76.753093"
"(301) 446-","Landline","Prince George's","Greenbelt","MD","Maryland","20768","Eastern","38.833563","-76.877743"
"(410) 762-","Landline","Anne Arundel","Glen Burnie","MD","Maryland","21060","Eastern","39.170158","-76.579836"
"(410) 719-","Landline","Baltimore","Catonsville","MD","Maryland","21228","Eastern","39.274156","-76.631074"
"(410) 273-","Landline","Harford","Aberdeen","MD","Maryland","21001","Eastern","39.499909","-76.231177"
"(301) 567-","Landline","Prince George's","Oxon Hill","MD","Maryland","20750","Eastern","38.833563","-76.877743"
"(410) 567-","Landline","Baltimore City","Baltimore","MD","Maryland","21213","Eastern","39.306606","-76.603338"
"(410) 348-","Landline","Kent","Still Pond","MD","Maryland","21667","Eastern","39.339906","-76.047396"
"(410) 350-","Landline","Baltimore City","Baltimore","MD","Maryland","21213","Eastern","39.306606","-76.603338"
"(410) 221-","Landline","Dorchester","Cambridge","MD","Maryland","21613","Eastern","38.479813","-76.079864"
"(301) 229-","Landline","Montgomery","Glen Echo","MD","Maryland","20812","Eastern","38.96851","-77.140801"
"(301) 899-","Landline","Prince George's","Temple Hills","MD","Maryland","20748","Eastern","38.817263","-76.935795"
"(410) 968-","Landline","Somerset","Crisfield","MD","Maryland","21817","Eastern","37.998308","-75.818797"
"(410) 492-","Cell Number","Baltimore","Towson","MD","Maryland","21204","Eastern","39.407156","-76.60379"
"(301) 892-","Landline","Prince George's","Hyattsville","MD","Maryland","20788","Eastern","38.969434","-76.950913"
"(410) 635-","Landline","Carroll","New Windsor","MD","Maryland","21776","Eastern","39.521886","-77.093303"
"(301) 531-","Landline","Prince George's","Hyattsville","MD","Maryland","20788","Eastern","38.969434","-76.950913"
"(410) 802-","Cell Number","Baltimore","Catonsville","MD","Maryland","21228","Eastern","39.274156","-76.631074"
"(301) 537-","Cell Number","Prince George's","Beltsville","MD","Maryland","20704","Eastern","38.833563","-76.877743"
"(410) 498-","Landline","Baltimore City","Baltimore","MD","Maryland","21213","Eastern","39.306606","-76.603338"
"(410) 940-","Landline","Anne Arundel","Annapolis","MD","Maryland","21412","Eastern","38.974203","-76.594942"
"(301) 813-","Landline","Montgomery","Bethesda","MD","Maryland","20894","Eastern","39.143979","-77.207617"
"(410) 714-","Cell Number","Talbot","Easton","MD","Maryland","21601","Eastern","38.800714","-76.051486"
"(301) 313-","Landline","Prince George's","Greenbelt","MD","Maryland","20768","Eastern","38.833563","-76.877743"
"(410) 373-","Cell Number","Baltimore","Towson","MD","Maryland","21204","Eastern","39.407156","-76.60379"
"(301) 216-","Landline","Montgomery","Gaithersburg","MD","Maryland","20886","Eastern","39.175703","-77.18725"
"(410) 363-","Landline","Baltimore","Pikesville","MD","Maryland","21208","Eastern","39.385156","-76.727036"
"(301) 368-","Landline","Montgomery","Damascus","MD","Maryland","20872","Eastern","39.285477","-77.215203"
"(301) 677-","Landline","Anne Arundel","Glenn Dale","MD","Maryland","20769","Eastern","38.98346","-76.811392"
"(301) 407-","Landline","Montgomery","Poolesville","MD","Maryland","20837","Eastern","39.123705","-77.403211"
"(410) 935-","Cell Number","Baltimore City","Baltimore","MD","Maryland","21213","Eastern","39.306606","-76.603338"
"(301) 430-","Landline","Prince George's","Bowie","MD","Maryland","20715","Eastern","38.982612","-76.74379"
"(410) 397-","Landline","Dorchester","Crapo","MD","Maryland","21626","Eastern","38.323604","-76.097337"
"(301) 203-","Landline","Prince George's","Fort Washington","MD","Maryland","20749","Eastern","38.833563","-76.877743"
"(301) 509-","Cell Number","Montgomery","Silver Spring","MD","Maryland","20913","Eastern","38.833563","-76.877743"
"(301) 263-","Landline","Montgomery","Glen Echo","MD","Maryland","20812","Eastern","38.96851","-77.140801"
"(410) 922-","Landline","Baltimore","Randallstown","MD","Maryland","21133","Eastern","39.377872","-76.816675"
"(301) 906-","Cell Number","Montgomery","Bethesda","MD","Maryland","20894","Eastern","39.143979","-77.207617"
"(301) 245-","Landline","Garrett","Bittinger","MD","Maryland","21522","Eastern","39.601664","-79.233691"
"(301) 706-","Cell Number","Montgomery","Silver Spring","MD","Maryland","20913","Eastern","38.833563","-76.877743"
"(410) 756-","Landline","Carroll","Taneytown","MD","Maryland","21787","Eastern","39.657449","-77.169055"
"(301) 728-","Cell Number","Montgomery","Silver Spring","MD","Maryland","20913","Eastern","38.833563","-76.877743"
"(301) 719-","Landline","Prince George's","Mount Rainier","MD","Maryland","20712","Eastern","38.94266","-76.967057"
"(410) 234-","Landline","Baltimore City","Baltimore","MD","Maryland","21213","Eastern","39.306606","-76.603338"
"(301) 332-","Cell Number","Montgomery","Silver Spring","MD","Maryland","20913","Eastern","38.833563","-76.877743"
"(410) 306-","Landline","Harford","Aberdeen","MD","Maryland","21001","Eastern","39.499909","-76.231177"
"(410) 499-","Cell Number","Anne Arundel","Baltimore","MD","Maryland","21213","Eastern","39.306606","-76.603338"
"(301) 701-","Cell Number","Prince George's","Hyattsville","MD","Maryland","20788","Eastern","38.969434","-76.950913"
"(410) 725-","Cell Number","Talbot","Easton","MD","Maryland","21601","Eastern","38.800714","-76.051486"
"(410) 241-","Cell Number","Baltimore City","Baltimore","MD","Maryland","21213","Eastern","39.306606","-76.603338"
"(410) 412-","Landline","Baltimore City","Baltimore","MD","Maryland","21213","Eastern","39.306606","-76.603338"
"(410) 676-","Landline","Harford","Edgewood","MD","Maryland","21040","Eastern","39.434799","-76.293579"
"(301) 789-","Landline","Prince George's","Hyattsville","MD","Maryland","20788","Eastern","38.969434","-76.950913"
"(301) 920-","Landline","Montgomery","Silver Spring","MD","Maryland","20913","Eastern","38.833563","-76.877743"
"(410) 845-","Cell Number","Wicomico","Salisbury","MD","Maryland","21803","Eastern","38.388434","-75.6276"
"(301) 593-","Landline","Montgomery","Silver Spring","MD","Maryland","20913","Eastern","38.833563","-76.877743"
"(301) 529-","Cell Number","Montgomery","Rockville","MD","Maryland","20857","Eastern","39.143979","-77.207617"
"(301) 522-","Cell Number","Montgomery","Rockville","MD","Maryland","20857","Eastern","39.143979","-77.207617"
"(410) 728-","Landline","Baltimore City","Baltimore","MD","Maryland","21213","Eastern","39.306606","-76.603338"
"(301) 724-","Landline","Allegany","Cumberland","MD","Maryland","21503","Eastern","39.580691","-78.690593"
"(301) 924-","Landline","Montgomery","Ashton","MD","Maryland","20861","Eastern","39.151468","-76.994498"
"(410) 318-","Landline","Baltimore","Baltimore","MD","Maryland","21213","Eastern","39.306606","-76.603338"
"(301) 342-","Landline","Saint Mary's","Patuxent River","MD","Maryland","20670","Eastern","38.281094","-76.420952"
"(410) 671-","Landline","Harford","Edgewood","MD","Maryland","21040","Eastern","39.434799","-76.293579"
"(301) 254-","Cell Number","Prince George's","Beltsville","MD","Maryland","20704","Eastern","38.833563","-76.877743"
"(301) 533-","Landline","Garrett","Oakland","MD","Maryland","21550","Eastern","39.43392","-79.316683"
"(410) 493-","Cell Number","Anne Arundel","Baltimore","MD","Maryland","21213","Eastern","39.306606","-76.603338"
"(410) 828-","Landline","Baltimore","Towson","MD","Maryland","21204","Eastern","39.407156","-76.60379"
"(410) 409-","Cell Number","Baltimore City","Baltimore","MD","Maryland","21213","Eastern","39.306606","-76.603338"
"(301) 285-","Cell Number","Montgomery","Silver Spring","MD","Maryland","20913","Eastern","38.833563","-76.877743"
"(301) 694-","Landline","Frederick","Frederick","MD","Maryland","21709","Eastern","39.469961","-77.392139"
"(301) 438-","Landline","Montgomery","Rockville","MD","Maryland","20857","Eastern","39.143979","-77.207617"
"(410) 928-","Landline","Kent","Millington","MD","Maryland","21651","Eastern","39.274314","-75.895115"
"(410) 963-","Cell Number","Anne Arundel","Baltimore","MD","Maryland","21213","Eastern","39.306606","-76.603338"
"(410) 864-","Landline","Baltimore City","Baltimore","MD","Maryland","21213","Eastern","39.306606","-76.603338"
"(410) 419-","Cell Number","Anne Arundel","Baltimore","MD","Maryland","21213","Eastern","39.306606","-76.603338"
"(301) 814-","Cell Number","Montgomery","Bethesda","MD","Maryland","20894","Eastern","39.143979","-77.207617"
"(410) 891-","Landline","Baltimore City","Baltimore","MD","Maryland","21213","Eastern","39.306606","-76.603338"
"(410) 288-","Landline","Baltimore","Dundalk","MD","Maryland","21222","Eastern","39.325991","-76.451733"
"(410) 656-","Cell Number","Anne Arundel","North East","MD","Maryland","21901","Eastern","39.535078","-75.894051"
"(410) 472-","Landline","Baltimore","Sparks Glencoe","MD","Maryland","21152","Eastern","39.526441","-76.715587"
"(410) 869-","Landline","Baltimore","Catonsville","MD","Maryland","21228","Eastern","39.274156","-76.631074"
"(301) 639-","Cell Number","Frederick","Frederick","MD","Maryland","21709","Eastern","39.469961","-77.392139"
"(301) 947-","Landline","Montgomery","Gaithersburg","MD","Maryland","20886","Eastern","39.175703","-77.18725"
"(410) 776-","Landline","Harford","Bel Air","MD","Maryland","21014","Eastern","39.547557","-76.321984"
"(301) 328-","Unknown","Montgomery","Silver Spring","MD","Maryland","20913","Eastern","38.833563","-76.877743"
"(410) 732-","Landline","Baltimore City","Baltimore","MD","Maryland","21213","Eastern","39.306606","-76.603338"
"(301) 547-","Landline","Montgomery","Bethesda","MD","Maryland","20894","Eastern","39.143979","-77.207617"
"(301) 382-","Cell Number","Montgomery","Rockville","MD","Maryland","20857","Eastern","39.143979","-77.207617"
"(410) 961-","Cell Number","Anne Arundel","Baltimore","MD","Maryland","21213","Eastern","39.306606","-76.603338"
"(410) 879-","Landline","Harford","Bel Air","MD","Maryland","21014","Eastern","39.547557","-76.321984"
"(410) 981-","Landline","Anne Arundel","Linthicum Heights","MD","Maryland","21090","Eastern","39.068309","-76.631743"
"(410) 573-","Landline","Anne Arundel","Annapolis","MD","Maryland","21412","Eastern","38.974203","-76.594942"
"(301) 239-","Cell Number","Prince George's","Hyattsville","MD","Maryland","20788","Eastern","38.969434","-76.950913"
"(301) 510-","Cell Number","Prince George's","Greenbelt","MD","Maryland","20768","Eastern","38.833563","-76.877743"
"(301) 351-","Cell Number","Montgomery","Silver Spring","MD","Maryland","20913","Eastern","38.833563","-76.877743"
"(410) 543-","Landline","Wicomico","Salisbury","MD","Maryland","21803","Eastern","38.388434","-75.6276"
"(410) 625-","Landline","Baltimore City","Baltimore","MD","Maryland","21213","Eastern","39.306606","-76.603338"
"(410) 362-","Landline","Baltimore City","Baltimore","MD","Maryland","21213","Eastern","39.306606","-76.603338"
"(301) 206-","Landline","Prince George's","Laurel","MD","Maryland","20709","Eastern","38.833563","-76.877743"
"(410) 274-","Cell Number","Baltimore City","Baltimore","MD","Maryland","21213","Eastern","39.306606","-76.603338"
"(410) 455-","Landline","Baltimore","Catonsville","MD","Maryland","21228","Eastern","39.274156","-76.631074"
"(410) 745-","Landline","Talbot","Saint Michaels","MD","Maryland","21663","Eastern","38.748765","-76.167765"
"(410) 746-","Cell Number","Baltimore City","Baltimore","MD","Maryland","21213","Eastern","39.306606","-76.603338"
"(410) 324-","Landline","Baltimore","Towson","MD","Maryland","21204","Eastern","39.407156","-76.60379"
"(301) 864-","Landline","Prince George's","Hyattsville","MD","Maryland","20788","Eastern","38.969434","-76.950913"
"(410) 325-","Landline","Baltimore City","Baltimore","MD","Maryland","21213","Eastern","39.306606","-76.603338"
"(410) 375-","Cell Number","Baltimore City","Baltimore","MD","Maryland","21213","Eastern","39.306606","-76.603338"
"(301) 391-","Landline","Montgomery","Damascus","MD","Maryland","20872","Eastern","39.285477","-77.215203"
"(301) 219-","Cell Number","Montgomery","Bethesda","MD","Maryland","20894","Eastern","39.143979","-77.207617"
"(301) 802-","Cell Number","Montgomery","Silver Spring","MD","Maryland","20913","Eastern","38.833563","-76.877743"
"(410) 327-","Landline","Baltimore City","Baltimore","MD","Maryland","21213","Eastern","39.306606","-76.603338"
"(410) 693-","Cell Number","Anne Arundel","Annapolis","MD","Maryland","21412","Eastern","38.974203","-76.594942"
"(301) 260-","Landline","Montgomery","Ashton","MD","Maryland","20861","Eastern","39.151468","-76.994498"
"(301) 797-","Landline","Washington","Hagerstown","MD","Maryland","21749","Eastern","39.520696","-77.916196"
"(410) 328-","Landline","Baltimore City","Baltimore","MD","Maryland","21213","Eastern","39.306606","-76.603338"
"(301) 304-","Unknown","Frederick","Frederick","MD","Maryland","21709","Eastern","39.469961","-77.392139"
"(410) 372-","Landline","Baltimore","Towson","MD","Maryland","21204","Eastern","39.407156","-76.60379"
"(410) 970-","Landline","Carroll","Sykesville","MD","Maryland","21784","Eastern","39.45672","-76.969601"
"(301) 748-","Cell Number","Frederick","Frederick","MD","Maryland","21709","Eastern","39.469961","-77.392139"
"(410) 691-","Landline","Anne Arundel","Linthicum Heights","MD","Maryland","21090","Eastern","39.068309","-76.631743"
"(410) 882-","Landline","Baltimore","Parkville","MD","Maryland","21234","Eastern","39.413106","-76.530044"
"(301) 888-","Landline","Prince George's","Brandywine","MD","Maryland","20613","Eastern","38.658807","-76.824293"
"(410) 847-","Landline","Baltimore","Towson","MD","Maryland","21204","Eastern","39.407156","-76.60379"
"(301) 236-","Landline","Montgomery","Silver Spring","MD","Maryland","20913","Eastern","38.833563","-76.877743"
"(301) 955-","Landline","Prince George's","Hyattsville","MD","Maryland","20788","Eastern","38.969434","-76.950913"
"(410) 821-","Landline","Baltimore","Towson","MD","Maryland","21204","Eastern","39.407156","-76.60379"
"(301) 673-","Landline","Frederick","Frederick","MD","Maryland","21709","Eastern","39.469961","-77.392139"
"(301) 576-","Landline","Montgomery","Silver Spring","MD","Maryland","20913","Eastern","38.833563","-76.877743"
"(410) 542-","Landline","Baltimore City","Baltimore","MD","Maryland","21213","Eastern","39.306606","-76.603338"
"(301) 486-","Landline","Prince George's","Greenbelt","MD","Maryland","20768","Eastern","38.833563","-76.877743"
"(301) 370-","Cell Number","Montgomery","Gaithersburg","MD","Maryland","20886","Eastern","39.175703","-77.18725"
"(301) 360-","Landline","Frederick","Frederick","MD","Maryland","21709","Eastern","39.469961","-77.392139"
"(301) 931-","Landline","Prince George's","Beltsville","MD","Maryland","20704","Eastern","38.833563","-76.877743"
"(301) 664-","Landline","Montgomery","Chevy Chase","MD","Maryland","20815","Eastern","38.983759","-77.079449"
"(301) 870-","Landline","Charles","Waldorf","MD","Maryland","20603","Eastern","38.52115","-77.062012"
"(410) 784-","Landline","Somerset","Deal Island","MD","Maryland","21821","Eastern","38.166101","-75.92329"
"(301) 655-","Cell Number","Montgomery","Bethesda","MD","Maryland","20894","Eastern","39.143979","-77.207617"
"(301) 589-","Landline","Montgomery","Silver Spring","MD","Maryland","20913","Eastern","38.833563","-76.877743"
"(301) 852-","Landline","Prince George's","Hyattsville","MD","Maryland","20788","Eastern","38.969434","-76.950913"
"(301) 737-","Landline","Saint Mary's","Lexington Park","MD","Maryland","20653","Eastern","38.232909","-76.430853"
"(301) 637-","Landline","Montgomery","Rockville","MD","Maryland","20857","Eastern","39.143979","-77.207617"
"(301) 883-","Landline","Prince George's","Hyattsville","MD","Maryland","20788","Eastern","38.969434","-76.950913"
"(301) 403-","Landline","Prince George's","Hyattsville","MD","Maryland","20788","Eastern","38.969434","-76.950913"
"(410) 952-","Cell Number","Baltimore City","Baltimore","MD","Maryland","21213","Eastern","39.306606","-76.603338"
"(301) 468-","Landline","Montgomery","Rockville","MD","Maryland","20857","Eastern","39.143979","-77.207617"
"(301) 755-","Landline","Montgomery","Silver Spring","MD","Maryland","20913","Eastern","38.833563","-76.877743"
"(410) 337-","Landline","Baltimore","Towson","MD","Maryland","21204","Eastern","39.407156","-76.60379"
"(410) 632-","Landline","Worcester","Snow Hill","MD","Maryland","21863","Eastern","38.217824","-75.326618"
"(301) 850-","Landline","Prince George's","Glenn Dale","MD","Maryland","20769","Eastern","38.98346","-76.811392"
"(410) 974-","Landline","Anne Arundel","Arnold","MD","Maryland","21012","Eastern","39.031461","-76.623203"
"(301) 877-","Landline","Prince George's","Clinton","MD","Maryland","20735","Eastern","38.739765","-76.912096"
"(410) 429-","Landline","Baltimore","Reisterstown","MD","Maryland","21136","Eastern","39.487615","-76.796347"
"(410) 735-","Landline","Baltimore City","Baltimore","MD","Maryland","21213","Eastern","39.306606","-76.603338"
"(301) 800-","Unknown","Washington","Hagerstown","MD","Maryland","21749","Eastern","39.520696","-77.916196"
"(410) 924-","Cell Number","Talbot","Easton","MD","Maryland","21601","Eastern","38.800714","-76.051486"
"(301) 453-","Landline","Garrett","Kitzmiller","MD","Maryland","21538","Eastern","39.416917","-79.222202"
"(301) 787-","Cell Number","Montgomery","Silver Spring","MD","Maryland","20913","Eastern","38.833563","-76.877743"
"(410) 669-","Landline","Baltimore City","Baltimore","MD","Maryland","21213","Eastern","39.306606","-76.603338"
"(410) 206-","Cell Number","Baltimore","Catonsville","MD","Maryland","21228","Eastern","39.274156","-76.631074"
"(301) 632-","Landline","Charles","Waldorf","MD","Maryland","20603","Eastern","38.52115","-77.062012"
"(410) 519-","Landline","Anne Arundel","Severn","MD","Maryland","21144","Eastern","38.983971","-76.623121"
"(410) 562-","Cell Number","Anne Arundel","Annapolis","MD","Maryland","21412","Eastern","38.974203","-76.594942"
"(410) 795-","Landline","Carroll","Sykesville","MD","Maryland","21784","Eastern","39.45672","-76.969601"
"(301) 556-","Landline","Montgomery","Gaithersburg","MD","Maryland","20886","Eastern","39.175703","-77.18725"
"(301) 307-","Landline","Prince George's","College Park","MD","Maryland","20742","Eastern","38.833563","-76.877743"
"(410) 346-","Landline","Carroll","Westminster","MD","Maryland","21158","Eastern","39.606981","-77.029403"
"(301) 488-","Cell Number","Prince George's","Greenbelt","MD","Maryland","20768","Eastern","38.833563","-76.877743"
"(410) 894-","Cell Number","Baltimore","Towson","MD","Maryland","21204","Eastern","39.407156","-76.60379"
"(410) 438-","Landline","Queen Anne's","Barclay","MD","Maryland","21607","Eastern","39.073391","-76.060665"
"(410) 977-","Cell Number","Baltimore City","Baltimore","MD","Maryland","21213","Eastern","39.306606","-76.603338"
"(410) 470-","Landline","Baltimore City","Baltimore","MD","Maryland","21213","Eastern","39.306606","-76.603338"
"(410) 900-","Landline","Baltimore City","Baltimore","MD","Maryland","21213","Eastern","39.306606","-76.603338"
"(301) 568-","Landline","Prince George's","Suitland","MD","Maryland","20752","Eastern","38.833563","-76.877743"
"(301) 788-","Cell Number","Frederick","Frederick","MD","Maryland","21709","Eastern","39.469961","-77.392139"
"(410) 631-","Landline","Baltimore City","Baltimore","MD","Maryland","21213","Eastern","39.306606","-76.603338"
"(301) 323-","Landline","Prince George's","Laurel","MD","Maryland","20709","Eastern","38.833563","-76.877743"
"(410) 971-","Cell Number","Baltimore","Catonsville","MD","Maryland","21228","Eastern","39.274156","-76.631074"
"(410) 742-","Landline","Wicomico","Salisbury","MD","Maryland","21803","Eastern","38.388434","-75.6276"
"(410) 764-","Landline","Baltimore","Baltimore","MD","Maryland","21213","Eastern","39.306606","-76.603338"
"(410) 890-","Cell Number","Baltimore","Towson","MD","Maryland","21204","Eastern","39.407156","-76.60379"
"(301) 753-","Landline","Prince George's","Oxon Hill","MD","Maryland","20750","Eastern","38.833563","-76.877743"
"(301) 695-","Landline","Frederick","Frederick","MD","Maryland","21709","Eastern","39.469961","-77.392139"
"(410) 688-","Cell Number","Harford","Fallston","MD","Maryland","21047","Eastern","39.531206","-76.439035"
"(410) 212-","Cell Number","Anne Arundel","Annapolis","MD","Maryland","21412","Eastern","38.974203","-76.594942"
"(301) 372-","Landline","Prince George's","Brandywine","MD","Maryland","20613","Eastern","38.658807","-76.824293"
"(410) 426-","Landline","Baltimore City","Baltimore","MD","Maryland","21213","Eastern","39.306606","-76.603338"
"(410) 563-","Landline","Baltimore City","Baltimore","MD","Maryland","21213","Eastern","39.306606","-76.603338"
"(410) 514-","Landline","Anne Arundel","Severn","MD","Maryland","21144","Eastern","38.983971","-76.623121"
"(301) 595-","Landline","Prince George's","Beltsville","MD","Maryland","20704","Eastern","38.833563","-76.877743"
"(301) 251-","Landline","Montgomery","Rockville","MD","Maryland","20857","Eastern","39.143979","-77.207617"
"(410) 357-","Landline","Baltimore","Parkton","MD","Maryland","21120","Eastern","39.642203","-76.673693"
"(410) 202-","Landline","Wicomico","Salisbury","MD","Maryland","21803","Eastern","38.388434","-75.6276"
"(410) 447-","Cell Number","Howard","Columbia","MD","Maryland","21045","Eastern","39.207806","-76.825475"
"(410) 947-","Landline","Baltimore City","Baltimore","MD","Maryland","21213","Eastern","39.306606","-76.603338"
"(410) 521-","Landline","Baltimore","Randallstown","MD","Maryland","21133","Eastern","39.377872","-76.816675"
"(301) 862-","Landline","Saint Mary's","Lexington Park","MD","Maryland","20653","Eastern","38.232909","-76.430853"
"(410) 358-","Landline","Baltimore","Baltimore","MD","Maryland","21213","Eastern","39.306606","-76.603338"
"(301) 858-","Landline","Prince George's","Glenn Dale","MD","Maryland","20769","Eastern","38.98346","-76.811392"
"(301) 426-","Cell Number","Prince George's","Beltsville","MD","Maryland","20704","Eastern","38.833563","-76.877743"
"(301) 560-","Landline","Prince George's","Hyattsville","MD","Maryland","20788","Eastern","38.969434","-76.950913"
"(301) 365-","Landline","Montgomery","Bethesda","MD","Maryland","20894","Eastern","39.143979","-77.207617"
"(410) 286-","Landline","Calvert","North Beach","MD","Maryland","20714","Eastern","38.610496","-76.595901"
"(410) 770-","Landline","Talbot","Easton","MD","Maryland","21601","Eastern","38.800714","-76.051486"
"(301) 999-","Cell Number","Washington","Hagerstown","MD","Maryland","21749","Eastern","39.520696","-77.916196"
"(410) 278-","Landline","Harford","Aberdeen","MD","Maryland","21001","Eastern","39.499909","-76.231177"
"(410) 442-","Landline","Howard","Glenwood","MD","Maryland","21738","Eastern","39.281504","-77.025362"
"(410) 799-","Landline","Howard","Elkridge","MD","Maryland","21075","Eastern","39.205756","-76.753093"
"(410) 839-","Cell Number","Baltimore","Towson","MD","Maryland","21204","Eastern","39.407156","-76.60379"
"(410) 685-","Landline","Baltimore City","Baltimore","MD","Maryland","21213","Eastern","39.306606","-76.603338"
"(301) 916-","Landline","Montgomery","Poolesville","MD","Maryland","20837","Eastern","39.123705","-77.403211"
"(301) 823-","Landline","Prince George's","Mount Rainier","MD","Maryland","20712","Eastern","38.94266","-76.967057"
"(410) 706-","Landline","Baltimore City","Baltimore","MD","Maryland","21213","Eastern","39.306606","-76.603338"
"(301) 754-","Landline","Montgomery","Silver Spring","MD","Maryland","20913","Eastern","38.833563","-76.877743"
"(301) 441-","Landline","Prince George's","Greenbelt","MD","Maryland","20768","Eastern","38.833563","-76.877743"
"(301) 644-","Landline","Frederick","Frederick","MD","Maryland","21709","Eastern","39.469961","-77.392139"
"(301) 540-","Landline","Montgomery","Gaithersburg","MD","Maryland","20886","Eastern","39.175703","-77.18725"
"(410) 967-","Cell Number","Baltimore","Towson","MD","Maryland","21204","Eastern","39.407156","-76.60379"
"(410) 816-","Cell Number","Baltimore","Towson","MD","Maryland","21204","Eastern","39.407156","-76.60379"
"(301) 302-","Landline","Washington","Hagerstown","MD","Maryland","21749","Eastern","39.520696","-77.916196"
"(410) 810-","Landline","Kent","Chestertown","MD","Maryland","21690","Eastern","39.034637","-76.092127"
"(410) 818-","Landline","Baltimore City","Baltimore","MD","Maryland","21213","Eastern","39.306606","-76.603338"
"(410) 546-","Landline","Wicomico","Salisbury","MD","Maryland","21803","Eastern","38.388434","-75.6276"
"(301) 727-","Landline","Prince George's","Capitol Heights","MD","Maryland","20790","Eastern","38.833563","-76.877743"
"(410) 271-","Cell Number","Anne Arundel","Annapolis","MD","Maryland","21412","Eastern","38.974203","-76.594942"
"(410) 200-","Landline","Talbot","Easton","MD","Maryland","21601","Eastern","38.800714","-76.051486"
"(301) 953-","Landline","Prince George's","Laurel","MD","Maryland","20709","Eastern","38.833563","-76.877743"
"(410) 913-","Cell Number","Baltimore City","Baltimore","MD","Maryland","21213","Eastern","39.306606","-76.603338"
"(301) 530-","Landline","Montgomery","Rockville","MD","Maryland","20857","Eastern","39.143979","-77.207617"
"(301) 908-","Cell Number","Montgomery","Silver Spring","MD","Maryland","20913","Eastern","38.833563","-76.877743"
"(301) 272-","Landline","Montgomery","Rockville","MD","Maryland","20857","Eastern","39.143979","-77.207617"
"(301) 872-","Landline","Saint Mary's","Ridge","MD","Maryland","20680","Eastern","38.122181","-76.369412"
"(301) 452-","Cell Number","Montgomery","Silver Spring","MD","Maryland","20913","Eastern","38.833563","-76.877743"
"(410) 454-","Landline","Baltimore City","Baltimore","MD","Maryland","21213","Eastern","39.306606","-76.603338"
"(301) 885-","Landline","Charles","Waldorf","MD","Maryland","20603","Eastern","38.52115","-77.062012"
"(301) 614-","Landline","Prince George's","Greenbelt","MD","Maryland","20768","Eastern","38.833563","-76.877743"
"(301) 816-","Landline","Montgomery","Rockville","MD","Maryland","20857","Eastern","39.143979","-77.207617"
"(410) 930-","Cell Number","Baltimore City","Baltimore","MD","Maryland","21213","Eastern","39.306606","-76.603338"
"(301) 817-","Landline","Prince George's","Suitland","MD","Maryland","20752","Eastern","38.833563","-76.877743"
"(301) 292-","Landline","Prince George's","Fort Washington","MD","Maryland","20749","Eastern","38.833563","-76.877743"
"(301) 340-","Landline","Montgomery","Rockville","MD","Maryland","20857","Eastern","39.143979","-77.207617"
"(410) 422-","Cell Number","Wicomico","Salisbury","MD","Maryland","21803","Eastern","38.388434","-75.6276"
"(410) 230-","Landline","Baltimore City","Baltimore","MD","Maryland","21213","Eastern","39.306606","-76.603338"
"(301) 250-","Landline","Montgomery","Rockville","MD","Maryland","20857","Eastern","39.143979","-77.207617"
"(410) 532-","Landline","Baltimore City","Baltimore","MD","Maryland","21213","Eastern","39.306606","-76.603338"
"(301) 730-","Cell Number","Frederick","Myersville","MD","Maryland","21773","Eastern","39.550036","-77.556275"
"(301) 629-","Cell Number","Prince George's","Glenn Dale","MD","Maryland","20769","Eastern","38.98346","-76.811392"
"(301) 735-","Landline","Prince George's","Suitland","MD","Maryland","20752","Eastern","38.833563","-76.877743"
"(410) 918-","Landline","Baltimore","Essex","MD","Maryland","21221","Eastern","39.296007","-76.559787"
"(301) 961-","Landline","Montgomery","Chevy Chase","MD","Maryland","20815","Eastern","38.983759","-77.079449"
"(301) 497-","Landline","Prince George's","Laurel","MD","Maryland","20709","Eastern","38.833563","-76.877743"
"(301) 226-","Landline","Prince George's","Hyattsville","MD","Maryland","20788","Eastern","38.969434","-76.950913"
"(410) 910-","Landline","Baltimore City","Baltimore","MD","Maryland","21213","Eastern","39.306606","-76.603338"
"(301) 585-","Landline","Montgomery","Silver Spring","MD","Maryland","20913","Eastern","38.833563","-76.877743"
"(410) 768-","Landline","Anne Arundel","Glen Burnie","MD","Maryland","21060","Eastern","39.170158","-76.579836"
"(301) 890-","Landline","Prince George's","Beltsville","MD","Maryland","20704","Eastern","38.833563","-76.877743"
"(410) 836-","Landline","Harford","Bel Air","MD","Maryland","21014","Eastern","39.547557","-76.321984"
"(410) 402-","Landline","Baltimore City","Baltimore","MD","Maryland","21213","Eastern","39.306606","-76.603338"
"(410) 460-","Cell Number","Howard","Elkridge","MD","Maryland","21075","Eastern","39.205756","-76.753093"
"(301) 725-","Landline","Prince George's","Laurel","MD","Maryland","20709","Eastern","38.833563","-76.877743"
"(301) 770-","Landline","Montgomery","Rockville","MD","Maryland","20857","Eastern","39.143979","-77.207617"
"(410) 396-","Landline","Baltimore City","Baltimore","MD","Maryland","21213","Eastern","39.306606","-76.603338"
"(301) 607-","Landline","Frederick","New Market","MD","Maryland","21774","Eastern","39.432571","-77.220932"
"(410) 866-","Landline","Baltimore City","Baltimore","MD","Maryland","21213","Eastern","39.306606","-76.603338"
"(410) 759-","Cell Number","Baltimore City","Baltimore","MD","Maryland","21213","Eastern","39.306606","-76.603338"
"(410) 630-","Landline","Baltimore City","Baltimore","MD","Maryland","21213","Eastern","39.306606","-76.603338"
"(410) 570-","Cell Number","Anne Arundel","Annapolis","MD","Maryland","21412","Eastern","38.974203","-76.594942"
"(410) 540-","Landline","Howard","Elkridge","MD","Maryland","21075","Eastern","39.205756","-76.753093"
"(410) 859-","Landline","Anne Arundel","Linthicum Heights","MD","Maryland","21090","Eastern","39.068309","-76.631743"
"(410) 283-","Cell Number","Baltimore","Towson","MD","Maryland","21204","Eastern","39.407156","-76.60379"
"(410) 414-","Landline","Calvert","Prince Frederick","MD","Maryland","20678","Eastern","38.511282","-76.528578"
"(410) 427-","Landline","Baltimore City","Baltimore","MD","Maryland","21213","Eastern","39.306606","-76.603338"
"(301) 765-","Landline","Montgomery","Bethesda","MD","Maryland","20894","Eastern","39.143979","-77.207617"
"(410) 895-","Landline","Baltimore City","Baltimore","MD","Maryland","21213","Eastern","39.306606","-76.603338"
"(410) 648-","Landline","Kent","Galena","MD","Maryland","21635","Eastern","39.320381","-75.836031"
"(410) 873-","Landline","Wicomico","Nanticoke","MD","Maryland","21840","Eastern","38.388434","-75.6276"
"(410) 803-","Landline","Harford","Bel Air","MD","Maryland","21014","Eastern","39.547557","-76.321984"
"(410) 741-","Landline","Calvert","North Beach","MD","Maryland","20714","Eastern","38.610496","-76.595901"
"(301) 395-","Cell Number","Prince George's","Laurel","MD","Maryland","20709","Eastern","38.833563","-76.877743"
"(410) 956-","Landline","Anne Arundel","Annapolis","MD","Maryland","21412","Eastern","38.974203","-76.594942"
"(301) 654-","Landline","Montgomery","Chevy Chase","MD","Maryland","20815","Eastern","38.983759","-77.079449"
"(410) 320-","Cell Number","Anne Arundel","Annapolis","MD","Maryland","21412","Eastern","38.974203","-76.594942"
"(301) 913-","Landline","Montgomery","Chevy Chase","MD","Maryland","20815","Eastern","38.983759","-77.079449"
"(410) 378-","Landline","Cecil","Port Deposit","MD","Maryland","21904","Eastern","39.615086","-76.063342"
"(410) 964-","Landline","Howard","Columbia","MD","Maryland","21045","Eastern","39.207806","-76.825475"
"(301) 469-","Landline","Montgomery","Bethesda","MD","Maryland","20894","Eastern","39.143979","-77.207617"
"(410) 364-","Landline","Queen Anne's","Queen Anne","MD","Maryland","21657","Eastern","38.975882","-75.975322"
"(301) 215-","Landline","Montgomery","Chevy Chase","MD","Maryland","20815","Eastern","38.983759","-77.079449"
"(301) 212-","Landline","Montgomery","Gaithersburg","MD","Maryland","20886","Eastern","39.175703","-77.18725"
"(410) 305-","Landline","Anne Arundel","Odenton","MD","Maryland","21113","Eastern","38.975412","-76.586886"
"(410) 471-","Landline","Howard","Elkridge","MD","Maryland","21075","Eastern","39.205756","-76.753093"
"(301) 653-","Cell Number","Charles","Waldorf","MD","Maryland","20603","Eastern","38.52115","-77.062012"
"(410) 233-","Landline","Baltimore City","Baltimore","MD","Maryland","21213","Eastern","39.306606","-76.603338"
"(410) 537-","Landline","Baltimore City","Baltimore","MD","Maryland","21213","Eastern","39.306606","-76.603338"
"(301) 499-","Landline","Prince George's","Capitol Heights","MD","Maryland","20790","Eastern","38.833563","-76.877743"
"(410) 720-","Landline","Howard","Ellicott City","MD","Maryland","21042","Eastern","39.261897","-76.897247"
"(410) 994-","Landline","Harford","Aberdeen","MD","Maryland","21001","Eastern","39.499909","-76.231177"
"(410) 398-","Landline","Cecil","Elkton","MD","Maryland","21922","Eastern","39.593612","-75.947332"
"(301) 625-","Landline","Montgomery","Silver Spring","MD","Maryland","20913","Eastern","38.833563","-76.877743"
"(301) 581-","Landline","Montgomery","Rockville","MD","Maryland","20857","Eastern","39.143979","-77.207617"
"(410) 716-","Landline","Baltimore","Towson","MD","Maryland","21204","Eastern","39.407156","-76.60379"
"(301) 480-","Landline","Montgomery","Bethesda","MD","Maryland","20894","Eastern","39.143979","-77.207617"
"(410) 377-","Landline","Baltimore","Towson","MD","Maryland","21204","Eastern","39.407156","-76.60379"
"(301) 380-","Landline","Montgomery","Rockville","MD","Maryland","20857","Eastern","39.143979","-77.207617"
"(410) 244-","Landline","Baltimore City","Baltimore","MD","Maryland","21213","Eastern","39.306606","-76.603338"
"(301) 738-","Landline","Montgomery","Rockville","MD","Maryland","20857","Eastern","39.143979","-77.207617"
"(410) 254-","Landline","Baltimore City","Baltimore","MD","Maryland","21213","Eastern","39.306606","-76.603338"
"(410) 249-","Cell Number","Baltimore","Towson","MD","Maryland","21204","Eastern","39.407156","-76.60379"
"(410) 822-","Landline","Talbot","Easton","MD","Maryland","21601","Eastern","38.800714","-76.051486"
"(410) 850-","Landline","Anne Arundel","Linthicum Heights","MD","Maryland","21090","Eastern","39.068309","-76.631743"
"(301) 228-","Landline","Frederick","Frederick","MD","Maryland","21709","Eastern","39.469961","-77.392139"
"(301) 650-","Landline","Montgomery","Silver Spring","MD","Maryland","20913","Eastern","38.833563","-76.877743"
"(301) 707-","Cell Number","Allegany","Cumberland","MD","Maryland","21503","Eastern","39.580691","-78.690593"
"(410) 860-","Landline","Wicomico","Salisbury","MD","Maryland","21803","Eastern","38.388434","-75.6276"
"(410) 916-","Cell Number","Baltimore City","Baltimore","MD","Maryland","21213","Eastern","39.306606","-76.603338"
"(301) 378-","Unknown","Frederick","Frederick","MD","Maryland","21709","Eastern","39.469961","-77.392139"
"(301) 833-","Landline","Prince George's","Glenn Dale","MD","Maryland","20769","Eastern","38.98346","-76.811392"
"(301) 651-","Cell Number","Montgomery","Silver Spring","MD","Maryland","20913","Eastern","38.833563","-76.877743"
"(301) 935-","Landline","Prince George's","Hyattsville","MD","Maryland","20788","Eastern","38.969434","-76.950913"
"(301) 837-","Landline","Prince George's","Hyattsville","MD","Maryland","20788","Eastern","38.969434","-76.950913"
"(301) 868-","Landline","Prince George's","Clinton","MD","Maryland","20735","Eastern","38.739765","-76.912096"
"(410) 679-","Landline","Harford","Edgewood","MD","Maryland","21040","Eastern","39.434799","-76.293579"
"(301) 375-","Landline","Charles","Bryans Road","MD","Maryland","20616","Eastern","38.636227","-77.084649"
"(410) 547-","Landline","Baltimore City","Baltimore","MD","Maryland","21213","Eastern","39.306606","-76.603338"
"(410) 988-","Landline","Howard","Columbia","MD","Maryland","21045","Eastern","39.207806","-76.825475"
"(301) 283-","Landline","Charles","Bryans Road","MD","Maryland","20616","Eastern","38.636227","-77.084649"
"(410) 515-","Landline","Harford","Abingdon","MD","Maryland","21009","Eastern","39.472579","-76.277279"
"(301) 807-","Cell Number","Montgomery","Silver Spring","MD","Maryland","20913","Eastern","38.833563","-76.877743"
"(410) 531-","Landline","Howard","Columbia","MD","Maryland","21045","Eastern","39.207806","-76.825475"
"(301) 691-","Landline","Montgomery","Poolesville","MD","Maryland","20837","Eastern","39.123705","-77.403211"
"(301) 821-","Landline","Prince George's","Laurel","MD","Maryland","20709","Eastern","38.833563","-76.877743"
"(410) 999-","Landline","Baltimore City","Baltimore","MD","Maryland","21213","Eastern","39.306606","-76.603338"
"(410) 482-","Landline","Caroline","Greensboro","MD","Maryland","21639","Eastern","38.968592","-75.790732"
"(410) 466-","Landline","Baltimore City","Baltimore","MD","Maryland","21213","Eastern","39.306606","-76.603338"
"(301) 747-","Landline","Prince George's","Mount Rainier","MD","Maryland","20712","Eastern","38.94266","-76.967057"
"(410) 258-","Cell Number","Anne Arundel","Baltimore","MD","Maryland","21213","Eastern","39.306606","-76.603338"
"(410) 215-","Cell Number","Baltimore City","Baltimore","MD","Maryland","21213","Eastern","39.306606","-76.603338"
"(410) 904-","Landline","Baltimore City","Baltimore","MD","Maryland","21213","Eastern","39.306606","-76.603338"
"(410) 356-","Landline","Baltimore","Pikesville","MD","Maryland","21208","Eastern","39.385156","-76.727036"
"(410) 796-","Landline","Howard","Elkridge","MD","Maryland","21075","Eastern","39.205756","-76.753093"
"(410) 554-","Landline","Baltimore City","Baltimore","MD","Maryland","21213","Eastern","39.306606","-76.603338"
"(410) 385-","Landline","Baltimore City","Baltimore","MD","Maryland","21213","Eastern","39.306606","-76.603338"
"(301) 752-","Cell Number","Charles","Waldorf","MD","Maryland","20603","Eastern","38.52115","-77.062012"
"(410) 266-","Landline","Anne Arundel","Annapolis","MD","Maryland","21412","Eastern","38.974203","-76.594942"
"(301) 459-","Landline","Prince George's","Lanham","MD","Maryland","20703","Eastern","38.833563","-76.877743"
"(410) 733-","Cell Number","Baltimore","Catonsville","MD","Maryland","21228","Eastern","39.274156","-76.631074"
"(301) 524-","Cell Number","Frederick","Frederick","MD","Maryland","21709","Eastern","39.469961","-77.392139"
"(410) 518-","Landline","Anne Arundel","Severna Park","MD","Maryland","21146","Eastern","38.951199","-76.603722"
"(410) 413-","Landline","Baltimore City","Baltimore","MD","Maryland","21213","Eastern","39.306606","-76.603338"
"(301) 662-","Landline","Frederick","Frederick","MD","Maryland","21709","Eastern","39.469961","-77.392139"
"(410) 280-","Landline","Anne Arundel","Annapolis","MD","Maryland","21412","Eastern","38.974203","-76.594942"
"(410) 758-","Landline","Queen Anne's","Centreville","MD","Maryland","21617","Eastern","39.084003","-76.091375"
"(301) 331-","Cell Number","Washington","Hagerstown","MD","Maryland","21749","Eastern","39.520696","-77.916196"
"(410) 989-","Landline","Harford","Churchville","MD","Maryland","21028","Eastern","39.563172","-76.236427"
"(301) 235-","Landline","Prince George's","Clinton","MD","Maryland","20735","Eastern","38.739765","-76.912096"
"(301) 361-","Landline","Prince George's","Laurel","MD","Maryland","20709","Eastern","38.833563","-76.877743"
"(410) 835-","Landline","Wicomico","Willards","MD","Maryland","21874","Eastern","38.40406","-75.351349"
"(301) 418-","Landline","Frederick","Frederick","MD","Maryland","21709","Eastern","39.469961","-77.392139"
"(301) 699-","Landline","Prince George's","Hyattsville","MD","Maryland","20788","Eastern","38.969434","-76.950913"
"(410) 300-","Cell Number","Howard","Elkridge","MD","Maryland","21075","Eastern","39.205756","-76.753093"
"(410) 767-","Landline","Baltimore City","Baltimore","MD","Maryland","21213","Eastern","39.306606","-76.603338"
"(301) 843-","Landline","Charles","Waldorf","MD","Maryland","20603","Eastern","38.52115","-77.062012"
"(301) 545-","Landline","Montgomery","Rockville","MD","Maryland","20857","Eastern","39.143979","-77.207617"
"(410) 484-","Landline","Baltimore","Pikesville","MD","Maryland","21208","Eastern","39.385156","-76.727036"
"(301) 388-","Landline","Montgomery","Silver Spring","MD","Maryland","20913","Eastern","38.833563","-76.877743"
"(410) 512-","Landline","Baltimore","Towson","MD","Maryland","21204","Eastern","39.407156","-76.60379"
"(301) 308-","Cell Number","Prince George's","Greenbelt","MD","Maryland","20768","Eastern","38.833563","-76.877743"
"(410) 522-","Landline","Baltimore City","Baltimore","MD","Maryland","21213","Eastern","39.306606","-76.603338"
"(301) 973-","Landline","Prince George's","Glenn Dale","MD","Maryland","20769","Eastern","38.98346","-76.811392"
"(410) 420-","Landline","Harford","Bel Air","MD","Maryland","21014","Eastern","39.547557","-76.321984"
"(410) 863-","Landline","Anne Arundel","Glen Burnie","MD","Maryland","21060","Eastern","39.170158","-76.579836"
"(410) 592-","Landline","Baltimore","Fork","MD","Maryland","21051","Eastern","39.47314","-76.448385"
"(301) 467-","Cell Number","Montgomery","Silver Spring","MD","Maryland","20913","Eastern","38.833563","-76.877743"
"(410) 954-","Landline","Baltimore City","Baltimore","MD","Maryland","21213","Eastern","39.306606","-76.603338"
"(410) 361-","Landline","Baltimore City","Baltimore","MD","Maryland","21213","Eastern","39.306606","-76.603338"
"(301) 606-","Cell Number","Frederick","Frederick","MD","Maryland","21709","Eastern","39.469961","-77.392139"
"(410) 861-","Landline","Baltimore","Reisterstown","MD","Maryland","21136","Eastern","39.487615","-76.796347"
"(301) 587-","Landline","Montgomery","Silver Spring","MD","Maryland","20913","Eastern","38.833563","-76.877743"
"(410) 614-","Landline","Baltimore City","Baltimore","MD","Maryland","21213","Eastern","39.306606","-76.603338"
"(410) 978-","Cell Number","Baltimore","Catonsville","MD","Maryland","21228","Eastern","39.274156","-76.631074"
"(410) 914-","Landline","Harford","Churchville","MD","Maryland","21028","Eastern","39.563172","-76.236427"
"(301) 612-","Cell Number","Montgomery","Sandy Spring","MD","Maryland","20860","Eastern","39.142424","-77.044614"
"(410) 997-","Landline","Howard","Columbia","MD","Maryland","21045","Eastern","39.207806","-76.825475"
"(410) 778-","Landline","Kent","Chestertown","MD","Maryland","21690","Eastern","39.034637","-76.092127"
"(410) 749-","Landline","Wicomico","Salisbury","MD","Maryland","21803","Eastern","38.388434","-75.6276"
"(410) 598-","Cell Number","Baltimore City","Baltimore","MD","Maryland","21213","Eastern","39.306606","-76.603338"
"(301) 851-","Landline","Prince George's","Hyattsville","MD","Maryland","20788","Eastern","38.969434","-76.950913"
"(301) 714-","Landline","Washington","Hagerstown","MD","Maryland","21749","Eastern","39.520696","-77.916196"
"(301) 919-","Cell Number","Montgomery","Bethesda","MD","Maryland","20894","Eastern","39.143979","-77.207617"
"(410) 216-","Landline","Anne Arundel","Annapolis","MD","Maryland","21412","Eastern","38.974203","-76.594942"
"(301) 288-","Landline","Montgomery","Rockville","MD","Maryland","20857","Eastern","39.143979","-77.207617"
"(410) 403-","Landline","Baltimore City","Baltimore","MD","Maryland","21213","Eastern","39.306606","-76.603338"
"(410) 996-","Landline","Cecil","Port Deposit","MD","Maryland","21904","Eastern","39.615086","-76.063342"
"(410) 616-","Landline","Baltimore City","Baltimore","MD","Maryland","21213","Eastern","39.306606","-76.603338"
"(410) 486-","Landline","Baltimore","Pikesville","MD","Maryland","21208","Eastern","39.385156","-76.727036"
"(410) 830-","Landline","Baltimore","Towson","MD","Maryland","21204","Eastern","39.407156","-76.60379"
"(301) 551-","Landline","Montgomery","Kensington","MD","Maryland","20895","Eastern","39.09538","-77.111555"
"(301) 769-","Landline","Saint Mary's","Avenue","MD","Maryland","20609","Eastern","38.300217","-76.743445"
"(410) 837-","Landline","Baltimore City","Baltimore","MD","Maryland","21213","Eastern","39.306606","-76.603338"
"(410) 303-","Cell Number","Baltimore City","Baltimore","MD","Maryland","21213","Eastern","39.306606","-76.603338"
"(410) 308-","Landline","Baltimore","Towson","MD","Maryland","21204","Eastern","39.407156","-76.60379"
"(301) 778-","Landline","Prince George's","Capitol Heights","MD","Maryland","20790","Eastern","38.833563","-76.877743"
"(410) 743-","Cell Number","Baltimore City","Baltimore","MD","Maryland","21213","Eastern","39.306606","-76.603338"
"(301) 362-","Landline","Prince George's","Laurel","MD","Maryland","20709","Eastern","38.833563","-76.877743"
"(301) 386-","Landline","Prince George's","Hyattsville","MD","Maryland","20788","Eastern","38.969434","-76.950913"
"(410) 330-","Cell Number","Dorchester","Cambridge","MD","Maryland","21613","Eastern","38.479813","-76.079864"
"(410) 633-","Landline","Baltimore City","Baltimore","MD","Maryland","21213","Eastern","39.306606","-76.603338"
"(301) 681-","Landline","Montgomery","Silver Spring","MD","Maryland","20913","Eastern","38.833563","-76.877743"
"(301) 544-","Cell Number","Montgomery","Rockville","MD","Maryland","20857","Eastern","39.143979","-77.207617"
"(410) 654-","Landline","Baltimore","Pikesville","MD","Maryland","21208","Eastern","39.385156","-76.727036"
"(301) 580-","Cell Number","Montgomery","Silver Spring","MD","Maryland","20913","Eastern","38.833563","-76.877743"
"(301) 329-","Cell Number","Prince George's","Greenbelt","MD","Maryland","20768","Eastern","38.833563","-76.877743"
"(410) 920-","Cell Number","Cecil","Elkton","MD","Maryland","21922","Eastern","39.593612","-75.947332"
"(301) 427-","Landline","Montgomery","Silver Spring","MD","Maryland","20913","Eastern","38.833563","-76.877743"
"(301) 429-","Landline","Prince George's","Lanham","MD","Maryland","20703","Eastern","38.833563","-76.877743"
"(301) 687-","Landline","Allegany","Frostburg","MD","Maryland","21532","Eastern","39.64206","-78.912502"
"(410) 973-","Unknown","Worcester","Berlin","MD","Maryland","21811","Eastern","38.310447","-75.320901"
"(301) 542-","Landline","Charles","Waldorf","MD","Maryland","20603","Eastern","38.52115","-77.062012"
"(410) 621-","Landline","Somerset","Princess Anne","MD","Maryland","21853","Eastern","38.200553","-75.75292"
"(301) 658-","Landline","Montgomery","Sandy Spring","MD","Maryland","20860","Eastern","39.142424","-77.044614"
"(301) 859-","Landline","Prince George's","Oxon Hill","MD","Maryland","20750","Eastern","38.833563","-76.877743"
"(301) 646-","Cell Number","Montgomery","Bethesda","MD","Maryland","20894","Eastern","39.143979","-77.207617"
"(301) 505-","Landline","Prince George's","Temple Hills","MD","Maryland","20748","Eastern","38.817263","-76.935795"
"(410) 437-","Landline","Anne Arundel","Pasadena","MD","Maryland","21123","Eastern","38.974203","-76.594942"
"(410) 441-","Cell Number","Cecil","Elkton","MD","Maryland","21922","Eastern","39.593612","-75.947332"
"(301) 777-","Landline","Allegany","Cumberland","MD","Maryland","21503","Eastern","39.580691","-78.690593"
"(410) 360-","Landline","Anne Arundel","Pasadena","MD","Maryland","21123","Eastern","38.974203","-76.594942"
"(410) 436-","Landline","Harford","Edgewood","MD","Maryland","21040","Eastern","39.434799","-76.293579"
"(410) 297-","Landline","Harford","Aberdeen","MD","Maryland","21001","Eastern","39.499909","-76.231177"
"(410) 394-","Landline","Calvert","Solomons","MD","Maryland","20688","Eastern","38.37741","-76.440937"
"(301) 202-","Unknown","Montgomery","Chevy Chase","MD","Maryland","20815","Eastern","38.983759","-77.079449"
"(301) 369-","Landline","Prince George's","Laurel","MD","Maryland","20709","Eastern","38.833563","-76.877743"
"(301) 477-","Landline","Prince George's","College Park","MD","Maryland","20742","Eastern","38.833563","-76.877743"
"(301) 945-","Landline","Montgomery","Hyattsville","MD","Maryland","20788","Eastern","38.969434","-76.950913"
"(301) 517-","Landline","Montgomery","Rockville","MD","Maryland","20857","Eastern","39.143979","-77.207617"
"(301) 873-","Cell Number","Montgomery","Silver Spring","MD","Maryland","20913","Eastern","38.833563","-76.877743"
"(301) 442-","Cell Number","Prince George's","Beltsville","MD","Maryland","20704","Eastern","38.833563","-76.877743"
"(410) 243-","Landline","Baltimore City","Baltimore","MD","Maryland","21213","Eastern","39.306606","-76.603338"
"(301) 871-","Landline","Montgomery","Rockville","MD","Maryland","20857","Eastern","39.143979","-77.207617"
"(410) 445-","Cell Number","Baltimore City","Baltimore","MD","Maryland","21213","Eastern","39.306606","-76.603338"
"(301) 534-","Cell Number","Montgomery","Indian Head","MD","Maryland","20640","Eastern","38.453999","-77.052819"
"(410) 213-","Landline","Worcester","Ocean City","MD","Maryland","21843","Eastern","38.22309","-75.324057"
"(301) 697-","Cell Number","Allegany","Cumberland","MD","Maryland","21503","Eastern","39.580691","-78.690593"
"(301) 839-","Landline","Prince George's","Oxon Hill","MD","Maryland","20750","Eastern","38.833563","-76.877743"
"(410) 962-","Landline","Baltimore City","Baltimore","MD","Maryland","21213","Eastern","39.306606","-76.603338"
"(410) 287-","Landline","Cecil","North East","MD","Maryland","21901","Eastern","39.535078","-75.894051"
"(301) 415-","Landline","Montgomery","Silver Spring","MD","Maryland","20913","Eastern","38.833563","-76.877743"
"(410) 883-","Landline","Dorchester","Rhodesdale","MD","Maryland","21659","Eastern","38.561727","-75.80465"
"(301) 678-","Landline","Washington","Hancock","MD","Maryland","21750","Eastern","39.58895","-78.050204"
"(301) 246-","Landline","Charles","Nanjemoy","MD","Maryland","20662","Eastern","38.430568","-77.192545"
"(410) 932-","Cell Number","Howard","Elkridge","MD","Maryland","21075","Eastern","39.205756","-76.753093"
"(410) 341-","Landline","Wicomico","Salisbury","MD","Maryland","21803","Eastern","38.388434","-75.6276"
"(410) 814-","Landline","Baltimore City","Baltimore","MD","Maryland","21213","Eastern","39.306606","-76.603338"
"(301) 267-","Cell Number","Prince George's","Greenbelt","MD","Maryland","20768","Eastern","38.833563","-76.877743"
"(410) 744-","Landline","Baltimore","Catonsville","MD","Maryland","21228","Eastern","39.274156","-76.631074"
"(301) 684-","Landline","Charles","Indian Head","MD","Maryland","20640","Eastern","38.453999","-77.052819"
"(410) 292-","Cell Number","Baltimore","Catonsville","MD","Maryland","21228","Eastern","39.274156","-76.631074"
"(301) 326-","Landline","Montgomery","Silver Spring","MD","Maryland","20913","Eastern","38.833563","-76.877743"
"(301) 891-","Landline","Prince George's","Hyattsville","MD","Maryland","20788","Eastern","38.969434","-76.950913"
"(410) 299-","Cell Number","Baltimore City","Baltimore","MD","Maryland","21213","Eastern","39.306606","-76.603338"
"(301) 299-","Landline","Montgomery","Bethesda","MD","Maryland","20894","Eastern","39.143979","-77.207617"
"(301) 671-","Landline","Washington","Hagerstown","MD","Maryland","21749","Eastern","39.520696","-77.916196"
"(301) 829-","Landline","Frederick","Mount Airy","MD","Maryland","21771","Eastern","39.407252","-77.214087"
"(301) 923-","Cell Number","Prince George's","Hyattsville","MD","Maryland","20788","Eastern","38.969434","-76.950913"
"(410) 431-","Landline","Anne Arundel","Severna Park","MD","Maryland","21146","Eastern","38.951199","-76.603722"
"(301) 385-","Cell Number","Montgomery","Bethesda","MD","Maryland","20894","Eastern","39.143979","-77.207617"
"(301) 289-","Landline","Prince George's","College Park","MD","Maryland","20742","Eastern","38.833563","-76.877743"
"(301) 716-","Cell Number","Prince George's","Beltsville","MD","Maryland","20704","Eastern","38.833563","-76.877743"
"(410) 653-","Landline","Baltimore","Pikesville","MD","Maryland","21208","Eastern","39.385156","-76.727036"
"(301) 232-","Landline","Montgomery","Sandy Spring","MD","Maryland","20860","Eastern","39.142424","-77.044614"
"(301) 278-","Landline","Prince George's","Mount Rainier","MD","Maryland","20712","Eastern","38.94266","-76.967057"
"(301) 564-","Landline","Montgomery","Rockville","MD","Maryland","20857","Eastern","39.143979","-77.207617"
"(410) 369-","Landline","Baltimore City","Baltimore","MD","Maryland","21213","Eastern","39.306606","-76.603338"
"(410) 889-","Landline","Baltimore City","Baltimore","MD","Maryland","21213","Eastern","39.306606","-76.603338"
"(301) 322-","Landline","Prince George's","Hyattsville","MD","Maryland","20788","Eastern","38.969434","-76.950913"
"(301) 996-","Cell Number","Prince George's","Beltsville","MD","Maryland","20704","Eastern","38.833563","-76.877743"
"(301) 275-","Cell Number","Montgomery","Bethesda","MD","Maryland","20894","Eastern","39.143979","-77.207617"
"(410) 857-","Landline","Carroll","Westminster","MD","Maryland","21158","Eastern","39.606981","-77.029403"
"(410) 678-","Cell Number","Howard","Elkridge","MD","Maryland","21075","Eastern","39.205756","-76.753093"
"(301) 902-","Landline","Prince George's","Beltsville","MD","Maryland","20704","Eastern","38.833563","-76.877743"
"(301) 783-","Landline","Allegany","Cumberland","MD","Maryland","21503","Eastern","39.580691","-78.690593"
"(410) 841-","Landline","Anne Arundel","Annapolis","MD","Maryland","21412","Eastern","38.974203","-76.594942"
"(301) 660-","Cell Number","Washington","Keedysville","MD","Maryland","21756","Eastern","39.458488","-77.693341"
"(410) 572-","Landline","Wicomico","Salisbury","MD","Maryland","21803","Eastern","38.388434","-75.6276"
"(301) 936-","Landline","Prince George's","Mount Rainier","MD","Maryland","20712","Eastern","38.94266","-76.967057"
"(301) 832-","Landline","Prince George's","Mount Rainier","MD","Maryland","20712","Eastern","38.94266","-76.967057"
"(301) 532-","Cell Number","Prince George's","Hyattsville","MD","Maryland","20788","Eastern","38.969434","-76.950913"
"(410) 634-","Landline","Caroline","Ridgely","MD","Maryland","21660","Eastern","38.874255","-75.866707"
"(301) 398-","Landline","Montgomery","Rockville","MD","Maryland","20857","Eastern","39.143979","-77.207617"
"(301) 679-","Landline","Montgomery","Mount Rainier","MD","Maryland","20712","Eastern","38.94266","-76.967057"
"(410) 528-","Landline","Baltimore City","Baltimore","MD","Maryland","21213","Eastern","39.306606","-76.603338"
"(301) 373-","Landline","Saint Mary's","Hollywood","MD","Maryland","20636","Eastern","38.342437","-76.569163"
"(410) 853-","Landline","Baltimore","Towson","MD","Maryland","21204","Eastern","39.407156","-76.60379"
"(410) 340-","Cell Number","Baltimore City","Baltimore","MD","Maryland","21213","Eastern","39.306606","-76.603338"
"(301) 487-","Landline","Frederick","Myersville","MD","Maryland","21773","Eastern","39.550036","-77.556275"
"(410) 203-","Landline","Howard","Ellicott City","MD","Maryland","21042","Eastern","39.261897","-76.897247"
"(301) 347-","Landline","Montgomery","Chevy Chase","MD","Maryland","20815","Eastern","38.983759","-77.079449"
"(410) 304-","Unknown","Queen Anne's","Queenstown","MD","Maryland","21658","Eastern","39.00255","-76.142374"
"(301) 538-","Cell Number","Montgomery","Bethesda","MD","Maryland","20894","Eastern","39.143979","-77.207617"
"(410) 349-","Landline","Anne Arundel","Annapolis","MD","Maryland","21412","Eastern","38.974203","-76.594942"
"(301) 767-","Landline","Montgomery","Bethesda","MD","Maryland","20894","Eastern","39.143979","-77.207617"
"(301) 860-","Landline","Prince George's","Bowie","MD","Maryland","20715","Eastern","38.982612","-76.74379"
"(410) 355-","Landline","Baltimore City","Baltimore","MD","Maryland","21213","Eastern","39.306606","-76.603338"
"(301) 455-","Cell Number","Prince George's","Beltsville","MD","Maryland","20704","Eastern","38.833563","-76.877743"
"(410) 915-","Landline","Baltimore City","Baltimore","MD","Maryland","21213","Eastern","39.306606","-76.603338"
"(410) 239-","Landline","Carroll","Hampstead","MD","Maryland","21074","Eastern","39.614552","-76.864427"
"(301) 471-","Cell Number","Frederick","Frederick","MD","Maryland","21709","Eastern","39.469961","-77.392139"
"(410) 926-","Cell Number","Baltimore","Catonsville","MD","Maryland","21228","Eastern","39.274156","-76.631074"
"(301) 526-","Cell Number","Montgomery","Silver Spring","MD","Maryland","20913","Eastern","38.833563","-76.877743"
"(301) 221-","Cell Number","Montgomery","Bethesda","MD","Maryland","20894","Eastern","39.143979","-77.207617"
"(410) 593-","Landline","Baltimore","Fork","MD","Maryland","21051","Eastern","39.47314","-76.448385"
"(301) 440-","Cell Number","Prince George's","Capitol Heights","MD","Maryland","20790","Eastern","38.833563","-76.877743"
"(410) 983-","Landline","Baltimore","Fork","MD","Maryland","21051","Eastern","39.47314","-76.448385"
"(410) 665-","Landline","Baltimore","Parkville","MD","Maryland","21234","Eastern","39.413106","-76.530044"
"(410) 760-","Landline","Anne Arundel","Glen Burnie","MD","Maryland","21060","Eastern","39.170158","-76.579836"
"(301) 321-","Landline","Montgomery","Rockville","MD","Maryland","20857","Eastern","39.143979","-77.207617"
"(301) 820-","Landline","Montgomery","Gaithersburg","MD","Maryland","20886","Eastern","39.175703","-77.18725"
"(301) 462-","Cell Number","Frederick","Myersville","MD","Maryland","21773","Eastern","39.550036","-77.556275"
"(301) 729-","Landline","Allegany","Cumberland","MD","Maryland","21503","Eastern","39.580691","-78.690593"
"(410) 405-","Landline","Baltimore","Fork","MD","Maryland","21051","Eastern","39.47314","-76.448385"
"(301) 210-","Landline","Prince George's","Beltsville","MD","Maryland","20704","Eastern","38.833563","-76.877743"
"(301) 801-","Cell Number","Montgomery","Silver Spring","MD","Maryland","20913","Eastern","38.833563","-76.877743"
"(410) 905-","Cell Number","Anne Arundel","Baltimore","MD","Maryland","21213","Eastern","39.306606","-76.603338"
"(410) 332-","Landline","Baltimore City","Baltimore","MD","Maryland","21213","Eastern","39.306606","-76.603338"
"(410) 865-","Landline","Anne Arundel","Linthicum Heights","MD","Maryland","21090","Eastern","39.068309","-76.631743"
"(410) 214-","Cell Number","Baltimore City","Rising Sun","MD","Maryland","21911","Eastern","39.671572","-76.056651"
"(410) 319-","Landline","Baltimore City","Baltimore","MD","Maryland","21213","Eastern","39.306606","-76.603338"
"(301) 594-","Landline","Montgomery","Bethesda","MD","Maryland","20894","Eastern","39.143979","-77.207617"
"(410) 620-","Landline","Cecil","Elkton","MD","Maryland","21922","Eastern","39.593612","-75.947332"
"(410) 284-","Landline","Baltimore","Dundalk","MD","Maryland","21222","Eastern","39.325991","-76.451733"
"(301) 985-","Landline","Prince George's","Hyattsville","MD","Maryland","20788","Eastern","38.969434","-76.950913"
"(301) 994-","Landline","Saint Mary's","Valley Lee","MD","Maryland","20692","Eastern","38.192688","-76.501604"
"(410) 600-","Unknown","Worcester","Berlin","MD","Maryland","21811","Eastern","38.310447","-75.320901"
"(410) 256-","Landline","Baltimore","Parkville","MD","Maryland","21234","Eastern","39.413106","-76.530044"
"(301) 760-","Landline","Montgomery","Bethesda","MD","Maryland","20894","Eastern","39.143979","-77.207617"
"(410) 855-","Landline","Anne Arundel","Linthicum Heights","MD","Maryland","21090","Eastern","39.068309","-76.631743"
"(301) 874-","Landline","Frederick","Adamstown","MD","Maryland","21710","Eastern","39.291049","-77.455243"
"(301) 692-","Landline","Montgomery","Mount Rainier","MD","Maryland","20712","Eastern","38.94266","-76.967057"
"(301) 782-","Landline","Prince George's","Brandywine","MD","Maryland","20613","Eastern","38.658807","-76.824293"
"(301) 523-","Cell Number","Prince George's","Beltsville","MD","Maryland","20704","Eastern","38.833563","-76.877743"
"(410) 718-","Cell Number","Baltimore","Catonsville","MD","Maryland","21228","Eastern","39.274156","-76.631074"
"(410) 479-","Landline","Caroline","Denton","MD","Maryland","21629","Eastern","38.859523","-75.835702"
"(301) 933-","Landline","Montgomery","Kensington","MD","Maryland","20895","Eastern","39.09538","-77.111555"
"(410) 766-","Landline","Anne Arundel","Glen Burnie","MD","Maryland","21060","Eastern","39.170158","-76.579836"
"(301) 207-","Cell Number","Prince George's","Greenbelt","MD","Maryland","20768","Eastern","38.833563","-76.877743"
"(301) 518-","Cell Number","Montgomery","Silver Spring","MD","Maryland","20913","Eastern","38.833563","-76.877743"
"(301) 998-","Landline","Montgomery","Rockville","MD","Maryland","20857","Eastern","39.143979","-77.207617"
"(301) 512-","Cell Number","Montgomery","Silver Spring","MD","Maryland","20913","Eastern","38.833563","-76.877743"
"(410) 750-","Landline","Howard","Ellicott City","MD","Maryland","21042","Eastern","39.261897","-76.897247"
"(301) 303-","Cell Number","Prince George's","Greenbelt","MD","Maryland","20768","Eastern","38.833563","-76.877743"
"(410) 726-","Cell Number","Wicomico","Salisbury","MD","Maryland","21803","Eastern","38.388434","-75.6276"
"(410) 390-","Cell Number","Baltimore City","Ocean City","MD","Maryland","21843","Eastern","38.22309","-75.324057"
"(410) 268-","Landline","Anne Arundel","Annapolis","MD","Maryland","21412","Eastern","38.974203","-76.594942"
"(301) 710-","Landline","Charles","Waldorf","MD","Maryland","20603","Eastern","38.52115","-77.062012"
"(410) 449-","Cell Number","Baltimore","Solomons","MD","Maryland","20688","Eastern","38.37741","-76.440937"
"(410) 463-","Cell Number","Talbot","Trappe","MD","Maryland","21673","Eastern","38.664452","-76.058006"
"(301) 413-","Landline","Montgomery","Rockville","MD","Maryland","20857","Eastern","39.143979","-77.207617"
"(410) 867-","Landline","Anne Arundel","West River","MD","Maryland","20778","Eastern","39.002411","-76.563885"
"(410) 892-","Cell Number","Anne Arundel","Linthicum Heights","MD","Maryland","21090","Eastern","39.068309","-76.631743"
"(410) 969-","Landline","Anne Arundel","Severn","MD","Maryland","21144","Eastern","38.983971","-76.623121"
"(301) 290-","Landline","Saint Mary's","Mechanicsville","MD","Maryland","20659","Eastern","38.279211","-76.608406"
"(301) 320-","Landline","Montgomery","Glen Echo","MD","Maryland","20812","Eastern","38.96851","-77.140801"
"(301) 225-","Cell Number","Prince George's","Glenn Dale","MD","Maryland","20769","Eastern","38.98346","-76.811392"
"(301) 841-","Landline","Montgomery","Hyattsville","MD","Maryland","20788","Eastern","38.969434","-76.950913"
"(301) 359-","Landline","Allegany","Westernport","MD","Maryland","21562","Eastern","39.490547","-79.013989"
"(410) 723-","Landline","Worcester","Ocean City","MD","Maryland","21843","Eastern","38.22309","-75.324057"
"(301) 582-","Landline","Washington","Hagerstown","MD","Maryland","21749","Eastern","39.520696","-77.916196"
"(410) 936-","Landline","Baltimore City","Baltimore","MD","Maryland","21213","Eastern","39.306606","-76.603338"
"(301) 383-","Landline","Prince George's","Glenn Dale","MD","Maryland","20769","Eastern","38.98346","-76.811392"
"(301) 880-","Landline","Saint Mary's","Tall Timbers","MD","Maryland","20690","Eastern","38.160744","-76.525504"
"(410) 727-","Landline","Baltimore City","Baltimore","MD","Maryland","21213","Eastern","39.306606","-76.603338"
"(410) 713-","Landline","Wicomico","Salisbury","MD","Maryland","21803","Eastern","38.388434","-75.6276"
"(301) 296-","Landline","Montgomery","Rockville","MD","Maryland","20857","Eastern","39.143979","-77.207617"
"(301) 562-","Landline","Montgomery","Silver Spring","MD","Maryland","20913","Eastern","38.833563","-76.877743"
"(410) 435-","Landline","Baltimore City","Baltimore","MD","Maryland","21213","Eastern","39.306606","-76.603338"
"(301) 573-","Cell Number","Washington","Hagerstown","MD","Maryland","21749","Eastern","39.520696","-77.916196"
"(410) 257-","Landline","Calvert","North Beach","MD","Maryland","20714","Eastern","38.610496","-76.595901"
"(301) 758-","Cell Number","Montgomery","Silver Spring","MD","Maryland","20913","Eastern","38.833563","-76.877743"
"(410) 993-","Landline","Anne Arundel","Linthicum Heights","MD","Maryland","21090","Eastern","39.068309","-76.631743"
"(410) 480-","Landline","Howard","Ellicott City","MD","Maryland","21042","Eastern","39.261897","-76.897247"
"(410) 423-","Landline","Baltimore City","Baltimore","MD","Maryland","21213","Eastern","39.306606","-76.603338"
"(410) 715-","Landline","Howard","Columbia","MD","Maryland","21045","Eastern","39.207806","-76.825475"
"(301) 548-","Landline","Montgomery","Gaithersburg","MD","Maryland","20886","Eastern","39.175703","-77.18725"
"(301) 559-","Landline","Prince George's","Hyattsville","MD","Maryland","20788","Eastern","38.969434","-76.950913"
"(301) 956-","Landline","Montgomery","Rockville","MD","Maryland","20857","Eastern","39.143979","-77.207617"
"(410) 548-","Landline","Wicomico","Salisbury","MD","Maryland","21803","Eastern","38.388434","-75.6276"
"(301) 483-","Landline","Prince George's","Laurel","MD","Maryland","20709","Eastern","38.833563","-76.877743"
"(410) 294-","Cell Number","Baltimore","Catonsville","MD","Maryland","21228","Eastern","39.274156","-76.631074"
"(410) 877-","Landline","Harford","Fallston","MD","Maryland","21047","Eastern","39.531206","-76.439035"
"(410) 820-","Landline","Talbot","Easton","MD","Maryland","21601","Eastern","38.800714","-76.051486"
"(410) 400-","Unknown","Baltimore City","Baltimore","MD","Maryland","21213","Eastern","39.306606","-76.603338"
"(301) 220-","Landline","Prince George's","Greenbelt","MD","Maryland","20768","Eastern","38.833563","-76.877743"
"(301) 991-","Cell Number","Washington","Hagerstown","MD","Maryland","21749","Eastern","39.520696","-77.916196"
"(301) 978-","Landline","Montgomery","Gaithersburg","MD","Maryland","20886","Eastern","39.175703","-77.18725"
"(410) 295-","Landline","Anne Arundel","Annapolis","MD","Maryland","21412","Eastern","38.974203","-76.594942"
"(410) 687-","Landline","Baltimore","Essex","MD","Maryland","21221","Eastern","39.296007","-76.559787"
"(301) 447-","Landline","Frederick","Emmitsburg","MD","Maryland","21727","Eastern","39.675397","-77.336732"
"(301) 460-","Landline","Montgomery","Rockville","MD","Maryland","20857","Eastern","39.143979","-77.207617"
"(301) 713-","Landline","Montgomery","Silver Spring","MD","Maryland","20913","Eastern","38.833563","-76.877743"
"(301) 256-","Landline","Prince George's","Laurel","MD","Maryland","20709","Eastern","38.833563","-76.877743"
"(301) 300-","Unknown","Montgomery","Bethesda","MD","Maryland","20894","Eastern","39.143979","-77.207617"
"(410) 263-","Landline","Anne Arundel","Annapolis","MD","Maryland","21412","Eastern","38.974203","-76.594942"
"(301) 640-","Landline","Montgomery","Gaithersburg","MD","Maryland","20886","Eastern","39.175703","-77.18725"
"(301) 926-","Landline","Montgomery","Gaithersburg","MD","Maryland","20886","Eastern","39.175703","-77.18725"
"(410) 481-","Landline","Baltimore City","Baltimore","MD","Maryland","21213","Eastern","39.306606","-76.603338"
"(410) 908-","Cell Number","Anne Arundel","Baltimore","MD","Maryland","21213","Eastern","39.306606","-76.603338"
"(410) 467-","Landline","Baltimore City","Baltimore","MD","Maryland","21213","Eastern","39.306606","-76.603338"
"(301) 274-","Landline","Charles","Hughesville","MD","Maryland","20637","Eastern","38.520572","-76.781313"
"(301) 337-","Landline","Montgomery","Gaithersburg","MD","Maryland","20886","Eastern","39.175703","-77.18725"
"(301) 987-","Landline","Montgomery","Gaithersburg","MD","Maryland","20886","Eastern","39.175703","-77.18725"
"(301) 740-","Landline","Montgomery","Gaithersburg","MD","Maryland","20886","Eastern","39.175703","-77.18725"
"(301) 693-","Cell Number","Frederick","Frederick","MD","Maryland","21709","Eastern","39.469961","-77.392139"
"(301) 795-","Landline","Montgomery","Hyattsville","MD","Maryland","20788","Eastern","38.969434","-76.950913"
"(301) 597-","Landline","Washington","Hancock","MD","Maryland","21750","Eastern","39.58895","-78.050204"
"(410) 613-","Landline","Baltimore City","Baltimore","MD","Maryland","21213","Eastern","39.306606","-76.603338"
"(301) 527-","Landline","Montgomery","Gaithersburg","MD","Maryland","20886","Eastern","39.175703","-77.18725"
"(301) 578-","Landline","Montgomery","Silver Spring","MD","Maryland","20913","Eastern","38.833563","-76.877743"
"(301) 732-","Cell Number","Prince George's","Greenbelt","MD","Maryland","20768","Eastern","38.833563","-76.877743"
"(301) 682-","Landline","Frederick","Frederick","MD","Maryland","21709","Eastern","39.469961","-77.392139"
"(410) 624-","Landline","Baltimore City","Baltimore","MD","Maryland","21213","Eastern","39.306606","-76.603338"
"(301) 262-","Landline","Prince George's","Bowie","MD","Maryland","20715","Eastern","38.982612","-76.74379"
"(301) 897-","Landline","Montgomery","Rockville","MD","Maryland","20857","Eastern","39.143979","-77.207617"
"(301) 898-","Landline","Frederick","Walkersville","MD","Maryland","21793","Eastern","39.491247","-77.343542"
"(410) 248-","Landline","Baltimore","Parkville","MD","Maryland","21234","Eastern","39.413106","-76.530044"
"(301) 804-","Landline","Montgomery","Sandy Spring","MD","Maryland","20860","Eastern","39.142424","-77.044614"
"(301) 784-","Landline","Allegany","Cumberland","MD","Maryland","21503","Eastern","39.580691","-78.690593"
"(410) 380-","Cell Number","Wicomico","Salisbury","MD","Maryland","21803","Eastern","38.388434","-75.6276"
"(410) 782-","Landline","Howard","Elkridge","MD","Maryland","21075","Eastern","39.205756","-76.753093"
"(301) 253-","Landline","Montgomery","Damascus","MD","Maryland","20872","Eastern","39.285477","-77.215203"
"(410) 972-","Landline","Anne Arundel","Annapolis","MD","Maryland","21412","Eastern","38.974203","-76.594942"
"(301) 980-","Cell Number","Montgomery","Silver Spring","MD","Maryland","20913","Eastern","38.833563","-76.877743"
"(410) 457-","Landline","Harford","Darlington","MD","Maryland","21034","Eastern","39.646205","-76.226377"
"(410) 450-","Landline","Baltimore City","Baltimore","MD","Maryland","21213","Eastern","39.306606","-76.603338"
"(410) 523-","Landline","Baltimore City","Baltimore","MD","Maryland","21213","Eastern","39.306606","-76.603338"
"(301) 583-","Landline","Prince George's","Hyattsville","MD","Maryland","20788","Eastern","38.969434","-76.950913"
"(301) 915-","Landline","Montgomery","Bethesda","MD","Maryland","20894","Eastern","39.143979","-77.207617"
"(301) 281-","Landline","Prince George's","Oxon Hill","MD","Maryland","20750","Eastern","38.833563","-76.877743"
"(301) 609-","Landline","Charles","La Plata","MD","Maryland","20646","Eastern","38.513875","-77.01034"
"(410) 658-","Landline","Cecil","Rising Sun","MD","Maryland","21911","Eastern","39.671572","-76.056651"
"(410) 788-","Landline","Baltimore","Catonsville","MD","Maryland","21228","Eastern","39.274156","-76.631074"
"(410) 210-","Cell Number","Wicomico","Salisbury","MD","Maryland","21803","Eastern","38.388434","-75.6276"
"(410) 601-","Landline","Baltimore City","Baltimore","MD","Maryland","21213","Eastern","39.306606","-76.603338"
"(301) 367-","Cell Number","Montgomery","Silver Spring","MD","Maryland","20913","Eastern","38.833563","-76.877743"
"(410) 615-","Cell Number","Baltimore","Catonsville","MD","Maryland","21228","Eastern","39.274156","-76.631074"
"(301) 475-","Landline","Saint Mary's","Leonardtown","MD","Maryland","20650","Eastern","38.278757","-76.655917"
"(301) 844-","Landline","Prince George's","Mount Rainier","MD","Maryland","20712","Eastern","38.94266","-76.967057"
"(301) 605-","Landline","Montgomery","Rockville","MD","Maryland","20857","Eastern","39.143979","-77.207617"
"(410) 875-","Landline","Carroll","Westminster","MD","Maryland","21158","Eastern","39.606981","-77.029403"
"(410) 530-","Cell Number","Baltimore","Catonsville","MD","Maryland","21228","Eastern","39.274156","-76.631074"
"(301) 397-","Cell Number","Prince George's","Greenbelt","MD","Maryland","20768","Eastern","38.833563","-76.877743"
"(301) 704-","Cell Number","Montgomery","Silver Spring","MD","Maryland","20913","Eastern","38.833563","-76.877743"
"(410) 335-","Landline","Baltimore","White Marsh","MD","Maryland","21162","Eastern","39.389457","-76.411976"
"(410) 384-","Landline","Anne Arundel","Severna Park","MD","Maryland","21146","Eastern","38.951199","-76.603722"
"(410) 418-","Landline","Howard","Ellicott City","MD","Maryland","21042","Eastern","39.261897","-76.897247"
"(301) 501-","Cell Number","Garrett","Oakland","MD","Maryland","21550","Eastern","39.43392","-79.316683"
"(301) 616-","Cell Number","Garrett","Oakland","MD","Maryland","21550","Eastern","39.43392","-79.316683"
"(410) 359-","Cell Number","Baltimore City","Baltimore","MD","Maryland","21213","Eastern","39.306606","-76.603338"
"(301) 520-","Cell Number","Montgomery","Silver Spring","MD","Maryland","20913","Eastern","38.833563","-76.877743"
"(410) 581-","Landline","Baltimore","Pikesville","MD","Maryland","21208","Eastern","39.385156","-76.727036"
"(301) 922-","Cell Number","Montgomery","Silver Spring","MD","Maryland","20913","Eastern","38.833563","-76.877743"
"(410) 721-","Landline","Anne Arundel","Crofton","MD","Maryland","21114","Eastern","39.06436","-76.622577"
"(410) 912-","Landline","Wicomico","Salisbury","MD","Maryland","21803","Eastern","38.388434","-75.6276"
"(301) 905-","Landline","Montgomery","Silver Spring","MD","Maryland","20913","Eastern","38.833563","-76.877743"
"(410) 209-","Landline","Baltimore City","Baltimore","MD","Maryland","21213","Eastern","39.306606","-76.603338"
"(410) 826-","Cell Number","Anne Arundel","Glen Burnie","MD","Maryland","21060","Eastern","39.170158","-76.579836"
"(301) 436-","Landline","Prince George's","Hyattsville","MD","Maryland","20788","Eastern","38.969434","-76.950913"
"(301) 977-","Landline","Montgomery","Gaithersburg","MD","Maryland","20886","Eastern","39.175703","-77.18725"
"(410) 992-","Landline","Howard","Columbia","MD","Maryland","21045","Eastern","39.207806","-76.825475"
"(410) 217-","Cell Number","Baltimore City","Baltimore","MD","Maryland","21213","Eastern","39.306606","-76.603338"
"(410) 663-","Landline","Baltimore","Parkville","MD","Maryland","21234","Eastern","39.413106","-76.530044"
"(410) 923-","Landline","Anne Arundel","Millersville","MD","Maryland","21108","Eastern","38.986961","-76.582479"
"(410) 990-","Landline","Anne Arundel","Annapolis","MD","Maryland","21412","Eastern","38.974203","-76.594942"
"(301) 657-","Landline","Montgomery","Chevy Chase","MD","Maryland","20815","Eastern","38.983759","-77.079449"
"(301) 409-","Cell Number","Prince George's","Greenbelt","MD","Maryland","20768","Eastern","38.833563","-76.877743"
"(301) 230-","Landline","Montgomery","Rockville","MD","Maryland","20857","Eastern","39.143979","-77.207617"
"(410) 798-","Landline","Anne Arundel","Edgewater","MD","Maryland","21037","Eastern","38.975128","-76.623684"
"(410) 222-","Landline","Anne Arundel","Severn","MD","Maryland","21144","Eastern","38.983971","-76.623121"
"(410) 885-","Landline","Cecil","Chesapeake City","MD","Maryland","21915","Eastern","39.469098","-75.849327"
"(410) 843-","Landline","Baltimore City","Baltimore","MD","Maryland","21213","Eastern","39.306606","-76.603338"
"(410) 790-","Cell Number","Baltimore","Towson","MD","Maryland","21204","Eastern","39.407156","-76.60379"
"(410) 925-","Cell Number","Baltimore City","Baltimore","MD","Maryland","21213","Eastern","39.306606","-76.603338"
"(301) 454-","Landline","Prince George's","Hyattsville","MD","Maryland","20788","Eastern","38.969434","-76.950913"
"(301) 702-","Landline","Prince George's","Temple Hills","MD","Maryland","20748","Eastern","38.817263","-76.935795"
"(301) 498-","Landline","Prince George's","Laurel","MD","Maryland","20709","Eastern","38.833563","-76.877743"
"(410) 307-","Landline","Baltimore","Towson","MD","Maryland","21204","Eastern","39.407156","-76.60379"
"(410) 917-","Cell Number","Baltimore","Catonsville","MD","Maryland","21228","Eastern","39.274156","-76.631074"
"(301) 815-","Landline","Frederick","Frederick","MD","Maryland","21709","Eastern","39.469961","-77.392139"
"(301) 822-","Landline","Montgomery","Mount Rainier","MD","Maryland","20712","Eastern","38.94266","-76.967057"
"(301) 402-","Landline","Montgomery","Bethesda","MD","Maryland","20894","Eastern","39.143979","-77.207617"
"(301) 417-","Landline","Montgomery","Gaithersburg","MD","Maryland","20886","Eastern","39.175703","-77.18725"
"(410) 730-","Landline","Howard","Columbia","MD","Maryland","21045","Eastern","39.207806","-76.825475"
"(301) 634-","Landline","Montgomery","Mount Rainier","MD","Maryland","20712","Eastern","38.94266","-76.967057"
"(301) 399-","Cell Number","Charles","Waldorf","MD","Maryland","20603","Eastern","38.52115","-77.062012"
"(410) 253-","Cell Number","Talbot","Easton","MD","Maryland","21601","Eastern","38.800714","-76.051486"
"(301) 552-","Landline","Prince George's","Lanham","MD","Maryland","20703","Eastern","38.833563","-76.877743"
"(301) 421-","Landline","Montgomery","Silver Spring","MD","Maryland","20913","Eastern","38.833563","-76.877743"
"(410) 731-","Cell Number","Anne Arundel","Annapolis","MD","Maryland","21412","Eastern","38.974203","-76.594942"
"(410) 223-","Landline","Baltimore City","Baltimore","MD","Maryland","21213","Eastern","39.306606","-76.603338"
"(301) 357-","Unknown","Prince George's","Mount Rainier","MD","Maryland","20712","Eastern","38.94266","-76.967057"
"(301) 910-","Cell Number","Montgomery","Bethesda","MD","Maryland","20894","Eastern","39.143979","-77.207617"
"(410) 681-","Cell Number","Baltimore","Towson","MD","Maryland","21204","Eastern","39.407156","-76.60379"
"(301) 831-","Landline","Frederick","Adamstown","MD","Maryland","21710","Eastern","39.291049","-77.455243"
"(410) 710-","Cell Number","Baltimore City","Baltimore","MD","Maryland","21213","Eastern","39.306606","-76.603338"
"(301) 269-","Cell Number","Montgomery","Damascus","MD","Maryland","20872","Eastern","39.285477","-77.215203"
"(301) 217-","Landline","Montgomery","Rockville","MD","Maryland","20857","Eastern","39.143979","-77.207617"
"(301) 406-","Cell Number","Montgomery","Chevy Chase","MD","Maryland","20815","Eastern","38.983759","-77.079449"
"(410) 365-","Cell Number","Baltimore City","Baltimore","MD","Maryland","21213","Eastern","39.306606","-76.603338"
"(301) 401-","Cell Number","Frederick","Frederick","MD","Maryland","21709","Eastern","39.469961","-77.392139"
"(410) 736-","Landline","Baltimore City","Baltimore","MD","Maryland","21213","Eastern","39.306606","-76.603338"
"(410) 943-","Landline","Dorchester","Hurlock","MD","Maryland","21643","Eastern","38.643824","-75.863003"
"(301) 690-","Unknown","Saint Mary's","Leonardtown","MD","Maryland","20650","Eastern","38.278757","-76.655917"
"(410) 321-","Landline","Baltimore","Towson","MD","Maryland","21204","Eastern","39.407156","-76.60379"
"(301) 279-","Landline","Montgomery","Rockville","MD","Maryland","20857","Eastern","39.143979","-77.207617"
"(301) 904-","Cell Number","Saint Mary's","Leonardtown","MD","Maryland","20650","Eastern","38.278757","-76.655917"
"(410) 451-","Landline","Anne Arundel","Crofton","MD","Maryland","21114","Eastern","39.06436","-76.622577"
"(301) 604-","Landline","Prince George's","Laurel","MD","Maryland","20709","Eastern","38.833563","-76.877743"
"(301) 626-","Cell Number","Montgomery","Silver Spring","MD","Maryland","20913","Eastern","38.833563","-76.877743"
"(410) 541-","Landline","Anne Arundel","Severna Park","MD","Maryland","21146","Eastern","38.951199","-76.603722"
"(410) 509-","Landline","Baltimore City","Baltimore","MD","Maryland","21213","Eastern","39.306606","-76.603338"
"(410) 478-","Cell Number","Howard","Elkridge","MD","Maryland","21075","Eastern","39.205756","-76.753093"
"(301) 266-","Cell Number","Charles","Waldorf","MD","Maryland","20603","Eastern","38.52115","-77.062012"
"(301) 476-","Landline","Montgomery","Silver Spring","MD","Maryland","20913","Eastern","38.833563","-76.877743"
"(301) 774-","Landline","Montgomery","Ashton","MD","Maryland","20861","Eastern","39.151468","-76.994498"
"(410) 783-","Landline","Baltimore City","Baltimore","MD","Maryland","21213","Eastern","39.306606","-76.603338"
"(410) 347-","Landline","Baltimore City","Baltimore","MD","Maryland","21213","Eastern","39.306606","-76.603338"
"(301) 680-","Landline","Montgomery","Silver Spring","MD","Maryland","20913","Eastern","38.833563","-76.877743"
"(301) 507-","Landline","Prince George's","Greenbelt","MD","Maryland","20768","Eastern","38.833563","-76.877743"
"(301) 247-","Cell Number","Saint Mary's","Leonardtown","MD","Maryland","20650","Eastern","38.278757","-76.655917"
"(410) 383-","Landline","Baltimore City","Baltimore","MD","Maryland","21213","Eastern","39.306606","-76.603338"
"(301) 992-","Cell Number","Washington","Hagerstown","MD","Maryland","21749","Eastern","39.520696","-77.916196"
"(301) 665-","Landline","Washington","Hagerstown","MD","Maryland","21749","Eastern","39.520696","-77.916196"
"(301) 273-","Landline","Montgomery","Silver Spring","MD","Maryland","20913","Eastern","38.833563","-76.877743"
"(410) 729-","Landline","Anne Arundel","Severn","MD","Maryland","21144","Eastern","38.983971","-76.623121"
"(301) 293-","Landline","Frederick","Myersville","MD","Maryland","21773","Eastern","39.550036","-77.556275"
"(301) 295-","Landline","Montgomery","Rockville","MD","Maryland","20857","Eastern","39.143979","-77.207617"
"(410) 909-","Cell Number","Howard","Elkridge","MD","Maryland","21075","Eastern","39.205756","-76.753093"
"(410) 269-","Landline","Anne Arundel","Annapolis","MD","Maryland","21412","Eastern","38.974203","-76.594942"
"(301) 213-","Cell Number","Prince George's","Beltsville","MD","Maryland","20704","Eastern","38.833563","-76.877743"
"(410) 367-","Landline","Baltimore City","Baltimore","MD","Maryland","21213","Eastern","39.306606","-76.603338"
"(410) 740-","Landline","Howard","Columbia","MD","Maryland","21045","Eastern","39.207806","-76.825475"
"(301) 422-","Landline","Prince George's","Hyattsville","MD","Maryland","20788","Eastern","38.969434","-76.950913"
"(410) 627-","Cell Number","Baltimore City","Baltimore","MD","Maryland","21213","Eastern","39.306606","-76.603338"
"(301) 352-","Landline","Prince George's","Bowie","MD","Maryland","20715","Eastern","38.982612","-76.74379"
"(301) 798-","Landline","Frederick","New Market","MD","Maryland","21774","Eastern","39.432571","-77.220932"
"(301) 294-","Landline","Montgomery","Rockville","MD","Maryland","20857","Eastern","39.143979","-77.207617"
"(410) 448-","Landline","Baltimore","Baltimore","MD","Maryland","21213","Eastern","39.306606","-76.603338"
"(301) 703-","Landline","Frederick","Mount Airy","MD","Maryland","21771","Eastern","39.407252","-77.214087"
"(301) 731-","Landline","Prince George's","Lanham","MD","Maryland","20703","Eastern","38.833563","-76.877743"
"(301) 204-","Cell Number","Montgomery","Bethesda","MD","Maryland","20894","Eastern","39.143979","-77.207617"
"(301) 528-","Landline","Montgomery","Gaithersburg","MD","Maryland","20886","Eastern","39.175703","-77.18725"
"(410) 477-","Landline","Baltimore","Sparrows Point","MD","Maryland","21219","Eastern","39.229611","-76.445532"
"(301) 456-","Landline","Prince George's","Mount Rainier","MD","Maryland","20712","Eastern","38.94266","-76.967057"
"(410) 919-","Landline","Anne Arundel","Annapolis","MD","Maryland","21412","Eastern","38.974203","-76.594942"
"(301) 849-","Landline","Garrett","Oakland","MD","Maryland","21550","Eastern","39.43392","-79.316683"
"(301) 423-","Landline","Prince George's","Temple Hills","MD","Maryland","20748","Eastern","38.817263","-76.935795"
"(410) 763-","Landline","Talbot","Easton","MD","Maryland","21601","Eastern","38.800714","-76.051486"
"(410) 205-","Landline","Baltimore","Baltimore","MD","Maryland","21213","Eastern","39.306606","-76.603338"
"(301) 964-","Cell Number","Frederick","Myersville","MD","Maryland","21773","Eastern","39.550036","-77.556275"
"(301) 316-","Landline","Prince George's","Temple Hills","MD","Maryland","20748","Eastern","38.817263","-76.935795"
"(301) 791-","Landline","Washington","Hagerstown","MD","Maryland","21749","Eastern","39.520696","-77.916196"
"(410) 809-","Landline","Harford","Bel Air","MD","Maryland","21014","Eastern","39.547557","-76.321984"
"(301) 268-","Cell Number","Allegany","Cumberland","MD","Maryland","21503","Eastern","39.580691","-78.690593"
"(301) 599-","Landline","Prince George's","Clinton","MD","Maryland","20735","Eastern","38.739765","-76.912096"
"(301) 997-","Landline","Saint Mary's","Leonardtown","MD","Maryland","20650","Eastern","38.278757","-76.655917"
"(410) 267-","Landline","Anne Arundel","Annapolis","MD","Maryland","21412","Eastern","38.974203","-76.594942"
"(301) 744-","Landline","Charles","Indian Head","MD","Maryland","20640","Eastern","38.453999","-77.052819"
"(301) 668-","Landline","Frederick","Frederick","MD","Maryland","21709","Eastern","39.469961","-77.392139"
"(410) 226-","Landline","Talbot","Oxford","MD","Maryland","21654","Eastern","38.710783","-76.125184"
"(410) 228-","Landline","Dorchester","Cambridge","MD","Maryland","21613","Eastern","38.479813","-76.079864"
"(301) 513-","Landline","Prince George's","Greenbelt","MD","Maryland","20768","Eastern","38.833563","-76.877743"
"(301) 577-","Landline","Prince George's","Lanham","MD","Maryland","20703","Eastern","38.833563","-76.877743"
"(301) 474-","Landline","Prince George's","Greenbelt","MD","Maryland","20768","Eastern","38.833563","-76.877743"
"(301) 536-","Cell Number","Saint Mary's","Leonardtown","MD","Maryland","20650","Eastern","38.278757","-76.655917"
"(410) 343-","Landline","Baltimore","Parkton","MD","Maryland","21120","Eastern","39.642203","-76.673693"
"(410) 933-","Landline","Baltimore","Parkville","MD","Maryland","21234","Eastern","39.413106","-76.530044"
"(301) 709-","Cell Number","Prince George's","Greenbelt","MD","Maryland","20768","Eastern","38.833563","-76.877743"
"(301) 431-","Landline","Prince George's","Hyattsville","MD","Maryland","20788","Eastern","38.969434","-76.950913"
"(410) 374-","Landline","Carroll","Hampstead","MD","Maryland","21074","Eastern","39.614552","-76.864427"
"(301) 242-","Landline","Prince George's","Brandywine","MD","Maryland","20613","Eastern","38.658807","-76.824293"
"(410) 381-","Landline","Howard","Columbia","MD","Maryland","21045","Eastern","39.207806","-76.825475"
"(301) 672-","Cell Number","Saint Mary's","Tall Timbers","MD","Maryland","20690","Eastern","38.160744","-76.525504"
"(301) 642-","Cell Number","Montgomery","Bethesda","MD","Maryland","20894","Eastern","39.143979","-77.207617"
"(410) 569-","Landline","Harford","Edgewood","MD","Maryland","21040","Eastern","39.434799","-76.293579"
"(410) 650-","Landline","Baltimore City","Baltimore","MD","Maryland","21213","Eastern","39.306606","-76.603338"
"(301) 838-","Landline","Montgomery","Rockville","MD","Maryland","20857","Eastern","39.143979","-77.207617"
"(410) 838-","Landline","Harford","Bel Air","MD","Maryland","21014","Eastern","39.547557","-76.321984"
"(301) 667-","Cell Number","Frederick","Myersville","MD","Maryland","21773","Eastern","39.550036","-77.556275"
"(301) 390-","Landline","Prince George's","Bowie","MD","Maryland","20715","Eastern","38.982612","-76.74379"
"(301) 824-","Landline","Washington","Smithsburg","MD","Maryland","21783","Eastern","39.591355","-77.614762"
"(301) 876-","Landline","Allegany","Cumberland","MD","Maryland","21503","Eastern","39.580691","-78.690593"
"(301) 903-","Landline","Montgomery","Gaithersburg","MD","Maryland","20886","Eastern","39.175703","-77.18725"
"(410) 371-","Cell Number","Baltimore City","Baltimore","MD","Maryland","21213","Eastern","39.306606","-76.603338"
"(410) 748-","Landline","Howard","Ellicott City","MD","Maryland","21042","Eastern","39.261897","-76.897247"
"(301) 810-","Landline","Frederick","Monrovia","MD","Maryland","21770","Eastern","39.351552","-77.265818"
"(301) 720-","Landline","Prince George's","Brandywine","MD","Maryland","20613","Eastern","38.658807","-76.824293"
"(301) 491-","Cell Number","Washington","Hagerstown","MD","Maryland","21749","Eastern","39.520696","-77.916196"
"(410) 552-","Landline","Carroll","Sykesville","MD","Maryland","21784","Eastern","39.45672","-76.969601"
"(410) 668-","Landline","Baltimore","Parkville","MD","Maryland","21234","Eastern","39.413106","-76.530044"
"(410) 886-","Landline","Talbot","Tilghman","MD","Maryland","21671","Eastern","38.704729","-76.332647"
"(301) 951-","Landline","Montgomery","Chevy Chase","MD","Maryland","20815","Eastern","38.983759","-77.079449"
"(410) 852-","Cell Number","Baltimore","Catonsville","MD","Maryland","21228","Eastern","39.274156","-76.631074"
"(301) 666-","Landline","Prince George's","Glenn Dale","MD","Maryland","20769","Eastern","38.98346","-76.811392"
"(410) 817-","Landline","Baltimore","Fork","MD","Maryland","21051","Eastern","39.47314","-76.448385"
"(301) 539-","Landline","Charles","La Plata","MD","Maryland","20646","Eastern","38.513875","-77.01034"
"(301) 676-","Cell Number","Frederick","Frederick","MD","Maryland","21709","Eastern","39.469961","-77.392139"
"(301) 736-","Landline","Prince George's","Suitland","MD","Maryland","20752","Eastern","38.833563","-76.877743"
"(301) 721-","Landline","Montgomery","Gaithersburg","MD","Maryland","20886","Eastern","39.175703","-77.18725"
"(301) 354-","Landline","Montgomery","Rockville","MD","Maryland","20857","Eastern","39.143979","-77.207617"
"(301) 803-","Landline","Montgomery","Rockville","MD","Maryland","20857","Eastern","39.143979","-77.207617"
"(410) 370-","Cell Number","Baltimore","Catonsville","MD","Maryland","21228","Eastern","39.274156","-76.631074"
"(410) 446-","Cell Number","Baltimore","Catonsville","MD","Maryland","21228","Eastern","39.274156","-76.631074"
"(301) 425-","Cell Number","Prince George's","Beltsville","MD","Maryland","20704","Eastern","38.833563","-76.877743"
"(410) 774-","Landline","Anne Arundel","Crofton","MD","Maryland","21114","Eastern","39.06436","-76.622577"
"(301) 648-","Cell Number","Montgomery","Bethesda","MD","Maryland","20894","Eastern","39.143979","-77.207617"
"(410) 424-","Landline","Anne Arundel","Glen Burnie","MD","Maryland","21060","Eastern","39.170158","-76.579836"
"(301) 392-","Landline","Charles","La Plata","MD","Maryland","20646","Eastern","38.513875","-77.01034"
"(410) 533-","Cell Number","Anne Arundel","Annapolis","MD","Maryland","21412","Eastern","38.974203","-76.594942"
"(301) 252-","Cell Number","Montgomery","Gaithersburg","MD","Maryland","20886","Eastern","39.175703","-77.18725"
"(410) 433-","Landline","Baltimore City","Baltimore","MD","Maryland","21213","Eastern","39.306606","-76.603338"
"(410) 227-","Cell Number","Baltimore","Catonsville","MD","Maryland","21228","Eastern","39.274156","-76.631074"
"(301) 349-","Landline","Montgomery","Poolesville","MD","Maryland","20837","Eastern","39.123705","-77.403211"
"(301) 318-","Cell Number","Montgomery","Bethesda","MD","Maryland","20894","Eastern","39.143979","-77.207617"
"(410) 529-","Landline","Baltimore","Parkville","MD","Maryland","21234","Eastern","39.413106","-76.530044"
"(410) 804-","Cell Number","Baltimore City","Baltimore","MD","Maryland","21213","Eastern","39.306606","-76.603338"
"(301) 717-","Cell Number","Montgomery","Silver Spring","MD","Maryland","20913","Eastern","38.833563","-76.877743"
"(301) 988-","Cell Number","Washington","Hagerstown","MD","Maryland","21749","Eastern","39.520696","-77.916196"
"(410) 986-","Landline","Baltimore City","Baltimore","MD","Maryland","21213","Eastern","39.306606","-76.603338"
"(410) 218-","Cell Number","Baltimore City","Baltimore","MD","Maryland","21213","Eastern","39.306606","-76.603338"
"(301) 921-","Landline","Montgomery","Gaithersburg","MD","Maryland","20886","Eastern","39.175703","-77.18725"
"(410) 535-","Landline","Calvert","Port Republic","MD","Maryland","20676","Eastern","38.560231","-76.531761"
"(301) 995-","Landline","Saint Mary's","Patuxent River","MD","Maryland","20670","Eastern","38.281094","-76.420952"
"(301) 763-","Landline","Prince George's","Suitland","MD","Maryland","20752","Eastern","38.833563","-76.877743"
"(301) 238-","Landline","Prince George's","Temple Hills","MD","Maryland","20748","Eastern","38.817263","-76.935795"
"(301) 675-","Cell Number","Montgomery","Silver Spring","MD","Maryland","20913","Eastern","38.833563","-76.877743"
"(301) 845-","Landline","Frederick","Walkersville","MD","Maryland","21793","Eastern","39.491247","-77.343542"
"(301) 966-","Landline","Montgomery","Hyattsville","MD","Maryland","20788","Eastern","38.969434","-76.950913"
"(301) 975-","Landline","Montgomery","Gaithersburg","MD","Maryland","20886","Eastern","39.175703","-77.18725"
"(410) 275-","Landline","Cecil","Warwick","MD","Maryland","21912","Eastern","39.533058","-75.915203"
"(301) 656-","Landline","Montgomery","Chevy Chase","MD","Maryland","20815","Eastern","38.983759","-77.079449"
"(410) 465-","Landline","Howard","Ellicott City","MD","Maryland","21042","Eastern","39.261897","-76.897247"
"(410) 252-","Landline","Baltimore","Towson","MD","Maryland","21204","Eastern","39.407156","-76.60379"
