"Prefix","Usage","County","City","ShortState","LongState","Zip","Timezone","Latitude","Longitude"
"(601) 399-","Landline","Jones","Laurel","MS","Mississippi","39441","Central","31.727664","-89.075482"
"(601) 566-","Cell Number","Hinds","Jackson","MS","Mississippi","39203","Central","32.308595","-90.210438"
"(601) 930-","Cell Number","Hinds","Jackson","MS","Mississippi","39203","Central","32.308595","-90.210438"
"(228) 245-","Landline","Harrison","Pass Christian","MS","Mississippi","39571","Central","30.426162","-89.264327"
"(601) 766-","Landline","George","Lucedale","MS","Mississippi","39452","Central","30.866791","-88.649035"
"(662) 205-","Landline","Lee","Tupelo","MS","Mississippi","38801","Central","34.291889","-88.683828"
"(662) 217-","Landline","Monroe","Amory","MS","Mississippi","38821","Central","33.942639","-88.411284"
"(662) 893-","Landline","De Soto","Olive Branch","MS","Mississippi","38654","Central","34.921172","-89.869062"
"(601) 513-","Cell Number","Hinds","Edwards","MS","Mississippi","39066","Central","32.27307","-90.50985"
"(601) 869-","Landline","Pike","Magnolia","MS","Mississippi","39652","Central","31.143395","-90.403989"
"(601) 828-","Landline","Franklin","Roxie","MS","Mississippi","39661","Central","31.50115","-91.069486"
"(601) 973-","Landline","Hinds","Jackson","MS","Mississippi","39203","Central","32.308595","-90.210438"
"(662) 727-","Landline","Bolivar","Benoit","MS","Mississippi","38725","Central","33.627816","-90.994878"
"(662) 343-","Landline","Monroe","Hamilton","MS","Mississippi","39746","Central","33.778926","-88.358784"
"(662) 577-","Landline","Sunflower","Indianola","MS","Mississippi","38751","Central","33.443446","-90.608662"
"(601) 996-","Cell Number","Pike","Mccomb","MS","Mississippi","39649","Central","31.17494","-90.403987"
"(601) 827-","Landline","Walthall","Tylertown","MS","Mississippi","39667","Central","31.175558","-90.090824"
"(601) 879-","Landline","Madison","Flora","MS","Mississippi","39071","Central","32.553269","-90.326653"
"(601) 363-","Landline","George","Lucedale","MS","Mississippi","39452","Central","30.866791","-88.649035"
"(662) 476-","Landline","Kemper","Porterville","MS","Mississippi","39352","Central","32.797547","-88.523668"
"(601) 557-","Landline","Clarke","Quitman","MS","Mississippi","39355","Central","32.013802","-88.663429"
"(662) 300-","Unknown","Marshall","Waterford","MS","Mississippi","38685","Central","34.547621","-89.612918"
"(228) 818-","Landline","Jackson","Ocean Springs","MS","Mississippi","39564","Central","30.50028","-88.655024"
"(228) 777-","Landline","Harrison","Gulfport","MS","Mississippi","39505","Central","30.415795","-89.068448"
"(662) 568-","Landline","Chickasaw","Houlka","MS","Mississippi","38850","Central","34.013571","-88.996107"
"(601) 764-","Landline","Jasper","Bay Springs","MS","Mississippi","39422","Central","31.989146","-89.209877"
"(601) 800-","Unknown","Jones","Ellisville","MS","Mississippi","39437","Central","31.611088","-89.171825"
"(662) 349-","Landline","De Soto","Southaven","MS","Mississippi","38672","Central","34.947407","-89.925792"
"(662) 659-","Cell Number","Union","New Albany","MS","Mississippi","38652","Central","34.488692","-88.963649"
"(601) 829-","Landline","Rankin","Brandon","MS","Mississippi","39043","Central","32.269041","-89.987491"
"(662) 593-","Landline","Tishomingo","Iuka","MS","Mississippi","38852","Central","34.81583","-88.2318"
"(662) 723-","Landline","Bolivar","Rosedale","MS","Mississippi","38769","Central","33.841892","-90.882598"
"(601) 366-","Landline","Hinds","Jackson","MS","Mississippi","39203","Central","32.308595","-90.210438"
"(662) 724-","Landline","Winston","Noxapater","MS","Mississippi","39346","Central","32.980751","-89.108325"
"(601) 532-","Landline","Franklin","Meadville","MS","Mississippi","39653","Central","31.469888","-90.891482"
"(601) 945-","Landline","Perry","Beaumont","MS","Mississippi","39423","Central","31.185365","-88.920132"
"(228) 225-","Landline","Harrison","Pass Christian","MS","Mississippi","39571","Central","30.426162","-89.264327"
"(662) 909-","Cell Number","Lee","Tupelo","MS","Mississippi","38801","Central","34.291889","-88.683828"
"(601) 936-","Landline","Rankin","Jackson","MS","Mississippi","39203","Central","32.308595","-90.210438"
"(601) 995-","Landline","Hinds","Jackson","MS","Mississippi","39203","Central","32.308595","-90.210438"
"(601) 520-","Cell Number","Forrest","Hattiesburg","MS","Mississippi","39407","Central","31.172142","-89.294772"
"(662) 299-","Cell Number","Leflore","Greenwood","MS","Mississippi","38945","Central","33.650681","-90.196909"
"(601) 328-","Cell Number","Hinds","Jackson","MS","Mississippi","39203","Central","32.308595","-90.210438"
"(228) 769-","Landline","Jackson","Pascagoula","MS","Mississippi","39595","Central","30.441072","-88.634482"
"(662) 278-","Cell Number","Marshall","Holly Springs","MS","Mississippi","38634","Central","34.74504","-89.484963"
"(601) 423-","Landline","Simpson","Magee","MS","Mississippi","39111","Central","31.910321","-89.775032"
"(662) 359-","Landline","Lowndes","Columbus","MS","Mississippi","39704","Central","33.548523","-88.379614"
"(662) 584-","Cell Number","Lee","Tupelo","MS","Mississippi","38801","Central","34.291889","-88.683828"
"(601) 541-","Cell Number","Neshoba","Philadelphia","MS","Mississippi","39350","Central","32.754387","-89.116797"
"(601) 445-","Landline","Adams","Natchez","MS","Mississippi","39122","Central","31.470602","-91.404404"
"(601) 794-","Landline","Lamar","Purvis","MS","Mississippi","39475","Central","31.228126","-89.501513"
"(662) 234-","Landline","Lafayette","Oxford","MS","Mississippi","38655","Central","34.330814","-89.483519"
"(662) 689-","Cell Number","Tate","Senatobia","MS","Mississippi","38668","Central","34.621336","-89.930083"
"(662) 783-","Unknown","Tallahatchie","Charleston","MS","Mississippi","38921","Central","34.007428","-90.115364"
"(601) 846-","Landline","Lauderdale","Lauderdale","MS","Mississippi","39335","Central","32.498068","-88.534433"
"(662) 348-","Landline","Lee","Guntown","MS","Mississippi","38849","Central","34.421084","-88.665975"
"(228) 357-","Unknown","Harrison","Gulfport","MS","Mississippi","39505","Central","30.415795","-89.068448"
"(228) 212-","Cell Number","Harrison","Biloxi","MS","Mississippi","39532","Central","30.510988","-88.96808"
"(601) 252-","Landline","Smith","Taylorsville","MS","Mississippi","39168","Central","31.82958","-89.403302"
"(228) 261-","Cell Number","Harrison","Gulfport","MS","Mississippi","39505","Central","30.415795","-89.068448"
"(662) 988-","Landline","Union","Myrtle","MS","Mississippi","38650","Central","34.512992","-89.133523"
"(662) 489-","Landline","Pontotoc","Pontotoc","MS","Mississippi","38863","Central","34.227246","-89.040537"
"(662) 725-","Landline","Washington","Greenville","MS","Mississippi","38701","Central","33.314539","-91.02297"
"(662) 786-","Unknown","Chickasaw","Houston","MS","Mississippi","38851","Central","33.911901","-88.931148"
"(601) 421-","Cell Number","Hinds","Jackson","MS","Mississippi","39203","Central","32.308595","-90.210438"
"(601) 921-","Landline","Covington","Collins","MS","Mississippi","39428","Central","31.652811","-89.578002"
"(601) 299-","Cell Number","Forrest","Hattiesburg","MS","Mississippi","39407","Central","31.172142","-89.294772"
"(662) 743-","Landline","Washington","Greenville","MS","Mississippi","38701","Central","33.314539","-91.02297"
"(662) 374-","Cell Number","Leflore","Greenwood","MS","Mississippi","38945","Central","33.650681","-90.196909"
"(601) 375-","Landline","Jones","Soso","MS","Mississippi","39480","Central","31.713226","-89.297336"
"(662) 510-","Landline","De Soto","Southaven","MS","Mississippi","38672","Central","34.947407","-89.925792"
"(662) 517-","Landline","Bolivar","Cleveland","MS","Mississippi","38733","Central","33.624024","-90.819547"
"(662) 846-","Landline","Bolivar","Cleveland","MS","Mississippi","38733","Central","33.624024","-90.819547"
"(662) 490-","Landline","Pontotoc","Pontotoc","MS","Mississippi","38863","Central","34.227246","-89.040537"
"(601) 209-","Cell Number","Hinds","Jackson","MS","Mississippi","39203","Central","32.308595","-90.210438"
"(662) 878-","Unknown","Sunflower","Ruleville","MS","Mississippi","38771","Central","33.66479","-90.555537"
"(662) 763-","Unknown","Yazoo","Yazoo City","MS","Mississippi","39194","Central","32.815898","-90.475849"
"(601) 739-","Landline","Jasper","Louin","MS","Mississippi","39338","Central","32.109313","-89.187423"
"(601) 761-","Cell Number","Madison","Canton","MS","Mississippi","39046","Central","32.625298","-90.008601"
"(601) 664-","Landline","Rankin","Jackson","MS","Mississippi","39203","Central","32.308595","-90.210438"
"(662) 675-","Landline","Yalobusha","Coffeeville","MS","Mississippi","38922","Central","33.961287","-89.64824"
"(662) 526-","Landline","Panola","Como","MS","Mississippi","38619","Central","34.474028","-89.954427"
"(601) 597-","Cell Number","Adams","Natchez","MS","Mississippi","39122","Central","31.470602","-91.404404"
"(601) 534-","Landline","Warren","Vicksburg","MS","Mississippi","39183","Central","32.386006","-90.840021"
"(601) 457-","Landline","Smith","Taylorsville","MS","Mississippi","39168","Central","31.82958","-89.403302"
"(601) 741-","Cell Number","Leake","Carthage","MS","Mississippi","39051","Central","32.785217","-89.524057"
"(228) 376-","Unknown","Harrison","Biloxi","MS","Mississippi","39532","Central","30.510988","-88.96808"
"(662) 548-","Landline","De Soto","Olive Branch","MS","Mississippi","38654","Central","34.921172","-89.869062"
"(662) 573-","Cell Number","Lowndes","Columbus","MS","Mississippi","39704","Central","33.548523","-88.379614"
"(662) 257-","Landline","Monroe","Amory","MS","Mississippi","38821","Central","33.942639","-88.411284"
"(662) 447-","Landline","Chickasaw","Okolona","MS","Mississippi","38860","Central","33.94295","-88.868022"
"(601) 518-","Landline","Jones","Laurel","MS","Mississippi","39441","Central","31.727664","-89.075482"
"(601) 655-","Landline","Newton","Hickory","MS","Mississippi","39332","Central","32.323107","-89.083928"
"(601) 458-","Cell Number","Lauderdale","Meridian","MS","Mississippi","39305","Central","32.403111","-88.658234"
"(601) 900-","Unknown","Scott","Forest","MS","Mississippi","39074","Central","32.399853","-89.505298"
"(662) 574-","Cell Number","Lowndes","Columbus","MS","Mississippi","39704","Central","33.548523","-88.379614"
"(601) 632-","Landline","Lauderdale","Toomsuba","MS","Mississippi","39364","Central","32.424306","-88.660633"
"(662) 432-","Landline","Lee","Tupelo","MS","Mississippi","38801","Central","34.291889","-88.683828"
"(662) 688-","Cell Number","Grenada","Grenada","MS","Mississippi","38901","Central","33.786016","-89.845462"
"(601) 388-","Landline","Pike","Mccomb","MS","Mississippi","39649","Central","31.17494","-90.403987"
"(601) 965-","Landline","Hinds","Jackson","MS","Mississippi","39203","Central","32.308595","-90.210438"
"(601) 938-","Cell Number","Lauderdale","Meridian","MS","Mississippi","39305","Central","32.403111","-88.658234"
"(601) 462-","Cell Number","Lauderdale","Meridian","MS","Mississippi","39305","Central","32.403111","-88.658234"
"(601) 471-","Cell Number","Hinds","Jackson","MS","Mississippi","39203","Central","32.308595","-90.210438"
"(601) 717-","Cell Number","Copiah","Hazlehurst","MS","Mississippi","39083","Central","31.868475","-90.429426"
"(228) 233-","Landline","Harrison","Biloxi","MS","Mississippi","39532","Central","30.510988","-88.96808"
"(662) 231-","Cell Number","Lee","Tupelo","MS","Mississippi","38801","Central","34.291889","-88.683828"
"(662) 434-","Landline","Lowndes","Steens","MS","Mississippi","39766","Central","33.603342","-88.321007"
"(662) 436-","Cell Number","De Soto","Southaven","MS","Mississippi","38672","Central","34.947407","-89.925792"
"(228) 456-","Landline","Harrison","Biloxi","MS","Mississippi","39532","Central","30.510988","-88.96808"
"(662) 719-","Cell Number","Bolivar","Cleveland","MS","Mississippi","38733","Central","33.624024","-90.819547"
"(601) 452-","Cell Number","Smith","Taylorsville","MS","Mississippi","39168","Central","31.82958","-89.403302"
"(662) 869-","Landline","Lee","Saltillo","MS","Mississippi","38866","Central","34.304376","-88.667209"
"(662) 323-","Landline","Oktibbeha","Starkville","MS","Mississippi","39759","Central","33.42554","-88.879117"
"(601) 693-","Landline","Lauderdale","Meridian","MS","Mississippi","39305","Central","32.403111","-88.658234"
"(662) 401-","Cell Number","Lee","Tupelo","MS","Mississippi","38801","Central","34.291889","-88.683828"
"(662) 379-","Landline","Washington","Greenville","MS","Mississippi","38701","Central","33.314539","-91.02297"
"(228) 239-","Cell Number","Harrison","Biloxi","MS","Mississippi","39532","Central","30.510988","-88.96808"
"(601) 797-","Landline","Covington","Mount Olive","MS","Mississippi","39119","Central","31.717905","-89.623543"
"(662) 337-","Landline","Coahoma","Coahoma","MS","Mississippi","38617","Central","34.308025","-90.519949"
"(228) 382-","Landline","Harrison","Gulfport","MS","Mississippi","39505","Central","30.415795","-89.068448"
"(662) 753-","Cell Number","Montgomery","Winona","MS","Mississippi","38967","Central","33.514926","-89.628584"
"(662) 681-","Cell Number","Lee","Tupelo","MS","Mississippi","38801","Central","34.291889","-88.683828"
"(662) 761-","Landline","Union","New Albany","MS","Mississippi","38652","Central","34.488692","-88.963649"
"(662) 367-","Landline","Tunica","Tunica","MS","Mississippi","38676","Central","34.692892","-90.338981"
"(662) 858-","Cell Number","Montgomery","Winona","MS","Mississippi","38967","Central","33.514926","-89.628584"
"(601) 244-","Landline","Lamar","Lumberton","MS","Mississippi","39455","Central","31.100426","-89.503417"
"(662) 464-","Landline","Carroll","Vaiden","MS","Mississippi","39176","Central","33.329023","-89.751563"
"(228) 258-","Landline","Jackson","Pascagoula","MS","Mississippi","39595","Central","30.441072","-88.634482"
"(601) 207-","Unknown","Lauderdale","Meridian","MS","Mississippi","39305","Central","32.403111","-88.658234"
"(228) 386-","Landline","Harrison","Biloxi","MS","Mississippi","39532","Central","30.510988","-88.96808"
"(228) 285-","Landline","Jackson","Moss Point","MS","Mississippi","39562","Central","30.544726","-88.604298"
"(601) 588-","Cell Number","Greene","Mc Lain","MS","Mississippi","39456","Central","31.086666","-88.797692"
"(662) 470-","Landline","De Soto","Southaven","MS","Mississippi","38672","Central","34.947407","-89.925792"
"(228) 436-","Landline","Harrison","Biloxi","MS","Mississippi","39532","Central","30.510988","-88.96808"
"(662) 378-","Landline","Washington","Greenville","MS","Mississippi","38701","Central","33.314539","-91.02297"
"(662) 451-","Landline","Leflore","Greenwood","MS","Mississippi","38945","Central","33.650681","-90.196909"
"(601) 983-","Landline","Hinds","Jackson","MS","Mississippi","39203","Central","32.308595","-90.210438"
"(601) 765-","Landline","Covington","Collins","MS","Mississippi","39428","Central","31.652811","-89.578002"
"(228) 283-","Landline","Jackson","Ocean Springs","MS","Mississippi","39564","Central","30.50028","-88.655024"
"(601) 339-","Landline","Rankin","Jackson","MS","Mississippi","39203","Central","32.308595","-90.210438"
"(662) 592-","Landline","Coahoma","Clarksdale","MS","Mississippi","38614","Central","34.256003","-90.634809"
"(662) 413-","Landline","Calhoun","Bruce","MS","Mississippi","38915","Central","34.034636","-89.342661"
"(662) 533-","Landline","Lafayette","Oxford","MS","Mississippi","38655","Central","34.330814","-89.483519"
"(601) 382-","Cell Number","Simpson","Magee","MS","Mississippi","39111","Central","31.910321","-89.775032"
"(601) 499-","Landline","Rankin","Jackson","MS","Mississippi","39203","Central","32.308595","-90.210438"
"(601) 595-","Landline","Lauderdale","Meridian","MS","Mississippi","39305","Central","32.403111","-88.658234"
"(662) 243-","Landline","Lowndes","Columbus","MS","Mississippi","39704","Central","33.548523","-88.379614"
"(662) 532-","Landline","Yazoo","Yazoo City","MS","Mississippi","39194","Central","32.815898","-90.475849"
"(228) 460-","Landline","Jackson","Moss Point","MS","Mississippi","39562","Central","30.544726","-88.604298"
"(601) 430-","Landline","Wilkinson","Centreville","MS","Mississippi","39631","Central","31.134359","-91.175079"
"(601) 982-","Landline","Hinds","Jackson","MS","Mississippi","39203","Central","32.308595","-90.210438"
"(601) 726-","Landline","Forrest","Hattiesburg","MS","Mississippi","39407","Central","31.172142","-89.294772"
"(662) 240-","Landline","Lowndes","Columbus","MS","Mississippi","39704","Central","33.548523","-88.379614"
"(662) 709-","Cell Number","Yalobusha","Coffeeville","MS","Mississippi","38922","Central","33.961287","-89.64824"
"(662) 665-","Landline","Alcorn","Corinth","MS","Mississippi","38834","Central","34.87589","-88.591575"
"(601) 791-","Cell Number","George","Lucedale","MS","Mississippi","39452","Central","30.866791","-88.649035"
"(601) 667-","Cell Number","Madison","Canton","MS","Mississippi","39046","Central","32.625298","-90.008601"
"(662) 642-","Cell Number","Alcorn","Michigan City","MS","Mississippi","38647","Central","34.788948","-89.185048"
"(228) 567-","Landline","Jackson","Pascagoula","MS","Mississippi","39595","Central","30.441072","-88.634482"
"(662) 319-","Landline","Monroe","Aberdeen","MS","Mississippi","39730","Central","33.847638","-88.514694"
"(601) 413-","Landline","Pike","Mccomb","MS","Mississippi","39649","Central","31.17494","-90.403987"
"(228) 493-","Cell Number","Hancock","Bay Saint Louis","MS","Mississippi","39525","Central","30.372821","-89.377942"
"(662) 384-","Landline","Oktibbeha","Starkville","MS","Mississippi","39759","Central","33.42554","-88.879117"
"(662) 474-","Landline","Washington","Greenville","MS","Mississippi","38701","Central","33.314539","-91.02297"
"(601) 446-","Landline","Adams","Natchez","MS","Mississippi","39122","Central","31.470602","-91.404404"
"(662) 667-","Landline","Tishomingo","Glen","MS","Mississippi","38846","Central","34.868523","-88.41982"
"(662) 715-","Cell Number","Lafayette","Oxford","MS","Mississippi","38655","Central","34.330814","-89.483519"
"(662) 785-","Unknown","Sunflower","Drew","MS","Mississippi","38737","Central","33.685766","-90.607299"
"(601) 894-","Landline","Copiah","Hazlehurst","MS","Mississippi","39083","Central","31.868475","-90.429426"
"(662) 224-","Landline","Benton","Ashland","MS","Mississippi","38603","Central","34.741457","-89.163282"
"(601) 948-","Landline","Hinds","Jackson","MS","Mississippi","39203","Central","32.308595","-90.210438"
"(601) 332-","Landline","Forrest","Hattiesburg","MS","Mississippi","39407","Central","31.172142","-89.294772"
"(601) 690-","Landline","Marion","Columbia","MS","Mississippi","39429","Central","31.218188","-89.801872"
"(662) 556-","Landline","Benton","Ashland","MS","Mississippi","38603","Central","34.741457","-89.163282"
"(601) 688-","Cell Number","Lamar","Lumberton","MS","Mississippi","39455","Central","31.100426","-89.503417"
"(662) 275-","Cell Number","Clay","West Point","MS","Mississippi","39773","Central","33.621135","-88.609136"
"(601) 753-","Landline","Greene","Mc Lain","MS","Mississippi","39456","Central","31.086666","-88.797692"
"(662) 701-","Cell Number","Lafayette","Oxford","MS","Mississippi","38655","Central","34.330814","-89.483519"
"(601) 844-","Landline","Lauderdale","Bailey","MS","Mississippi","39320","Central","32.52258","-88.745613"
"(662) 603-","Landline","Alcorn","Corinth","MS","Mississippi","38834","Central","34.87589","-88.591575"
"(601) 578-","Landline","Jones","Laurel","MS","Mississippi","39441","Central","31.727664","-89.075482"
"(601) 494-","Cell Number","Stone","Wiggins","MS","Mississippi","39577","Central","30.847778","-89.086992"
"(662) 505-","Landline","Tallahatchie","Webb","MS","Mississippi","38966","Central","33.898064","-90.335055"
"(601) 329-","Cell Number","Forrest","Hattiesburg","MS","Mississippi","39407","Central","31.172142","-89.294772"
"(662) 989-","Landline","Carroll","Carrollton","MS","Mississippi","38917","Central","33.518425","-89.995978"
"(662) 740-","Unknown","Tishomingo","Iuka","MS","Mississippi","38852","Central","34.81583","-88.2318"
"(601) 784-","Landline","Greene","Mc Lain","MS","Mississippi","39456","Central","31.086666","-88.797692"
"(662) 416-","Cell Number","Prentiss","Booneville","MS","Mississippi","38829","Central","34.632922","-88.533107"
"(662) 778-","Landline","Marshall","Lamar","MS","Mississippi","38642","Central","34.930329","-89.399923"
"(662) 713-","Landline","Lowndes","Columbus","MS","Mississippi","39704","Central","33.548523","-88.379614"
"(601) 219-","Landline","Wilkinson","Centreville","MS","Mississippi","39631","Central","31.134359","-91.175079"
"(601) 932-","Landline","Rankin","Jackson","MS","Mississippi","39203","Central","32.308595","-90.210438"
"(601) 447-","Landline","Forrest","Hattiesburg","MS","Mississippi","39407","Central","31.172142","-89.294772"
"(662) 262-","Landline","Montgomery","Kilmichael","MS","Mississippi","39747","Central","33.4346","-89.585663"
"(662) 621-","Landline","Coahoma","Clarksdale","MS","Mississippi","38614","Central","34.256003","-90.634809"
"(601) 485-","Landline","Lauderdale","Meridian","MS","Mississippi","39305","Central","32.403111","-88.658234"
"(228) 604-","Landline","Harrison","Gulfport","MS","Mississippi","39505","Central","30.415795","-89.068448"
"(228) 230-","Landline","Harrison","Biloxi","MS","Mississippi","39532","Central","30.510988","-88.96808"
"(601) 270-","Cell Number","Forrest","Hattiesburg","MS","Mississippi","39407","Central","31.172142","-89.294772"
"(601) 719-","Landline","Jones","Ellisville","MS","Mississippi","39437","Central","31.611088","-89.171825"
"(601) 227-","Cell Number","Lauderdale","Meridian","MS","Mississippi","39305","Central","32.403111","-88.658234"
"(662) 848-","Landline","Lowndes","Columbus","MS","Mississippi","39704","Central","33.548523","-88.379614"
"(228) 208-","Cell Number","Harrison","Biloxi","MS","Mississippi","39532","Central","30.510988","-88.96808"
"(601) 210-","Cell Number","Adams","Natchez","MS","Mississippi","39122","Central","31.470602","-91.404404"
"(601) 405-","Landline","Hinds","Jackson","MS","Mississippi","39203","Central","32.308595","-90.210438"
"(601) 937-","Cell Number","Hinds","Jackson","MS","Mississippi","39203","Central","32.308595","-90.210438"
"(662) 891-","Landline","Lee","Tupelo","MS","Mississippi","38801","Central","34.291889","-88.683828"
"(601) 342-","Cell Number","Jones","Laurel","MS","Mississippi","39441","Central","31.727664","-89.075482"
"(601) 964-","Landline","Perry","New Augusta","MS","Mississippi","39462","Central","31.171903","-88.991561"
"(228) 875-","Landline","Jackson","Ocean Springs","MS","Mississippi","39564","Central","30.50028","-88.655024"
"(601) 691-","Cell Number","Madison","Canton","MS","Mississippi","39046","Central","32.625298","-90.008601"
"(662) 260-","Cell Number","Lee","Tupelo","MS","Mississippi","38801","Central","34.291889","-88.683828"
"(601) 367-","Landline","Stone","Wiggins","MS","Mississippi","39577","Central","30.847778","-89.086992"
"(601) 748-","Cell Number","Lincoln","Brookhaven","MS","Mississippi","39603","Central","31.612287","-90.446702"
"(662) 779-","Landline","Winston","Louisville","MS","Mississippi","39339","Central","33.101687","-89.068098"
"(601) 607-","Landline","Madison","Madison","MS","Mississippi","39130","Central","32.642448","-90.090683"
"(228) 313-","Cell Number","Harrison","Gulfport","MS","Mississippi","39505","Central","30.415795","-89.068448"
"(228) 518-","Cell Number","Harrison","Gulfport","MS","Mississippi","39505","Central","30.415795","-89.068448"
"(601) 454-","Cell Number","Hinds","Jackson","MS","Mississippi","39203","Central","32.308595","-90.210438"
"(662) 261-","Landline","Attala","Kosciusko","MS","Mississippi","39090","Central","33.055142","-89.5913"
"(662) 320-","Cell Number","Oktibbeha","Starkville","MS","Mississippi","39759","Central","33.42554","-88.879117"
"(601) 262-","Landline","Warren","Vicksburg","MS","Mississippi","39183","Central","32.386006","-90.840021"
"(662) 281-","Landline","Lafayette","Oxford","MS","Mississippi","38655","Central","34.330814","-89.483519"
"(662) 692-","Landline","Union","New Albany","MS","Mississippi","38652","Central","34.488692","-88.963649"
"(662) 828-","Landline","Yazoo","Holly Bluff","MS","Mississippi","39088","Central","32.841523","-90.723119"
"(228) 284-","Landline","Harrison","Gulfport","MS","Mississippi","39505","Central","30.415795","-89.068448"
"(662) 549-","Cell Number","Lowndes","Columbus","MS","Mississippi","39704","Central","33.548523","-88.379614"
"(662) 249-","Landline","Humphreys","Belzoni","MS","Mississippi","39038","Central","33.170596","-90.475786"
"(601) 539-","Cell Number","Warren","Vicksburg","MS","Mississippi","39183","Central","32.386006","-90.840021"
"(228) 424-","Cell Number","Harrison","Biloxi","MS","Mississippi","39532","Central","30.510988","-88.96808"
"(662) 861-","Unknown","Choctaw","Ackerman","MS","Mississippi","39735","Central","33.278252","-89.191298"
"(662) 522-","Cell Number","Washington","Greenville","MS","Mississippi","38701","Central","33.314539","-91.02297"
"(662) 377-","Landline","Lee","Tupelo","MS","Mississippi","38801","Central","34.291889","-88.683828"
"(601) 890-","Landline","Wilkinson","Centreville","MS","Mississippi","39631","Central","31.134359","-91.175079"
"(228) 851-","Cell Number","Harrison","Gulfport","MS","Mississippi","39505","Central","30.415795","-89.068448"
"(601) 460-","Landline","Hinds","Clinton","MS","Mississippi","39060","Central","32.311287","-90.397157"
"(228) 575-","Landline","Harrison","Gulfport","MS","Mississippi","39505","Central","30.415795","-89.068448"
"(601) 300-","Cell Number","Amite","Gloster","MS","Mississippi","39638","Central","31.199644","-90.916006"
"(228) 220-","Landline","Hancock","Bay Saint Louis","MS","Mississippi","39525","Central","30.372821","-89.377942"
"(228) 295-","Unknown","Harrison","Biloxi","MS","Mississippi","39532","Central","30.510988","-88.96808"
"(601) 419-","Cell Number","Hinds","Jackson","MS","Mississippi","39203","Central","32.308595","-90.210438"
"(601) 346-","Landline","Hinds","Jackson","MS","Mississippi","39203","Central","32.308595","-90.210438"
"(662) 668-","Cell Number","Union","New Albany","MS","Mississippi","38652","Central","34.488692","-88.963649"
"(228) 850-","Cell Number","Harrison","Gulfport","MS","Mississippi","39505","Central","30.415795","-89.068448"
"(228) 474-","Landline","Jackson","Moss Point","MS","Mississippi","39562","Central","30.544726","-88.604298"
"(601) 271-","Landline","Forrest","Hattiesburg","MS","Mississippi","39407","Central","31.172142","-89.294772"
"(228) 344-","Cell Number","Hancock","Bay Saint Louis","MS","Mississippi","39525","Central","30.372821","-89.377942"
"(662) 714-","Cell Number","Yalobusha","Water Valley","MS","Mississippi","38965","Central","34.101631","-89.633458"
"(662) 895-","Landline","De Soto","Olive Branch","MS","Mississippi","38654","Central","34.921172","-89.869062"
"(662) 537-","Landline","Washington","Greenville","MS","Mississippi","38701","Central","33.314539","-91.02297"
"(662) 499-","Landline","Chickasaw","Houston","MS","Mississippi","38851","Central","33.911901","-88.931148"
"(662) 589-","Cell Number","Yalobusha","Oakland","MS","Mississippi","38948","Central","34.102656","-89.855317"
"(601) 249-","Landline","Pike","Mccomb","MS","Mississippi","39649","Central","31.17494","-90.403987"
"(601) 796-","Landline","Lamar","Lumberton","MS","Mississippi","39455","Central","31.100426","-89.503417"
"(601) 365-","Cell Number","Pearl River","Poplarville","MS","Mississippi","39470","Central","30.756774","-89.58072"
"(601) 917-","Cell Number","Lauderdale","Meridian","MS","Mississippi","39305","Central","32.403111","-88.658234"
"(601) 997-","Landline","Jasper","Heidelberg","MS","Mississippi","39439","Central","31.892668","-89.077368"
"(601) 622-","Cell Number","Hinds","Jackson","MS","Mississippi","39203","Central","32.308595","-90.210438"
"(662) 702-","Cell Number","Tunica","Tunica","MS","Mississippi","38676","Central","34.692892","-90.338981"
"(662) 977-","Landline","Alcorn","Corinth","MS","Mississippi","38834","Central","34.87589","-88.591575"
"(601) 254-","Landline","Wilkinson","Centreville","MS","Mississippi","39631","Central","31.134359","-91.175079"
"(662) 825-","Unknown","Monroe","Amory","MS","Mississippi","38821","Central","33.942639","-88.411284"
"(662) 745-","Landline","Sunflower","Drew","MS","Mississippi","38737","Central","33.685766","-90.607299"
"(662) 519-","Cell Number","Tunica","Tunica","MS","Mississippi","38676","Central","34.692892","-90.338981"
"(228) 314-","Landline","Harrison","Gulfport","MS","Mississippi","39505","Central","30.415795","-89.068448"
"(662) 722-","Cell Number","Oktibbeha","Starkville","MS","Mississippi","39759","Central","33.42554","-88.879117"
"(601) 564-","Landline","Scott","Forest","MS","Mississippi","39074","Central","32.399853","-89.505298"
"(601) 849-","Landline","Simpson","Magee","MS","Mississippi","39111","Central","31.910321","-89.775032"
"(662) 591-","Landline","Itawamba","Nettleton","MS","Mississippi","38858","Central","34.161842","-88.472146"
"(662) 251-","Cell Number","Lowndes","Columbus","MS","Mississippi","39704","Central","33.548523","-88.379614"
"(662) 695-","Cell Number","Washington","Greenville","MS","Mississippi","38701","Central","33.314539","-91.02297"
"(662) 439-","Landline","Webster","Eupora","MS","Mississippi","39744","Central","33.549384","-89.290417"
"(601) 878-","Landline","Hinds","Terry","MS","Mississippi","39170","Central","32.189393","-90.422369"
"(601) 606-","Cell Number","Forrest","Hattiesburg","MS","Mississippi","39407","Central","31.172142","-89.294772"
"(601) 470-","Cell Number","Pearl River","Picayune","MS","Mississippi","39466","Central","30.627655","-89.63128"
"(662) 391-","Landline","Clay","West Point","MS","Mississippi","39773","Central","33.621135","-88.609136"
"(601) 516-","Cell Number","Lamar","Sumrall","MS","Mississippi","39482","Central","31.216581","-89.531088"
"(228) 229-","Cell Number","Harrison","Biloxi","MS","Mississippi","39532","Central","30.510988","-88.96808"
"(662) 864-","Landline","Grenada","Grenada","MS","Mississippi","38901","Central","33.786016","-89.845462"
"(228) 867-","Landline","Harrison","Gulfport","MS","Mississippi","39505","Central","30.415795","-89.068448"
"(601) 782-","Landline","Smith","Raleigh","MS","Mississippi","39153","Central","32.033656","-89.524458"
"(601) 877-","Landline","Jefferson","Lorman","MS","Mississippi","39096","Central","31.739958","-91.050948"
"(601) 237-","Landline","Clarke","Quitman","MS","Mississippi","39355","Central","32.013802","-88.663429"
"(662) 823-","Landline","Lee","Tupelo","MS","Mississippi","38801","Central","34.291889","-88.683828"
"(662) 615-","Landline","Oktibbeha","Starkville","MS","Mississippi","39759","Central","33.42554","-88.879117"
"(601) 392-","Cell Number","Adams","Natchez","MS","Mississippi","39122","Central","31.470602","-91.404404"
"(662) 806-","Cell Number","Washington","Greenville","MS","Mississippi","38701","Central","33.314539","-91.02297"
"(228) 432-","Landline","Harrison","Biloxi","MS","Mississippi","39532","Central","30.510988","-88.96808"
"(662) 336-","Cell Number","Washington","Greenville","MS","Mississippi","38701","Central","33.314539","-91.02297"
"(662) 606-","Cell Number","Tunica","Tunica","MS","Mississippi","38676","Central","34.692892","-90.338981"
"(601) 507-","Cell Number","Scott","Forest","MS","Mississippi","39074","Central","32.399853","-89.505298"
"(601) 355-","Landline","Hinds","Jackson","MS","Mississippi","39203","Central","32.308595","-90.210438"
"(662) 322-","Cell Number","Lee","Tupelo","MS","Mississippi","38801","Central","34.291889","-88.683828"
"(601) 587-","Landline","Lawrence","Monticello","MS","Mississippi","39654","Central","31.540111","-90.161012"
"(228) 388-","Landline","Harrison","Biloxi","MS","Mississippi","39532","Central","30.510988","-88.96808"
"(601) 742-","Landline","Scott","Forest","MS","Mississippi","39074","Central","32.399853","-89.505298"
"(601) 340-","Cell Number","Jones","Laurel","MS","Mississippi","39441","Central","31.727664","-89.075482"
"(662) 396-","Landline","Alcorn","Corinth","MS","Mississippi","38834","Central","34.87589","-88.591575"
"(662) 571-","Cell Number","Yazoo","Yazoo City","MS","Mississippi","39194","Central","32.815898","-90.475849"
"(601) 437-","Landline","Claiborne","Port Gibson","MS","Mississippi","39150","Central","31.916949","-90.975632"
"(601) 427-","Landline","Madison","Madison","MS","Mississippi","39130","Central","32.642448","-90.090683"
"(601) 842-","Cell Number","Hinds","Jackson","MS","Mississippi","39203","Central","32.308595","-90.210438"
"(601) 350-","Cell Number","Pike","Mccomb","MS","Mississippi","39649","Central","31.17494","-90.403987"
"(601) 495-","Landline","Hinds","Jackson","MS","Mississippi","39203","Central","32.308595","-90.210438"
"(662) 419-","Cell Number","Pontotoc","Pontotoc","MS","Mississippi","38863","Central","34.227246","-89.040537"
"(601) 977-","Landline","Hinds","Jackson","MS","Mississippi","39203","Central","32.308595","-90.210438"
"(662) 644-","Landline","Leflore","Greenwood","MS","Mississippi","38945","Central","33.650681","-90.196909"
"(601) 525-","Landline","Greene","Neely","MS","Mississippi","39461","Central","31.210172","-88.754841"
"(662) 684-","Cell Number","Montgomery","Starkville","MS","Mississippi","39759","Central","33.42554","-88.879117"
"(601) 774-","Landline","Neshoba","Union","MS","Mississippi","39365","Central","32.643921","-89.111993"
"(662) 658-","Landline","Leflore","Minter City","MS","Mississippi","38944","Central","33.752133","-90.374127"
"(601) 473-","Cell Number","Hinds","Clinton","MS","Mississippi","39060","Central","32.311287","-90.397157"
"(601) 975-","Landline","Smith","Mize","MS","Mississippi","39116","Central","31.852342","-89.50805"
"(601) 798-","Landline","Pearl River","Picayune","MS","Mississippi","39466","Central","30.627655","-89.63128"
"(662) 794-","Unknown","Chickasaw","Houston","MS","Mississippi","38851","Central","33.911901","-88.931148"
"(601) 234-","Landline","Smith","Raleigh","MS","Mississippi","39153","Central","32.033656","-89.524458"
"(601) 656-","Landline","Neshoba","Philadelphia","MS","Mississippi","39350","Central","32.754387","-89.116797"
"(601) 881-","Cell Number","Hinds","Jackson","MS","Mississippi","39203","Central","32.308595","-90.210438"
"(228) 467-","Landline","Hancock","Bay Saint Louis","MS","Mississippi","39525","Central","30.372821","-89.377942"
"(228) 702-","Landline","Harrison","Biloxi","MS","Mississippi","39532","Central","30.510988","-88.96808"
"(662) 837-","Landline","Tippah","Ripley","MS","Mississippi","38663","Central","34.722961","-88.903624"
"(228) 471-","Landline","Jackson","Pascagoula","MS","Mississippi","39595","Central","30.441072","-88.634482"
"(662) 536-","Landline","De Soto","Southaven","MS","Mississippi","38672","Central","34.947407","-89.925792"
"(228) 547-","Cell Number","Harrison","Gulfport","MS","Mississippi","39505","Central","30.415795","-89.068448"
"(228) 934-","Landline","Jackson","Pascagoula","MS","Mississippi","39595","Central","30.441072","-88.634482"
"(601) 517-","Cell Number","Covington","Collins","MS","Mississippi","39428","Central","31.652811","-89.578002"
"(662) 697-","Landline","Marshall","Holly Springs","MS","Mississippi","38634","Central","34.74504","-89.484963"
"(662) 855-","Landline","Monroe","Caledonia","MS","Mississippi","39740","Central","33.81523","-88.271904"
"(228) 596-","Cell Number","Harrison","Gulfport","MS","Mississippi","39505","Central","30.415795","-89.068448"
"(662) 652-","Landline","Itawamba","Tremont","MS","Mississippi","38876","Central","34.235149","-88.333454"
"(662) 765-","Landline","Oktibbeha","Starkville","MS","Mississippi","39759","Central","33.42554","-88.879117"
"(601) 650-","Landline","Neshoba","Philadelphia","MS","Mississippi","39350","Central","32.754387","-89.116797"
"(601) 875-","Unknown","Pearl River","Poplarville","MS","Mississippi","39470","Central","30.756774","-89.58072"
"(662) 798-","Landline","Lowndes","Columbus","MS","Mississippi","39704","Central","33.548523","-88.379614"
"(662) 292-","Cell Number","Lee","Tupelo","MS","Mississippi","38801","Central","34.291889","-88.683828"
"(601) 887-","Landline","Newton","Newton","MS","Mississippi","39345","Central","32.39983","-89.08313"
"(662) 908-","Landline","Tishomingo","Iuka","MS","Mississippi","38852","Central","34.81583","-88.2318"
"(228) 243-","Cell Number","Harrison","Biloxi","MS","Mississippi","39532","Central","30.510988","-88.96808"
"(601) 599-","Landline","Forrest","Hattiesburg","MS","Mississippi","39407","Central","31.172142","-89.294772"
"(228) 365-","Cell Number","Harrison","Biloxi","MS","Mississippi","39532","Central","30.510988","-88.96808"
"(662) 481-","Landline","Yalobusha","Coffeeville","MS","Mississippi","38922","Central","33.961287","-89.64824"
"(601) 886-","Landline","Lawrence","Silver Creek","MS","Mississippi","39663","Central","31.594604","-90.044711"
"(601) 630-","Landline","Warren","Vicksburg","MS","Mississippi","39183","Central","32.386006","-90.840021"
"(662) 742-","Landline","Bolivar","Benoit","MS","Mississippi","38725","Central","33.627816","-90.994878"
"(662) 717-","Landline","Oktibbeha","Starkville","MS","Mississippi","39759","Central","33.42554","-88.879117"
"(662) 529-","Landline","Tunica","Tunica","MS","Mississippi","38676","Central","34.692892","-90.338981"
"(662) 463-","Landline","Clay","West Point","MS","Mississippi","39773","Central","33.621135","-88.609136"
"(228) 332-","Cell Number","Harrison","Pass Christian","MS","Mississippi","39571","Central","30.426162","-89.264327"
"(601) 744-","Landline","Lamar","Purvis","MS","Mississippi","39475","Central","31.228126","-89.501513"
"(228) 594-","Landline","Harrison","Biloxi","MS","Mississippi","39532","Central","30.510988","-88.96808"
"(601) 916-","Cell Number","Pearl River","Picayune","MS","Mississippi","39466","Central","30.627655","-89.63128"
"(601) 241-","Landline","Smith","Raleigh","MS","Mississippi","39153","Central","32.033656","-89.524458"
"(662) 575-","Landline","Alcorn","Corinth","MS","Mississippi","38834","Central","34.87589","-88.591575"
"(662) 362-","Landline","Monroe","Aberdeen","MS","Mississippi","39730","Central","33.847638","-88.514694"
"(662) 290-","Landline","Attala","Kosciusko","MS","Mississippi","39090","Central","33.055142","-89.5913"
"(228) 232-","Landline","Harrison","Biloxi","MS","Mississippi","39532","Central","30.510988","-88.96808"
"(601) 345-","Cell Number","Lincoln","Brookhaven","MS","Mississippi","39603","Central","31.612287","-90.446702"
"(662) 813-","Landline","Monroe","Aberdeen","MS","Mississippi","39730","Central","33.847638","-88.514694"
"(601) 678-","Landline","Lauderdale","Meridian","MS","Mississippi","39305","Central","32.403111","-88.658234"
"(662) 238-","Landline","Lafayette","Oxford","MS","Mississippi","38655","Central","34.330814","-89.483519"
"(228) 244-","Landline","Jackson","Ocean Springs","MS","Mississippi","39564","Central","30.50028","-88.655024"
"(228) 544-","Landline","Jackson","Ocean Springs","MS","Mississippi","39564","Central","30.50028","-88.655024"
"(662) 832-","Cell Number","Lafayette","Oxford","MS","Mississippi","38655","Central","34.330814","-89.483519"
"(601) 895-","Landline","Pike","Mccomb","MS","Mississippi","39649","Central","31.17494","-90.403987"
"(601) 467-","Cell Number","Forrest","Hattiesburg","MS","Mississippi","39407","Central","31.172142","-89.294772"
"(662) 316-","Cell Number","Union","New Albany","MS","Mississippi","38652","Central","34.488692","-88.963649"
"(662) 228-","Landline","Noxubee","Shuqualak","MS","Mississippi","39361","Central","33.082645","-88.659645"
"(601) 972-","Landline","Amite","Liberty","MS","Mississippi","39645","Central","31.17427","-90.803528"
"(601) 223-","Landline","Adams","Natchez","MS","Mississippi","39122","Central","31.470602","-91.404404"
"(662) 335-","Landline","Washington","Greenville","MS","Mississippi","38701","Central","33.314539","-91.02297"
"(662) 422-","Cell Number","Lee","Tupelo","MS","Mississippi","38801","Central","34.291889","-88.683828"
"(601) 208-","Landline","Hinds","Jackson","MS","Mississippi","39203","Central","32.308595","-90.210438"
"(601) 814-","Cell Number","Adams","Natchez","MS","Mississippi","39122","Central","31.470602","-91.404404"
"(601) 718-","Landline","Rankin","Jackson","MS","Mississippi","39203","Central","32.308595","-90.210438"
"(228) 935-","Landline","Jackson","Pascagoula","MS","Mississippi","39595","Central","30.441072","-88.634482"
"(601) 502-","Landline","Hinds","Jackson","MS","Mississippi","39203","Central","32.308595","-90.210438"
"(228) 539-","Landline","Harrison","Gulfport","MS","Mississippi","39505","Central","30.415795","-89.068448"
"(601) 980-","Landline","Amite","Liberty","MS","Mississippi","39645","Central","31.17427","-90.803528"
"(601) 699-","Cell Number","Jones","Laurel","MS","Mississippi","39441","Central","31.727664","-89.075482"
"(601) 771-","Unknown","Lauderdale","Meridian","MS","Mississippi","39305","Central","32.403111","-88.658234"
"(662) 222-","Unknown","Montgomery","Winona","MS","Mississippi","38967","Central","33.514926","-89.628584"
"(662) 639-","Cell Number","Holmes","Durant","MS","Mississippi","39063","Central","33.071531","-89.899593"
"(601) 867-","Landline","Simpson","Magee","MS","Mississippi","39111","Central","31.910321","-89.775032"
"(662) 927-","Unknown","Calhoun","Calhoun City","MS","Mississippi","38916","Central","33.857172","-89.352482"
"(662) 515-","Cell Number","Leflore","Greenwood","MS","Mississippi","38945","Central","33.650681","-90.196909"
"(601) 709-","Landline","Hinds","Jackson","MS","Mississippi","39203","Central","32.308595","-90.210438"
"(601) 750-","Cell Number","Hinds","Jackson","MS","Mississippi","39203","Central","32.308595","-90.210438"
"(662) 910-","Cell Number","Tunica","Tunica","MS","Mississippi","38676","Central","34.692892","-90.338981"
"(662) 547-","Landline","Attala","Mc Cool","MS","Mississippi","39108","Central","33.082754","-89.641184"
"(228) 254-","Cell Number","Harrison","Pass Christian","MS","Mississippi","39571","Central","30.426162","-89.264327"
"(601) 960-","Landline","Hinds","Jackson","MS","Mississippi","39203","Central","32.308595","-90.210438"
"(601) 770-","Cell Number","George","Lucedale","MS","Mississippi","39452","Central","30.866791","-88.649035"
"(601) 682-","Landline","Jones","Laurel","MS","Mississippi","39441","Central","31.727664","-89.075482"
"(601) 565-","Cell Number","Amite","Liberty","MS","Mississippi","39645","Central","31.17427","-90.803528"
"(662) 645-","Cell Number","Coahoma","Clarksdale","MS","Mississippi","38614","Central","34.256003","-90.634809"
"(228) 380-","Cell Number","Harrison","Gulfport","MS","Mississippi","39505","Central","30.415795","-89.068448"
"(662) 641-","Cell Number","Bolivar","Cleveland","MS","Mississippi","38733","Central","33.624024","-90.819547"
"(601) 335-","Landline","Jones","Laurel","MS","Mississippi","39441","Central","31.727664","-89.075482"
"(662) 579-","Landline","Bolivar","Cleveland","MS","Mississippi","38733","Central","33.624024","-90.819547"
"(662) 808-","Cell Number","Alcorn","Corinth","MS","Mississippi","38834","Central","34.87589","-88.591575"
"(662) 694-","Cell Number","Oktibbeha","Starkville","MS","Mississippi","39759","Central","33.42554","-88.879117"
"(662) 230-","Cell Number","Grenada","Grenada","MS","Mississippi","38901","Central","33.786016","-89.845462"
"(662) 699-","Cell Number","Grenada","Grenada","MS","Mississippi","38901","Central","33.786016","-89.845462"
"(662) 446-","Landline","Winston","Louisville","MS","Mississippi","39339","Central","33.101687","-89.068098"
"(662) 995-","Landline","Lee","Shannon","MS","Mississippi","38868","Central","34.144146","-88.68396"
"(601) 623-","Landline","Copiah","Hazlehurst","MS","Mississippi","39083","Central","31.868475","-90.429426"
"(601) 979-","Landline","Hinds","Jackson","MS","Mississippi","39203","Central","32.308595","-90.210438"
"(601) 961-","Landline","Hinds","Jackson","MS","Mississippi","39203","Central","32.308595","-90.210438"
"(601) 428-","Landline","Jones","Laurel","MS","Mississippi","39441","Central","31.727664","-89.075482"
"(601) 716-","Landline","Stone","Wiggins","MS","Mississippi","39577","Central","30.847778","-89.086992"
"(601) 702-","Cell Number","Claiborne","Port Gibson","MS","Mississippi","39150","Central","31.916949","-90.975632"
"(228) 832-","Landline","Harrison","Gulfport","MS","Mississippi","39505","Central","30.415795","-89.068448"
"(662) 852-","Unknown","Yalobusha","Oakland","MS","Mississippi","38948","Central","34.102656","-89.855317"
"(662) 664-","Cell Number","Alcorn","Corinth","MS","Mississippi","38834","Central","34.87589","-88.591575"
"(601) 788-","Landline","Perry","Richton","MS","Mississippi","39476","Central","31.318239","-88.993126"
"(601) 538-","Landline","Amite","Liberty","MS","Mississippi","39645","Central","31.17427","-90.803528"
"(601) 934-","Cell Number","Lauderdale","Meridian","MS","Mississippi","39305","Central","32.403111","-88.658234"
"(601) 576-","Landline","Hinds","Jackson","MS","Mississippi","39203","Central","32.308595","-90.210438"
"(662) 457-","Cell Number","Leflore","Greenwood","MS","Mississippi","38945","Central","33.650681","-90.196909"
"(662) 842-","Landline","Lee","Tupelo","MS","Mississippi","38801","Central","34.291889","-88.683828"
"(228) 342-","Cell Number","Hancock","Bay Saint Louis","MS","Mississippi","39525","Central","30.372821","-89.377942"
"(662) 546-","Landline","Oktibbeha","Starkville","MS","Mississippi","39759","Central","33.42554","-88.879117"
"(662) 737-","Landline","Tippah","Ripley","MS","Mississippi","38663","Central","34.722961","-88.903624"
"(228) 819-","Landline","Jackson","Ocean Springs","MS","Mississippi","39564","Central","30.50028","-88.655024"
"(601) 596-","Landline","Forrest","Hattiesburg","MS","Mississippi","39407","Central","31.172142","-89.294772"
"(601) 591-","Landline","Rankin","Brandon","MS","Mississippi","39043","Central","32.269041","-89.987491"
"(662) 631-","Cell Number","Chickasaw","Houston","MS","Mississippi","38851","Central","33.911901","-88.931148"
"(662) 550-","Landline","Lafayette","Oxford","MS","Mississippi","38655","Central","34.330814","-89.483519"
"(601) 368-","Landline","Hinds","Jackson","MS","Mississippi","39203","Central","32.308595","-90.210438"
"(228) 865-","Landline","Harrison","Gulfport","MS","Mississippi","39505","Central","30.415795","-89.068448"
"(662) 465-","Landline","Oktibbeha","Starkville","MS","Mississippi","39759","Central","33.42554","-88.879117"
"(662) 732-","Unknown","Lee","Tupelo","MS","Mississippi","38801","Central","34.291889","-88.683828"
"(601) 372-","Landline","Hinds","Jackson","MS","Mississippi","39203","Central","32.308595","-90.210438"
"(662) 581-","Cell Number","Leflore","Greenwood","MS","Mississippi","38945","Central","33.650681","-90.196909"
"(662) 835-","Unknown","Calhoun","Calhoun City","MS","Mississippi","38916","Central","33.857172","-89.352482"
"(662) 527-","Landline","Sharkey","Rolling Fork","MS","Mississippi","39159","Central","32.859106","-90.897658"
"(662) 800-","Unknown","Calhoun","Bruce","MS","Mississippi","38915","Central","34.034636","-89.342661"
"(601) 697-","Cell Number","Scott","Forest","MS","Mississippi","39074","Central","32.399853","-89.505298"
"(662) 656-","Cell Number","Tishomingo","Iuka","MS","Mississippi","38852","Central","34.81583","-88.2318"
"(601) 238-","Cell Number","Hinds","Jackson","MS","Mississippi","39203","Central","32.308595","-90.210438"
"(601) 215-","Cell Number","Pearl River","Picayune","MS","Mississippi","39466","Central","30.627655","-89.63128"
"(601) 802-","Landline","Warren","Vicksburg","MS","Mississippi","39183","Central","32.386006","-90.840021"
"(601) 489-","Landline","Rankin","Brandon","MS","Mississippi","39043","Central","32.269041","-89.987491"
"(601) 874-","Unknown","Hinds","Jackson","MS","Mississippi","39203","Central","32.308595","-90.210438"
"(662) 703-","Cell Number","Panola","Batesville","MS","Mississippi","38606","Central","34.343102","-89.956497"
"(601) 436-","Cell Number","Lamar","Purvis","MS","Mississippi","39475","Central","31.228126","-89.501513"
"(601) 469-","Landline","Scott","Forest","MS","Mississippi","39074","Central","32.399853","-89.505298"
"(228) 222-","Landline","Harrison","Pass Christian","MS","Mississippi","39571","Central","30.426162","-89.264327"
"(601) 837-","Landline","Covington","Collins","MS","Mississippi","39428","Central","31.652811","-89.578002"
"(662) 677-","Cell Number","Tippah","Walnut","MS","Mississippi","38683","Central","34.89462","-88.885227"
"(601) 303-","Cell Number","Walthall","Tylertown","MS","Mississippi","39667","Central","31.175558","-90.090824"
"(662) 428-","Cell Number","Leflore","Greenwood","MS","Mississippi","38945","Central","33.650681","-90.196909"
"(601) 217-","Landline","Rankin","Brandon","MS","Mississippi","39043","Central","32.269041","-89.987491"
"(662) 669-","Cell Number","Pontotoc","Pontotoc","MS","Mississippi","38863","Central","34.227246","-89.040537"
"(601) 547-","Landline","Claiborne","Port Gibson","MS","Mississippi","39150","Central","31.916949","-90.975632"
"(662) 508-","Landline","Montgomery","Winona","MS","Mississippi","38967","Central","33.514926","-89.628584"
"(662) 282-","Landline","Itawamba","Mantachie","MS","Mississippi","38855","Central","34.324376","-88.393184"
"(662) 733-","Landline","Bolivar","Duncan","MS","Mississippi","38740","Central","33.94809","-90.770386"
"(662) 201-","Landline","Quitman","Marks","MS","Mississippi","38609","Central","34.235111","-90.29272"
"(228) 268-","Landline","Harrison","Pass Christian","MS","Mississippi","39571","Central","30.426162","-89.264327"
"(601) 720-","Cell Number","Hinds","Jackson","MS","Mississippi","39203","Central","32.308595","-90.210438"
"(662) 258-","Landline","Webster","Eupora","MS","Mississippi","39744","Central","33.549384","-89.290417"
"(662) 392-","Cell Number","Leflore","Greenwood","MS","Mississippi","38945","Central","33.650681","-90.196909"
"(662) 440-","Unknown","Carroll","Vaiden","MS","Mississippi","39176","Central","33.329023","-89.751563"
"(662) 907-","Cell Number","Sharkey","Rolling Fork","MS","Mississippi","39159","Central","32.859106","-90.897658"
"(601) 344-","Landline","Jones","Laurel","MS","Mississippi","39441","Central","31.727664","-89.075482"
"(601) 586-","Landline","Lauderdale","Meridian","MS","Mississippi","39305","Central","32.403111","-88.658234"
"(601) 533-","Landline","Hinds","Bolton","MS","Mississippi","39041","Central","32.406956","-90.46141"
"(601) 206-","Landline","Hinds","Jackson","MS","Mississippi","39203","Central","32.308595","-90.210438"
"(662) 331-","Landline","Alcorn","Corinth","MS","Mississippi","38834","Central","34.87589","-88.591575"
"(662) 449-","Landline","De Soto","Hernando","MS","Mississippi","38632","Central","34.80684","-89.994591"
"(662) 492-","Landline","Clay","West Point","MS","Mississippi","39773","Central","33.621135","-88.609136"
"(228) 861-","Cell Number","Harrison","Biloxi","MS","Mississippi","39532","Central","30.510988","-88.96808"
"(601) 492-","Landline","Adams","Natchez","MS","Mississippi","39122","Central","31.470602","-91.404404"
"(601) 892-","Landline","Copiah","Crystal Springs","MS","Mississippi","39059","Central","31.965088","-90.375733"
"(228) 324-","Cell Number","Harrison","Biloxi","MS","Mississippi","39532","Central","30.510988","-88.96808"
"(601) 248-","Cell Number","Pike","Mccomb","MS","Mississippi","39649","Central","31.17494","-90.403987"
"(601) 843-","Landline","Newton","Little Rock","MS","Mississippi","39337","Central","32.5049","-88.995468"
"(601) 477-","Landline","Jones","Ellisville","MS","Mississippi","39437","Central","31.611088","-89.171825"
"(662) 354-","Landline","Tallahatchie","Charleston","MS","Mississippi","38921","Central","34.007428","-90.115364"
"(662) 744-","Cell Number","Webster","Eupora","MS","Mississippi","39744","Central","33.549384","-89.290417"
"(601) 904-","Landline","Franklin","Roxie","MS","Mississippi","39661","Central","31.50115","-91.069486"
"(601) 290-","Landline","Kemper","De Kalb","MS","Mississippi","39328","Central","32.799065","-88.698657"
"(662) 225-","Landline","Noxubee","Macon","MS","Mississippi","39341","Central","33.125769","-88.54474"
"(662) 496-","Cell Number","Washington","Greenville","MS","Mississippi","38701","Central","33.314539","-91.02297"
"(601) 230-","Landline","Jones","Laurel","MS","Mississippi","39441","Central","31.727664","-89.075482"
"(601) 528-","Landline","Stone","Wiggins","MS","Mississippi","39577","Central","30.847778","-89.086992"
"(601) 658-","Cell Number","Forrest","Hattiesburg","MS","Mississippi","39407","Central","31.172142","-89.294772"
"(662) 648-","Cell Number","Oktibbeha","Starkville","MS","Mississippi","39759","Central","33.42554","-88.879117"
"(228) 470-","Cell Number","Harrison","Biloxi","MS","Mississippi","39532","Central","30.510988","-88.96808"
"(228) 345-","Landline","Hancock","Bay St Louis","MS","Mississippi","39529","Central","30.403156","-89.49821"
"(662) 622-","Landline","Tate","Coldwater","MS","Mississippi","38618","Central","34.69018","-89.962513"
"(601) 946-","Cell Number","Hinds","Jackson","MS","Mississippi","39203","Central","32.308595","-90.210438"
"(601) 872-","Landline","Neshoba","Poplarville","MS","Mississippi","39470","Central","30.756774","-89.58072"
"(228) 372-","Landline","Jackson","Pascagoula","MS","Mississippi","39595","Central","30.441072","-88.634482"
"(662) 768-","Landline","Marshall","Michigan City","MS","Mississippi","38647","Central","34.788948","-89.185048"
"(228) 213-","Cell Number","Harrison","Gulfport","MS","Mississippi","39505","Central","30.415795","-89.068448"
"(601) 805-","Landline","Wilkinson","Centreville","MS","Mississippi","39631","Central","31.134359","-91.175079"
"(662) 841-","Landline","Lee","Tupelo","MS","Mississippi","38801","Central","34.291889","-88.683828"
"(662) 468-","Landline","Holmes","Pickens","MS","Mississippi","39146","Central","32.950379","-90.02631"
"(662) 469-","Landline","De Soto","Hernando","MS","Mississippi","38632","Central","34.80684","-89.994591"
"(662) 704-","Cell Number","Lee","Shannon","MS","Mississippi","38868","Central","34.144146","-88.68396"
"(601) 274-","Cell Number","Clarke","Quitman","MS","Mississippi","39355","Central","32.013802","-88.663429"
"(662) 570-","Landline","Lowndes","Columbus","MS","Mississippi","39704","Central","33.548523","-88.379614"
"(662) 277-","Landline","Montgomery","Winona","MS","Mississippi","38967","Central","33.514926","-89.628584"
"(662) 462-","Landline","Alcorn","Rienzi","MS","Mississippi","38865","Central","34.818882","-88.56325"
"(228) 341-","Cell Number","Harrison","Gulfport","MS","Mississippi","39505","Central","30.415795","-89.068448"
"(601) 543-","Landline","Forrest","Hattiesburg","MS","Mississippi","39407","Central","31.172142","-89.294772"
"(662) 312-","Cell Number","Oktibbeha","Starkville","MS","Mississippi","39759","Central","33.42554","-88.879117"
"(662) 627-","Landline","Coahoma","Clarksdale","MS","Mississippi","38614","Central","34.256003","-90.634809"
"(601) 653-","Landline","Adams","Natchez","MS","Mississippi","39122","Central","31.470602","-91.404404"
"(601) 288-","Landline","Forrest","Hattiesburg","MS","Mississippi","39407","Central","31.172142","-89.294772"
"(228) 546-","Landline","Harrison","Biloxi","MS","Mississippi","39532","Central","30.510988","-88.96808"
"(601) 412-","Landline","Lincoln","Brookhaven","MS","Mississippi","39603","Central","31.612287","-90.446702"
"(662) 437-","Landline","Winston","Louisville","MS","Mississippi","39339","Central","33.101687","-89.068098"
"(601) 738-","Cell Number","Warren","Vicksburg","MS","Mississippi","39183","Central","32.386006","-90.840021"
"(228) 931-","Cell Number","Jackson","Pascagoula","MS","Mississippi","39595","Central","30.441072","-88.634482"
"(662) 671-","Cell Number","Tunica","Tunica","MS","Mississippi","38676","Central","34.692892","-90.338981"
"(601) 733-","Landline","Smith","Mize","MS","Mississippi","39116","Central","31.852342","-89.50805"
"(662) 461-","Landline","Oktibbeha","Starkville","MS","Mississippi","39759","Central","33.42554","-88.879117"
"(228) 679-","Landline","Harrison","Gulfport","MS","Mississippi","39505","Central","30.415795","-89.068448"
"(228) 369-","Cell Number","Jackson","Pascagoula","MS","Mississippi","39595","Central","30.441072","-88.634482"
"(662) 797-","Landline","Tallahatchie","Webb","MS","Mississippi","38966","Central","33.898064","-90.335055"
"(601) 383-","Landline","Hinds","Jackson","MS","Mississippi","39203","Central","32.308595","-90.210438"
"(228) 271-","Unknown","Harrison","Biloxi","MS","Mississippi","39532","Central","30.510988","-88.96808"
"(662) 460-","Landline","Tate","Coldwater","MS","Mississippi","38618","Central","34.69018","-89.962513"
"(662) 430-","Landline","Washington","Greenville","MS","Mississippi","38701","Central","33.314539","-91.02297"
"(662) 420-","Cell Number","De Soto","Olive Branch","MS","Mississippi","38654","Central","34.921172","-89.869062"
"(662) 298-","Landline","De Soto","Hernando","MS","Mississippi","38632","Central","34.80684","-89.994591"
"(662) 734-","Unknown","Bolivar","Rosedale","MS","Mississippi","38769","Central","33.841892","-90.882598"
"(601) 835-","Landline","Lincoln","Brookhaven","MS","Mississippi","39603","Central","31.612287","-90.446702"
"(228) 760-","Cell Number","Harrison","Gulfport","MS","Mississippi","39505","Central","30.415795","-89.068448"
"(601) 570-","Cell Number","Forrest","Hattiesburg","MS","Mississippi","39407","Central","31.172142","-89.294772"
"(662) 690-","Landline","Lee","Tupelo","MS","Mississippi","38801","Central","34.291889","-88.683828"
"(601) 202-","Cell Number","Hinds","Bolton","MS","Mississippi","39041","Central","32.406956","-90.46141"
"(601) 424-","Landline","Marion","Columbia","MS","Mississippi","39429","Central","31.218188","-89.801872"
"(601) 453-","Landline","Lauderdale","Meridian","MS","Mississippi","39305","Central","32.403111","-88.658234"
"(662) 202-","Landline","Lafayette","Oxford","MS","Mississippi","38655","Central","34.330814","-89.483519"
"(601) 384-","Landline","Franklin","Meadville","MS","Mississippi","39653","Central","31.469888","-90.891482"
"(228) 281-","Landline","Jackson","Pascagoula","MS","Mississippi","39595","Central","30.441072","-88.634482"
"(601) 474-","Landline","Lauderdale","Meridian","MS","Mississippi","39305","Central","32.403111","-88.658234"
"(601) 429-","Landline","Warren","Vicksburg","MS","Mississippi","39183","Central","32.386006","-90.840021"
"(662) 883-","Landline","Kemper","Scooba","MS","Mississippi","39358","Central","32.822624","-88.478138"
"(662) 594-","Landline","Alcorn","Corinth","MS","Mississippi","38834","Central","34.87589","-88.591575"
"(228) 574-","Landline","Harrison","Gulfport","MS","Mississippi","39505","Central","30.415795","-89.068448"
"(601) 609-","Cell Number","Hinds","Jackson","MS","Mississippi","39203","Central","32.308595","-90.210438"
"(662) 361-","Cell Number","Noxubee","Macon","MS","Mississippi","39341","Central","33.125769","-88.54474"
"(601) 840-","Landline","Clarke","Enterprise","MS","Mississippi","39330","Central","32.14342","-88.819543"
"(601) 343-","Landline","Jasper","Heidelberg","MS","Mississippi","39439","Central","31.892668","-89.077368"
"(228) 407-","Landline","Jackson","Pascagoula","MS","Mississippi","39595","Central","30.441072","-88.634482"
"(228) 275-","Landline","Harrison","Gulfport","MS","Mississippi","39505","Central","30.415795","-89.068448"
"(228) 933-","Landline","Jackson","Pascagoula","MS","Mississippi","39595","Central","30.441072","-88.634482"
"(228) 868-","Landline","Harrison","Gulfport","MS","Mississippi","39505","Central","30.415795","-89.068448"
"(601) 276-","Landline","Pike","Mccomb","MS","Mississippi","39649","Central","31.17494","-90.403987"
"(662) 884-","Landline","Sunflower","Indianola","MS","Mississippi","38751","Central","33.443446","-90.608662"
"(601) 240-","Landline","Pearl River","Poplarville","MS","Mississippi","39470","Central","30.756774","-89.58072"
"(601) 393-","Landline","Lawrence","Monticello","MS","Mississippi","39654","Central","31.540111","-90.161012"
"(601) 803-","Landline","Walthall","Tylertown","MS","Mississippi","39667","Central","31.175558","-90.090824"
"(601) 661-","Landline","Warren","Vicksburg","MS","Mississippi","39183","Central","32.386006","-90.840021"
"(601) 736-","Landline","Marion","Columbia","MS","Mississippi","39429","Central","31.218188","-89.801872"
"(601) 713-","Landline","Hinds","Jackson","MS","Mississippi","39203","Central","32.308595","-90.210438"
"(228) 901-","Landline","Jackson","Moss Point","MS","Mississippi","39562","Central","30.544726","-88.604298"
"(662) 587-","Cell Number","Tippah","Ripley","MS","Mississippi","38663","Central","34.722961","-88.903624"
"(601) 563-","Landline","Copiah","Wesson","MS","Mississippi","39191","Central","31.847453","-90.377153"
"(601) 821-","Cell Number","Hinds","Jackson","MS","Mississippi","39203","Central","32.308595","-90.210438"
"(601) 455-","Cell Number","Lawrence","Monticello","MS","Mississippi","39654","Central","31.540111","-90.161012"
"(601) 243-","Landline","Lamar","Sumrall","MS","Mississippi","39482","Central","31.216581","-89.531088"
"(662) 799-","Landline","Coahoma","Coahoma","MS","Mississippi","38617","Central","34.308025","-90.519949"
"(601) 801-","Landline","Warren","Vicksburg","MS","Mississippi","39183","Central","32.386006","-90.840021"
"(662) 232-","Landline","Lafayette","Oxford","MS","Mississippi","38655","Central","34.330814","-89.483519"
"(662) 534-","Landline","Union","New Albany","MS","Mississippi","38652","Central","34.488692","-88.963649"
"(601) 841-","Landline","Amite","Gloster","MS","Mississippi","39638","Central","31.199644","-90.916006"
"(601) 706-","Landline","Rankin","Brandon","MS","Mississippi","39043","Central","32.269041","-89.987491"
"(601) 882-","Cell Number","Hinds","Jackson","MS","Mississippi","39203","Central","32.308595","-90.210438"
"(662) 516-","Landline","Attala","Kosciusko","MS","Mississippi","39090","Central","33.055142","-89.5913"
"(601) 912-","Landline","Newton","Richton","MS","Mississippi","39476","Central","31.318239","-88.993126"
"(662) 890-","Landline","De Soto","Olive Branch","MS","Mississippi","38654","Central","34.921172","-89.869062"
"(662) 886-","Landline","Leflore","Greenwood","MS","Mississippi","38945","Central","33.650681","-90.196909"
"(601) 789-","Landline","Jasper","Bay Springs","MS","Mississippi","39422","Central","31.989146","-89.209877"
"(662) 297-","Cell Number","Pontotoc","Pontotoc","MS","Mississippi","38863","Central","34.227246","-89.040537"
"(601) 378-","Landline","George","Lucedale","MS","Mississippi","39452","Central","30.866791","-88.649035"
"(601) 567-","Landline","Amite","Smithdale","MS","Mississippi","39664","Central","31.268945","-90.670185"
"(662) 545-","Landline","Bolivar","Cleveland","MS","Mississippi","38733","Central","33.624024","-90.819547"
"(662) 442-","Landline","Grenada","Grenada","MS","Mississippi","38901","Central","33.786016","-89.845462"
"(228) 863-","Landline","Harrison","Gulfport","MS","Mississippi","39505","Central","30.415795","-89.068448"
"(662) 370-","Landline","Lowndes","Columbus","MS","Mississippi","39704","Central","33.548523","-88.379614"
"(228) 205-","Landline","Jackson","Pascagoula","MS","Mississippi","39595","Central","30.441072","-88.634482"
"(662) 766-","Unknown","Holmes","Tchula","MS","Mississippi","39169","Central","33.134414","-90.237888"
"(601) 854-","Landline","Rankin","Pelahatchie","MS","Mississippi","39145","Central","32.33857","-89.833228"
"(228) 234-","Cell Number","Harrison","Biloxi","MS","Mississippi","39532","Central","30.510988","-88.96808"
"(662) 284-","Landline","Alcorn","Corinth","MS","Mississippi","38834","Central","34.87589","-88.591575"
"(601) 704-","Landline","Clarke","Stonewall","MS","Mississippi","39363","Central","32.140683","-88.770572"
"(662) 263-","Landline","Webster","Maben","MS","Mississippi","39750","Central","33.599618","-89.262792"
"(662) 718-","Landline","Lee","Tupelo","MS","Mississippi","38801","Central","34.291889","-88.683828"
"(662) 539-","Landline","Union","New Albany","MS","Mississippi","38652","Central","34.488692","-88.963649"
"(662) 646-","Cell Number","Monroe","Amory","MS","Mississippi","38821","Central","33.942639","-88.411284"
"(662) 831-","Unknown","Choctaw","Ackerman","MS","Mississippi","39735","Central","33.278252","-89.191298"
"(601) 527-","Cell Number","Lauderdale","Meridian","MS","Mississippi","39305","Central","32.403111","-88.658234"
"(228) 691-","Cell Number","Jackson","Pascagoula","MS","Mississippi","39595","Central","30.441072","-88.634482"
"(601) 839-","Unknown","Clarke","Enterprise","MS","Mississippi","39330","Central","32.14342","-88.819543"
"(662) 673-","Landline","Yazoo","Benton","MS","Mississippi","39039","Central","32.845368","-90.241776"
"(228) 348-","Cell Number","Harrison","Biloxi","MS","Mississippi","39532","Central","30.510988","-88.96808"
"(662) 819-","Cell Number","Lee","Tupelo","MS","Mississippi","38801","Central","34.291889","-88.683828"
"(601) 833-","Landline","Lincoln","Brookhaven","MS","Mississippi","39603","Central","31.612287","-90.446702"
"(662) 771-","Landline","Washington","Leland","MS","Mississippi","38756","Central","33.398505","-90.88387"
"(662) 301-","Landline","Tate","Senatobia","MS","Mississippi","38668","Central","34.621336","-89.930083"
"(601) 529-","Cell Number","Warren","Vicksburg","MS","Mississippi","39183","Central","32.386006","-90.840021"
"(228) 696-","Landline","Jackson","Pascagoula","MS","Mississippi","39595","Central","30.441072","-88.634482"
"(601) 331-","Cell Number","Hinds","Jackson","MS","Mississippi","39203","Central","32.308595","-90.210438"
"(601) 785-","Landline","Smith","Taylorsville","MS","Mississippi","39168","Central","31.82958","-89.403302"
"(662) 654-","Cell Number","Panola","Batesville","MS","Mississippi","38606","Central","34.343102","-89.956497"
"(228) 395-","Landline","Hancock","Bay Saint Louis","MS","Mississippi","39525","Central","30.372821","-89.377942"
"(601) 487-","Landline","Hinds","Jackson","MS","Mississippi","39203","Central","32.308595","-90.210438"
"(228) 437-","Cell Number","Harrison","Gulfport","MS","Mississippi","39505","Central","30.415795","-89.068448"
"(228) 377-","Landline","Harrison","Biloxi","MS","Mississippi","39532","Central","30.510988","-88.96808"
"(228) 270-","Landline","Hancock","Bay St Louis","MS","Mississippi","39529","Central","30.403156","-89.49821"
"(228) 337-","Cell Number","Harrison","Biloxi","MS","Mississippi","39532","Central","30.510988","-88.96808"
"(662) 458-","Cell Number","Leflore","Greenwood","MS","Mississippi","38945","Central","33.650681","-90.196909"
"(662) 643-","Cell Number","Alcorn","Corinth","MS","Mississippi","38834","Central","34.87589","-88.591575"
"(662) 731-","Unknown","Montgomery","Duck Hill","MS","Mississippi","38925","Central","33.563223","-89.641871"
"(662) 633-","Landline","Attala","Kosciusko","MS","Mississippi","39090","Central","33.055142","-89.5913"
"(601) 902-","Landline","Perry","Richton","MS","Mississippi","39476","Central","31.318239","-88.993126"
"(228) 516-","Cell Number","Harrison","Gulfport","MS","Mississippi","39505","Central","30.415795","-89.068448"
"(601) 546-","Landline","Scott","Pulaski","MS","Mississippi","39152","Central","32.274536","-89.562728"
"(601) 415-","Cell Number","Warren","Vicksburg","MS","Mississippi","39183","Central","32.386006","-90.840021"
"(228) 218-","Cell Number","Jackson","Pascagoula","MS","Mississippi","39595","Central","30.441072","-88.634482"
"(662) 830-","Landline","Sunflower","Inverness","MS","Mississippi","38753","Central","33.350655","-90.583441"
"(601) 347-","Cell Number","Pearl River","Picayune","MS","Mississippi","39466","Central","30.627655","-89.63128"
"(662) 287-","Landline","Alcorn","Corinth","MS","Mississippi","38834","Central","34.87589","-88.591575"
"(662) 209-","Cell Number","Tate","Senatobia","MS","Mississippi","38668","Central","34.621336","-89.930083"
"(601) 397-","Cell Number","Hinds","Jackson","MS","Mississippi","39203","Central","32.308595","-90.210438"
"(601) 780-","Cell Number","Leake","Carthage","MS","Mississippi","39051","Central","32.785217","-89.524057"
"(662) 630-","Cell Number","Lowndes","Columbus","MS","Mississippi","39704","Central","33.548523","-88.379614"
"(601) 725-","Landline","Smith","Taylorsville","MS","Mississippi","39168","Central","31.82958","-89.403302"
"(601) 651-","Landline","Jones","Laurel","MS","Mississippi","39441","Central","31.727664","-89.075482"
"(601) 508-","Cell Number","George","Lucedale","MS","Mississippi","39452","Central","30.866791","-88.649035"
"(662) 453-","Landline","Leflore","Greenwood","MS","Mississippi","38945","Central","33.650681","-90.196909"
"(601) 775-","Landline","Scott","Lake","MS","Mississippi","39092","Central","32.384482","-89.415089"
"(601) 924-","Landline","Hinds","Clinton","MS","Mississippi","39060","Central","32.311287","-90.397157"
"(662) 820-","Cell Number","Washington","Greenville","MS","Mississippi","38701","Central","33.314539","-91.02297"
"(601) 935-","Cell Number","Jasper","Heidelberg","MS","Mississippi","39439","Central","31.892668","-89.077368"
"(601) 723-","Cell Number","Stone","Wiggins","MS","Mississippi","39577","Central","30.847778","-89.086992"
"(601) 767-","Landline","Hinds","Jackson","MS","Mississippi","39203","Central","32.308595","-90.210438"
"(662) 990-","Landline","Lee","Tupelo","MS","Mississippi","38801","Central","34.291889","-88.683828"
"(601) 277-","Landline","Jefferson","Union Church","MS","Mississippi","39668","Central","31.714577","-90.746168"
"(662) 491-","Cell Number","Lee","Tupelo","MS","Mississippi","38801","Central","34.291889","-88.683828"
"(601) 676-","Landline","Neshoba","Philadelphia","MS","Mississippi","39350","Central","32.754387","-89.116797"
"(601) 727-","Landline","Jasper","Rose Hill","MS","Mississippi","39356","Central","32.13603","-88.998801"
"(601) 914-","Landline","Hinds","Jackson","MS","Mississippi","39203","Central","32.308595","-90.210438"
"(601) 823-","Landline","Lincoln","Brookhaven","MS","Mississippi","39603","Central","31.612287","-90.446702"
"(662) 687-","Cell Number","Lee","Tupelo","MS","Mississippi","38801","Central","34.291889","-88.683828"
"(662) 398-","Landline","Bolivar","Shelby","MS","Mississippi","38774","Central","33.957757","-90.74504"
"(662) 541-","Cell Number","Tunica","Tunica","MS","Mississippi","38676","Central","34.692892","-90.338981"
"(601) 822-","Landline","Smith","Raleigh","MS","Mississippi","39153","Central","32.033656","-89.524458"
"(662) 310-","Cell Number","Montgomery","Winona","MS","Mississippi","38967","Central","33.514926","-89.628584"
"(601) 925-","Landline","Hinds","Clinton","MS","Mississippi","39060","Central","32.311287","-90.397157"
"(601) 475-","Landline","Forrest","Hattiesburg","MS","Mississippi","39407","Central","31.172142","-89.294772"
"(228) 688-","Landline","Hancock","Bay Saint Louis","MS","Mississippi","39525","Central","30.372821","-89.377942"
"(662) 321-","Landline","Lee","Tupelo","MS","Mississippi","38801","Central","34.291889","-88.683828"
"(228) 435-","Landline","Harrison","Biloxi","MS","Mississippi","39532","Central","30.510988","-88.96808"
"(662) 393-","Landline","De Soto","Southaven","MS","Mississippi","38672","Central","34.947407","-89.925792"
"(601) 341-","Cell Number","Pike","Mccomb","MS","Mississippi","39649","Central","31.17494","-90.403987"
"(601) 638-","Landline","Warren","Vicksburg","MS","Mississippi","39183","Central","32.386006","-90.840021"
"(662) 467-","Landline","Leflore","Greenwood","MS","Mississippi","38945","Central","33.650681","-90.196909"
"(601) 752-","Landline","Jones","Moselle","MS","Mississippi","39459","Central","31.500214","-89.296883"
"(601) 284-","Landline","Neshoba","Philadelphia","MS","Mississippi","39350","Central","32.754387","-89.116797"
"(662) 751-","Landline","Yazoo","Yazoo City","MS","Mississippi","39194","Central","32.815898","-90.475849"
"(662) 829-","Unknown","Yalobusha","Coffeeville","MS","Mississippi","38922","Central","33.961287","-89.64824"
"(601) 617-","Landline","Claiborne","Port Gibson","MS","Mississippi","39150","Central","31.916949","-90.975632"
"(228) 366-","Cell Number","Jackson","Pascagoula","MS","Mississippi","39595","Central","30.441072","-88.634482"
"(662) 482-","Landline","Sunflower","Drew","MS","Mississippi","38737","Central","33.685766","-90.607299"
"(228) 323-","Cell Number","Harrison","Gulfport","MS","Mississippi","39505","Central","30.415795","-89.068448"
"(601) 760-","Cell Number","Hinds","Jackson","MS","Mississippi","39203","Central","32.308595","-90.210438"
"(601) 553-","Landline","Lauderdale","Meridian","MS","Mississippi","39305","Central","32.403111","-88.658234"
"(601) 385-","Landline","Stone","Wiggins","MS","Mississippi","39577","Central","30.847778","-89.086992"
"(601) 855-","Landline","Madison","Canton","MS","Mississippi","39046","Central","32.625298","-90.008601"
"(662) 206-","Landline","Lowndes","Columbus","MS","Mississippi","39704","Central","33.548523","-88.379614"
"(601) 580-","Cell Number","Jones","Laurel","MS","Mississippi","39441","Central","31.727664","-89.075482"
"(601) 503-","Landline","Rankin","Jackson","MS","Mississippi","39203","Central","32.308595","-90.210438"
"(601) 631-","Landline","Warren","Vicksburg","MS","Mississippi","39183","Central","32.386006","-90.840021"
"(601) 731-","Landline","Marion","Columbia","MS","Mississippi","39429","Central","31.218188","-89.801872"
"(662) 849-","Unknown","Tallahatchie","Charleston","MS","Mississippi","38921","Central","34.007428","-90.115364"
"(601) 757-","Cell Number","Lincoln","Brookhaven","MS","Mississippi","39603","Central","31.612287","-90.446702"
"(601) 659-","Landline","Clarke","Stonewall","MS","Mississippi","39363","Central","32.140683","-88.770572"
"(662) 871-","Cell Number","Lee","Tupelo","MS","Mississippi","38801","Central","34.291889","-88.683828"
"(662) 256-","Landline","Monroe","Amory","MS","Mississippi","38821","Central","33.942639","-88.411284"
"(601) 490-","Cell Number","Lauderdale","Meridian","MS","Mississippi","39305","Central","32.403111","-88.658234"
"(601) 440-","Landline","Jones","Ellisville","MS","Mississippi","39437","Central","31.611088","-89.171825"
"(601) 498-","Cell Number","Jones","Laurel","MS","Mississippi","39441","Central","31.727664","-89.075482"
"(601) 819-","Cell Number","Stone","Wiggins","MS","Mississippi","39577","Central","30.847778","-89.086992"
"(601) 337-","Cell Number","Pearl River","Picayune","MS","Mississippi","39466","Central","30.627655","-89.63128"
"(601) 939-","Landline","Rankin","Jackson","MS","Mississippi","39203","Central","32.308595","-90.210438"
"(601) 456-","Cell Number","Warren","Vicksburg","MS","Mississippi","39183","Central","32.386006","-90.840021"
"(662) 497-","Cell Number","Lowndes","Columbus","MS","Mississippi","39704","Central","33.548523","-88.379614"
"(662) 307-","Cell Number","Grenada","Grenada","MS","Mississippi","38901","Central","33.786016","-89.845462"
"(662) 324-","Landline","Oktibbeha","Starkville","MS","Mississippi","39759","Central","33.42554","-88.879117"
"(662) 634-","Landline","Webster","Maben","MS","Mississippi","39750","Central","33.599618","-89.262792"
"(662) 663-","Cell Number","Prentiss","Booneville","MS","Mississippi","38829","Central","34.632922","-88.533107"
"(662) 809-","Cell Number","Grenada","Grenada","MS","Mississippi","38901","Central","33.786016","-89.845462"
"(601) 273-","Cell Number","Pearl River","Picayune","MS","Mississippi","39466","Central","30.627655","-89.63128"
"(601) 568-","Cell Number","Neshoba","Philadelphia","MS","Mississippi","39350","Central","32.754387","-89.116797"
"(601) 779-","Cell Number","Wilkinson","Woodville","MS","Mississippi","39669","Central","31.175443","-91.324666"
"(601) 272-","Landline","Warren","Vicksburg","MS","Mississippi","39183","Central","32.386006","-90.840021"
"(662) 862-","Landline","Itawamba","Fulton","MS","Mississippi","38843","Central","34.276489","-88.355013"
"(601) 251-","Landline","Pearl River","Picayune","MS","Mississippi","39466","Central","30.627655","-89.63128"
"(601) 444-","Landline","Marion","Columbia","MS","Mississippi","39429","Central","31.218188","-89.801872"
"(601) 218-","Cell Number","Warren","Vicksburg","MS","Mississippi","39183","Central","32.386006","-90.840021"
"(601) 280-","Landline","Lincoln","Brookhaven","MS","Mississippi","39603","Central","31.612287","-90.446702"
"(601) 647-","Landline","Copiah","Crystal Springs","MS","Mississippi","39059","Central","31.965088","-90.375733"
"(601) 942-","Cell Number","Hinds","Jackson","MS","Mississippi","39203","Central","32.308595","-90.210438"
"(601) 589-","Cell Number","Hinds","Jackson","MS","Mississippi","39203","Central","32.308595","-90.210438"
"(228) 383-","Cell Number","Harrison","Gulfport","MS","Mississippi","39505","Central","30.415795","-89.068448"
"(662) 851-","Landline","Marshall","Olive Branch","MS","Mississippi","38654","Central","34.921172","-89.869062"
"(662) 638-","Landline","Lafayette","Oxford","MS","Mississippi","38655","Central","34.330814","-89.483519"
"(662) 387-","Landline","Choctaw","Ackerman","MS","Mississippi","39735","Central","33.278252","-89.191298"
"(601) 824-","Landline","Rankin","Brandon","MS","Mississippi","39043","Central","32.269041","-89.987491"
"(601) 729-","Landline","Jones","Soso","MS","Mississippi","39480","Central","31.713226","-89.297336"
"(601) 722-","Landline","Covington","Seminary","MS","Mississippi","39479","Central","31.5378","-89.502846"
"(662) 691-","Landline","Lee","Tupelo","MS","Mississippi","38801","Central","34.291889","-88.683828"
"(601) 359-","Landline","Hinds","Jackson","MS","Mississippi","39203","Central","32.308595","-90.210438"
"(228) 238-","Cell Number","Jackson","Ocean Springs","MS","Mississippi","39564","Central","30.50028","-88.655024"
"(662) 617-","Cell Number","Oktibbeha","Starkville","MS","Mississippi","39759","Central","33.42554","-88.879117"
"(662) 597-","Landline","Monroe","Amory","MS","Mississippi","38821","Central","33.942639","-88.411284"
"(662) 784-","Unknown","Tishomingo","Golden","MS","Mississippi","38847","Central","34.346321","-88.246027"
"(601) 407-","Landline","Madison","Canton","MS","Mississippi","39046","Central","32.625298","-90.008601"
"(662) 296-","Cell Number","Pontotoc","Pontotoc","MS","Mississippi","38863","Central","34.227246","-89.040537"
"(662) 720-","Landline","Prentiss","Booneville","MS","Mississippi","38829","Central","34.632922","-88.533107"
"(228) 242-","Landline","Hancock","Bay Saint Louis","MS","Mississippi","39525","Central","30.372821","-89.377942"
"(601) 361-","Landline","Adams","Natchez","MS","Mississippi","39122","Central","31.470602","-91.404404"
"(662) 834-","Landline","Holmes","Lexington","MS","Mississippi","39095","Central","33.126082","-90.057116"
"(228) 938-","Landline","Jackson","Pascagoula","MS","Mississippi","39595","Central","30.441072","-88.634482"
"(601) 523-","Landline","Stone","Wiggins","MS","Mississippi","39577","Central","30.847778","-89.086992"
"(228) 993-","Landline","Harrison","Gulfport","MS","Mississippi","39505","Central","30.415795","-89.068448"
"(662) 657-","Landline","Lowndes","Columbus","MS","Mississippi","39704","Central","33.548523","-88.379614"
"(601) 751-","Cell Number","Kemper","De Kalb","MS","Mississippi","39328","Central","32.799065","-88.698657"
"(662) 375-","Landline","Tallahatchie","Webb","MS","Mississippi","38966","Central","33.898064","-90.335055"
"(601) 389-","Landline","Neshoba","Philadelphia","MS","Mississippi","39350","Central","32.754387","-89.116797"
"(228) 864-","Landline","Harrison","Gulfport","MS","Mississippi","39505","Central","30.415795","-89.068448"
"(228) 364-","Landline","Harrison","Pass Christian","MS","Mississippi","39571","Central","30.426162","-89.264327"
"(662) 620-","Landline","Lee","Tupelo","MS","Mississippi","38801","Central","34.291889","-88.683828"
"(228) 257-","Cell Number","Harrison","Biloxi","MS","Mississippi","39532","Central","30.510988","-88.96808"
"(601) 986-","Landline","Lauderdale","Collinsville","MS","Mississippi","39325","Central","32.434473","-88.78778"
"(662) 764-","Unknown","Humphreys","Louise","MS","Mississippi","39097","Central","32.980758","-90.592812"
"(601) 703-","Landline","Lauderdale","Meridian","MS","Mississippi","39305","Central","32.403111","-88.658234"
"(662) 787-","Landline","De Soto","Southaven","MS","Mississippi","38672","Central","34.947407","-89.925792"
"(662) 477-","Landline","Leflore","Greenwood","MS","Mississippi","38945","Central","33.650681","-90.196909"
"(601) 621-","Landline","Lauderdale","Meridian","MS","Mississippi","39305","Central","32.403111","-88.658234"
"(228) 712-","Landline","Jackson","Pascagoula","MS","Mississippi","39595","Central","30.441072","-88.634482"
"(662) 317-","Cell Number","Union","New Albany","MS","Mississippi","38652","Central","34.488692","-88.963649"
"(601) 550-","Cell Number","Forrest","Hattiesburg","MS","Mississippi","39407","Central","31.172142","-89.294772"
"(601) 222-","Landline","Walthall","Tylertown","MS","Mississippi","39667","Central","31.175558","-90.090824"
"(662) 478-","Landline","Monroe","Amory","MS","Mississippi","38821","Central","33.942639","-88.411284"
"(601) 832-","Cell Number","Hinds","Jackson","MS","Mississippi","39203","Central","32.308595","-90.210438"
"(601) 545-","Landline","Forrest","Hattiesburg","MS","Mississippi","39407","Central","31.172142","-89.294772"
"(601) 402-","Cell Number","Forrest","Hattiesburg","MS","Mississippi","39407","Central","31.172142","-89.294772"
"(662) 793-","Landline","Noxubee","Shuqualak","MS","Mississippi","39361","Central","33.082645","-88.659645"
"(601) 435-","Cell Number","Lincoln","Brookhaven","MS","Mississippi","39603","Central","31.612287","-90.446702"
"(601) 669-","Cell Number","Lincoln","Brookhaven","MS","Mississippi","39603","Central","31.612287","-90.446702"
"(601) 246-","Landline","Greene","Mc Lain","MS","Mississippi","39456","Central","31.086666","-88.797692"
"(662) 330-","Unknown","Montgomery","Kilmichael","MS","Mississippi","39747","Central","33.4346","-89.585663"
"(662) 327-","Landline","Lowndes","Columbus","MS","Mississippi","39704","Central","33.548523","-88.379614"
"(228) 297-","Cell Number","Harrison","Biloxi","MS","Mississippi","39532","Central","30.510988","-88.96808"
"(662) 487-","Landline","Panola","Sardis","MS","Mississippi","38666","Central","34.358883","-89.930441"
"(228) 822-","Landline","Harrison","Gulfport","MS","Mississippi","39505","Central","30.415795","-89.068448"
"(601) 831-","Cell Number","Warren","Vicksburg","MS","Mississippi","39183","Central","32.386006","-90.840021"
"(662) 507-","Landline","Union","New Albany","MS","Mississippi","38652","Central","34.488692","-88.963649"
"(601) 933-","Landline","Rankin","Jackson","MS","Mississippi","39203","Central","32.308595","-90.210438"
"(601) 451-","Cell Number","Jefferson","Fayette","MS","Mississippi","39069","Central","31.731988","-91.056503"
"(228) 701-","Landline","Harrison","Gulfport","MS","Mississippi","39505","Central","30.415795","-89.068448"
"(228) 466-","Landline","Hancock","Bay Saint Louis","MS","Mississippi","39525","Central","30.372821","-89.377942"
"(601) 319-","Cell Number","Jones","Laurel","MS","Mississippi","39441","Central","31.727664","-89.075482"
"(662) 595-","Landline","Leflore","Greenwood","MS","Mississippi","38945","Central","33.650681","-90.196909"
"(662) 405-","Landline","Leflore","Greenwood","MS","Mississippi","38945","Central","33.650681","-90.196909"
"(601) 552-","Cell Number","Copiah","Hazlehurst","MS","Mississippi","39083","Central","31.868475","-90.429426"
"(662) 216-","Cell Number","Marshall","Holly Springs","MS","Mississippi","38634","Central","34.74504","-89.484963"
"(601) 737-","Landline","Lauderdale","Collinsville","MS","Mississippi","39325","Central","32.434473","-88.78778"
"(662) 612-","Landline","Tate","Senatobia","MS","Mississippi","38668","Central","34.621336","-89.930083"
"(662) 569-","Landline","Sunflower","Sunflower","MS","Mississippi","38778","Central","33.556746","-90.545111"
"(601) 416-","Cell Number","Neshoba","Philadelphia","MS","Mississippi","39350","Central","32.754387","-89.116797"
"(662) 760-","Unknown","Pontotoc","Pontotoc","MS","Mississippi","38863","Central","34.227246","-89.040537"
"(662) 698-","Landline","Monroe","Aberdeen","MS","Mississippi","39730","Central","33.847638","-88.514694"
"(601) 304-","Landline","Adams","Natchez","MS","Mississippi","39122","Central","31.470602","-91.404404"
"(662) 721-","Landline","Bolivar","Cleveland","MS","Mississippi","38733","Central","33.624024","-90.819547"
"(662) 625-","Cell Number","Tallahatchie","Charleston","MS","Mississippi","38921","Central","34.007428","-90.115364"
"(601) 679-","Landline","Lauderdale","Marion","MS","Mississippi","39342","Central","32.336743","-88.616297"
"(601) 763-","Landline","Jones","Soso","MS","Mississippi","39480","Central","31.713226","-89.297336"
"(601) 624-","Cell Number","Hinds","Jackson","MS","Mississippi","39203","Central","32.308595","-90.210438"
"(601) 514-","Cell Number","Adams","Lucedale","MS","Mississippi","39452","Central","30.866791","-88.649035"
"(601) 316-","Cell Number","Hinds","Jackson","MS","Mississippi","39203","Central","32.308595","-90.210438"
"(662) 353-","Landline","Coahoma","Clarksdale","MS","Mississippi","38614","Central","34.256003","-90.634809"
"(601) 536-","Landline","Scott","Forest","MS","Mississippi","39074","Central","32.399853","-89.505298"
"(601) 266-","Landline","Forrest","Hattiesburg","MS","Mississippi","39407","Central","31.172142","-89.294772"
"(601) 634-","Landline","Warren","Vicksburg","MS","Mississippi","39183","Central","32.386006","-90.840021"
"(662) 653-","Landline","Holmes","Durant","MS","Mississippi","39063","Central","33.071531","-89.899593"
"(662) 777-","Landline","Tunica","Tunica","MS","Mississippi","38676","Central","34.692892","-90.338981"
"(601) 749-","Landline","Pearl River","Picayune","MS","Mississippi","39466","Central","30.627655","-89.63128"
"(601) 414-","Landline","Hinds","Jackson","MS","Mississippi","39203","Central","32.308595","-90.210438"
"(662) 987-","Landline","Bolivar","Gunnison","MS","Mississippi","38746","Central","34.000588","-90.919616"
"(601) 352-","Landline","Hinds","Jackson","MS","Mississippi","39203","Central","32.308595","-90.210438"
"(601) 592-","Landline","Hinds","Jackson","MS","Mississippi","39203","Central","32.308595","-90.210438"
"(662) 576-","Landline","Tippah","Ripley","MS","Mississippi","38663","Central","34.722961","-88.903624"
"(228) 591-","Cell Number","Jackson","Ocean Springs","MS","Mississippi","39564","Central","30.50028","-88.655024"
"(601) 283-","Cell Number","Jones","Laurel","MS","Mississippi","39441","Central","31.727664","-89.075482"
"(601) 505-","Cell Number","Copiah","Hazlehurst","MS","Mississippi","39083","Central","31.868475","-90.429426"
"(662) 333-","Landline","Marshall","Potts Camp","MS","Mississippi","38659","Central","34.62921","-89.366355"
"(601) 834-","Landline","Amite","Crosby","MS","Mississippi","39633","Central","31.247847","-90.885075"
"(601) 838-","Landline","Clarke","Quitman","MS","Mississippi","39355","Central","32.013802","-88.663429"
"(601) 685-","Cell Number","Lauderdale","Meridian","MS","Mississippi","39305","Central","32.403111","-88.658234"
"(601) 712-","Landline","Covington","Collins","MS","Mississippi","39428","Central","31.652811","-89.578002"
"(601) 889-","Cell Number","Hinds","Jackson","MS","Mississippi","39203","Central","32.308595","-90.210438"
"(601) 603-","Cell Number","Smith","Mize","MS","Mississippi","39116","Central","31.852342","-89.50805"
"(601) 955-","Cell Number","Hinds","Jackson","MS","Mississippi","39203","Central","32.308595","-90.210438"
"(662) 543-","Cell Number","Tunica","Tunica","MS","Mississippi","38676","Central","34.692892","-90.338981"
"(662) 334-","Landline","Washington","Greenville","MS","Mississippi","38701","Central","33.314539","-91.02297"
"(662) 313-","Cell Number","Coahoma","Clarksdale","MS","Mississippi","38614","Central","34.256003","-90.634809"
"(228) 312-","Landline","Jackson","Pascagoula","MS","Mississippi","39595","Central","30.441072","-88.634482"
"(601) 406-","Landline","Pike","Magnolia","MS","Mississippi","39652","Central","31.143395","-90.403989"
"(662) 332-","Landline","Washington","Greenville","MS","Mississippi","38701","Central","33.314539","-91.02297"
"(601) 974-","Landline","Hinds","Jackson","MS","Mississippi","39203","Central","32.308595","-90.210438"
"(662) 208-","Cell Number","Lowndes","Columbus","MS","Mississippi","39704","Central","33.548523","-88.379614"
"(662) 344-","Landline","Washington","Greenville","MS","Mississippi","38701","Central","33.314539","-91.02297"
"(601) 569-","Cell Number","Pearl River","Picayune","MS","Mississippi","39466","Central","30.627655","-89.63128"
"(662) 791-","Landline","Lee","Tupelo","MS","Mississippi","38801","Central","34.291889","-88.683828"
"(601) 850-","Landline","Hinds","Jackson","MS","Mississippi","39203","Central","32.308595","-90.210438"
"(662) 672-","Cell Number","Tippah","Walnut","MS","Mississippi","38683","Central","34.89462","-88.885227"
"(601) 787-","Landline","Jasper","Heidelberg","MS","Mississippi","39439","Central","31.892668","-89.077368"
"(601) 338-","Landline","Greene","Mc Lain","MS","Mississippi","39456","Central","31.086666","-88.797692"
"(601) 871-","Landline","Hinds","Raymond","MS","Mississippi","39154","Central","32.196072","-90.47528"
"(662) 265-","Landline","Sunflower","Inverness","MS","Mississippi","38753","Central","33.350655","-90.583441"
"(601) 913-","Cell Number","Forrest","Hattiesburg","MS","Mississippi","39407","Central","31.172142","-89.294772"
"(662) 399-","Landline","Humphreys","Belzoni","MS","Mississippi","39038","Central","33.170596","-90.475786"
"(601) 310-","Cell Number","Forrest","Hattiesburg","MS","Mississippi","39407","Central","31.172142","-89.294772"
"(601) 625-","Landline","Leake","Walnut Grove","MS","Mississippi","39189","Central","32.62897","-89.406315"
"(601) 806-","Landline","Lawrence","Monticello","MS","Mississippi","39654","Central","31.540111","-90.161012"
"(662) 850-","Unknown","Marshall","Byhalia","MS","Mississippi","38611","Central","34.848108","-89.617691"
"(662) 790-","Landline","Lee","Tupelo","MS","Mississippi","38801","Central","34.291889","-88.683828"
"(228) 219-","Cell Number","Jackson","Pascagoula","MS","Mississippi","39595","Central","30.441072","-88.634482"
"(228) 990-","Cell Number","Jackson","Pascagoula","MS","Mississippi","39595","Central","30.441072","-88.634482"
"(601) 584-","Landline","Forrest","Hattiesburg","MS","Mississippi","39407","Central","31.172142","-89.294772"
"(601) 522-","Cell Number","Marion","Columbia","MS","Mississippi","39429","Central","31.218188","-89.801872"
"(601) 773-","Cell Number","Franklin","Roxie","MS","Mississippi","39661","Central","31.50115","-91.069486"
"(601) 728-","Cell Number","Neshoba","Philadelphia","MS","Mississippi","39350","Central","32.754387","-89.116797"
"(662) 985-","Unknown","Desoto","Southaven","MS","Mississippi","38672","Central","34.947407","-89.925792"
"(601) 333-","Landline","Scott","Forest","MS","Mississippi","39074","Central","32.399853","-89.505298"
"(601) 212-","Cell Number","Hinds","Jackson","MS","Mississippi","39203","Central","32.308595","-90.210438"
"(601) 554-","Landline","Forrest","Hattiesburg","MS","Mississippi","39407","Central","31.172142","-89.294772"
"(601) 672-","Cell Number","Hinds","Jackson","MS","Mississippi","39203","Central","32.308595","-90.210438"
"(601) 524-","Cell Number","Hinds","Jackson","MS","Mississippi","39203","Central","32.308595","-90.210438"
"(601) 896-","Landline","Hinds","Jackson","MS","Mississippi","39203","Central","32.308595","-90.210438"
"(601) 257-","Landline","Scott","Forest","MS","Mississippi","39074","Central","32.399853","-89.505298"
"(228) 226-","Unknown","Hancock","Bay St Louis","MS","Mississippi","39529","Central","30.403156","-89.49821"
"(228) 241-","Landline","Harrison","Gulfport","MS","Mississippi","39505","Central","30.415795","-89.068448"
"(662) 207-","Cell Number","Sunflower","Indianola","MS","Mississippi","38751","Central","33.443446","-90.608662"
"(601) 540-","Cell Number","Hinds","Jackson","MS","Mississippi","39203","Central","32.308595","-90.210438"
"(601) 535-","Landline","Claiborne","Hermanville","MS","Mississippi","39086","Central","31.997408","-90.716602"
"(601) 484-","Landline","Lauderdale","Meridian","MS","Mississippi","39305","Central","32.403111","-88.658234"
"(601) 233-","Landline","Pike","Mccomb","MS","Mississippi","39649","Central","31.17494","-90.403987"
"(662) 903-","Cell Number","Leflore","Greenwood","MS","Mississippi","38945","Central","33.650681","-90.196909"
"(662) 801-","Cell Number","Lafayette","Oxford","MS","Mississippi","38655","Central","34.330814","-89.483519"
"(662) 607-","Cell Number","Lafayette","Oxford","MS","Mississippi","38655","Central","34.330814","-89.483519"
"(601) 224-","Landline","Copiah","Hazlehurst","MS","Mississippi","39083","Central","31.868475","-90.429426"
"(228) 326-","Cell Number","Harrison","Biloxi","MS","Mississippi","39532","Central","30.510988","-88.96808"
"(228) 259-","Landline","Hancock","Pearlington","MS","Mississippi","39572","Central","30.249299","-89.520472"
"(601) 698-","Landline","Covington","Collins","MS","Mississippi","39428","Central","31.652811","-89.578002"
"(601) 312-","Landline","Stone","Wiggins","MS","Mississippi","39577","Central","30.847778","-89.086992"
"(601) 255-","Landline","Forrest","Hattiesburg","MS","Mississippi","39407","Central","31.172142","-89.294772"
"(601) 253-","Landline","Leake","Walnut Grove","MS","Mississippi","39189","Central","32.62897","-89.406315"
"(601) 856-","Landline","Madison","Madison","MS","Mississippi","39130","Central","32.642448","-90.090683"
"(662) 475-","Cell Number","Leflore","Greenwood","MS","Mississippi","38945","Central","33.650681","-90.196909"
"(662) 285-","Landline","Choctaw","Ackerman","MS","Mississippi","39735","Central","33.278252","-89.191298"
"(601) 758-","Landline","Lamar","Sumrall","MS","Mississippi","39482","Central","31.216581","-89.531088"
"(662) 509-","Landline","Pontotoc","Pontotoc","MS","Mississippi","38863","Central","34.227246","-89.040537"
"(662) 782-","Unknown","Leflore","Greenwood","MS","Mississippi","38945","Central","33.650681","-90.196909"
"(662) 219-","Cell Number","Leflore","Greenwood","MS","Mississippi","38945","Central","33.650681","-90.196909"
"(662) 535-","Landline","Montgomery","Winona","MS","Mississippi","38967","Central","33.514926","-89.628584"
"(662) 435-","Cell Number","Lowndes","Columbus","MS","Mississippi","39704","Central","33.548523","-88.379614"
"(601) 740-","Landline","Marion","Columbia","MS","Mississippi","39429","Central","31.218188","-89.801872"
"(228) 385-","Landline","Harrison","Biloxi","MS","Mississippi","39532","Central","30.510988","-88.96808"
"(662) 380-","Cell Number","Lafayette","Oxford","MS","Mississippi","38655","Central","34.330814","-89.483519"
"(662) 373-","Landline","Tunica","Tunica","MS","Mississippi","38676","Central","34.692892","-90.338981"
"(601) 866-","Landline","Hinds","Bolton","MS","Mississippi","39041","Central","32.406956","-90.46141"
"(601) 783-","Landline","Pike","Magnolia","MS","Mississippi","39652","Central","31.143395","-90.403989"
"(662) 520-","Landline","Grenada","Grenada","MS","Mississippi","38901","Central","33.786016","-89.845462"
"(601) 927-","Cell Number","Hinds","Jackson","MS","Mississippi","39203","Central","32.308595","-90.210438"
"(662) 365-","Landline","Lee","Baldwyn","MS","Mississippi","38824","Central","34.314813","-88.63922"
"(662) 935-","Landline","Bolivar","Beulah","MS","Mississippi","38726","Central","33.75291","-90.958277"
"(601) 374-","Cell Number","Smith","Raleigh","MS","Mississippi","39153","Central","32.033656","-89.524458"
"(662) 286-","Landline","Alcorn","Corinth","MS","Mississippi","38834","Central","34.87589","-88.591575"
"(662) 443-","Landline","Tishomingo","Iuka","MS","Mississippi","38852","Central","34.81583","-88.2318"
"(662) 386-","Cell Number","Lowndes","Columbus","MS","Mississippi","39704","Central","33.548523","-88.379614"
"(662) 651-","Landline","Monroe","Smithville","MS","Mississippi","38870","Central","34.045269","-88.365609"
"(662) 254-","Landline","Leflore","Itta Bena","MS","Mississippi","38941","Central","33.467852","-90.294639"
"(662) 291-","Cell Number","Marshall","Holly Springs","MS","Mississippi","38634","Central","34.74504","-89.484963"
"(601) 510-","Landline","Hinds","Jackson","MS","Mississippi","39203","Central","32.308595","-90.210438"
"(662) 357-","Landline","Tunica","Tunica","MS","Mississippi","38676","Central","34.692892","-90.338981"
"(601) 326-","Landline","Hinds","Jackson","MS","Mississippi","39203","Central","32.308595","-90.210438"
"(228) 276-","Landline","Harrison","Biloxi","MS","Mississippi","39532","Central","30.510988","-88.96808"
"(228) 331-","Unknown","Harrison","Biloxi","MS","Mississippi","39532","Central","30.510988","-88.96808"
"(662) 540-","Landline","Marshall","Red Banks","MS","Mississippi","38661","Central","34.893744","-89.564928"
"(662) 246-","Landline","Sunflower","Moorhead","MS","Mississippi","38761","Central","33.443386","-90.506817"
"(601) 762-","Landline","Stone","Wiggins","MS","Mississippi","39577","Central","30.847778","-89.086992"
"(601) 707-","Landline","Madison","Madison","MS","Mississippi","39130","Central","32.642448","-90.090683"
"(662) 566-","Landline","Lee","Plantersville","MS","Mississippi","38862","Central","34.239541","-88.617454"
"(228) 806-","Cell Number","Harrison","Biloxi","MS","Mississippi","39532","Central","30.510988","-88.96808"
"(601) 968-","Landline","Hinds","Jackson","MS","Mississippi","39203","Central","32.308595","-90.210438"
"(601) 574-","Landline","Copiah","Hazlehurst","MS","Mississippi","39083","Central","31.868475","-90.429426"
"(662) 755-","Landline","Yazoo","Bentonia","MS","Mississippi","39040","Central","32.645794","-90.423646"
"(662) 904-","Cell Number","Lowndes","Columbus","MS","Mississippi","39704","Central","33.548523","-88.379614"
"(662) 394-","Cell Number","Washington","Greenville","MS","Mississippi","38701","Central","33.314539","-91.02297"
"(601) 981-","Landline","Hinds","Jackson","MS","Mississippi","39203","Central","32.308595","-90.210438"
"(662) 395-","Landline","Bolivar","Shelby","MS","Mississippi","38774","Central","33.957757","-90.74504"
"(662) 483-","Landline","Coahoma","Clarksdale","MS","Mississippi","38614","Central","34.256003","-90.634809"
"(662) 905-","Landline","Lafayette","Oxford","MS","Mississippi","38655","Central","34.330814","-89.483519"
"(601) 287-","Cell Number","Scott","Forest","MS","Mississippi","39074","Central","32.399853","-89.505298"
"(662) 803-","Cell Number","Winston","Louisville","MS","Mississippi","39339","Central","33.101687","-89.068098"
"(601) 398-","Landline","Hinds","Jackson","MS","Mississippi","39203","Central","32.308595","-90.210438"
"(662) 218-","Landline","Yalobusha","Coffeeville","MS","Mississippi","38922","Central","33.961287","-89.64824"
"(601) 906-","Cell Number","Hinds","Jackson","MS","Mississippi","39203","Central","32.308595","-90.210438"
"(662) 983-","Landline","Calhoun","Bruce","MS","Mississippi","38915","Central","34.034636","-89.342661"
"(662) 347-","Cell Number","Washington","Greenville","MS","Mississippi","38701","Central","33.314539","-91.02297"
"(601) 817-","Cell Number","Hinds","Jackson","MS","Mississippi","39203","Central","32.308595","-90.210438"
"(601) 893-","Landline","Scott","Forest","MS","Mississippi","39074","Central","32.399853","-89.505298"
"(662) 227-","Landline","Grenada","Grenada","MS","Mississippi","38901","Central","33.786016","-89.845462"
"(662) 486-","Landline","Union","New Albany","MS","Mississippi","38652","Central","34.488692","-88.963649"
"(601) 724-","Landline","Rankin","Brandon","MS","Mississippi","39043","Central","32.269041","-89.987491"
"(662) 493-","Landline","Noxubee","Macon","MS","Mississippi","39341","Central","33.125769","-88.54474"
"(662) 495-","Landline","Clay","West Point","MS","Mississippi","39773","Central","33.621135","-88.609136"
"(228) 617-","Cell Number","Harrison","Gulfport","MS","Mississippi","39505","Central","30.415795","-89.068448"
"(601) 637-","Cell Number","Jones","Toomsuba","MS","Mississippi","39364","Central","32.424306","-88.660633"
"(601) 371-","Landline","Hinds","Jackson","MS","Mississippi","39203","Central","32.308595","-90.210438"
"(228) 967-","Unknown","Harrison","Gulfport","MS","Mississippi","39505","Central","30.415795","-89.068448"
"(662) 773-","Landline","Winston","Louisville","MS","Mississippi","39339","Central","33.101687","-89.068098"
"(228) 523-","Landline","Harrison","Biloxi","MS","Mississippi","39532","Central","30.510988","-88.96808"
"(228) 687-","Unknown","Harrison","Gulfport","MS","Mississippi","39505","Central","30.415795","-89.068448"
"(662) 269-","Landline","Lee","Tupelo","MS","Mississippi","38801","Central","34.291889","-88.683828"
"(601) 645-","Landline","Wilkinson","Centreville","MS","Mississippi","39631","Central","31.134359","-91.175079"
"(601) 321-","Landline","Hinds","Jackson","MS","Mississippi","39203","Central","32.308595","-90.210438"
"(662) 674-","Landline","Attala","Ethel","MS","Mississippi","39067","Central","33.08167","-89.541348"
"(662) 750-","Cell Number","Tippah","Walnut","MS","Mississippi","38683","Central","34.89462","-88.885227"
"(601) 926-","Landline","Hinds","Clinton","MS","Mississippi","39060","Central","32.311287","-90.397157"
"(601) 941-","Cell Number","Hinds","Jackson","MS","Mississippi","39203","Central","32.308595","-90.210438"
"(662) 245-","Landline","Lowndes","Columbus","MS","Mississippi","39704","Central","33.548523","-88.379614"
"(601) 793-","Landline","Kemper","De Kalb","MS","Mississippi","39328","Central","32.799065","-88.698657"
"(601) 226-","Landline","Clarke","Quitman","MS","Mississippi","39355","Central","32.013802","-88.663429"
"(662) 618-","Cell Number","Sunflower","Ruleville","MS","Mississippi","38771","Central","33.66479","-90.555537"
"(662) 352-","Cell Number","Lowndes","Columbus","MS","Mississippi","39704","Central","33.548523","-88.379614"
"(601) 322-","Landline","Franklin","Roxie","MS","Mississippi","39661","Central","31.50115","-91.069486"
"(662) 696-","Landline","Alcorn","Corinth","MS","Mississippi","38834","Central","34.87589","-88.591575"
"(228) 549-","Landline","Jackson","Pascagoula","MS","Mississippi","39595","Central","30.441072","-88.634482"
"(662) 371-","Landline","Lafayette","Oxford","MS","Mississippi","38655","Central","34.330814","-89.483519"
"(662) 637-","Landline","Calhoun","Calhoun City","MS","Mississippi","38916","Central","33.857172","-89.352482"
"(601) 364-","Landline","Hinds","Jackson","MS","Mississippi","39203","Central","32.308595","-90.210438"
"(601) 282-","Cell Number","Lauderdale","Meridian","MS","Mississippi","39305","Central","32.403111","-88.658234"
"(662) 802-","Unknown","Tishomingo","Burnsville","MS","Mississippi","38833","Central","34.855985","-88.286923"
"(601) 409-","Cell Number","Lauderdale","Meridian","MS","Mississippi","39305","Central","32.403111","-88.658234"
"(662) 767-","Landline","Lee","Shannon","MS","Mississippi","38868","Central","34.144146","-88.68396"
"(601) 903-","Landline","Jasper","Heidelberg","MS","Mississippi","39439","Central","31.892668","-89.077368"
"(662) 308-","Cell Number","Pontotoc","Pontotoc","MS","Mississippi","38863","Central","34.227246","-89.040537"
"(662) 710-","Landline","Panola","Batesville","MS","Mississippi","38606","Central","34.343102","-89.956497"
"(228) 252-","Landline","Hancock","Bay Saint Louis","MS","Mississippi","39525","Central","30.372821","-89.377942"
"(601) 309-","Landline","Amite","Crosby","MS","Mississippi","39633","Central","31.247847","-90.885075"
"(662) 623-","Landline","Tallahatchie","Enid","MS","Mississippi","38927","Central","34.125054","-90.013183"
"(662) 280-","Landline","De Soto","Southaven","MS","Mississippi","38672","Central","34.947407","-89.925792"
"(601) 876-","Landline","Walthall","Tylertown","MS","Mississippi","39667","Central","31.175558","-90.090824"
"(228) 209-","Cell Number","Harrison","Biloxi","MS","Mississippi","39532","Central","30.510988","-88.96808"
"(601) 531-","Landline","Lauderdale","Meridian","MS","Mississippi","39305","Central","32.403111","-88.658234"
"(601) 387-","Landline","Hinds","Jackson","MS","Mississippi","39203","Central","32.308595","-90.210438"
"(662) 670-","Landline","Holmes","Durant","MS","Mississippi","39063","Central","33.071531","-89.899593"
"(601) 626-","Landline","Lauderdale","Collinsville","MS","Mississippi","39325","Central","32.434473","-88.78778"
"(228) 697-","Cell Number","Harrison","Biloxi","MS","Mississippi","39532","Central","30.510988","-88.96808"
"(601) 888-","Landline","Wilkinson","Centreville","MS","Mississippi","39631","Central","31.134359","-91.175079"
"(601) 551-","Cell Number","Pike","Mccomb","MS","Mississippi","39649","Central","31.17494","-90.403987"
"(601) 743-","Landline","Kemper","De Kalb","MS","Mississippi","39328","Central","32.799065","-88.698657"
"(662) 369-","Landline","Monroe","Aberdeen","MS","Mississippi","39730","Central","33.847638","-88.514694"
"(662) 626-","Cell Number","Bolivar","Shaw","MS","Mississippi","38773","Central","33.608538","-90.794341"
"(662) 693-","Landline","Union","New Albany","MS","Mississippi","38652","Central","34.488692","-88.963649"
"(601) 242-","Landline","Lamar","Purvis","MS","Mississippi","39475","Central","31.228126","-89.501513"
"(601) 670-","Landline","Jasper","Bay Springs","MS","Mississippi","39422","Central","31.989146","-89.209877"
"(601) 327-","Cell Number","Lincoln","Brookhaven","MS","Mississippi","39603","Central","31.612287","-90.446702"
"(662) 417-","Cell Number","Grenada","Grenada","MS","Mississippi","38901","Central","33.786016","-89.845462"
"(601) 759-","Cell Number","Rankin","Pelahatchie","MS","Mississippi","39145","Central","32.33857","-89.833228"
"(228) 248-","Landline","Harrison","Gulfport","MS","Mississippi","39505","Central","30.415795","-89.068448"
"(662) 707-","Cell Number","Panola","Como","MS","Mississippi","38619","Central","34.474028","-89.954427"
"(662) 609-","Cell Number","Panola","Batesville","MS","Mississippi","38606","Central","34.343102","-89.956497"
"(228) 522-","Landline","Jackson","Pascagoula","MS","Mississippi","39595","Central","30.441072","-88.634482"
"(601) 687-","Landline","Clarke","Shubuta","MS","Mississippi","39360","Central","31.960687","-88.716818"
"(662) 873-","Landline","Sharkey","Rolling Fork","MS","Mississippi","39159","Central","32.859106","-90.897658"
"(601) 873-","Landline","Pike","Osyka","MS","Mississippi","39657","Central","31.043653","-90.403651"
"(601) 439-","Cell Number","Jones","Magee","MS","Mississippi","39111","Central","31.910321","-89.775032"
"(601) 501-","Landline","Warren","Vicksburg","MS","Mississippi","39183","Central","32.386006","-90.840021"
"(228) 918-","Cell Number","Harrison","Gulfport","MS","Mississippi","39505","Central","30.415795","-89.068448"
"(601) 426-","Landline","Jones","Laurel","MS","Mississippi","39441","Central","31.727664","-89.075482"
"(662) 635-","Cell Number","Sunflower","Indianola","MS","Mississippi","38751","Central","33.443446","-90.608662"
"(601) 307-","Cell Number","Forrest","Hattiesburg","MS","Mississippi","39407","Central","31.172142","-89.294772"
"(601) 954-","Cell Number","Hinds","Jackson","MS","Mississippi","39203","Central","32.308595","-90.210438"
"(228) 224-","Cell Number","Harrison","Gulfport","MS","Mississippi","39505","Central","30.415795","-89.068448"
"(601) 910-","Landline","Hinds","Clinton","MS","Mississippi","39060","Central","32.311287","-90.397157"
"(601) 313-","Landline","Hinds","Jackson","MS","Mississippi","39203","Central","32.308595","-90.210438"
"(662) 266-","Cell Number","Union","New Albany","MS","Mississippi","38652","Central","34.488692","-88.963649"
"(601) 298-","Landline","Leake","Carthage","MS","Mississippi","39051","Central","32.785217","-89.524057"
"(601) 662-","Landline","Kemper","De Kalb","MS","Mississippi","39328","Central","32.799065","-88.698657"
"(601) 920-","Cell Number","Hinds","Jackson","MS","Mississippi","39203","Central","32.308595","-90.210438"
"(662) 233-","Landline","Tate","Coldwater","MS","Mississippi","38618","Central","34.69018","-89.962513"
"(662) 712-","Landline","Panola","Batesville","MS","Mississippi","38606","Central","34.343102","-89.956497"
"(662) 412-","Landline","Calhoun","Bruce","MS","Mississippi","38915","Central","34.034636","-89.342661"
"(601) 562-","Cell Number","Neshoba","Philadelphia","MS","Mississippi","39350","Central","32.754387","-89.116797"
"(601) 582-","Landline","Forrest","Hattiesburg","MS","Mississippi","39407","Central","31.172142","-89.294772"
"(601) 604-","Cell Number","Lauderdale","Meridian","MS","Mississippi","39305","Central","32.403111","-88.658234"
"(662) 303-","Cell Number","Sunflower","Indianola","MS","Mississippi","38751","Central","33.443446","-90.608662"
"(601) 613-","Cell Number","Hinds","Jackson","MS","Mississippi","39203","Central","32.308595","-90.210438"
"(601) 418-","Landline","Greene","Mc Lain","MS","Mississippi","39456","Central","31.086666","-88.797692"
"(601) 585-","Landline","Stone","Wiggins","MS","Mississippi","39577","Central","30.847778","-89.086992"
"(228) 465-","Unknown","Harrison","Biloxi","MS","Mississippi","39532","Central","30.510988","-88.96808"
"(228) 236-","Landline","Harrison","Gulfport","MS","Mississippi","39505","Central","30.415795","-89.068448"
"(601) 260-","Cell Number","Hinds","Jackson","MS","Mississippi","39203","Central","32.308595","-90.210438"
"(662) 736-","Landline","Winston","Louisville","MS","Mississippi","39339","Central","33.101687","-89.068098"
"(662) 553-","Landline","Lee","Tupelo","MS","Mississippi","38801","Central","34.291889","-88.683828"
"(662) 843-","Landline","Bolivar","Cleveland","MS","Mississippi","38733","Central","33.624024","-90.819547"
"(662) 788-","Landline","Noxubee","Macon","MS","Mississippi","39341","Central","33.125769","-88.54474"
"(601) 256-","Landline","Jefferson","Fayette","MS","Mississippi","39069","Central","31.731988","-91.056503"
"(662) 816-","Cell Number","Lafayette","Oxford","MS","Mississippi","38655","Central","34.330814","-89.483519"
"(601) 549-","Cell Number","Forrest","Hattiesburg","MS","Mississippi","39407","Central","31.172142","-89.294772"
"(601) 373-","Landline","Hinds","Jackson","MS","Mississippi","39203","Central","32.308595","-90.210438"
"(228) 678-","Landline","Harrison","Gulfport","MS","Mississippi","39505","Central","30.415795","-89.068448"
"(601) 958-","Landline","Pearl River","Carriere","MS","Mississippi","39426","Central","30.661121","-89.646536"
"(662) 624-","Landline","Coahoma","Clarksdale","MS","Mississippi","38614","Central","34.256003","-90.634809"
"(662) 796-","Landline","De Soto","Olive Branch","MS","Mississippi","38654","Central","34.921172","-89.869062"
"(662) 833-","Cell Number","Tallahatchie","Webb","MS","Mississippi","38966","Central","33.898064","-90.335055"
"(662) 329-","Landline","Lowndes","Columbus","MS","Mississippi","39704","Central","33.548523","-88.379614"
"(662) 776-","Unknown","Marshall","Red Banks","MS","Mississippi","38661","Central","34.893744","-89.564928"
"(662) 340-","Cell Number","Prentiss","Booneville","MS","Mississippi","38829","Central","34.632922","-88.533107"
"(601) 862-","Cell Number","Hinds","Jackson","MS","Mississippi","39203","Central","32.308595","-90.210438"
"(601) 297-","Cell Number","Forrest","Hattiesburg","MS","Mississippi","39407","Central","31.172142","-89.294772"
"(662) 754-","Landline","Bolivar","Shaw","MS","Mississippi","38773","Central","33.608538","-90.794341"
"(601) 663-","Landline","Neshoba","Philadelphia","MS","Mississippi","39350","Central","32.754387","-89.116797"
"(662) 531-","Landline","Tallahatchie","Charleston","MS","Mississippi","38921","Central","34.007428","-90.115364"
"(601) 790-","Landline","Madison","Madison","MS","Mississippi","39130","Central","32.642448","-90.090683"
"(601) 809-","Cell Number","Jefferson","Fayette","MS","Mississippi","39069","Central","31.731988","-91.056503"
"(228) 355-","Cell Number","Jackson","Pascagoula","MS","Mississippi","39595","Central","30.441072","-88.634482"
"(601) 497-","Cell Number","Hinds","Jackson","MS","Mississippi","39203","Central","32.308595","-90.210438"
"(601) 810-","Cell Number","Pike","Mccomb","MS","Mississippi","39649","Central","31.17494","-90.403987"
"(601) 390-","Landline","Jones","Laurel","MS","Mississippi","39441","Central","31.727664","-89.075482"
"(662) 614-","Cell Number","Grenada","Grenada","MS","Mississippi","38901","Central","33.786016","-89.845462"
"(662) 424-","Landline","Tishomingo","Iuka","MS","Mississippi","38852","Central","34.81583","-88.2318"
"(601) 464-","Landline","Lamar","Purvis","MS","Mississippi","39475","Central","31.228126","-89.501513"
"(662) 844-","Landline","Lee","Tupelo","MS","Mississippi","38801","Central","34.291889","-88.683828"
"(601) 940-","Cell Number","Hinds","Jackson","MS","Mississippi","39203","Central","32.308595","-90.210438"
"(601) 627-","Landline","Newton","Newton","MS","Mississippi","39345","Central","32.39983","-89.08313"
"(228) 669-","Cell Number","Harrison","Gulfport","MS","Mississippi","39505","Central","30.415795","-89.068448"
"(662) 485-","Landline","Quitman","Marks","MS","Mississippi","38609","Central","34.235111","-90.29272"
"(662) 610-","Cell Number","Lee","Tupelo","MS","Mississippi","38801","Central","34.291889","-88.683828"
"(601) 680-","Landline","Pike","Mccomb","MS","Mississippi","39649","Central","31.17494","-90.403987"
"(662) 415-","Cell Number","Alcorn","Corinth","MS","Mississippi","38834","Central","34.87589","-88.591575"
"(662) 680-","Landline","Lee","Tupelo","MS","Mississippi","38801","Central","34.291889","-88.683828"
"(228) 447-","Landline","Jackson","Ocean Springs","MS","Mississippi","39564","Central","30.50028","-88.655024"
"(601) 377-","Landline","Walthall","Tylertown","MS","Mississippi","39667","Central","31.175558","-90.090824"
"(601) 301-","Cell Number","Warren","Vicksburg","MS","Mississippi","39183","Central","32.386006","-90.840021"
"(662) 215-","Landline","Lowndes","Columbus","MS","Mississippi","39704","Central","33.548523","-88.379614"
"(662) 963-","Landline","Lee","Shannon","MS","Mississippi","38868","Central","34.144146","-88.68396"
"(228) 202-","Landline","Jackson","Pascagoula","MS","Mississippi","39595","Central","30.441072","-88.634482"
"(662) 538-","Landline","Union","New Albany","MS","Mississippi","38652","Central","34.488692","-88.963649"
"(662) 564-","Landline","Marshall","Waterford","MS","Mississippi","38685","Central","34.547621","-89.612918"
"(662) 407-","Landline","Lee","Tupelo","MS","Mississippi","38801","Central","34.291889","-88.683828"
"(662) 792-","Unknown","Attala","Kosciusko","MS","Mississippi","39090","Central","33.055142","-89.5913"
"(662) 400-","Unknown","Bolivar","Cleveland","MS","Mississippi","38733","Central","33.624024","-90.819547"
"(601) 200-","Landline","Hinds","Jackson","MS","Mississippi","39203","Central","32.308595","-90.210438"
"(601) 705-","Landline","Forrest","Hattiesburg","MS","Mississippi","39407","Central","31.172142","-89.294772"
"(662) 678-","Landline","Lee","Tupelo","MS","Mississippi","38801","Central","34.291889","-88.683828"
"(662) 504-","Landline","Marshall","Holly Springs","MS","Mississippi","38634","Central","34.74504","-89.484963"
"(662) 268-","Landline","Oktibbeha","Starkville","MS","Mississippi","39759","Central","33.42554","-88.879117"
"(601) 544-","Landline","Forrest","Hattiesburg","MS","Mississippi","39407","Central","31.172142","-89.294772"
"(662) 318-","Landline","Humphreys","Belzoni","MS","Mississippi","39038","Central","33.170596","-90.475786"
"(662) 414-","Landline","Calhoun","Banner","MS","Mississippi","38913","Central","34.12266","-89.395779"
"(662) 338-","Landline","Oktibbeha","Starkville","MS","Mississippi","39759","Central","33.42554","-88.879117"
"(601) 969-","Landline","Hinds","Jackson","MS","Mississippi","39203","Central","32.308595","-90.210438"
"(662) 562-","Landline","Tate","Senatobia","MS","Mississippi","38668","Central","34.621336","-89.930083"
"(662) 578-","Landline","Panola","Batesville","MS","Mississippi","38606","Central","34.343102","-89.956497"
"(601) 619-","Landline","Warren","Vicksburg","MS","Mississippi","39183","Central","32.386006","-90.840021"
"(662) 390-","Landline","Washington","Greenville","MS","Mississippi","38701","Central","33.314539","-91.02297"
"(601) 635-","Landline","Newton","Decatur","MS","Mississippi","39327","Central","32.427135","-89.092952"
"(601) 864-","Landline","Scott","Morton","MS","Mississippi","39117","Central","32.402897","-89.594886"
"(228) 363-","Cell Number","Harrison","Pass Christian","MS","Mississippi","39571","Central","30.426162","-89.264327"
"(601) 395-","Cell Number","Pike","Mccomb","MS","Mississippi","39649","Central","31.17494","-90.403987"
"(601) 561-","Landline","Warren","Vicksburg","MS","Mississippi","39183","Central","32.386006","-90.840021"
"(662) 239-","Landline","Sharkey","Rolling Fork","MS","Mississippi","39159","Central","32.859106","-90.897658"
"(228) 731-","Cell Number","Harrison","Gulfport","MS","Mississippi","39505","Central","30.415795","-89.068448"
"(601) 358-","Landline","Pearl River","Picayune","MS","Mississippi","39466","Central","30.627655","-89.63128"
"(601) 689-","Cell Number","Perry","Richton","MS","Mississippi","39476","Central","31.318239","-88.993126"
"(662) 237-","Landline","Carroll","Carrollton","MS","Mississippi","38917","Central","33.518425","-89.995978"
"(662) 821-","Landline","Lee","Tupelo","MS","Mississippi","38801","Central","34.291889","-88.683828"
"(601) 628-","Cell Number","Warren","Vicksburg","MS","Mississippi","39183","Central","32.386006","-90.840021"
"(601) 225-","Landline","Amite","Crosby","MS","Mississippi","39633","Central","31.247847","-90.885075"
"(662) 328-","Landline","Lowndes","Columbus","MS","Mississippi","39704","Central","33.548523","-88.379614"
"(601) 807-","Cell Number","Adams","Natchez","MS","Mississippi","39122","Central","31.470602","-91.404404"
"(601) 674-","Cell Number","Marion","Columbia","MS","Mississippi","39429","Central","31.218188","-89.801872"
"(228) 266-","Landline","Jackson","Ocean Springs","MS","Mississippi","39564","Central","30.50028","-88.655024"
"(601) 905-","Landline","Claiborne","Port Gibson","MS","Mississippi","39150","Central","31.916949","-90.975632"
"(601) 795-","Landline","Pearl River","Poplarville","MS","Mississippi","39470","Central","30.756774","-89.58072"
"(601) 504-","Cell Number","Neshoba","Philadelphia","MS","Mississippi","39350","Central","32.754387","-89.116797"
"(601) 643-","Landline","Copiah","Wesson","MS","Mississippi","39191","Central","31.847453","-90.377153"
"(228) 210-","Cell Number","Jackson","Pascagoula","MS","Mississippi","39595","Central","30.441072","-88.634482"
"(662) 962-","Landline","Humphreys","Isola","MS","Mississippi","38754","Central","33.263048","-90.59677"
"(662) 812-","Cell Number","De Soto","Olive Branch","MS","Mississippi","38654","Central","34.921172","-89.869062"
"(662) 875-","Landline","Yazoo","Yazoo City","MS","Mississippi","39194","Central","32.815898","-90.475849"
"(662) 915-","Landline","Lafayette","Oxford","MS","Mississippi","38655","Central","34.330814","-89.483519"
"(662) 382-","Landline","Panola","Crenshaw","MS","Mississippi","38621","Central","34.447051","-90.101204"
"(601) 434-","Cell Number","Forrest","Hattiesburg","MS","Mississippi","39407","Central","31.172142","-89.294772"
"(662) 433-","Landline","Washington","Greenville","MS","Mississippi","38701","Central","33.314539","-91.02297"
"(601) 883-","Landline","Warren","Vicksburg","MS","Mississippi","39183","Central","32.386006","-90.840021"
"(228) 280-","Landline","Harrison","Gulfport","MS","Mississippi","39505","Central","30.415795","-89.068448"
"(662) 471-","Cell Number","Benton","Ashland","MS","Mississippi","38603","Central","34.741457","-89.163282"
"(601) 353-","Landline","Hinds","Jackson","MS","Mississippi","39203","Central","32.308595","-90.210438"
"(662) 730-","Landline","Tippah","Ripley","MS","Mississippi","38663","Central","34.722961","-88.903624"
"(601) 315-","Cell Number","Forrest","Hattiesburg","MS","Mississippi","39407","Central","31.172142","-89.294772"
"(601) 442-","Landline","Adams","Natchez","MS","Mississippi","39122","Central","31.470602","-91.404404"
"(601) 852-","Landline","Hinds","Edwards","MS","Mississippi","39066","Central","32.27307","-90.50985"
"(662) 456-","Landline","Chickasaw","Houston","MS","Mississippi","38851","Central","33.911901","-88.931148"
"(601) 403-","Landline","Pearl River","Poplarville","MS","Mississippi","39470","Central","30.756774","-89.58072"
"(662) 588-","Cell Number","Bolivar","Cleveland","MS","Mississippi","38733","Central","33.624024","-90.819547"
"(662) 655-","Landline","De Soto","Southaven","MS","Mississippi","38672","Central","34.947407","-89.925792"
"(601) 646-","Landline","Newton","Little Rock","MS","Mississippi","39337","Central","32.5049","-88.995468"
"(662) 503-","Landline","Panola","Sardis","MS","Mississippi","38666","Central","34.358883","-89.930441"
"(601) 396-","Landline","Smith","Mize","MS","Mississippi","39116","Central","31.852342","-89.50805"
"(601) 919-","Landline","Rankin","Brandon","MS","Mississippi","39043","Central","32.269041","-89.987491"
"(601) 443-","Landline","Adams","Natchez","MS","Mississippi","39122","Central","31.470602","-91.404404"
"(662) 200-","Unknown","Pontotoc","Pontotoc","MS","Mississippi","38863","Central","34.227246","-89.040537"
"(601) 491-","Landline","Hinds","Bolton","MS","Mississippi","39041","Central","32.406956","-90.46141"
"(228) 272-","Landline","Jackson","Moss Point","MS","Mississippi","39562","Central","30.544726","-88.604298"
"(601) 472-","Cell Number","Amite","Crosby","MS","Mississippi","39633","Central","31.247847","-90.885075"
"(601) 857-","Landline","Hinds","Raymond","MS","Mississippi","39154","Central","32.196072","-90.47528"
"(228) 627-","Cell Number","Jackson","Pascagoula","MS","Mississippi","39595","Central","30.441072","-88.634482"
"(662) 339-","Landline","Quitman","Marks","MS","Mississippi","38609","Central","34.235111","-90.29272"
"(601) 863-","Landline","Rankin","Jackson","MS","Mississippi","39203","Central","32.308595","-90.210438"
"(601) 231-","Landline","Simpson","Mendenhall","MS","Mississippi","39114","Central","31.907972","-89.813907"
"(601) 201-","Cell Number","Hinds","Jackson","MS","Mississippi","39203","Central","32.308595","-90.210438"
"(228) 609-","Cell Number","Harrison","Gulfport","MS","Mississippi","39505","Central","30.415795","-89.068448"
"(228) 994-","Landline","Jackson","Pascagoula","MS","Mississippi","39595","Central","30.441072","-88.634482"
"(662) 913-","Landline","De Soto","Olive Branch","MS","Mississippi","38654","Central","34.921172","-89.869062"
"(228) 623-","Cell Number","Jackson","Pascagoula","MS","Mississippi","39595","Central","30.441072","-88.634482"
"(662) 752-","Cell Number","Grenada","Grenada","MS","Mississippi","38901","Central","33.786016","-89.845462"
"(228) 206-","Landline","Harrison","Gulfport","MS","Mississippi","39505","Central","30.415795","-89.068448"
"(228) 656-","Landline","Harrison","Biloxi","MS","Mississippi","39532","Central","30.510988","-88.96808"
"(601) 848-","Landline","Greene","State Line","MS","Mississippi","39362","Central","31.360647","-88.606456"
"(601) 602-","Landline","Forrest","Hattiesburg","MS","Mississippi","39407","Central","31.172142","-89.294772"
"(662) 726-","Landline","Noxubee","Macon","MS","Mississippi","39341","Central","33.125769","-88.54474"
"(662) 355-","Landline","Monroe","Aberdeen","MS","Mississippi","39730","Central","33.847638","-88.514694"
"(228) 249-","Cell Number","Jackson","Pascagoula","MS","Mississippi","39595","Central","30.441072","-88.634482"
"(662) 488-","Landline","Pontotoc","Pontotoc","MS","Mississippi","38863","Central","34.227246","-89.040537"
"(601) 984-","Landline","Hinds","Jackson","MS","Mississippi","39203","Central","32.308595","-90.210438"
"(662) 931-","Cell Number","Washington","Greenville","MS","Mississippi","38701","Central","33.314539","-91.02297"
"(228) 207-","Landline","Harrison","Biloxi","MS","Mississippi","39532","Central","30.510988","-88.96808"
"(601) 949-","Landline","Hinds","Jackson","MS","Mississippi","39203","Central","32.308595","-90.210438"
"(228) 563-","Landline","Harrison","Gulfport","MS","Mississippi","39505","Central","30.415795","-89.068448"
"(601) 908-","Landline","Lauderdale","Bailey","MS","Mississippi","39320","Central","32.52258","-88.745613"
"(662) 917-","Landline","Carroll","Carrollton","MS","Mississippi","38917","Central","33.518425","-89.995978"
"(601) 686-","Cell Number","Lauderdale","Meridian","MS","Mississippi","39305","Central","32.403111","-88.658234"
"(228) 433-","Landline","Jackson","Pascagoula","MS","Mississippi","39595","Central","30.441072","-88.634482"
"(228) 797-","Landline","Hancock","Bay Saint Louis","MS","Mississippi","39525","Central","30.372821","-89.377942"
"(662) 350-","Landline","Lee","Tupelo","MS","Mississippi","38801","Central","34.291889","-88.683828"
"(228) 860-","Cell Number","Harrison","Biloxi","MS","Mississippi","39532","Central","30.510988","-88.96808"
"(662) 501-","Cell Number","Tate","Senatobia","MS","Mississippi","38668","Central","34.621336","-89.930083"
"(228) 327-","Cell Number","Jackson","Ocean Springs","MS","Mississippi","39564","Central","30.50028","-88.655024"
"(601) 376-","Landline","Hinds","Jackson","MS","Mississippi","39203","Central","32.308595","-90.210438"
"(601) 465-","Landline","Pike","Mccomb","MS","Mississippi","39649","Central","31.17494","-90.403987"
"(662) 358-","Landline","Coahoma","Lyon","MS","Mississippi","38645","Central","34.236389","-90.47941"
"(601) 985-","Landline","Hinds","Jackson","MS","Mississippi","39203","Central","32.308595","-90.210438"
"(601) 696-","Landline","Lauderdale","Meridian","MS","Mississippi","39305","Central","32.403111","-88.658234"
"(601) 598-","Landline","Perry","Beaumont","MS","Mississippi","39423","Central","31.185365","-88.920132"
"(601) 714-","Landline","Hinds","Jackson","MS","Mississippi","39203","Central","32.308595","-90.210438"
"(662) 279-","Cell Number","Tishomingo","Iuka","MS","Mississippi","38852","Central","34.81583","-88.2318"
"(601) 320-","Cell Number","Lincoln","Brookhaven","MS","Mississippi","39603","Central","31.612287","-90.446702"
"(601) 265-","Cell Number","Lincoln","Brookhaven","MS","Mississippi","39603","Central","31.612287","-90.446702"
"(601) 559-","Cell Number","Hinds","Jackson","MS","Mississippi","39203","Central","32.308595","-90.210438"
"(601) 450-","Landline","Forrest","Hattiesburg","MS","Mississippi","39407","Central","31.172142","-89.294772"
"(601) 923-","Landline","Hinds","Jackson","MS","Mississippi","39203","Central","32.308595","-90.210438"
"(662) 660-","Cell Number","Tishomingo","Iuka","MS","Mississippi","38852","Central","34.81583","-88.2318"
"(601) 813-","Landline","Hinds","Jackson","MS","Mississippi","39203","Central","32.308595","-90.210438"
"(601) 929-","Cell Number","Hinds","Jackson","MS","Mississippi","39203","Central","32.308595","-90.210438"
"(601) 483-","Landline","Lauderdale","Meridian","MS","Mississippi","39305","Central","32.403111","-88.658234"
"(662) 259-","Landline","Lafayette","Oxford","MS","Mississippi","38655","Central","34.330814","-89.483519"
"(601) 461-","Cell Number","Hinds","Jackson","MS","Mississippi","39203","Central","32.308595","-90.210438"
"(662) 244-","Landline","Lowndes","Columbus","MS","Mississippi","39704","Central","33.548523","-88.379614"
"(601) 947-","Landline","George","Lucedale","MS","Mississippi","39452","Central","30.866791","-88.649035"
"(228) 235-","Cell Number","Harrison","Biloxi","MS","Mississippi","39532","Central","30.510988","-88.96808"
"(662) 817-","Landline","Union","New Albany","MS","Mississippi","38652","Central","34.488692","-88.963649"
"(228) 273-","Landline","Harrison","Biloxi","MS","Mississippi","39532","Central","30.510988","-88.96808"
"(662) 210-","Cell Number","Prentiss","Booneville","MS","Mississippi","38829","Central","34.632922","-88.533107"
"(228) 707-","Landline","Hancock","Pearlington","MS","Mississippi","39572","Central","30.249299","-89.520472"
"(601) 214-","Cell Number","Hinds","Jackson","MS","Mississippi","39203","Central","32.308595","-90.210438"
"(662) 389-","Landline","Tunica","Tunica","MS","Mississippi","38676","Central","34.692892","-90.338981"
"(601) 577-","Cell Number","Jones","Laurel","MS","Mississippi","39441","Central","31.727664","-89.075482"
"(662) 996-","Landline","De Soto","Olive Branch","MS","Mississippi","38654","Central","34.921172","-89.869062"
"(228) 469-","Landline","Hancock","Bay Saint Louis","MS","Mississippi","39525","Central","30.372821","-89.377942"
"(662) 897-","Cell Number","Leflore","Greenwood","MS","Mississippi","38945","Central","33.650681","-90.196909"
"(601) 519-","Landline","Hinds","Jackson","MS","Mississippi","39203","Central","32.308595","-90.210438"
"(601) 991-","Landline","Hinds","Jackson","MS","Mississippi","39203","Central","32.308595","-90.210438"
"(601) 660-","Cell Number","Adams","Natchez","MS","Mississippi","39122","Central","31.470602","-91.404404"
"(662) 445-","Landline","Sunflower","Indianola","MS","Mississippi","38751","Central","33.443446","-90.608662"
"(601) 922-","Landline","Hinds","Jackson","MS","Mississippi","39203","Central","32.308595","-90.210438"
"(228) 328-","Landline","Harrison","Gulfport","MS","Mississippi","39505","Central","30.415795","-89.068448"
"(662) 567-","Landline","Chickasaw","Houston","MS","Mississippi","38851","Central","33.911901","-88.931148"
"(662) 272-","Landline","Lowndes","Crawford","MS","Mississippi","39743","Central","33.334688","-88.556056"
"(228) 304-","Cell Number","Hancock","Waveland","MS","Mississippi","39576","Central","30.285046","-89.371231"
"(601) 380-","Cell Number","Lincoln","Brookhaven","MS","Mississippi","39603","Central","31.612287","-90.446702"
"(601) 746-","Cell Number","Pearl River","Poplarville","MS","Mississippi","39470","Central","30.756774","-89.58072"
"(228) 287-","Unknown","Harrison","Biloxi","MS","Mississippi","39532","Central","30.510988","-88.96808"
"(601) 239-","Landline","Walthall","Tylertown","MS","Mississippi","39667","Central","31.175558","-90.090824"
"(228) 896-","Landline","Harrison","Gulfport","MS","Mississippi","39505","Central","30.415795","-89.068448"
"(662) 838-","Landline","Marshall","Byhalia","MS","Mississippi","38611","Central","34.848108","-89.617691"
"(601) 907-","Landline","Pearl River","Poplarville","MS","Mississippi","39470","Central","30.756774","-89.58072"
"(601) 781-","Cell Number","Neshoba","Philadelphia","MS","Mississippi","39350","Central","32.754387","-89.116797"
"(601) 318-","Landline","Forrest","Hattiesburg","MS","Mississippi","39407","Central","31.172142","-89.294772"
"(228) 387-","Landline","Harrison","Biloxi","MS","Mississippi","39532","Central","30.510988","-88.96808"
"(662) 525-","Landline","Holmes","Lexington","MS","Mississippi","39095","Central","33.126082","-90.057116"
"(662) 518-","Cell Number","Oktibbeha","Starkville","MS","Mississippi","39759","Central","33.42554","-88.879117"
"(601) 825-","Landline","Rankin","Brandon","MS","Mississippi","39043","Central","32.269041","-89.987491"
"(601) 488-","Landline","Hinds","Clinton","MS","Mississippi","39060","Central","32.311287","-90.397157"
"(662) 706-","Cell Number","Lee","Baldwyn","MS","Mississippi","38824","Central","34.314813","-88.63922"
"(601) 560-","Landline","Madison","Canton","MS","Mississippi","39046","Central","32.625298","-90.008601"
"(601) 884-","Landline","Clarke","Shubuta","MS","Mississippi","39360","Central","31.960687","-88.716818"
"(601) 756-","Cell Number","Lawrence","Monticello","MS","Mississippi","39654","Central","31.540111","-90.161012"
"(662) 236-","Landline","Lafayette","Oxford","MS","Mississippi","38655","Central","34.330814","-89.483519"
"(601) 967-","Landline","Wilkinson","Woodville","MS","Mississippi","39669","Central","31.175443","-91.324666"
"(601) 721-","Landline","Simpson","Magee","MS","Mississippi","39111","Central","31.910321","-89.775032"
"(228) 533-","Landline","Hancock","Pearlington","MS","Mississippi","39572","Central","30.249299","-89.520472"
"(662) 682-","Landline","Calhoun","Vardaman","MS","Mississippi","38878","Central","33.896961","-89.221899"
"(601) 909-","Unknown","Hinds","Jackson","MS","Mississippi","39203","Central","32.308595","-90.210438"
"(662) 772-","Landline","De Soto","Southaven","MS","Mississippi","38672","Central","34.947407","-89.925792"
"(601) 537-","Landline","Scott","Pulaski","MS","Mississippi","39152","Central","32.274536","-89.562728"
"(662) 364-","Cell Number","Lowndes","Columbus","MS","Mississippi","39704","Central","33.548523","-88.379614"
"(601) 636-","Landline","Warren","Vicksburg","MS","Mississippi","39183","Central","32.386006","-90.840021"
"(601) 649-","Landline","Jones","Laurel","MS","Mississippi","39441","Central","31.727664","-89.075482"
"(601) 291-","Cell Number","Hinds","Jackson","MS","Mississippi","39203","Central","32.308595","-90.210438"
"(662) 427-","Landline","Tishomingo","Burnsville","MS","Mississippi","38833","Central","34.855985","-88.286923"
"(601) 317-","Cell Number","Hinds","Jackson","MS","Mississippi","39203","Central","32.308595","-90.210438"
"(662) 857-","Landline","Panola","Sardis","MS","Mississippi","38666","Central","34.358883","-89.930441"
"(662) 523-","Cell Number","Lee","Tupelo","MS","Mississippi","38801","Central","34.291889","-88.683828"
"(662) 882-","Cell Number","Tippah","Ripley","MS","Mississippi","38663","Central","34.722961","-88.903624"
"(601) 379-","Landline","Pearl River","Picayune","MS","Mississippi","39466","Central","30.627655","-89.63128"
"(228) 282-","Landline","Harrison","Gulfport","MS","Mississippi","39505","Central","30.415795","-89.068448"
"(601) 229-","Landline","Pearl River","Picayune","MS","Mississippi","39466","Central","30.627655","-89.63128"
"(601) 422-","Landline","Jones","Laurel","MS","Mississippi","39441","Central","31.727664","-89.075482"
"(601) 695-","Cell Number","Lincoln","Brookhaven","MS","Mississippi","39603","Central","31.612287","-90.446702"
"(662) 276-","Landline","Chickasaw","Okolona","MS","Mississippi","38860","Central","33.94295","-88.868022"
"(601) 323-","Cell Number","Jones","Laurel","MS","Mississippi","39441","Central","31.727664","-89.075482"
"(662) 305-","Landline","Monroe","Amory","MS","Mississippi","38821","Central","33.942639","-88.411284"
"(662) 521-","Landline","Monroe","Amory","MS","Mississippi","38821","Central","33.942639","-88.411284"
"(662) 619-","Cell Number","Quitman","Marks","MS","Mississippi","38609","Central","34.235111","-90.29272"
"(662) 770-","Cell Number","Attala","Kosciusko","MS","Mississippi","39090","Central","33.055142","-89.5913"
"(601) 581-","Landline","Lauderdale","Meridian","MS","Mississippi","39305","Central","32.403111","-88.658234"
"(601) 542-","Landline","Pike","Osyka","MS","Mississippi","39657","Central","31.043653","-90.403651"
"(662) 454-","Landline","Tishomingo","Belmont","MS","Mississippi","38827","Central","34.550663","-88.22674"
"(601) 285-","Landline","Pearl River","Picayune","MS","Mississippi","39466","Central","30.627655","-89.63128"
"(662) 738-","Landline","Lowndes","Crawford","MS","Mississippi","39743","Central","33.334688","-88.556056"
"(601) 279-","Landline","Warren","Redwood","MS","Mississippi","39156","Central","32.52792","-90.754175"
"(662) 599-","Cell Number","Washington","Greenville","MS","Mississippi","38701","Central","33.314539","-91.02297"
"(601) 250-","Landline","Pike","Mccomb","MS","Mississippi","39649","Central","31.17494","-90.403987"
"(662) 775-","Landline","Bolivar","Shelby","MS","Mississippi","38774","Central","33.957757","-90.74504"
"(601) 530-","Unknown","George","Lucedale","MS","Mississippi","39452","Central","30.866791","-88.649035"
"(601) 500-","Unknown","Hinds","Jackson","MS","Mississippi","39203","Central","32.308595","-90.210438"
"(601) 851-","Landline","Lauderdale","Toomsuba","MS","Mississippi","39364","Central","32.424306","-88.660633"
"(601) 865-","Landline","Wilkinson","Woodville","MS","Mississippi","39669","Central","31.175443","-91.324666"
"(601) 654-","Landline","Leake","Lena","MS","Mississippi","39094","Central","32.620305","-89.614259"
"(662) 472-","Landline","Holmes","Goodman","MS","Mississippi","39079","Central","32.989226","-89.943323"
"(601) 232-","Landline","Neshoba","Union","MS","Mississippi","39365","Central","32.643921","-89.111993"
"(601) 915-","Landline","Scott","Morton","MS","Mississippi","39117","Central","32.402897","-89.594886"
"(662) 513-","Landline","Lafayette","Oxford","MS","Mississippi","38655","Central","34.330814","-89.483519"
"(601) 296-","Landline","Forrest","Hattiesburg","MS","Mississippi","39407","Central","31.172142","-89.294772"
"(601) 261-","Landline","Forrest","Hattiesburg","MS","Mississippi","39407","Central","31.172142","-89.294772"
"(601) 432-","Landline","Hinds","Jackson","MS","Mississippi","39203","Central","32.308595","-90.210438"
"(601) 898-","Landline","Madison","Madison","MS","Mississippi","39130","Central","32.642448","-90.090683"
"(601) 816-","Landline","Pearl River","Picayune","MS","Mississippi","39466","Central","30.627655","-89.63128"
"(601) 236-","Landline","Lauderdale","Meridian","MS","Mississippi","39305","Central","32.403111","-88.658234"
"(662) 757-","Unknown","Tallahatchie","Tutwiler","MS","Mississippi","38963","Central","34.022051","-90.349894"
"(662) 252-","Landline","Marshall","Holly Springs","MS","Mississippi","38634","Central","34.74504","-89.484963"
"(228) 264-","Cell Number","Harrison","Biloxi","MS","Mississippi","39532","Central","30.510988","-88.96808"
"(662) 402-","Cell Number","Bolivar","Cleveland","MS","Mississippi","38733","Central","33.624024","-90.819547"
"(662) 512-","Landline","Tippah","Ripley","MS","Mississippi","38663","Central","34.722961","-88.903624"
"(601) 657-","Landline","Amite","Liberty","MS","Mississippi","39645","Central","31.17427","-90.803528"
"(601) 681-","Landline","Lauderdale","Bailey","MS","Mississippi","39320","Central","32.52258","-88.745613"
"(601) 692-","Landline","Lauderdale","Meridian","MS","Mississippi","39305","Central","32.403111","-88.658234"
"(228) 761-","Landline","Jackson","Pascagoula","MS","Mississippi","39595","Central","30.441072","-88.634482"
"(662) 759-","Landline","Bolivar","Rosedale","MS","Mississippi","38769","Central","33.841892","-90.882598"
"(601) 216-","Landline","Covington","Mount Olive","MS","Mississippi","39119","Central","31.717905","-89.623543"
"(601) 228-","Cell Number","Simpson","Magee","MS","Mississippi","39111","Central","31.910321","-89.775032"
"(662) 608-","Cell Number","Bolivar","Rosedale","MS","Mississippi","38769","Central","33.841892","-90.882598"
"(601) 391-","Landline","Madison","Canton","MS","Mississippi","39046","Central","32.625298","-90.008601"
"(601) 987-","Landline","Hinds","Jackson","MS","Mississippi","39203","Central","32.308595","-90.210438"
"(662) 559-","Landline","Chickasaw","Houston","MS","Mississippi","38851","Central","33.911901","-88.931148"
"(662) 998-","Cell Number","Yazoo","Yazoo City","MS","Mississippi","39194","Central","32.815898","-90.475849"
"(662) 749-","Unknown","Monroe","Amory","MS","Mississippi","38821","Central","33.942639","-88.411284"
"(601) 640-","Cell Number","Hinds","Jackson","MS","Mississippi","39203","Central","32.308595","-90.210438"
"(601) 951-","Cell Number","Hinds","Jackson","MS","Mississippi","39203","Central","32.308595","-90.210438"
"(601) 571-","Cell Number","Adams","Natchez","MS","Mississippi","39122","Central","31.470602","-91.404404"
"(662) 551-","Landline","Marshall","Holly Springs","MS","Mississippi","38634","Central","34.74504","-89.484963"
"(228) 826-","Landline","Jackson","Ocean Springs","MS","Mississippi","39564","Central","30.50028","-88.655024"
"(601) 478-","Cell Number","Hinds","Jackson","MS","Mississippi","39203","Central","32.308595","-90.210438"
"(228) 223-","Cell Number","Harrison","Gulfport","MS","Mississippi","39505","Central","30.415795","-89.068448"
"(662) 993-","Landline","Tippah","Ripley","MS","Mississippi","38663","Central","34.722961","-88.903624"
"(662) 423-","Landline","Tishomingo","Iuka","MS","Mississippi","38852","Central","34.81583","-88.2318"
"(662) 583-","Cell Number","Leflore","Greenwood","MS","Mississippi","38945","Central","33.650681","-90.196909"
"(601) 957-","Landline","Hinds","Jackson","MS","Mississippi","39203","Central","32.308595","-90.210438"
"(601) 292-","Landline","Hinds","Jackson","MS","Mississippi","39203","Central","32.308595","-90.210438"
"(601) 944-","Landline","Hinds","Jackson","MS","Mississippi","39203","Central","32.308595","-90.210438"
"(662) 294-","Landline","Grenada","Grenada","MS","Mississippi","38901","Central","33.786016","-89.845462"
"(662) 448-","Landline","Chickasaw","Houston","MS","Mississippi","38851","Central","33.911901","-88.931148"
"(601) 978-","Landline","Hinds","Jackson","MS","Mississippi","39203","Central","32.308595","-90.210438"
"(228) 641-","Landline","Jackson","Moss Point","MS","Mississippi","39562","Central","30.544726","-88.604298"
"(662) 822-","Cell Number","Washington","Greenville","MS","Mississippi","38701","Central","33.314539","-91.02297"
"(662) 632-","Unknown","Bolivar","Shaw","MS","Mississippi","38773","Central","33.608538","-90.794341"
"(662) 271-","Landline","Leflore","Greenwood","MS","Mississippi","38945","Central","33.650681","-90.196909"
"(228) 870-","Landline","Harrison","Gulfport","MS","Mississippi","39505","Central","30.415795","-89.068448"
"(662) 264-","Landline","Yalobusha","Water Valley","MS","Mississippi","38965","Central","34.101631","-89.633458"
"(662) 229-","Landline","Grenada","Grenada","MS","Mississippi","38901","Central","33.786016","-89.845462"
"(662) 289-","Landline","Attala","Kosciusko","MS","Mississippi","39090","Central","33.055142","-89.5913"
"(662) 840-","Landline","Lee","Tupelo","MS","Mississippi","38801","Central","34.291889","-88.683828"
"(662) 351-","Landline","Coahoma","Clarksdale","MS","Mississippi","38614","Central","34.256003","-90.634809"
"(601) 616-","Cell Number","Lauderdale","Meridian","MS","Mississippi","39305","Central","32.403111","-88.658234"
"(662) 661-","Cell Number","Monroe","Aberdeen","MS","Mississippi","39730","Central","33.847638","-88.514694"
"(601) 868-","Cell Number","Warren","Vicksburg","MS","Mississippi","39183","Central","32.386006","-90.840021"
"(601) 438-","Cell Number","Jones","Laurel","MS","Mississippi","39441","Central","31.727664","-89.075482"
"(601) 891-","Landline","Rankin","Florence","MS","Mississippi","39073","Central","32.280972","-90.003854"
"(601) 928-","Landline","Stone","Wiggins","MS","Mississippi","39577","Central","30.847778","-89.086992"
"(601) 776-","Landline","Clarke","Quitman","MS","Mississippi","39355","Central","32.013802","-88.663429"
"(601) 683-","Landline","Newton","Newton","MS","Mississippi","39345","Central","32.39983","-89.08313"
"(601) 575-","Cell Number","Neshoba","Philadelphia","MS","Mississippi","39350","Central","32.754387","-89.116797"
"(662) 425-","Cell Number","Lowndes","Columbus","MS","Mississippi","39704","Central","33.548523","-88.379614"
"(601) 349-","Landline","Jones","Ellisville","MS","Mississippi","39437","Central","31.611088","-89.171825"
"(601) 953-","Cell Number","Hinds","Jackson","MS","Mississippi","39203","Central","32.308595","-90.210438"
"(601) 594-","Cell Number","Hinds","Jackson","MS","Mississippi","39203","Central","32.308595","-90.210438"
"(662) 363-","Landline","Tunica","Tunica","MS","Mississippi","38676","Central","34.692892","-90.338981"
"(662) 315-","Cell Number","Monroe","Amory","MS","Mississippi","38821","Central","33.942639","-88.411284"
"(662) 728-","Landline","Prentiss","Booneville","MS","Mississippi","38829","Central","34.632922","-88.533107"
"(228) 381-","Cell Number","Jackson","Pascagoula","MS","Mississippi","39595","Central","30.441072","-88.634482"
"(601) 708-","Landline","Hinds","Clinton","MS","Mississippi","39060","Central","32.311287","-90.397157"
"(662) 346-","Cell Number","Lee","Tupelo","MS","Mississippi","38801","Central","34.291889","-88.683828"
"(601) 433-","Cell Number","Jones","Laurel","MS","Mississippi","39441","Central","31.727664","-89.075482"
"(662) 889-","Cell Number","Lowndes","Columbus","MS","Mississippi","39704","Central","33.548523","-88.379614"
"(662) 429-","Landline","De Soto","Hernando","MS","Mississippi","38632","Central","34.80684","-89.994591"
"(662) 309-","Cell Number","Leflore","Greenwood","MS","Mississippi","38945","Central","33.650681","-90.196909"
"(601) 786-","Landline","Jefferson","Fayette","MS","Mississippi","39069","Central","31.731988","-91.056503"
"(601) 476-","Cell Number","Stone","Wiggins","MS","Mississippi","39577","Central","30.847778","-89.086992"
"(601) 245-","Landline","Covington","Collins","MS","Mississippi","39428","Central","31.652811","-89.578002"
"(662) 972-","Cell Number","Lafayette","Oxford","MS","Mississippi","38655","Central","34.330814","-89.483519"
"(601) 605-","Landline","Madison","Madison","MS","Mississippi","39130","Central","32.642448","-90.090683"
"(662) 565-","Landline","Montgomery","Duck Hill","MS","Mississippi","38925","Central","33.563223","-89.641871"
"(228) 201-","Landline","Jackson","Pascagoula","MS","Mississippi","39595","Central","30.441072","-88.634482"
"(601) 264-","Landline","Forrest","Hattiesburg","MS","Mississippi","39407","Central","31.172142","-89.294772"
"(228) 497-","Landline","Jackson","Pascagoula","MS","Mississippi","39595","Central","30.441072","-88.634482"
"(662) 629-","Cell Number","Marshall","Holly Springs","MS","Mississippi","38634","Central","34.74504","-89.484963"
"(601) 420-","Landline","Rankin","Jackson","MS","Mississippi","39203","Central","32.308595","-90.210438"
"(662) 872-","Unknown","Alcorn","Corinth","MS","Mississippi","38834","Central","34.87589","-88.591575"
"(662) 892-","Landline","De Soto","Olive Branch","MS","Mississippi","38654","Central","34.921172","-89.869062"
"(662) 253-","Landline","De Soto","Southaven","MS","Mississippi","38672","Central","34.947407","-89.925792"
"(662) 795-","Landline","Sharkey","Rolling Fork","MS","Mississippi","39159","Central","32.859106","-90.897658"
"(662) 302-","Cell Number","Coahoma","Clarksdale","MS","Mississippi","38614","Central","34.256003","-90.634809"
"(601) 608-","Landline","Hinds","Jackson","MS","Mississippi","39203","Central","32.308595","-90.210438"
"(601) 639-","Landline","Amite","Crosby","MS","Mississippi","39633","Central","31.247847","-90.885075"
"(662) 827-","Landline","Washington","Hollandale","MS","Mississippi","38748","Central","33.230409","-90.910451"
"(601) 325-","Landline","Forrest","Hattiesburg","MS","Mississippi","39407","Central","31.172142","-89.294772"
"(601) 302-","Landline","Leake","Carthage","MS","Mississippi","39051","Central","32.785217","-89.524057"
"(662) 586-","Landline","Pontotoc","Pontotoc","MS","Mississippi","38863","Central","34.227246","-89.040537"
"(662) 807-","Landline","Washington","Hollandale","MS","Mississippi","38748","Central","33.230409","-90.910451"
"(662) 250-","Landline","Webster","Eupora","MS","Mississippi","39744","Central","33.549384","-89.290417"
"(662) 214-","Landline","Lee","Baldwyn","MS","Mississippi","38824","Central","34.314813","-88.63922"
"(662) 997-","Landline","Panola","Batesville","MS","Mississippi","38606","Central","34.343102","-89.956497"
"(601) 324-","Cell Number","Pike","Mccomb","MS","Mississippi","39649","Central","31.17494","-90.403987"
"(662) 601-","Landline","Lee","Baldwyn","MS","Mississippi","38824","Central","34.314813","-88.63922"
"(601) 993-","Landline","Clarke","Shubuta","MS","Mississippi","39360","Central","31.960687","-88.716818"
"(228) 689-","Landline","Hancock","Bay Saint Louis","MS","Mississippi","39525","Central","30.372821","-89.377942"
"(601) 521-","Cell Number","Hinds","Jackson","MS","Mississippi","39203","Central","32.308595","-90.210438"
"(601) 417-","Landline","Adams","Natchez","MS","Mississippi","39122","Central","31.470602","-91.404404"
"(601) 354-","Landline","Hinds","Jackson","MS","Mississippi","39203","Central","32.308595","-90.210438"
"(601) 281-","Cell Number","Copiah","Crystal Springs","MS","Mississippi","39059","Central","31.965088","-90.375733"
"(662) 824-","Landline","Prentiss","Booneville","MS","Mississippi","38829","Central","34.632922","-88.533107"
"(601) 506-","Cell Number","Hinds","Jackson","MS","Mississippi","39203","Central","32.308595","-90.210438"
"(601) 448-","Landline","Claiborne","Port Gibson","MS","Mississippi","39150","Central","31.916949","-90.975632"
"(601) 351-","Landline","Hinds","Jackson","MS","Mississippi","39203","Central","32.308595","-90.210438"
"(601) 526-","Landline","Hinds","Raymond","MS","Mississippi","39154","Central","32.196072","-90.47528"
"(601) 306-","Cell Number","Hinds","Jackson","MS","Mississippi","39203","Central","32.308595","-90.210438"
"(228) 809-","Landline","Jackson","Pascagoula","MS","Mississippi","39595","Central","30.441072","-88.634482"
"(662) 418-","Cell Number","Oktibbeha","Starkville","MS","Mississippi","39759","Central","33.42554","-88.879117"
"(601) 845-","Landline","Rankin","Florence","MS","Mississippi","39073","Central","32.280972","-90.003854"
"(662) 356-","Landline","Lowndes","Steens","MS","Mississippi","39766","Central","33.603342","-88.321007"
"(662) 304-","Cell Number","Monroe","Aberdeen","MS","Mississippi","39730","Central","33.847638","-88.514694"
"(601) 966-","Cell Number","Hinds","Jackson","MS","Mississippi","39203","Central","32.308595","-90.210438"
"(662) 563-","Landline","Panola","Batesville","MS","Mississippi","38606","Central","34.343102","-89.956497"
"(601) 768-","Cell Number","Clarke","Quitman","MS","Mississippi","39355","Central","32.013802","-88.663429"
"(228) 813-","Landline","Hancock","Bay Saint Louis","MS","Mississippi","39525","Central","30.372821","-89.377942"
"(662) 741-","Landline","Bolivar","Mound Bayou","MS","Mississippi","38762","Central","33.767126","-90.846978"
"(662) 580-","Landline","Washington","Greenville","MS","Mississippi","38701","Central","33.314539","-91.02297"
"(662) 596-","Landline","Prentiss","Booneville","MS","Mississippi","38829","Central","34.632922","-88.533107"
"(601) 652-","Landline","Pearl River","Poplarville","MS","Mississippi","39470","Central","30.756774","-89.58072"
"(662) 459-","Landline","Leflore","Greenwood","MS","Mississippi","38945","Central","33.650681","-90.196909"
"(601) 360-","Landline","Hinds","Jackson","MS","Mississippi","39203","Central","32.308595","-90.210438"
"(601) 425-","Landline","Jones","Laurel","MS","Mississippi","39441","Central","31.727664","-89.075482"
"(601) 820-","Landline","Neshoba","Union","MS","Mississippi","39365","Central","32.643921","-89.111993"
"(601) 778-","Landline","Jones","Laurel","MS","Mississippi","39441","Central","31.727664","-89.075482"
"(601) 558-","Landline","Forrest","Hattiesburg","MS","Mississippi","39407","Central","31.172142","-89.294772"
"(601) 573-","Cell Number","Hinds","Jackson","MS","Mississippi","39203","Central","32.308595","-90.210438"
"(228) 305-","Cell Number","Hancock","Pearlington","MS","Mississippi","39572","Central","30.249299","-89.520472"
"(662) 805-","Cell Number","Lee","Tupelo","MS","Mississippi","38801","Central","34.291889","-88.683828"
"(662) 326-","Landline","Quitman","Marks","MS","Mississippi","38609","Central","34.235111","-90.29272"
"(601) 988-","Landline","Hinds","Jackson","MS","Mississippi","39203","Central","32.308595","-90.210438"
"(601) 590-","Cell Number","Pearl River","Picayune","MS","Mississippi","39466","Central","30.627655","-89.63128"
"(228) 897-","Landline","Harrison","Gulfport","MS","Mississippi","39505","Central","30.415795","-89.068448"
"(662) 769-","Cell Number","Oktibbeha","Starkville","MS","Mississippi","39759","Central","33.42554","-88.879117"
"(228) 216-","Cell Number","Hancock","Bay Saint Louis","MS","Mississippi","39525","Central","30.372821","-89.377942"
"(228) 247-","Landline","Jackson","Moss Point","MS","Mississippi","39562","Central","30.544726","-88.604298"
"(601) 648-","Landline","Wayne","Buckatunna","MS","Mississippi","39322","Central","31.582003","-88.548006"
"(601) 815-","Landline","Hinds","Jackson","MS","Mississippi","39203","Central","32.308595","-90.210438"
"(601) 615-","Landline","Lawrence","Monticello","MS","Mississippi","39654","Central","31.540111","-90.161012"
"(601) 665-","Landline","Hinds","Jackson","MS","Mississippi","39203","Central","32.308595","-90.210438"
"(662) 242-","Cell Number","Lowndes","Columbus","MS","Mississippi","39704","Central","33.548523","-88.379614"
"(601) 861-","Cell Number","Adams","Natchez","MS","Mississippi","39122","Central","31.470602","-91.404404"
"(601) 799-","Landline","Pearl River","Picayune","MS","Mississippi","39466","Central","30.627655","-89.63128"
"(662) 756-","Landline","Sunflower","Ruleville","MS","Mississippi","38771","Central","33.66479","-90.555537"
"(601) 362-","Landline","Hinds","Jackson","MS","Mississippi","39203","Central","32.308595","-90.210438"
"(601) 334-","Cell Number","Adams","Natchez","MS","Mississippi","39122","Central","31.470602","-91.404404"
"(662) 729-","Landline","Lowndes","Columbus","MS","Mississippi","39704","Central","33.548523","-88.379614"
"(662) 836-","Landline","Humphreys","Louise","MS","Mississippi","39097","Central","32.980758","-90.592812"
"(601) 408-","Cell Number","Forrest","Hattiesburg","MS","Mississippi","39407","Central","31.172142","-89.294772"
"(601) 963-","Landline","Wayne","Buckatunna","MS","Mississippi","39322","Central","31.582003","-88.548006"
"(662) 480-","Landline","Prentiss","Booneville","MS","Mississippi","38829","Central","34.632922","-88.533107"
"(662) 598-","Landline","Union","New Albany","MS","Mississippi","38652","Central","34.488692","-88.963649"
"(662) 283-","Landline","Montgomery","Winona","MS","Mississippi","38967","Central","33.514926","-89.628584"
"(601) 348-","Landline","Lamar","Purvis","MS","Mississippi","39475","Central","31.228126","-89.501513"
"(662) 498-","Landline","Oktibbeha","Starkville","MS","Mississippi","39759","Central","33.42554","-88.879117"
"(662) 226-","Landline","Grenada","Grenada","MS","Mississippi","38901","Central","33.786016","-89.845462"
"(228) 374-","Landline","Harrison","Biloxi","MS","Mississippi","39532","Central","30.510988","-88.96808"
"(601) 992-","Landline","Rankin","Brandon","MS","Mississippi","39043","Central","32.269041","-89.987491"
"(601) 480-","Cell Number","Lauderdale","Meridian","MS","Mississippi","39305","Central","32.403111","-88.658234"
"(601) 710-","Cell Number","Lauderdale","Meridian","MS","Mississippi","39305","Central","32.403111","-88.658234"
"(601) 901-","Landline","Smith","Taylorsville","MS","Mississippi","39168","Central","31.82958","-89.403302"
"(662) 274-","Landline","Marshall","Holly Springs","MS","Mississippi","38634","Central","34.74504","-89.484963"
"(662) 247-","Landline","Humphreys","Belzoni","MS","Mississippi","39038","Central","33.170596","-90.475786"
"(662) 582-","Cell Number","Attala","Kosciusko","MS","Mississippi","39090","Central","33.055142","-89.5913"
"(601) 701-","Landline","Lauderdale","Meridian","MS","Mississippi","39305","Central","32.403111","-88.658234"
"(601) 853-","Landline","Madison","Madison","MS","Mississippi","39130","Central","32.642448","-90.090683"
"(662) 403-","Cell Number","Tate","Coldwater","MS","Mississippi","38618","Central","34.69018","-89.962513"
"(662) 605-","Cell Number","Clay","West Point","MS","Mississippi","39773","Central","33.621135","-88.609136"
"(228) 808-","Cell Number","Harrison","Gulfport","MS","Mississippi","39505","Central","30.415795","-89.068448"
"(662) 212-","Cell Number","Alcorn","Corinth","MS","Mississippi","38834","Central","34.87589","-88.591575"
"(601) 618-","Cell Number","Warren","Vicksburg","MS","Mississippi","39183","Central","32.386006","-90.840021"
"(601) 486-","Landline","Lauderdale","Meridian","MS","Mississippi","39305","Central","32.403111","-88.658234"
"(662) 604-","Cell Number","Panola","Sardis","MS","Mississippi","38666","Central","34.358883","-89.930441"
"(601) 633-","Unknown","Marion","Columbia","MS","Mississippi","39429","Central","31.218188","-89.801872"
"(662) 554-","Landline","Prentiss","Booneville","MS","Mississippi","38829","Central","34.632922","-88.533107"
"(662) 385-","Cell Number","Leflore","Greenwood","MS","Mississippi","38945","Central","33.650681","-90.196909"
"(662) 388-","Landline","Quitman","Marks","MS","Mississippi","38609","Central","34.235111","-90.29272"
"(601) 644-","Landline","Lauderdale","Meridian","MS","Mississippi","39305","Central","32.403111","-88.658234"
"(601) 772-","Landline","Marion","Carriere","MS","Mississippi","39426","Central","30.661121","-89.646536"
"(662) 847-","Landline","Lee","Tupelo","MS","Mississippi","38801","Central","34.291889","-88.683828"
"(662) 679-","Cell Number","Lee","Tupelo","MS","Mississippi","38801","Central","34.291889","-88.683828"
"(662) 716-","Landline","Yazoo","Yazoo City","MS","Mississippi","39194","Central","32.815898","-90.475849"
"(662) 360-","Landline","Panola","Batesville","MS","Mississippi","38606","Central","34.343102","-89.956497"
"(662) 270-","Landline","Oktibbeha","Starkville","MS","Mississippi","39759","Central","33.42554","-88.879117"
"(662) 466-","Cell Number","Leflore","Greenwood","MS","Mississippi","38945","Central","33.650681","-90.196909"
"(601) 614-","Cell Number","Lauderdale","Meridian","MS","Mississippi","39305","Central","32.403111","-88.658234"
"(662) 558-","Landline","Tate","Senatobia","MS","Mississippi","38668","Central","34.621336","-89.930083"
"(601) 918-","Cell Number","Hinds","Jackson","MS","Mississippi","39203","Central","32.308595","-90.210438"
"(601) 308-","Cell Number","Adams","Natchez","MS","Mississippi","39122","Central","31.470602","-91.404404"
"(662) 561-","Landline","Panola","Batesville","MS","Mississippi","38606","Central","34.343102","-89.956497"
"(662) 452-","Landline","Sunflower","Indianola","MS","Mississippi","38751","Central","33.443446","-90.608662"
"(601) 880-","Cell Number","Lauderdale","Meridian","MS","Mississippi","39305","Central","32.403111","-88.658234"
"(662) 455-","Landline","Leflore","Greenwood","MS","Mississippi","38945","Central","33.650681","-90.196909"
"(662) 397-","Cell Number","Lee","Tupelo","MS","Mississippi","38801","Central","34.291889","-88.683828"
"(662) 854-","Landline","Clay","West Point","MS","Mississippi","39773","Central","33.621135","-88.609136"
"(601) 548-","Landline","Amite","Gloster","MS","Mississippi","39638","Central","31.199644","-90.916006"
"(601) 897-","Landline","Adams","Natchez","MS","Mississippi","39122","Central","31.470602","-91.404404"
"(601) 258-","Cell Number","Greene","Mc Lain","MS","Mississippi","39456","Central","31.086666","-88.797692"
"(662) 342-","Landline","De Soto","Southaven","MS","Mississippi","38672","Central","34.947407","-89.925792"
"(662) 479-","Landline","Tishomingo","Belmont","MS","Mississippi","38827","Central","34.550663","-88.22674"
"(228) 463-","Landline","Hancock","Bay Saint Louis","MS","Mississippi","39525","Central","30.372821","-89.377942"
"(601) 989-","Landline","Greene","Leakesville","MS","Mississippi","39451","Central","31.167734","-88.637767"
"(601) 642-","Cell Number","Warren","Vicksburg","MS","Mississippi","39183","Central","32.386006","-90.840021"
"(601) 278-","Cell Number","Hinds","Jackson","MS","Mississippi","39203","Central","32.308595","-90.210438"
"(228) 831-","Landline","Harrison","Gulfport","MS","Mississippi","39505","Central","30.415795","-89.068448"
"(228) 217-","Cell Number","Jackson","Pascagoula","MS","Mississippi","39595","Central","30.441072","-88.634482"
"(662) 708-","Cell Number","Noxubee","Macon","MS","Mississippi","39341","Central","33.125769","-88.54474"
"(601) 269-","Landline","Smith","Raleigh","MS","Mississippi","39153","Central","32.033656","-89.524458"
"(601) 369-","Landline","Jones","Laurel","MS","Mississippi","39441","Central","31.727664","-89.075482"
"(662) 544-","Cell Number","Marshall","Holly Springs","MS","Mississippi","38634","Central","34.74504","-89.484963"
"(662) 613-","Cell Number","Tunica","Tunica","MS","Mississippi","38676","Central","34.692892","-90.338981"
"(662) 295-","Cell Number","Clay","West Point","MS","Mississippi","39773","Central","33.621135","-88.609136"
"(601) 826-","Cell Number","Hinds","Jackson","MS","Mississippi","39203","Central","32.308595","-90.210438"
"(662) 248-","Landline","Holmes","Lexington","MS","Mississippi","39095","Central","33.126082","-90.057116"
"(228) 349-","Landline","Harrison","Biloxi","MS","Mississippi","39532","Central","30.510988","-88.96808"
"(662) 748-","Landline","Bolivar","Merigold","MS","Mississippi","38759","Central","33.818742","-90.840631"
"(662) 810-","Landline","Lee","Tupelo","MS","Mississippi","38801","Central","34.291889","-88.683828"
"(662) 306-","Cell Number","Marshall","Holly Springs","MS","Mississippi","38634","Central","34.74504","-89.484963"
"(601) 293-","Landline","Marion","Columbia","MS","Mississippi","39429","Central","31.218188","-89.801872"
"(662) 705-","Cell Number","Winston","Louisville","MS","Mississippi","39339","Central","33.101687","-89.068098"
"(601) 812-","Landline","Hinds","Jackson","MS","Mississippi","39203","Central","32.308595","-90.210438"
"(601) 481-","Landline","Lauderdale","Meridian","MS","Mississippi","39305","Central","32.403111","-88.658234"
"(662) 438-","Landline","Tishomingo","Tishomingo","MS","Mississippi","38873","Central","34.671205","-88.238068"
"(601) 493-","Unknown","Adams","Natchez","MS","Mississippi","39122","Central","31.470602","-91.404404"
"(601) 952-","Landline","Hinds","Jackson","MS","Mississippi","39203","Central","32.308595","-90.210438"
"(662) 273-","Landline","Webster","Eupora","MS","Mississippi","39744","Central","33.549384","-89.290417"
"(228) 246-","Landline","Jackson","Moss Point","MS","Mississippi","39562","Central","30.544726","-88.604298"
"(601) 858-","Landline","Copiah","Georgetown","MS","Mississippi","39078","Central","31.87408","-90.206289"
"(601) 818-","Cell Number","Forrest","Hattiesburg","MS","Mississippi","39407","Central","31.172142","-89.294772"
"(601) 449-","Cell Number","Lincoln","Bailey","MS","Mississippi","39320","Central","32.52258","-88.745613"
"(662) 288-","Cell Number","Tate","Senatobia","MS","Mississippi","38668","Central","34.621336","-89.930083"
"(601) 870-","Cell Number","Adams","Natchez","MS","Mississippi","39122","Central","31.470602","-91.404404"
"(601) 684-","Landline","Pike","Mccomb","MS","Mississippi","39649","Central","31.17494","-90.403987"
"(601) 386-","Landline","Pearl River","Poplarville","MS","Mississippi","39470","Central","30.756774","-89.58072"
"(662) 590-","Landline","Yazoo","Yazoo City","MS","Mississippi","39194","Central","32.815898","-90.475849"
"(662) 368-","Landline","Lowndes","Columbus","MS","Mississippi","39704","Central","33.548523","-88.379614"
"(662) 774-","Unknown","Bolivar","Mound Bayou","MS","Mississippi","38762","Central","33.767126","-90.846978"
"(601) 267-","Landline","Leake","Carthage","MS","Mississippi","39051","Central","32.785217","-89.524057"
"(601) 600-","Unknown","Pike","Mccomb","MS","Mississippi","39649","Central","31.17494","-90.403987"
"(601) 394-","Landline","Greene","Leakesville","MS","Mississippi","39451","Central","31.167734","-88.637767"
"(601) 289-","Landline","Franklin","Roxie","MS","Mississippi","39661","Central","31.50115","-91.069486"
"(601) 745-","Cell Number","Newton","Newton","MS","Mississippi","39345","Central","32.39983","-89.08313"
"(662) 747-","Landline","Bolivar","Gunnison","MS","Mississippi","38746","Central","34.000588","-90.919616"
"(601) 899-","Landline","Hinds","Jackson","MS","Mississippi","39203","Central","32.308595","-90.210438"
"(662) 649-","Cell Number","Sunflower","Drew","MS","Mississippi","38737","Central","33.685766","-90.607299"
"(228) 671-","Cell Number","Hancock","Bay Saint Louis","MS","Mississippi","39525","Central","30.372821","-89.377942"
"(228) 871-","Landline","Harrison","Gulfport","MS","Mississippi","39505","Central","30.415795","-89.068448"
"(662) 572-","Unknown","Tunica","Tunica","MS","Mississippi","38676","Central","34.692892","-90.338981"
"(662) 762-","Landline","Sunflower","Moorhead","MS","Mississippi","38761","Central","33.443386","-90.506817"
"(662) 818-","Landline","Tippah","Ripley","MS","Mississippi","38663","Central","34.722961","-88.903624"
"(601) 610-","Cell Number","Forrest","Hattiesburg","MS","Mississippi","39407","Central","31.172142","-89.294772"
"(662) 404-","Cell Number","De Soto","Olive Branch","MS","Mississippi","38654","Central","34.921172","-89.869062"
"(601) 336-","Unknown","Forrest","Hattiesburg","MS","Mississippi","39407","Central","31.172142","-89.294772"
"(601) 943-","Landline","Jefferson Davis","Bassfield","MS","Mississippi","39421","Central","31.582332","-89.781429"
"(601) 294-","Landline","Lauderdale","Meridian","MS","Mississippi","39305","Central","32.403111","-88.658234"
"(601) 804-","Cell Number","Jones","Laurel","MS","Mississippi","39441","Central","31.727664","-89.075482"
"(662) 860-","Landline","Pontotoc","Pontotoc","MS","Mississippi","38863","Central","34.227246","-89.040537"
"(662) 552-","Cell Number","Webster","Eupora","MS","Mississippi","39744","Central","33.549384","-89.290417"
"(601) 314-","Landline","Perry","Richton","MS","Mississippi","39476","Central","31.318239","-88.993126"
"(601) 994-","Cell Number","Warren","Vicksburg","MS","Mississippi","39183","Central","32.386006","-90.840021"
"(601) 730-","Cell Number","Pike","Mccomb","MS","Mississippi","39649","Central","31.17494","-90.403987"
"(601) 641-","Cell Number","Covington","Collins","MS","Mississippi","39428","Central","31.652811","-89.578002"
"(662) 528-","Cell Number","Yazoo","Yazoo City","MS","Mississippi","39194","Central","32.815898","-90.475849"
"(601) 734-","Landline","Lincoln","Bogue Chitto","MS","Mississippi","39629","Central","31.447124","-90.45787"
"(601) 956-","Landline","Hinds","Jackson","MS","Mississippi","39203","Central","32.308595","-90.210438"
"(601) 441-","Cell Number","Marion","Columbia","MS","Mississippi","39429","Central","31.218188","-89.801872"
"(601) 268-","Landline","Forrest","Hattiesburg","MS","Mississippi","39407","Central","31.172142","-89.294772"
"(662) 473-","Landline","Yalobusha","Water Valley","MS","Mississippi","38965","Central","34.101631","-89.633458"
"(662) 524-","Cell Number","Clay","West Point","MS","Mississippi","39773","Central","33.621135","-88.609136"
"(601) 668-","Cell Number","Hinds","Jackson","MS","Mississippi","39203","Central","32.308595","-90.210438"
"(601) 694-","Landline","Lawrence","Newhebron","MS","Mississippi","39140","Central","31.71093","-90.038237"
"(662) 241-","Landline","Lowndes","Columbus","MS","Mississippi","39704","Central","33.548523","-88.379614"
"(228) 872-","Landline","Jackson","Ocean Springs","MS","Mississippi","39564","Central","30.50028","-88.655024"
"(662) 676-","Landline","Tishomingo","Golden","MS","Mississippi","38847","Central","34.346321","-88.246027"
"(601) 286-","Landline","Lauderdale","Meridian","MS","Mississippi","39305","Central","32.403111","-88.658234"
"(662) 383-","Landline","Coahoma","Lyon","MS","Mississippi","38645","Central","34.236389","-90.47941"
"(601) 463-","Cell Number","Pearl River","Poplarville","MS","Mississippi","39470","Central","30.756774","-89.58072"
"(662) 934-","Cell Number","Panola","Batesville","MS","Mississippi","38606","Central","34.343102","-89.956497"
"(662) 814-","Landline","Tishomingo","Belmont","MS","Mississippi","38827","Central","34.550663","-88.22674"
"(228) 265-","Landline","Harrison","Gulfport","MS","Mississippi","39505","Central","30.415795","-89.068448"
"(662) 735-","Unknown","Holmes","Goodman","MS","Mississippi","39079","Central","32.989226","-89.943323"
"(662) 506-","Landline","Yalobusha","Water Valley","MS","Mississippi","38965","Central","34.101631","-89.633458"
"(228) 588-","Landline","Jackson","Pascagoula","MS","Mississippi","39595","Central","30.441072","-88.634482"
"(228) 367-","Landline","Harrison","Gulfport","MS","Mississippi","39505","Central","30.415795","-89.068448"
"(601) 400-","Cell Number","Warren","Vicksburg","MS","Mississippi","39183","Central","32.386006","-90.840021"
"(662) 267-","Cell Number","Panola","Batesville","MS","Mississippi","38606","Central","34.343102","-89.956497"
"(662) 235-","Landline","Holmes","Tchula","MS","Mississippi","39169","Central","33.134414","-90.237888"
"(601) 847-","Landline","Simpson","Mendenhall","MS","Mississippi","39114","Central","31.907972","-89.813907"
"(662) 502-","Landline","Tippah","Ripley","MS","Mississippi","38663","Central","34.722961","-88.903624"
"(601) 357-","Cell Number","Newton","Newton","MS","Mississippi","39345","Central","32.39983","-89.08313"
"(601) 213-","Landline","Hinds","Jackson","MS","Mississippi","39203","Central","32.308595","-90.210438"
"(662) 376-","Landline","Tunica","Tunica","MS","Mississippi","38676","Central","34.692892","-90.338981"
"(601) 579-","Landline","Forrest","Hattiesburg","MS","Mississippi","39407","Central","31.172142","-89.294772"
"(662) 616-","Cell Number","Washington","Greenville","MS","Mississippi","38701","Central","33.314539","-91.02297"
"(662) 542-","Cell Number","Chickasaw","Houston","MS","Mississippi","38851","Central","33.911901","-88.931148"
"(228) 237-","Landline","Jackson","Ocean Springs","MS","Mississippi","39564","Central","30.50028","-88.655024"
"(601) 747-","Cell Number","Claiborne","Port Gibson","MS","Mississippi","39150","Central","31.916949","-90.975632"
"(601) 259-","Cell Number","Hinds","Jackson","MS","Mississippi","39203","Central","32.308595","-90.210438"
"(662) 967-","Landline","Holmes","West","MS","Mississippi","39192","Central","33.198544","-89.853487"
"(601) 859-","Landline","Madison","Canton","MS","Mississippi","39046","Central","32.625298","-90.008601"
"(662) 602-","Cell Number","Carroll","Vaiden","MS","Mississippi","39176","Central","33.329023","-89.751563"
"(662) 381-","Landline","Sunflower","Moorhead","MS","Mississippi","38761","Central","33.443386","-90.506817"
"(662) 947-","Landline","Leflore","Itta Bena","MS","Mississippi","38941","Central","33.467852","-90.294639"
"(228) 422-","Cell Number","Jackson","Pascagoula","MS","Mississippi","39595","Central","30.441072","-88.634482"
"(662) 484-","Landline","Marshall","Holly Springs","MS","Mississippi","38634","Central","34.74504","-89.484963"
"(601) 356-","Landline","Claiborne","Port Gibson","MS","Mississippi","39150","Central","31.916949","-90.975632"
"(662) 345-","Landline","Tallahatchie","Webb","MS","Mississippi","38966","Central","33.898064","-90.335055"
"(601) 677-","Landline","Kemper","Preston","MS","Mississippi","39354","Central","32.855983","-88.827847"
"(601) 572-","Landline","Hinds","Jackson","MS","Mississippi","39203","Central","32.308595","-90.210438"
"(662) 213-","Cell Number","Lee","Tupelo","MS","Mississippi","38801","Central","34.291889","-88.683828"
"(601) 620-","Landline","Forrest","Hattiesburg","MS","Mississippi","39407","Central","31.172142","-89.294772"
"(601) 496-","Cell Number","Simpson","Jackson","MS","Mississippi","39203","Central","32.308595","-90.210438"
"(228) 889-","Cell Number","Harrison","Gulfport","MS","Mississippi","39505","Central","30.415795","-89.068448"
"(601) 466-","Cell Number","Forrest","Hattiesburg","MS","Mississippi","39407","Central","31.172142","-89.294772"
"(662) 314-","Landline","Yazoo","Yazoo City","MS","Mississippi","39194","Central","32.815898","-90.475849"
"(662) 686-","Landline","Washington","Leland","MS","Mississippi","38756","Central","33.398505","-90.88387"
"(662) 902-","Cell Number","Coahoma","Clarksdale","MS","Mississippi","38614","Central","34.256003","-90.634809"
"(228) 883-","Cell Number","Harrison","Gulfport","MS","Mississippi","39505","Central","30.415795","-89.068448"
"(601) 431-","Cell Number","Adams","Natchez","MS","Mississippi","39122","Central","31.470602","-91.404404"
"(662) 372-","Cell Number","Lee","Tupelo","MS","Mississippi","38801","Central","34.291889","-88.683828"
"(662) 514-","Cell Number","Leflore","Greenwood","MS","Mississippi","38945","Central","33.650681","-90.196909"
"(662) 640-","Landline","Monroe","Amory","MS","Mississippi","38821","Central","33.942639","-88.411284"
"(662) 450-","Landline","Holmes","Lexington","MS","Mississippi","39095","Central","33.126082","-90.057116"
"(601) 732-","Landline","Scott","Morton","MS","Mississippi","39117","Central","32.402897","-89.594886"
"(601) 247-","Landline","George","Lucedale","MS","Mississippi","39452","Central","30.866791","-88.649035"
"(662) 293-","Landline","Alcorn","Corinth","MS","Mississippi","38834","Central","34.87589","-88.591575"
"(662) 839-","Landline","Washington","Glen Allan","MS","Mississippi","38744","Central","33.045837","-91.019421"
"(601) 962-","Landline","Scott","Lake","MS","Mississippi","39092","Central","32.384482","-89.415089"
"(601) 808-","Cell Number","Simpson","Mendenhall","MS","Mississippi","39114","Central","31.907972","-89.813907"
"(601) 515-","Landline","Lincoln","Brookhaven","MS","Mississippi","39603","Central","31.612287","-90.446702"
"(601) 305-","Landline","Forrest","Hattiesburg","MS","Mississippi","39407","Central","31.172142","-89.294772"
"(662) 426-","Landline","Panola","Como","MS","Mississippi","38619","Central","34.474028","-89.954427"
"(662) 557-","Unknown","Marshall","Holly Springs","MS","Mississippi","38634","Central","34.74504","-89.484963"
"(662) 325-","Landline","Oktibbeha","Starkville","MS","Mississippi","39759","Central","33.42554","-88.879117"
"(662) 223-","Landline","Tippah","Walnut","MS","Mississippi","38683","Central","34.89462","-88.885227"
"(601) 715-","Cell Number","Hinds","Jackson","MS","Mississippi","39203","Central","32.308595","-90.210438"
"(601) 990-","Unknown","Lincoln","Brookhaven","MS","Mississippi","39603","Central","31.612287","-90.446702"
"(662) 845-","Landline","Montgomery","Winona","MS","Mississippi","38967","Central","33.514926","-89.628584"
"(228) 880-","Cell Number","Harrison","Gulfport","MS","Mississippi","39505","Central","30.415795","-89.068448"
"(662) 255-","Cell Number","Lee","Tupelo","MS","Mississippi","38801","Central","34.291889","-88.683828"
"(601) 792-","Landline","Jefferson Davis","Prentiss","MS","Mississippi","39474","Central","31.59763","-89.886038"
"(601) 512-","Landline","Lauderdale","Meridian","MS","Mississippi","39305","Central","32.403111","-88.658234"
"(662) 912-","Landline","De Soto","Hernando","MS","Mississippi","38632","Central","34.80684","-89.994591"
"(662) 341-","Cell Number","Oktibbeha","Starkville","MS","Mississippi","39759","Central","33.42554","-88.879117"
"(228) 267-","Landline","Harrison","Biloxi","MS","Mississippi","39532","Central","30.510988","-88.96808"
"(662) 444-","Cell Number","Quitman","Marks","MS","Mississippi","38609","Central","34.235111","-90.29272"
"(228) 452-","Landline","Harrison","Pass Christian","MS","Mississippi","39571","Central","30.426162","-89.264327"
"(601) 482-","Landline","Lauderdale","Meridian","MS","Mississippi","39305","Central","32.403111","-88.658234"
"(601) 673-","Cell Number","George","Lucedale","MS","Mississippi","39452","Central","30.866791","-88.649035"
"(662) 628-","Landline","Calhoun","Calhoun City","MS","Mississippi","38916","Central","33.857172","-89.352482"
"(601) 931-","Landline","Lincoln","Brookhaven","MS","Mississippi","39603","Central","31.612287","-90.446702"
"(662) 560-","Landline","Tate","Senatobia","MS","Mississippi","38668","Central","34.621336","-89.930083"
"(662) 874-","Unknown","Desoto","Olive Branch","MS","Mississippi","38654","Central","34.921172","-89.869062"
"(601) 583-","Landline","Forrest","Hattiesburg","MS","Mississippi","39407","Central","31.172142","-89.294772"
"(601) 885-","Landline","Hinds","Utica","MS","Mississippi","39175","Central","32.22149","-90.4372"
"(601) 612-","Cell Number","Lauderdale","Meridian","MS","Mississippi","39305","Central","32.403111","-88.658234"
"(228) 475-","Landline","Jackson","Moss Point","MS","Mississippi","39562","Central","30.544726","-88.604298"
"(662) 441-","Landline","Bolivar","Cleveland","MS","Mississippi","38733","Central","33.624024","-90.819547"
"(228) 343-","Cell Number","Harrison","Gulfport","MS","Mississippi","39505","Central","30.415795","-89.068448"
"(228) 214-","Landline","Harrison","Gulfport","MS","Mississippi","39505","Central","30.415795","-89.068448"
"(662) 647-","Landline","Tallahatchie","Charleston","MS","Mississippi","38921","Central","34.007428","-90.115364"
"(601) 754-","Cell Number","Lincoln","Brookhaven","MS","Mississippi","39603","Central","31.612287","-90.446702"
"(662) 887-","Landline","Sunflower","Indianola","MS","Mississippi","38751","Central","33.443446","-90.608662"
"(662) 746-","Landline","Yazoo","Yazoo City","MS","Mississippi","39194","Central","32.815898","-90.475849"
"(601) 370-","Cell Number","Hinds","Jackson","MS","Mississippi","39203","Central","32.308595","-90.210438"
"(228) 334-","Unknown","Jackson","Ocean Springs","MS","Mississippi","39564","Central","30.50028","-88.655024"
"(662) 650-","Cell Number","Prentiss","Booneville","MS","Mississippi","38829","Central","34.632922","-88.533107"
"(228) 762-","Landline","Jackson","Pascagoula","MS","Mississippi","39595","Central","30.441072","-88.634482"
"(601) 860-","Landline","Jasper","Heidelberg","MS","Mississippi","39439","Central","31.892668","-89.077368"
"(662) 494-","Landline","Clay","West Point","MS","Mississippi","39773","Central","33.621135","-88.609136"
"(601) 675-","Landline","Simpson","Mendenhall","MS","Mississippi","39114","Central","31.907972","-89.813907"
"(662) 739-","Unknown","Attala","Kosciusko","MS","Mississippi","39090","Central","33.055142","-89.5913"
"(662) 789-","Landline","Lee","Tupelo","MS","Mississippi","38801","Central","34.291889","-88.683828"
"(601) 479-","Cell Number","Lauderdale","Meridian","MS","Mississippi","39305","Central","32.403111","-88.658234"
"(601) 666-","Unknown","Newton","Newton","MS","Mississippi","39345","Central","32.39983","-89.08313"
"(662) 865-","Landline","Prentiss","Booneville","MS","Mississippi","38829","Central","34.632922","-88.533107"
"(601) 629-","Landline","Warren","Vicksburg","MS","Mississippi","39183","Central","32.386006","-90.840021"
"(228) 263-","Cell Number","Harrison","Gulfport","MS","Mississippi","39505","Central","30.415795","-89.068448"
"(601) 401-","Cell Number","Jones","Laurel","MS","Mississippi","39441","Central","31.727664","-89.075482"
"(601) 836-","Landline","Neshoba","Philadelphia","MS","Mississippi","39350","Central","32.754387","-89.116797"
"(601) 235-","Landline","Lamar","Purvis","MS","Mississippi","39475","Central","31.228126","-89.501513"
"(662) 366-","Landline","Tate","Senatobia","MS","Mississippi","38668","Central","34.621336","-89.930083"
