"Prefix","Usage","County","City","ShortState","LongState","Zip","Timezone","Latitude","Longitude"
"(701) 358-","Unknown","Walsh","Minto","ND","North Dakota","58261","Central / Mountain","48.25997","-97.314367"
"(701) 691-","Unknown","Adams","Reeder","ND","North Dakota","58649","Central / Mountain","46.113891","-102.496805"
"(701) 436-","Landline","Traill","Hillsboro","ND","North Dakota","58045","Central / Mountain","47.383461","-97.060324"
"(701) 229-","Landline","Walsh","Fordville","ND","North Dakota","58231","Central / Mountain","48.281947","-97.827805"
"(701) 344-","Landline","Dickey","Ellendale","ND","North Dakota","58436","Central / Mountain","46.106141","-98.620707"
"(701) 573-","Landline","Dunn","Manning","ND","North Dakota","58642","Central / Mountain","47.402085","-102.622139"
"(701) 493-","Landline","Lamoure","Edgeley","ND","North Dakota","58433","Central / Mountain","46.41198","-98.713086"
"(701) 498-","Cell Number","Morton","Flasher","ND","North Dakota","58535","Central / Mountain","46.599807","-101.316642"
"(701) 627-","Landline","Mountrail","New Town","ND","North Dakota","58763","Central / Mountain","47.971759","-102.471636"
"(701) 624-","Landline","Ward","Sawyer","ND","North Dakota","58781","Central / Mountain","48.181645","-101.340912"
"(701) 560-","Unknown","Rolette","Rolette","ND","North Dakota","58366","Central / Mountain","48.700886","-99.878456"
"(701) 827-","Landline","Sioux","Fort Yates","ND","North Dakota","58538","Central / Mountain","46.170605","-100.710536"
"(701) 880-","Cell Number","Mercer","Hazen","ND","North Dakota","58545","Central / Mountain","47.386092","-101.760142"
"(701) 293-","Landline","Cass","Fargo","ND","North Dakota","58108","Central / Mountain","46.934596","-97.229718"
"(701) 328-","Landline","Burleigh","Bismarck","ND","North Dakota","58507","Central / Mountain","46.980475","-100.520063"
"(701) 645-","Landline","Cass","Leonard","ND","North Dakota","58052","Central / Mountain","46.765575","-97.294037"
"(701) 254-","Landline","Emmons","Linton","ND","North Dakota","58552","Central / Mountain","46.185512","-100.233084"
"(701) 886-","Landline","Pembina","Neche","ND","North Dakota","58265","Central / Mountain","48.943793","-97.512602"
"(701) 289-","Cell Number","Traill","Hillsboro","ND","North Dakota","58045","Central / Mountain","47.383461","-97.060324"
"(701) 577-","Landline","Williams","Williston","ND","North Dakota","58802","Central / Mountain","48.168836","-103.614824"
"(701) 326-","Landline","Nelson","Aneta","ND","North Dakota","58212","Central / Mountain","47.766493","-98.043481"
"(701) 369-","Landline","Richland","Christine","ND","North Dakota","58015","Central / Mountain","46.593582","-96.809354"
"(701) 446-","Landline","Cass","Fargo","ND","North Dakota","58108","Central / Mountain","46.934596","-97.229718"
"(701) 594-","Landline","Grand Forks","Emerado","ND","North Dakota","58228","Central / Mountain","47.889676","-97.280993"
"(701) 635-","Landline","Burleigh","Harvey","ND","North Dakota","58341","Central / Mountain","47.703539","-99.747755"
"(701) 226-","Cell Number","Burleigh","Bismarck","ND","North Dakota","58507","Central / Mountain","46.980475","-100.520063"
"(701) 509-","Unknown","Ward","Minot","ND","North Dakota","58701","Central / Mountain","48.084625","-101.419006"
"(701) 475-","Landline","Kidder","Steele","ND","North Dakota","58482","Central / Mountain","46.875966","-99.798975"
"(701) 698-","Landline","Logan","Fredonia","ND","North Dakota","58440","Central / Mountain","46.37014","-99.173337"
"(701) 251-","Landline","Stutsman","Jamestown","ND","North Dakota","58405","Central / Mountain","46.913344","-98.699553"
"(701) 685-","Landline","Lamoure","Jud","ND","North Dakota","58454","Central / Mountain","46.551079","-98.86671"
"(701) 264-","Landline","Stark","Dickinson","ND","North Dakota","58601","Central / Mountain","46.805716","-102.756514"
"(701) 376-","Landline","Adams","Hettinger","ND","North Dakota","58639","Central / Mountain","46.057786","-102.785054"
"(701) 764-","Landline","Dunn","Killdeer","ND","North Dakota","58640","Central / Mountain","47.526978","-102.703916"
"(701) 323-","Landline","Burleigh","Bismarck","ND","North Dakota","58507","Central / Mountain","46.980475","-100.520063"
"(701) 421-","Cell Number","Mountrail","New Town","ND","North Dakota","58763","Central / Mountain","47.971759","-102.471636"
"(701) 334-","Cell Number","Ward","Kenmare","ND","North Dakota","58746","Central / Mountain","48.523046","-101.670989"
"(701) 386-","Landline","Renville","Tolley","ND","North Dakota","58787","Central / Mountain","48.759404","-101.862477"
"(701) 277-","Landline","Cass","Fargo","ND","North Dakota","58108","Central / Mountain","46.934596","-97.229718"
"(701) 437-","Landline","Ransom","Enderlin","ND","North Dakota","58027","Central / Mountain","46.456337","-97.777909"
"(701) 539-","Landline","Williams","Wildrose","ND","North Dakota","58795","Central / Mountain","48.567814","-103.153622"
"(701) 547-","Landline","Wells","Fessenden","ND","North Dakota","58438","Central / Mountain","47.625048","-99.564274"
"(701) 586-","Landline","Mckenzie","Arnegard","ND","North Dakota","58835","Central / Mountain","47.807748","-103.438887"
"(701) 844-","Landline","Mckenzie","Alexander","ND","North Dakota","58831","Central / Mountain","47.737435","-103.298383"
"(701) 759-","Landline","Mckenzie","Mandaree","ND","North Dakota","58757","Central / Mountain","47.737435","-103.298383"
"(701) 394-","Cell Number","Stutsman","Jamestown","ND","North Dakota","58405","Central / Mountain","46.913344","-98.699553"
"(701) 485-","Landline","Logan","Gackle","ND","North Dakota","58442","Central / Mountain","46.522452","-99.173063"
"(701) 540-","Unknown","Cass","Fargo","ND","North Dakota","58108","Central / Mountain","46.934596","-97.229718"
"(701) 727-","Landline","Ward","Minot Afb","ND","North Dakota","58704","Central / Mountain","48.42429","-101.319942"
"(701) 681-","Cell Number","Pierce","Rugby","ND","North Dakota","58368","Central / Mountain","48.254504","-99.989912"
"(701) 368-","Cell Number","Stutsman","Jamestown","ND","North Dakota","58405","Central / Mountain","46.913344","-98.699553"
"(701) 710-","Cell Number","Wells","Sykeston","ND","North Dakota","58486","Central / Mountain","47.421182","-99.404828"
"(701) 584-","Landline","Grant","Elgin","ND","North Dakota","58533","Central / Mountain","46.367859","-101.755819"
"(701) 732-","Landline","Grand Forks","Grand Forks","ND","North Dakota","58208","Central / Mountain","47.933481","-97.394446"
"(701) 439-","Landline","Richland","Wyndmere","ND","North Dakota","58081","Central / Mountain","46.384021","-97.11408"
"(701) 583-","Landline","Benson","Knox","ND","North Dakota","58343","Central / Mountain","48.301215","-99.689358"
"(701) 589-","Unknown","Hettinger","Regent","ND","North Dakota","58650","Central / Mountain","46.418659","-102.56228"
"(701) 379-","Unknown","Walsh","Grafton","ND","North Dakota","58237","Central / Mountain","48.368876","-97.437265"
"(701) 359-","Landline","Bottineau","Kramer","ND","North Dakota","58748","Central / Mountain","48.697742","-100.634566"
"(701) 388-","Cell Number","Cass","Fargo","ND","North Dakota","58108","Central / Mountain","46.934596","-97.229718"
"(701) 633-","Landline","Cass","Buffalo","ND","North Dakota","58011","Central / Mountain","46.920016","-97.557491"
"(701) 325-","Cell Number","Emmons","Strasburg","ND","North Dakota","58573","Central / Mountain","46.080388","-100.223542"
"(701) 705-","Unknown","Burke","Bowbells","ND","North Dakota","58721","Central / Mountain","48.837753","-102.283897"
"(701) 239-","Landline","Cass","Fargo","ND","North Dakota","58108","Central / Mountain","46.934596","-97.229718"
"(701) 676-","Landline","Griggs","Binford","ND","North Dakota","58416","Central / Mountain","47.489506","-98.410133"
"(701) 952-","Landline","Stutsman","Jamestown","ND","North Dakota","58405","Central / Mountain","46.913344","-98.699553"
"(701) 574-","Landline","Bowman","Bowman","ND","North Dakota","58623","Central / Mountain","46.205537","-103.521263"
"(701) 799-","Cell Number","Cass","Fargo","ND","North Dakota","58108","Central / Mountain","46.934596","-97.229718"
"(701) 522-","Landline","Grant","Carson","ND","North Dakota","58529","Central / Mountain","46.300853","-101.673608"
"(701) 230-","Cell Number","Ramsey","Devils Lake","ND","North Dakota","58301","Central / Mountain","48.264352","-98.781979"
"(701) 265-","Landline","Pembina","Cavalier","ND","North Dakota","58220","Central / Mountain","48.738902","-97.699122"
"(701) 286-","Landline","Mclean","Wilton","ND","North Dakota","58579","Central / Mountain","47.488872","-101.085504"
"(701) 525-","Landline","Mchenry","Karlsruhe","ND","North Dakota","58744","Central / Mountain","48.194146","-100.591093"
"(701) 646-","Landline","Barnes","Sanborn","ND","North Dakota","58480","Central / Mountain","46.892615","-98.258971"
"(701) 881-","Unknown","Pierce","Rugby","ND","North Dakota","58368","Central / Mountain","48.254504","-99.989912"
"(701) 543-","Landline","Traill","Hatton","ND","North Dakota","58240","Central / Mountain","47.638521","-97.459319"
"(701) 322-","Landline","Nelson","Aneta","ND","North Dakota","58212","Central / Mountain","47.766493","-98.043481"
"(701) 899-","Cell Number","Richland","Wahpeton","ND","North Dakota","58074","Central / Mountain","46.283291","-96.917614"
"(701) 276-","Landline","Sioux","Shields","ND","North Dakota","58569","Central / Mountain","46.244657","-101.218713"
"(701) 896-","Landline","Cass","Ayr","ND","North Dakota","58007","Central / Mountain","47.01392","-97.462894"
"(701) 581-","Unknown","Grand Forks","Northwood","ND","North Dakota","58267","Central / Mountain","47.759107","-97.603773"
"(701) 531-","Unknown","Mclean","Turtle Lake","ND","North Dakota","58575","Central / Mountain","47.501425","-100.895863"
"(701) 431-","Unknown","Grand Forks","Larimore","ND","North Dakota","58251","Central / Mountain","47.911531","-97.626389"
"(701) 245-","Landline","Bottineau","Westhope","ND","North Dakota","58793","Central / Mountain","48.86655","-100.836782"
"(701) 659-","Cell Number","Stutsman","Jamestown","ND","North Dakota","58405","Central / Mountain","46.913344","-98.699553"
"(701) 424-","Landline","Stutsman","Streeter","ND","North Dakota","58483","Central / Mountain","46.718326","-99.344287"
"(701) 443-","Landline","Sargent","Havana","ND","North Dakota","58043","Central / Mountain","45.978943","-97.54423"
"(701) 753-","Landline","Sargent","Gwinner","ND","North Dakota","58040","Central / Mountain","46.152725","-97.767735"
"(701) 377-","Landline","Ward","Kenmare","ND","North Dakota","58746","Central / Mountain","48.523046","-101.670989"
"(701) 545-","Landline","Richland","Hankinson","ND","North Dakota","58041","Central / Mountain","46.073423","-96.92473"
"(701) 882-","Landline","Ransom","Sheldon","ND","North Dakota","58068","Central / Mountain","46.521481","-97.416257"
"(701) 463-","Landline","Mclean","Garrison","ND","North Dakota","58540","Central / Mountain","47.667515","-101.61418"
"(701) 486-","Landline","Stutsman","Medina","ND","North Dakota","58467","Central / Mountain","46.899774","-99.316908"
"(701) 399-","Cell Number","Wells","Harvey","ND","North Dakota","58341","Central / Mountain","47.703539","-99.747755"
"(701) 451-","Landline","Cass","Fargo","ND","North Dakota","58108","Central / Mountain","46.934596","-97.229718"
"(701) 787-","Landline","Grand Forks","Grand Forks","ND","North Dakota","58208","Central / Mountain","47.933481","-97.394446"
"(701) 648-","Cell Number","Williams","Tioga","ND","North Dakota","58852","Central / Mountain","48.364623","-102.957597"
"(701) 792-","Landline","Grand Forks","Grand Forks","ND","North Dakota","58208","Central / Mountain","47.933481","-97.394446"
"(701) 307-","Cell Number","Foster","Carrington","ND","North Dakota","58421","Central / Mountain","47.457278","-98.893314"
"(701) 973-","Landline","Ransom","Fort Ransom","ND","North Dakota","58033","Central / Mountain","46.449387","-97.909114"
"(701) 672-","Landline","Richland","Wahpeton","ND","North Dakota","58074","Central / Mountain","46.283291","-96.917614"
"(701) 487-","Landline","Mclean","Garrison","ND","North Dakota","58540","Central / Mountain","47.667515","-101.61418"
"(701) 466-","Landline","Benson","Leeds","ND","North Dakota","58346","Central / Mountain","48.165312","-99.432466"
"(701) 473-","Landline","Benson","Minnewaukan","ND","North Dakota","58351","Central / Mountain","48.130016","-99.38981"
"(701) 864-","Landline","Grand Forks","Grand Forks","ND","North Dakota","58208","Central / Mountain","47.933481","-97.394446"
"(701) 272-","Landline","Bottineau","Newburg","ND","North Dakota","58762","Central / Mountain","48.770759","-101.067192"
"(701) 270-","Cell Number","Nelson","Petersburg","ND","North Dakota","58272","Central / Mountain","48.00598","-98.000193"
"(701) 371-","Cell Number","Cass","Fargo","ND","North Dakota","58108","Central / Mountain","46.934596","-97.229718"
"(701) 852-","Landline","Ward","Minot","ND","North Dakota","58701","Central / Mountain","48.084625","-101.419006"
"(701) 200-","Cell Number","Cass","Fargo","ND","North Dakota","58108","Central / Mountain","46.934596","-97.229718"
"(701) 375-","Landline","Dickey","Fullerton","ND","North Dakota","58441","Central / Mountain","46.175992","-98.379846"
"(701) 872-","Landline","Golden Valley","Beach","ND","North Dakota","58621","Central / Mountain","46.963728","-103.898766"
"(701) 832-","Unknown","Mclean","Max","ND","North Dakota","58759","Central / Mountain","47.567805","-101.164109"
"(701) 333-","Landline","Burleigh","Bismarck","ND","North Dakota","58507","Central / Mountain","46.980475","-100.520063"
"(701) 414-","Unknown","Traill","Mayville","ND","North Dakota","58257","Central / Mountain","47.487262","-97.345104"
"(701) 778-","Landline","Lamoure","Dickey","ND","North Dakota","58431","Central / Mountain","46.47261","-98.54261"
"(701) 939-","Landline","Burke","Lignite","ND","North Dakota","58752","Central / Mountain","48.821804","-102.611948"
"(701) 992-","Landline","Burleigh","Oakes","ND","North Dakota","58474","Central / Mountain","46.109493","-98.225652"
"(701) 752-","Landline","Stutsman","Woodworth","ND","North Dakota","58496","Central / Mountain","47.153721","-99.259784"
"(701) 266-","Landline","Towner","Bisbee","ND","North Dakota","58317","Central / Mountain","48.58807","-99.23173"
"(701) 220-","Cell Number","Burleigh","Bismarck","ND","North Dakota","58507","Central / Mountain","46.980475","-100.520063"
"(701) 566-","Unknown","Cass","Fargo","ND","North Dakota","58108","Central / Mountain","46.934596","-97.229718"
"(701) 224-","Landline","Burleigh","Bismarck","ND","North Dakota","58507","Central / Mountain","46.980475","-100.520063"
"(701) 524-","Landline","Steele","Finley","ND","North Dakota","58230","Central / Mountain","47.51207","-97.83707"
"(701) 483-","Landline","Stark","Dickinson","ND","North Dakota","58601","Central / Mountain","46.805716","-102.756514"
"(701) 770-","Cell Number","Williams","Ray","ND","North Dakota","58849","Central / Mountain","48.321696","-103.165391"
"(701) 313-","Cell Number","Mountrail","Stanley","ND","North Dakota","58784","Central / Mountain","48.345765","-102.418466"
"(701) 989-","Unknown","Burleigh","Bismarck","ND","North Dakota","58507","Central / Mountain","46.980475","-100.520063"
"(701) 219-","Cell Number","Cass","Fargo","ND","North Dakota","58108","Central / Mountain","46.934596","-97.229718"
"(701) 535-","Cell Number","Dickey","Ellendale","ND","North Dakota","58436","Central / Mountain","46.106141","-98.620707"
"(701) 464-","Landline","Burke","Powers Lake","ND","North Dakota","58773","Central / Mountain","48.655093","-102.679499"
"(701) 438-","Landline","Benson","Maddock","ND","North Dakota","58348","Central / Mountain","47.999093","-99.535801"
"(701) 891-","Cell Number","Mercer","Hazen","ND","North Dakota","58545","Central / Mountain","47.386092","-101.760142"
"(701) 588-","Landline","Richland","Christine","ND","North Dakota","58015","Central / Mountain","46.593582","-96.809354"
"(701) 268-","Landline","Bottineau","Maxbass","ND","North Dakota","58760","Central / Mountain","48.736656","-101.197701"
"(701) 207-","Landline","Oliver","Center","ND","North Dakota","58530","Central / Mountain","47.145874","-101.159363"
"(701) 391-","Cell Number","Burleigh","Bismarck","ND","North Dakota","58507","Central / Mountain","46.980475","-100.520063"
"(701) 280-","Landline","Cass","Fargo","ND","North Dakota","58108","Central / Mountain","46.934596","-97.229718"
"(701) 667-","Landline","Morton","Mandan","ND","North Dakota","58554","Central / Mountain","46.71312","-100.952585"
"(701) 452-","Landline","Mcintosh","Wishek","ND","North Dakota","58495","Central / Mountain","46.191724","-99.613132"
"(701) 556-","Unknown","Kidder","Steele","ND","North Dakota","58482","Central / Mountain","46.875966","-99.798975"
"(701) 745-","Landline","Mercer","Stanton","ND","North Dakota","58571","Central / Mountain","47.377264","-101.394939"
"(701) 884-","Landline","Wells","Chaseley","ND","North Dakota","58423","Central / Mountain","47.464366","-99.830601"
"(701) 777-","Landline","Grand Forks","Grand Forks","ND","North Dakota","58208","Central / Mountain","47.933481","-97.394446"
"(701) 310-","Cell Number","Burke","Bowbells","ND","North Dakota","58721","Central / Mountain","48.837753","-102.283897"
"(701) 744-","Landline","Mckenzie","Alexander","ND","North Dakota","58831","Central / Mountain","47.737435","-103.298383"
"(701) 306-","Cell Number","Cass","Fargo","ND","North Dakota","58108","Central / Mountain","46.934596","-97.229718"
"(701) 222-","Landline","Burleigh","Bismarck","ND","North Dakota","58507","Central / Mountain","46.980475","-100.520063"
"(701) 775-","Landline","Grand Forks","Grand Forks","ND","North Dakota","58208","Central / Mountain","47.933481","-97.394446"
"(701) 876-","Unknown","Golden Valley","Beach","ND","North Dakota","58621","Central / Mountain","46.963728","-103.898766"
"(701) 724-","Landline","Sargent","Forman","ND","North Dakota","58032","Central / Mountain","46.058634","-97.633282"
"(701) 302-","Cell Number","Eddy","New Rockford","ND","North Dakota","58356","Central / Mountain","47.71736","-98.898693"
"(701) 695-","Unknown","Mckenzie","Alexander","ND","North Dakota","58831","Central / Mountain","47.737435","-103.298383"
"(701) 776-","Landline","Pierce","Rugby","ND","North Dakota","58368","Central / Mountain","48.254504","-99.989912"
"(701) 758-","Landline","Ward","Ryder","ND","North Dakota","58779","Central / Mountain","47.978815","-101.668252"
"(701) 427-","Landline","Sargent","Milnor","ND","North Dakota","58060","Central / Mountain","46.200657","-97.477179"
"(701) 453-","Landline","Ward","Berthold","ND","North Dakota","58718","Central / Mountain","48.306397","-101.686644"
"(701) 751-","Landline","Burleigh","Bismarck","ND","North Dakota","58507","Central / Mountain","46.980475","-100.520063"
"(701) 820-","Cell Number","Ransom","Enderlin","ND","North Dakota","58027","Central / Mountain","46.456337","-97.777909"
"(701) 553-","Landline","Richland","Colfax","ND","North Dakota","58018","Central / Mountain","46.457386","-96.873653"
"(701) 318-","Cell Number","Cass","Casselton","ND","North Dakota","58012","Central / Mountain","47.050272","-97.062647"
"(701) 769-","Landline","Barnes","Dazey","ND","North Dakota","58429","Central / Mountain","47.182819","-98.161621"
"(701) 934-","Landline","Burleigh","Bismarck","ND","North Dakota","58507","Central / Mountain","46.980475","-100.520063"
"(701) 657-","Landline","Walsh","Hoople","ND","North Dakota","58243","Central / Mountain","48.490539","-97.677015"
"(701) 761-","Unknown","Stark","Dickinson","ND","North Dakota","58601","Central / Mountain","46.805716","-102.756514"
"(701) 630-","Unknown","Cass","Fargo","ND","North Dakota","58108","Central / Mountain","46.934596","-97.229718"
"(701) 629-","Cell Number","Mountrail","Stanley","ND","North Dakota","58784","Central / Mountain","48.345765","-102.418466"
"(701) 212-","Landline","Cass","Fargo","ND","North Dakota","58108","Central / Mountain","46.934596","-97.229718"
"(701) 296-","Landline","Nelson","Tolna","ND","North Dakota","58380","Central / Mountain","47.846213","-98.451175"
"(701) 221-","Landline","Burleigh","Bismarck","ND","North Dakota","58507","Central / Mountain","46.980475","-100.520063"
"(701) 340-","Cell Number","Ward","Minot","ND","North Dakota","58701","Central / Mountain","48.084625","-101.419006"
"(701) 834-","Landline","Divide","Fortuna","ND","North Dakota","58844","Central / Mountain","48.816502","-103.467251"
"(701) 595-","Unknown","Burleigh","Bismarck","ND","North Dakota","58507","Central / Mountain","46.980475","-100.520063"
"(701) 392-","Landline","Kidder","Steele","ND","North Dakota","58482","Central / Mountain","46.875966","-99.798975"
"(701) 641-","Cell Number","Williams","Tioga","ND","North Dakota","58852","Central / Mountain","48.364623","-102.957597"
"(701) 499-","Landline","Cass","Fargo","ND","North Dakota","58108","Central / Mountain","46.934596","-97.229718"
"(701) 765-","Landline","Grand Forks","Grand Forks","ND","North Dakota","58208","Central / Mountain","47.933481","-97.394446"
"(701) 623-","Landline","Billings","Medora","ND","North Dakota","58645","Central / Mountain","46.979437","-103.349989"
"(701) 282-","Landline","Cass","Fargo","ND","North Dakota","58108","Central / Mountain","46.934596","-97.229718"
"(701) 702-","Unknown","Williams","Williston","ND","North Dakota","58802","Central / Mountain","48.168836","-103.614824"
"(701) 552-","Landline","Cass","Fargo","ND","North Dakota","58108","Central / Mountain","46.934596","-97.229718"
"(701) 945-","Landline","Steele","Hope","ND","North Dakota","58046","Central / Mountain","47.323726","-97.713371"
"(701) 722-","Landline","Ward","Minot","ND","North Dakota","58701","Central / Mountain","48.084625","-101.419006"
"(701) 831-","Cell Number","Stark","Dickinson","ND","North Dakota","58601","Central / Mountain","46.805716","-102.756514"
"(701) 870-","Cell Number","Mercer","Beulah","ND","North Dakota","58523","Central / Mountain","47.277895","-101.853161"
"(701) 582-","Unknown","Bowman","Rhame","ND","North Dakota","58651","Central / Mountain","46.112755","-103.520928"
"(701) 527-","Cell Number","Burleigh","Bismarck","ND","North Dakota","58507","Central / Mountain","46.980475","-100.520063"
"(701) 259-","Landline","Nelson","Petersburg","ND","North Dakota","58272","Central / Mountain","48.00598","-98.000193"
"(701) 546-","Landline","Williams","Mcgregor","ND","North Dakota","58755","Central / Mountain","48.405038","-103.407189"
"(701) 327-","Landline","Kidder","Steele","ND","North Dakota","58482","Central / Mountain","46.875966","-99.798975"
"(701) 862-","Landline","Mountrail","Parshall","ND","North Dakota","58770","Central / Mountain","47.946158","-102.103378"
"(701) 650-","Cell Number","Foster","Carrington","ND","North Dakota","58421","Central / Mountain","47.457278","-98.893314"
"(701) 953-","Unknown","Rolette","Rolla","ND","North Dakota","58367","Central / Mountain","48.826826","-99.786546"
"(701) 372-","Landline","Richland","Colfax","ND","North Dakota","58018","Central / Mountain","46.457386","-96.873653"
"(701) 998-","Landline","Richland","Christine","ND","North Dakota","58015","Central / Mountain","46.593582","-96.809354"
"(701) 203-","Landline","Grand Forks","Grand Forks","ND","North Dakota","58208","Central / Mountain","47.933481","-97.394446"
"(701) 984-","Landline","Wells","Cathay","ND","North Dakota","58422","Central / Mountain","47.628946","-99.404936"
"(701) 894-","Landline","Walsh","Hoople","ND","North Dakota","58243","Central / Mountain","48.490539","-97.677015"
"(701) 869-","Landline","Grand Forks","Gilby","ND","North Dakota","58235","Central / Mountain","48.085827","-97.514081"
"(701) 795-","Landline","Grand Forks","Grand Forks","ND","North Dakota","58208","Central / Mountain","47.933481","-97.394446"
"(701) 403-","Cell Number","Richland","Wahpeton","ND","North Dakota","58074","Central / Mountain","46.283291","-96.917614"
"(701) 766-","Landline","Benson","Saint Michael","ND","North Dakota","58370","Central / Mountain","47.985595","-98.849264"
"(701) 809-","Unknown","Cass","Fargo","ND","North Dakota","58108","Central / Mountain","46.934596","-97.229718"
"(701) 249-","Landline","Benson","Esmond","ND","North Dakota","58332","Central / Mountain","48.059736","-99.538336"
"(701) 878-","Landline","Morton","Hebron","ND","North Dakota","58638","Central / Mountain","46.849592","-101.972303"
"(701) 895-","Unknown","Cass","Casselton","ND","North Dakota","58012","Central / Mountain","47.050272","-97.062647"
"(701) 965-","Landline","Divide","Crosby","ND","North Dakota","58730","Central / Mountain","48.928166","-103.296728"
"(701) 387-","Landline","Burleigh","Sterling","ND","North Dakota","58572","Central / Mountain","46.876069","-100.277434"
"(701) 821-","Unknown","Pembina","Walhalla","ND","North Dakota","58282","Central / Mountain","48.880795","-97.797358"
"(701) 774-","Landline","Williams","Williston","ND","North Dakota","58802","Central / Mountain","48.168836","-103.614824"
"(701) 786-","Landline","Traill","Mayville","ND","North Dakota","58257","Central / Mountain","47.487262","-97.345104"
"(701) 928-","Cell Number","Adams","Hettinger","ND","North Dakota","58639","Central / Mountain","46.057786","-102.785054"
"(701) 491-","Cell Number","Cass","Fargo","ND","North Dakota","58108","Central / Mountain","46.934596","-97.229718"
"(701) 338-","Landline","Mchenry","Velva","ND","North Dakota","58790","Central / Mountain","48.021268","-100.629723"
"(701) 557-","Landline","Burleigh","Bismarck","ND","North Dakota","58507","Central / Mountain","46.980475","-100.520063"
"(701) 209-","Cell Number","Hettinger","Regent","ND","North Dakota","58650","Central / Mountain","46.418659","-102.56228"
"(701) 231-","Landline","Cass","Fargo","ND","North Dakota","58108","Central / Mountain","46.934596","-97.229718"
"(701) 412-","Landline","Cass","Fargo","ND","North Dakota","58108","Central / Mountain","46.934596","-97.229718"
"(701) 542-","Landline","Pierce","Rugby","ND","North Dakota","58368","Central / Mountain","48.254504","-99.989912"
"(701) 242-","Landline","Richland","Hankinson","ND","North Dakota","58041","Central / Mountain","46.073423","-96.92473"
"(701) 345-","Landline","Nelson","Petersburg","ND","North Dakota","58272","Central / Mountain","48.00598","-98.000193"
"(701) 943-","Landline","Burleigh","Driscoll","ND","North Dakota","58532","Central / Mountain","46.851141","-100.18329"
"(701) 694-","Landline","Williams","Grenora","ND","North Dakota","58845","Central / Mountain","48.5252","-103.917588"
"(701) 949-","Landline","Nelson","Mcville","ND","North Dakota","58254","Central / Mountain","47.856367","-98.134365"
"(701) 780-","Landline","Grand Forks","Grand Forks","ND","North Dakota","58208","Central / Mountain","47.933481","-97.394446"
"(701) 974-","Landline","Stark","Richardton","ND","North Dakota","58652","Central / Mountain","46.820533","-102.264513"
"(701) 235-","Landline","Cass","Fargo","ND","North Dakota","58108","Central / Mountain","46.934596","-97.229718"
"(701) 252-","Landline","Stutsman","Jamestown","ND","North Dakota","58405","Central / Mountain","46.913344","-98.699553"
"(701) 638-","Unknown","Cass","Gardner","ND","North Dakota","58036","Central / Mountain","47.157949","-96.957752"
"(701) 798-","Landline","Eddy","Sheyenne","ND","North Dakota","58374","Central / Mountain","47.761272","-98.90997"
"(701) 796-","Landline","Barnes","Kathryn","ND","North Dakota","58049","Central / Mountain","46.717679","-97.976311"
"(701) 729-","Cell Number","Cass","Fargo","ND","North Dakota","58108","Central / Mountain","46.934596","-97.229718"
"(701) 857-","Landline","Ward","Minot","ND","North Dakota","58701","Central / Mountain","48.084625","-101.419006"
"(701) 837-","Landline","Ward","Minot","ND","North Dakota","58701","Central / Mountain","48.084625","-101.419006"
"(701) 580-","Cell Number","Williams","Williston","ND","North Dakota","58802","Central / Mountain","48.168836","-103.614824"
"(701) 642-","Landline","Richland","Wahpeton","ND","North Dakota","58074","Central / Mountain","46.283291","-96.917614"
"(701) 854-","Landline","Sioux","Fort Yates","ND","North Dakota","58538","Central / Mountain","46.170605","-100.710536"
"(701) 920-","Cell Number","Oliver","Center","ND","North Dakota","58530","Central / Mountain","47.145874","-101.159363"
"(701) 390-","Cell Number","Burleigh","Bismarck","ND","North Dakota","58507","Central / Mountain","46.980475","-100.520063"
"(701) 933-","Landline","Burke","Lignite","ND","North Dakota","58752","Central / Mountain","48.821804","-102.611948"
"(701) 429-","Landline","Cass","Fargo","ND","North Dakota","58108","Central / Mountain","46.934596","-97.229718"
"(701) 634-","Landline","Richland","Hankinson","ND","North Dakota","58041","Central / Mountain","46.073423","-96.92473"
"(701) 925-","Landline","Divide","Noonan","ND","North Dakota","58765","Central / Mountain","48.925358","-103.071081"
"(701) 213-","Landline","Grand Forks","Grand Forks","ND","North Dakota","58208","Central / Mountain","47.933481","-97.394446"
"(701) 859-","Landline","Williams","Epping","ND","North Dakota","58843","Central / Mountain","48.276356","-103.376284"
"(701) 983-","Landline","Mercer","Golden Valley","ND","North Dakota","58541","Central / Mountain","47.312542","-102.056796"
"(701) 985-","Landline","Divide","Fortuna","ND","North Dakota","58844","Central / Mountain","48.816502","-103.467251"
"(701) 426-","Cell Number","Burleigh","Bismarck","ND","North Dakota","58507","Central / Mountain","46.980475","-100.520063"
"(701) 789-","Cell Number","Griggs","Cooperstown","ND","North Dakota","58425","Central / Mountain","47.366922","-98.295699"
"(701) 771-","Cell Number","Pierce","Rugby","ND","North Dakota","58368","Central / Mountain","48.254504","-99.989912"
"(701) 319-","Cell Number","Burleigh","Bismarck","ND","North Dakota","58507","Central / Mountain","46.980475","-100.520063"
"(701) 968-","Landline","Towner","Cando","ND","North Dakota","58324","Central / Mountain","48.500121","-99.231923"
"(701) 201-","Cell Number","Bottineau","Bottineau","ND","North Dakota","58318","Central / Mountain","48.830347","-100.601174"
"(701) 360-","Cell Number","Walsh","Grafton","ND","North Dakota","58237","Central / Mountain","48.368876","-97.437265"
"(701) 456-","Landline","Stark","Dickinson","ND","North Dakota","58601","Central / Mountain","46.805716","-102.756514"
"(701) 237-","Landline","Cass","Fargo","ND","North Dakota","58108","Central / Mountain","46.934596","-97.229718"
"(701) 690-","Cell Number","Stark","Dickinson","ND","North Dakota","58601","Central / Mountain","46.805716","-102.756514"
"(701) 541-","Cell Number","Cass","Fargo","ND","North Dakota","58108","Central / Mountain","46.934596","-97.229718"
"(701) 739-","Cell Number","Grand Forks","Emerado","ND","North Dakota","58228","Central / Mountain","47.889676","-97.280993"
"(701) 893-","Landline","Cass","Fargo","ND","North Dakota","58108","Central / Mountain","46.934596","-97.229718"
"(701) 279-","Landline","Bowman","Rhame","ND","North Dakota","58651","Central / Mountain","46.112755","-103.520928"
"(701) 314-","Cell Number","Grand Forks","Grand Forks","ND","North Dakota","58208","Central / Mountain","47.933481","-97.394446"
"(701) 576-","Unknown","Rolette","Dunseith","ND","North Dakota","58329","Central / Mountain","48.856083","-100.024102"
"(701) 468-","Landline","Ward","Berthold","ND","North Dakota","58718","Central / Mountain","48.306397","-101.686644"
"(701) 356-","Landline","Cass","Fargo","ND","North Dakota","58108","Central / Mountain","46.934596","-97.229718"
"(701) 496-","Landline","Cavalier","Osnabrock","ND","North Dakota","58269","Central / Mountain","48.77178","-98.464102"
"(701) 202-","Cell Number","Burleigh","Bismarck","ND","North Dakota","58507","Central / Mountain","46.980475","-100.520063"
"(701) 336-","Landline","Emmons","Strasburg","ND","North Dakota","58573","Central / Mountain","46.080388","-100.223542"
"(701) 329-","Cell Number","Emmons","Strasburg","ND","North Dakota","58573","Central / Mountain","46.080388","-100.223542"
"(701) 450-","Unknown","Mclean","Underwood","ND","North Dakota","58576","Central / Mountain","47.445896","-101.21736"
"(701) 653-","Landline","Foster","Carrington","ND","North Dakota","58421","Central / Mountain","47.457278","-98.893314"
"(701) 462-","Landline","Mclean","Washburn","ND","North Dakota","58577","Central / Mountain","47.380715","-101.095673"
"(701) 632-","Unknown","Dunn","Dodge","ND","North Dakota","58625","Central / Mountain","47.305726","-102.202834"
"(701) 292-","Landline","Ramsey","Starkweather","ND","North Dakota","58377","Central / Mountain","48.449321","-98.760596"
"(701) 748-","Landline","Mercer","Hazen","ND","North Dakota","58545","Central / Mountain","47.386092","-101.760142"
"(701) 699-","Landline","Grand Forks","Manvel","ND","North Dakota","58256","Central / Mountain","48.107279","-97.28791"
"(701) 441-","Unknown","Ward","Minot","ND","North Dakota","58701","Central / Mountain","48.084625","-101.419006"
"(701) 640-","Cell Number","Richland","Wahpeton","ND","North Dakota","58074","Central / Mountain","46.283291","-96.917614"
"(701) 867-","Landline","Kidder","Steele","ND","North Dakota","58482","Central / Mountain","46.875966","-99.798975"
"(701) 662-","Landline","Ramsey","Devils Lake","ND","North Dakota","58301","Central / Mountain","48.264352","-98.781979"
"(701) 257-","Landline","Walsh","Hoople","ND","North Dakota","58243","Central / Mountain","48.490539","-97.677015"
"(701) 488-","Landline","Traill","Galesburg","ND","North Dakota","58035","Central / Mountain","47.270447","-97.408156"
"(701) 434-","Unknown","Cass","Leonard","ND","North Dakota","58052","Central / Mountain","46.765575","-97.294037"
"(701) 362-","Landline","Renville","Glenburn","ND","North Dakota","58740","Central / Mountain","48.647206","-101.540749"
"(701) 749-","Landline","Cass","Buffalo","ND","North Dakota","58011","Central / Mountain","46.920016","-97.557491"
"(701) 696-","Landline","Grand Forks","Manvel","ND","North Dakota","58256","Central / Mountain","48.107279","-97.28791"
"(701) 675-","Landline","Mckenzie","Keene","ND","North Dakota","58847","Central / Mountain","47.737435","-103.298383"
"(701) 457-","Landline","Cass","Caledonia","ND","North Dakota","58219","Central / Mountain","47.454888","-97.151692"
"(701) 723-","Landline","Ward","Minot Afb","ND","North Dakota","58704","Central / Mountain","48.42429","-101.319942"
"(701) 472-","Unknown","Rolette","Dunseith","ND","North Dakota","58329","Central / Mountain","48.856083","-100.024102"
"(701) 516-","Landline","Burleigh","Bismarck","ND","North Dakota","58507","Central / Mountain","46.980475","-100.520063"
"(701) 637-","Unknown","Adams","Hettinger","ND","North Dakota","58639","Central / Mountain","46.057786","-102.785054"
"(701) 550-","Cell Number","Rolette","Rolla","ND","North Dakota","58367","Central / Mountain","48.826826","-99.786546"
"(701) 591-","Unknown","Richland","Wahpeton","ND","North Dakota","58074","Central / Mountain","46.283291","-96.917614"
"(701) 300-","Landline","Stark","Dickinson","ND","North Dakota","58601","Central / Mountain","46.805716","-102.756514"
"(701) 593-","Landline","Walsh","Fordville","ND","North Dakota","58231","Central / Mountain","48.281947","-97.827805"
"(701) 419-","Landline","Stutsman","Jamestown","ND","North Dakota","58405","Central / Mountain","46.913344","-98.699553"
"(701) 253-","Landline","Stutsman","Jamestown","ND","North Dakota","58405","Central / Mountain","46.913344","-98.699553"
"(701) 947-","Landline","Eddy","New Rockford","ND","North Dakota","58356","Central / Mountain","47.71736","-98.898693"
"(701) 797-","Landline","Griggs","Cooperstown","ND","North Dakota","58425","Central / Mountain","47.366922","-98.295699"
"(701) 529-","Landline","Ward","Ryder","ND","North Dakota","58779","Central / Mountain","47.978815","-101.668252"
"(701) 217-","Cell Number","Ward","Kenmare","ND","North Dakota","58746","Central / Mountain","48.523046","-101.670989"
"(701) 347-","Landline","Cass","Casselton","ND","North Dakota","58012","Central / Mountain","47.050272","-97.062647"
"(701) 423-","Landline","Mcintosh","Zeeland","ND","North Dakota","58581","Central / Mountain","46.064366","-99.786023"
"(701) 269-","Cell Number","Stutsman","Jamestown","ND","North Dakota","58405","Central / Mountain","46.913344","-98.699553"
"(701) 275-","Landline","Bowman","Scranton","ND","North Dakota","58653","Central / Mountain","46.112755","-103.520928"
"(701) 829-","Unknown","Mckenzie","Cartwright","ND","North Dakota","58838","Central / Mountain","47.737435","-103.298383"
"(701) 747-","Landline","Grand Forks","Emerado","ND","North Dakota","58228","Central / Mountain","47.889676","-97.280993"
"(701) 495-","Cell Number","Stark","Dickinson","ND","North Dakota","58601","Central / Mountain","46.805716","-102.756514"
"(701) 273-","Landline","Stutsman","Woodworth","ND","North Dakota","58496","Central / Mountain","47.153721","-99.259784"
"(701) 836-","Unknown","Mclean","Garrison","ND","North Dakota","58540","Central / Mountain","47.667515","-101.61418"
"(701) 430-","Cell Number","Traill","Hillsboro","ND","North Dakota","58045","Central / Mountain","47.383461","-97.060324"
"(701) 828-","Landline","Mckenzie","Alexander","ND","North Dakota","58831","Central / Mountain","47.737435","-103.298383"
"(701) 523-","Landline","Bowman","Bowman","ND","North Dakota","58623","Central / Mountain","46.205537","-103.521263"
"(701) 346-","Unknown","Cass","Casselton","ND","North Dakota","58012","Central / Mountain","47.050272","-97.062647"
"(701) 783-","Landline","Wells","Sykeston","ND","North Dakota","58486","Central / Mountain","47.421182","-99.404828"
"(701) 599-","Landline","Grand Forks","Thompson","ND","North Dakota","58278","Central / Mountain","47.785848","-97.34703"
"(701) 471-","Cell Number","Burleigh","Bismarck","ND","North Dakota","58507","Central / Mountain","46.980475","-100.520063"
"(701) 420-","Landline","Ward","Minot","ND","North Dakota","58701","Central / Mountain","48.084625","-101.419006"
"(701) 256-","Landline","Cavalier","Langdon","ND","North Dakota","58249","Central / Mountain","48.753679","-98.288629"
"(701) 343-","Landline","Grand Forks","Larimore","ND","North Dakota","58251","Central / Mountain","47.911531","-97.626389"
"(701) 247-","Landline","Nelson","Lakota","ND","North Dakota","58344","Central / Mountain","47.971966","-98.324631"
"(701) 728-","Landline","Mchenry","Norwich","ND","North Dakota","58768","Central / Mountain","48.269539","-100.950246"
"(701) 590-","Cell Number","Stark","Dickinson","ND","North Dakota","58601","Central / Mountain","46.805716","-102.756514"
"(701) 596-","Landline","Burke","Lignite","ND","North Dakota","58752","Central / Mountain","48.821804","-102.611948"
"(701) 255-","Landline","Burleigh","Bismarck","ND","North Dakota","58507","Central / Mountain","46.980475","-100.520063"
"(701) 425-","Unknown","Burleigh","Bismarck","ND","North Dakota","58507","Central / Mountain","46.980475","-100.520063"
"(701) 860-","Landline","Cass","Gardner","ND","North Dakota","58036","Central / Mountain","47.157949","-96.957752"
"(701) 794-","Landline","Oliver","Center","ND","North Dakota","58530","Central / Mountain","47.145874","-101.159363"
"(701) 873-","Landline","Mercer","Beulah","ND","North Dakota","58523","Central / Mountain","47.277895","-101.853161"
"(701) 312-","Cell Number","Mountrail","Parshall","ND","North Dakota","58770","Central / Mountain","47.946158","-102.103378"
"(701) 610-","Cell Number","Grand Forks","Grand Forks","ND","North Dakota","58208","Central / Mountain","47.933481","-97.394446"
"(701) 718-","Unknown","Cass","Kindred","ND","North Dakota","58051","Central / Mountain","46.673526","-97.050584"
"(701) 781-","Cell Number","Cass","Fargo","ND","North Dakota","58108","Central / Mountain","46.934596","-97.229718"
"(701) 335-","Landline","Grand Forks","Grand Forks","ND","North Dakota","58208","Central / Mountain","47.933481","-97.394446"
"(701) 628-","Landline","Mountrail","Stanley","ND","North Dakota","58784","Central / Mountain","48.345765","-102.418466"
"(701) 478-","Landline","Cass","Fargo","ND","North Dakota","58108","Central / Mountain","46.934596","-97.229718"
"(701) 856-","Landline","Traill","Caledonia","ND","North Dakota","58219","Central / Mountain","47.454888","-97.151692"
"(701) 417-","Unknown","Cass","Fargo","ND","North Dakota","58108","Central / Mountain","46.934596","-97.229718"
"(701) 367-","Cell Number","Cass","Fargo","ND","North Dakota","58108","Central / Mountain","46.934596","-97.229718"
"(701) 283-","Landline","Cavalier","Hannah","ND","North Dakota","58239","Central / Mountain","48.77178","-98.464102"
"(701) 267-","Landline","Bottineau","Antler","ND","North Dakota","58711","Central / Mountain","48.813251","-101.227611"
"(701) 720-","Cell Number","Ward","Minot","ND","North Dakota","58701","Central / Mountain","48.084625","-101.419006"
"(701) 825-","Landline","Pembina","Pembina","ND","North Dakota","58271","Central / Mountain","48.85897","-97.288585"
"(701) 838-","Landline","Ward","Minot","ND","North Dakota","58701","Central / Mountain","48.084625","-101.419006"
"(701) 489-","Landline","Stutsman","Ypsilanti","ND","North Dakota","58497","Central / Mountain","46.768695","-98.565136"
"(701) 204-","Landline","Burleigh","Bismarck","ND","North Dakota","58507","Central / Mountain","46.980475","-100.520063"
"(701) 889-","Unknown","Mchenry","Drake","ND","North Dakota","58736","Central / Mountain","47.978309","-100.384482"
"(701) 833-","Cell Number","Ward","Minot","ND","North Dakota","58701","Central / Mountain","48.084625","-101.419006"
"(701) 843-","Landline","Morton","New Salem","ND","North Dakota","58563","Central / Mountain","46.805999","-101.429122"
"(701) 655-","Landline","Ramsey","Lawton","ND","North Dakota","58345","Central / Mountain","48.275146","-98.438346"
"(701) 216-","Cell Number","Williams","Tioga","ND","North Dakota","58852","Central / Mountain","48.364623","-102.957597"
"(701) 851-","Cell Number","Emmons","Linton","ND","North Dakota","58552","Central / Mountain","46.185512","-100.233084"
"(701) 824-","Landline","Hettinger","Mott","ND","North Dakota","58646","Central / Mountain","46.369616","-102.326958"
"(701) 316-","Cell Number","Kidder","Steele","ND","North Dakota","58482","Central / Mountain","46.875966","-99.798975"
"(701) 467-","Landline","Renville","Tolley","ND","North Dakota","58787","Central / Mountain","48.759404","-101.862477"
"(701) 351-","Cell Number","Benson","Saint Michael","ND","North Dakota","58370","Central / Mountain","47.985595","-98.849264"
"(701) 454-","Landline","Pembina","Drayton","ND","North Dakota","58225","Central / Mountain","48.668146","-97.362726"
"(701) 378-","Landline","Mcintosh","Lehr","ND","North Dakota","58460","Central / Mountain","46.140661","-99.378147"
"(701) 654-","Landline","Mclean","Underwood","ND","North Dakota","58576","Central / Mountain","47.445896","-101.21736"
"(701) 315-","Cell Number","Mclean","Washburn","ND","North Dakota","58577","Central / Mountain","47.380715","-101.095673"
"(701) 205-","Landline","Cass","Fargo","ND","North Dakota","58108","Central / Mountain","46.934596","-97.229718"
"(701) 339-","Cell Number","Ward","Kenmare","ND","North Dakota","58746","Central / Mountain","48.523046","-101.670989"
"(701) 855-","Unknown","Pierce","Rugby","ND","North Dakota","58368","Central / Mountain","48.254504","-99.989912"
"(701) 897-","Cell Number","Mountrail","Parshall","ND","North Dakota","58770","Central / Mountain","47.946158","-102.103378"
"(701) 262-","Landline","Nelson","Tolna","ND","North Dakota","58380","Central / Mountain","47.846213","-98.451175"
"(701) 442-","Landline","Mclean","Underwood","ND","North Dakota","58576","Central / Mountain","47.445896","-101.21736"
"(701) 885-","Cell Number","Grand Forks","Grand Forks","ND","North Dakota","58208","Central / Mountain","47.933481","-97.394446"
"(701) 400-","Cell Number","Burleigh","Bismarck","ND","North Dakota","58507","Central / Mountain","46.980475","-100.520063"
"(701) 785-","Landline","Griggs","Binford","ND","North Dakota","58416","Central / Mountain","47.489506","-98.410133"
"(701) 639-","Landline","Cass","Fargo","ND","North Dakota","58108","Central / Mountain","46.934596","-97.229718"
"(701) 677-","Landline","Stark","South Heart","ND","North Dakota","58655","Central / Mountain","46.767691","-103.072219"
"(701) 274-","Landline","Richland","Mooreton","ND","North Dakota","58061","Central / Mountain","46.315035","-96.861092"
"(701) 528-","Landline","Williams","Zahl","ND","North Dakota","58856","Central / Mountain","48.532242","-103.772098"
"(701) 578-","Cell Number","Ward","Minot","ND","North Dakota","58701","Central / Mountain","48.084625","-101.419006"
"(701) 993-","Landline","Walsh","Edinburg","ND","North Dakota","58227","Central / Mountain","48.499712","-97.893218"
"(701) 297-","Landline","Cass","Fargo","ND","North Dakota","58108","Central / Mountain","46.934596","-97.229718"
"(701) 762-","Landline","Barnes","Litchville","ND","North Dakota","58461","Central / Mountain","46.717981","-98.186443"
"(701) 460-","Cell Number","Mclean","Washburn","ND","North Dakota","58577","Central / Mountain","47.380715","-101.095673"
"(701) 731-","Unknown","Mcintosh","Wishek","ND","North Dakota","58495","Central / Mountain","46.191724","-99.613132"
"(701) 569-","Unknown","Traill","Hatton","ND","North Dakota","58240","Central / Mountain","47.638521","-97.459319"
"(701) 900-","Unknown","Towner","Cando","ND","North Dakota","58324","Central / Mountain","48.500121","-99.231923"
"(701) 942-","Landline","Traill","Caledonia","ND","North Dakota","58219","Central / Mountain","47.454888","-97.151692"
"(701) 743-","Landline","Mclean","Roseglen","ND","North Dakota","58775","Central / Mountain","47.681855","-101.866895"
"(701) 507-","Unknown","Mountrail","Stanley","ND","North Dakota","58784","Central / Mountain","48.345765","-102.418466"
"(701) 686-","Unknown","Cavalier","Langdon","ND","North Dakota","58249","Central / Mountain","48.753679","-98.288629"
"(701) 678-","Landline","Sargent","Gwinner","ND","North Dakota","58040","Central / Mountain","46.152725","-97.767735"
"(701) 248-","Landline","Walsh","Minto","ND","North Dakota","58261","Central / Mountain","48.25997","-97.314367"
"(701) 305-","Cell Number","Cavalier","Langdon","ND","North Dakota","58249","Central / Mountain","48.753679","-98.288629"
"(701) 656-","Landline","Towner","Bisbee","ND","North Dakota","58317","Central / Mountain","48.58807","-99.23173"
"(701) 428-","Landline","Cass","Kindred","ND","North Dakota","58051","Central / Mountain","46.673526","-97.050584"
"(701) 725-","Landline","Ward","Burlington","ND","North Dakota","58722","Central / Mountain","48.10469","-101.543429"
"(701) 481-","Landline","Mckenzie","Cartwright","ND","North Dakota","58838","Central / Mountain","47.737435","-103.298383"
"(701) 330-","Cell Number","Grand Forks","Grand Forks","ND","North Dakota","58208","Central / Mountain","47.933481","-97.394446"
"(701) 477-","Landline","Rolette","Rolla","ND","North Dakota","58367","Central / Mountain","48.826826","-99.786546"
"(701) 620-","Unknown","Grand Forks","Grand Forks","ND","North Dakota","58208","Central / Mountain","47.933481","-97.394446"
"(701) 374-","Landline","Mcintosh","Ashley","ND","North Dakota","58413","Central / Mountain","46.056209","-99.285013"
"(701) 433-","Landline","Cass","Fargo","ND","North Dakota","58108","Central / Mountain","46.934596","-97.229718"
"(701) 793-","Cell Number","Cass","Fargo","ND","North Dakota","58108","Central / Mountain","46.934596","-97.229718"
"(701) 665-","Landline","Ramsey","Devils Lake","ND","North Dakota","58301","Central / Mountain","48.264352","-98.781979"
"(701) 563-","Landline","Hettinger","Regent","ND","North Dakota","58650","Central / Mountain","46.418659","-102.56228"
"(701) 712-","Unknown","Burleigh","Bismarck","ND","North Dakota","58507","Central / Mountain","46.980475","-100.520063"
"(701) 357-","Landline","Dickey","Forbes","ND","North Dakota","58439","Central / Mountain","46.011902","-98.848644"
"(701) 972-","Unknown","Eddy","New Rockford","ND","North Dakota","58356","Central / Mountain","47.71736","-98.898693"
"(701) 521-","Cell Number","Pembina","Cavalier","ND","North Dakota","58220","Central / Mountain","48.738902","-97.699122"
"(701) 754-","Landline","Logan","Napoleon","ND","North Dakota","58561","Central / Mountain","46.464858","-99.65682"
"(701) 565-","Landline","Mckenzie","Cartwright","ND","North Dakota","58838","Central / Mountain","47.737435","-103.298383"
"(701) 871-","Cell Number","Bottineau","Bottineau","ND","North Dakota","58318","Central / Mountain","48.830347","-100.601174"
"(701) 839-","Landline","Ward","Minot","ND","North Dakota","58701","Central / Mountain","48.084625","-101.419006"
"(701) 537-","Landline","Mchenry","Towner","ND","North Dakota","58788","Central / Mountain","48.363638","-100.4854"
"(701) 936-","Unknown","Cass","Fargo","ND","North Dakota","58108","Central / Mountain","46.934596","-97.229718"
"(701) 982-","Landline","Divide","Ambrose","ND","North Dakota","58833","Central / Mountain","48.816502","-103.467251"
"(701) 263-","Landline","Rolette","Dunseith","ND","North Dakota","58329","Central / Mountain","48.856083","-100.024102"
"(701) 432-","Landline","Lamoure","Verona","ND","North Dakota","58490","Central / Mountain","46.398713","-98.099446"
"(701) 962-","Landline","Wells","Bowdon","ND","North Dakota","58418","Central / Mountain","47.457667","-99.649702"
"(701) 905-","Unknown","Mercer","Beulah","ND","North Dakota","58523","Central / Mountain","47.277895","-101.853161"
"(701) 355-","Landline","Burleigh","Bismarck","ND","North Dakota","58507","Central / Mountain","46.980475","-100.520063"
"(701) 967-","Landline","Cass","Arthur","ND","North Dakota","58006","Central / Mountain","47.102334","-97.140334"
"(701) 258-","Landline","Burleigh","Bismarck","ND","North Dakota","58507","Central / Mountain","46.980475","-100.520063"
"(701) 225-","Landline","Stark","Dickinson","ND","North Dakota","58601","Central / Mountain","46.805716","-102.756514"
"(701) 298-","Landline","Cass","Fargo","ND","North Dakota","58108","Central / Mountain","46.934596","-97.229718"
"(701) 393-","Landline","Towner","Rocklake","ND","North Dakota","58365","Central / Mountain","48.844548","-99.26309"
"(701) 850-","Unknown","Cass","Fargo","ND","North Dakota","58108","Central / Mountain","46.934596","-97.229718"
"(701) 649-","Cell Number","Foster","Carrington","ND","North Dakota","58421","Central / Mountain","47.457278","-98.893314"
"(701) 768-","Landline","Mchenry","Upham","ND","North Dakota","58789","Central / Mountain","48.348495","-100.831317"
"(701) 534-","Unknown","Bottineau","Bottineau","ND","North Dakota","58318","Central / Mountain","48.830347","-100.601174"
"(701) 352-","Landline","Walsh","Grafton","ND","North Dakota","58237","Central / Mountain","48.368876","-97.437265"
"(701) 663-","Landline","Morton","Mandan","ND","North Dakota","58554","Central / Mountain","46.71312","-100.952585"
"(701) 373-","Landline","Cass","Fargo","ND","North Dakota","58108","Central / Mountain","46.934596","-97.229718"
"(701) 533-","Unknown","Bowman","Scranton","ND","North Dakota","58653","Central / Mountain","46.112755","-103.520928"
"(701) 349-","Landline","Dickey","Ellendale","ND","North Dakota","58436","Central / Mountain","46.106141","-98.620707"
"(701) 865-","Landline","Grand Forks","Inkster","ND","North Dakota","58244","Central / Mountain","48.107863","-97.683056"
"(701) 385-","Landline","Ward","Kenmare","ND","North Dakota","58746","Central / Mountain","48.523046","-101.670989"
"(701) 218-","Cell Number","Golden Valley","Beach","ND","North Dakota","58621","Central / Mountain","46.963728","-103.898766"
"(701) 402-","Landline","Grand Forks","Grand Forks","ND","North Dakota","58208","Central / Mountain","47.933481","-97.394446"
"(701) 948-","Landline","Mercer","Zap","ND","North Dakota","58580","Central / Mountain","47.263087","-101.929416"
"(701) 465-","Landline","Mchenry","Drake","ND","North Dakota","58736","Central / Mountain","47.978309","-100.384482"
"(701) 683-","Landline","Ransom","Lisbon","ND","North Dakota","58054","Central / Mountain","46.455974","-97.636917"
"(701) 384-","Landline","Walsh","Fordville","ND","North Dakota","58231","Central / Mountain","48.281947","-97.827805"
"(701) 538-","Landline","Richland","Lidgerwood","ND","North Dakota","58053","Central / Mountain","46.191782","-96.994919"
"(701) 363-","Landline","Sheridan","Mcclusky","ND","North Dakota","58463","Central / Mountain","47.506755","-100.41715"
"(701) 422-","Landline","Sioux","Selfridge","ND","North Dakota","58568","Central / Mountain","46.186442","-101.252738"
"(701) 912-","Unknown","Ransom","Enderlin","ND","North Dakota","58027","Central / Mountain","46.456337","-97.777909"
"(701) 303-","Cell Number","Towner","Cando","ND","North Dakota","58324","Central / Mountain","48.500121","-99.231923"
"(701) 383-","Unknown","Traill","Hillsboro","ND","North Dakota","58045","Central / Mountain","47.383461","-97.060324"
"(701) 530-","Landline","Burleigh","Bismarck","ND","North Dakota","58507","Central / Mountain","46.980475","-100.520063"
"(701) 784-","Landline","Bottineau","Lansford","ND","North Dakota","58750","Central / Mountain","48.634598","-101.297326"
"(701) 301-","Cell Number","Oliver","Center","ND","North Dakota","58530","Central / Mountain","47.145874","-101.159363"
"(701) 474-","Landline","Richland","Fairmount","ND","North Dakota","58030","Central / Mountain","46.094599","-96.907594"
"(701) 494-","Cell Number","Mercer","Hazen","ND","North Dakota","58545","Central / Mountain","47.386092","-101.760142"
"(701) 671-","Landline","Richland","Wahpeton","ND","North Dakota","58074","Central / Mountain","46.283291","-96.917614"
"(701) 956-","Unknown","Stark","Richardton","ND","North Dakota","58652","Central / Mountain","46.820533","-102.264513"
"(701) 324-","Landline","Wells","Harvey","ND","North Dakota","58341","Central / Mountain","47.703539","-99.747755"
"(701) 309-","Cell Number","Griggs","Cooperstown","ND","North Dakota","58425","Central / Mountain","47.366922","-98.295699"
"(701) 579-","Landline","Hettinger","New England","ND","North Dakota","58647","Central / Mountain","46.459446","-102.595864"
"(701) 626-","Landline","Mclean","Butte","ND","North Dakota","58723","Central / Mountain","47.69365","-100.692443"
"(701) 883-","Landline","Lamoure","Lamoure","ND","North Dakota","58458","Central / Mountain","46.384379","-98.358671"
"(701) 938-","Landline","Dunn","Halliday","ND","North Dakota","58636","Central / Mountain","47.351748","-102.336761"
"(701) 382-","Cell Number","Cavalier","Langdon","ND","North Dakota","58249","Central / Mountain","48.753679","-98.288629"
"(701) 927-","Unknown","Dunn","Killdeer","ND","North Dakota","58640","Central / Mountain","47.526978","-102.703916"
"(701) 742-","Landline","Dickey","Oakes","ND","North Dakota","58474","Central / Mountain","46.109493","-98.225652"
"(701) 206-","Cell Number","Bowman","Bowman","ND","North Dakota","58623","Central / Mountain","46.205537","-103.521263"
"(701) 350-","Cell Number","Ramsey","Devils Lake","ND","North Dakota","58301","Central / Mountain","48.264352","-98.781979"
"(701) 726-","Landline","Ward","Makoti","ND","North Dakota","58756","Central / Mountain","47.957203","-101.778246"
"(701) 449-","Cell Number","Bowman","Bowman","ND","North Dakota","58623","Central / Mountain","46.205537","-103.521263"
"(701) 887-","Landline","Traill","Caledonia","ND","North Dakota","58219","Central / Mountain","47.454888","-97.151692"
"(701) 228-","Landline","Bottineau","Bottineau","ND","North Dakota","58318","Central / Mountain","48.830347","-100.601174"
"(701) 822-","Cell Number","Williams","Williston","ND","North Dakota","58802","Central / Mountain","48.168836","-103.614824"
"(701) 853-","Landline","Adams","Reeder","ND","North Dakota","58649","Central / Mountain","46.113891","-102.496805"
"(701) 621-","Cell Number","Mountrail","Stanley","ND","North Dakota","58784","Central / Mountain","48.345765","-102.418466"
"(701) 737-","Cell Number","Mclean","Washburn","ND","North Dakota","58577","Central / Mountain","47.380715","-101.095673"
"(701) 558-","Unknown","Mclean","Washburn","ND","North Dakota","58577","Central / Mountain","47.380715","-101.095673"
"(701) 482-","Landline","Ward","Berthold","ND","North Dakota","58718","Central / Mountain","48.306397","-101.686644"
"(701) 210-","Cell Number","Dickey","Oakes","ND","North Dakota","58474","Central / Mountain","46.109493","-98.225652"
"(701) 738-","Landline","Grand Forks","Grand Forks","ND","North Dakota","58208","Central / Mountain","47.933481","-97.394446"
"(701) 835-","Unknown","Ward","Kenmare","ND","North Dakota","58746","Central / Mountain","48.523046","-101.670989"
"(701) 863-","Landline","Mckenzie","Grassy Butte","ND","North Dakota","58634","Central / Mountain","47.737435","-103.298383"
"(701) 290-","Cell Number","Stark","Dickinson","ND","North Dakota","58601","Central / Mountain","46.805716","-102.756514"
"(701) 408-","Unknown","Dickey","Oakes","ND","North Dakota","58474","Central / Mountain","46.109493","-98.225652"
"(701) 502-","Unknown","Mountrail","Ross","ND","North Dakota","58776","Central / Mountain","48.272077","-102.547886"
"(701) 600-","Unknown","Eddy","New Rockford","ND","North Dakota","58356","Central / Mountain","47.71736","-98.898693"
"(701) 532-","Unknown","Cass","Fargo","ND","North Dakota","58108","Central / Mountain","46.934596","-97.229718"
"(701) 755-","Landline","Mountrail","Ross","ND","North Dakota","58776","Central / Mountain","48.272077","-102.547886"
"(701) 396-","Landline","Sheridan","Goodrich","ND","North Dakota","58444","Central / Mountain","47.479529","-100.14659"
"(701) 592-","Landline","Benson","York","ND","North Dakota","58386","Central / Mountain","48.256479","-99.602542"
"(701) 544-","Unknown","Ramsey","Devils Lake","ND","North Dakota","58301","Central / Mountain","48.264352","-98.781979"
"(701) 567-","Landline","Adams","Hettinger","ND","North Dakota","58639","Central / Mountain","46.057786","-102.785054"
"(701) 520-","Cell Number","Walsh","Hoople","ND","North Dakota","58243","Central / Mountain","48.490539","-97.677015"
"(701) 679-","Landline","Mclean","Max","ND","North Dakota","58759","Central / Mountain","47.567805","-101.164109"
"(701) 208-","Cell Number","Pierce","Rugby","ND","North Dakota","58368","Central / Mountain","48.254504","-99.989912"
"(701) 689-","Landline","Cass","Tower City","ND","North Dakota","58071","Central / Mountain","46.949236","-97.626101"
"(701) 598-","Unknown","Richland","Christine","ND","North Dakota","58015","Central / Mountain","46.593582","-96.809354"
"(701) 660-","Unknown","Cass","Casselton","ND","North Dakota","58012","Central / Mountain","47.050272","-97.062647"
"(701) 756-","Landline","Renville","Mohall","ND","North Dakota","58761","Central / Mountain","48.726868","-101.605847"
"(701) 320-","Cell Number","Stutsman","Jamestown","ND","North Dakota","58405","Central / Mountain","46.913344","-98.699553"
"(701) 782-","Landline","Emmons","Hazelton","ND","North Dakota","58544","Central / Mountain","46.517223","-100.337283"
"(701) 281-","Landline","Cass","Fargo","ND","North Dakota","58108","Central / Mountain","46.934596","-97.229718"
"(701) 288-","Landline","Mcintosh","Ashley","ND","North Dakota","58413","Central / Mountain","46.056209","-99.285013"
"(701) 244-","Landline","Rolette","Dunseith","ND","North Dakota","58329","Central / Mountain","48.856083","-100.024102"
"(701) 308-","Cell Number","Sargent","Gwinner","ND","North Dakota","58040","Central / Mountain","46.152725","-97.767735"
"(701) 223-","Landline","Burleigh","Bismarck","ND","North Dakota","58507","Central / Mountain","46.980475","-100.520063"
"(701) 890-","Unknown","Barnes","Valley City","ND","North Dakota","58072","Central / Mountain","46.972286","-98.007534"
"(701) 295-","Landline","Bottineau","Westhope","ND","North Dakota","58793","Central / Mountain","48.86655","-100.836782"
"(701) 497-","Landline","Mountrail","Plaza","ND","North Dakota","58771","Central / Mountain","48.065743","-102.030195"
"(701) 271-","Landline","Cass","Fargo","ND","North Dakota","58108","Central / Mountain","46.934596","-97.229718"
"(701) 922-","Unknown","Walsh","Grafton","ND","North Dakota","58237","Central / Mountain","48.368876","-97.437265"
"(701) 658-","Cell Number","Stutsman","Jamestown","ND","North Dakota","58405","Central / Mountain","46.913344","-98.699553"
"(701) 559-","Landline","Stark","Belfield","ND","North Dakota","58622","Central / Mountain","46.819805","-103.126111"
"(701) 682-","Landline","Ramsey","Hampden","ND","North Dakota","58338","Central / Mountain","48.499953","-98.644371"
"(701) 697-","Landline","Cavalier","Sarles","ND","North Dakota","58372","Central / Mountain","48.77178","-98.464102"
"(701) 709-","Cell Number","Lamoure","Edgeley","ND","North Dakota","58433","Central / Mountain","46.41198","-98.713086"
"(701) 733-","Landline","Barnes","Dazey","ND","North Dakota","58429","Central / Mountain","47.182819","-98.161621"
"(701) 652-","Landline","Foster","Carrington","ND","North Dakota","58421","Central / Mountain","47.457278","-98.893314"
"(701) 688-","Landline","Slope","Marmarth","ND","North Dakota","58643","Central / Mountain","46.454966","-103.485325"
"(701) 572-","Landline","Williams","Williston","ND","North Dakota","58802","Central / Mountain","48.168836","-103.614824"
"(701) 746-","Landline","Grand Forks","Grand Forks","ND","North Dakota","58208","Central / Mountain","47.933481","-97.394446"
"(701) 684-","Landline","Mcintosh","Ashley","ND","North Dakota","58413","Central / Mountain","46.056209","-99.285013"
"(701) 597-","Landline","Morton","Flasher","ND","North Dakota","58535","Central / Mountain","46.599807","-101.316642"
"(701) 740-","Cell Number","Grand Forks","Grand Forks","ND","North Dakota","58208","Central / Mountain","47.933481","-97.394446"
"(701) 861-","Cell Number","Mclean","Washburn","ND","North Dakota","58577","Central / Mountain","47.380715","-101.095673"
"(701) 241-","Landline","Cass","Fargo","ND","North Dakota","58108","Central / Mountain","46.934596","-97.229718"
"(701) 365-","Landline","Cass","Fargo","ND","North Dakota","58108","Central / Mountain","46.934596","-97.229718"
"(701) 826-","Landline","Williams","Zahl","ND","North Dakota","58856","Central / Mountain","48.532242","-103.772098"
"(701) 548-","Landline","Dunn","Dunn Center","ND","North Dakota","58626","Central / Mountain","47.336337","-102.663492"
"(701) 304-","Cell Number","Nelson","Lakota","ND","North Dakota","58344","Central / Mountain","47.971966","-98.324631"
"(701) 484-","Landline","Cass","Gardner","ND","North Dakota","58036","Central / Mountain","47.157949","-96.957752"
"(701) 447-","Landline","Mclean","Turtle Lake","ND","North Dakota","58575","Central / Mountain","47.501425","-100.895863"
"(701) 845-","Landline","Barnes","Valley City","ND","North Dakota","58072","Central / Mountain","46.972286","-98.007534"
"(701) 669-","Landline","Barnes","Litchville","ND","North Dakota","58461","Central / Mountain","46.717981","-98.186443"
"(701) 214-","Landline","Burleigh","Bismarck","ND","North Dakota","58507","Central / Mountain","46.980475","-100.520063"
"(701) 730-","Cell Number","Cass","Fargo","ND","North Dakota","58108","Central / Mountain","46.934596","-97.229718"
"(701) 757-","Unknown","Grand Forks","Grand Forks","ND","North Dakota","58208","Central / Mountain","47.933481","-97.394446"
"(701) 395-","Landline","Ramsey","Webster","ND","North Dakota","58382","Central / Mountain","48.317012","-98.800481"
"(701) 238-","Cell Number","Cass","Fargo","ND","North Dakota","58108","Central / Mountain","46.934596","-97.229718"
"(701) 772-","Landline","Grand Forks","Grand Forks","ND","North Dakota","58208","Central / Mountain","47.933481","-97.394446"
"(701) 923-","Unknown","Ward","Kenmare","ND","North Dakota","58746","Central / Mountain","48.523046","-101.670989"
"(701) 284-","Landline","Walsh","Park River","ND","North Dakota","58270","Central / Mountain","48.420411","-97.774812"
"(701) 461-","Landline","Cass","Fargo","ND","North Dakota","58108","Central / Mountain","46.934596","-97.229718"
"(701) 492-","Landline","Cass","Fargo","ND","North Dakota","58108","Central / Mountain","46.934596","-97.229718"
"(701) 455-","Unknown","Emmons","Linton","ND","North Dakota","58552","Central / Mountain","46.185512","-100.233084"
"(701) 736-","Landline","Sargent","Cayuga","ND","North Dakota","58013","Central / Mountain","46.062144","-97.529438"
"(701) 476-","Landline","Cass","Fargo","ND","North Dakota","58108","Central / Mountain","46.934596","-97.229718"
"(701) 680-","Cell Number","Sargent","Gwinner","ND","North Dakota","58040","Central / Mountain","46.152725","-97.767735"
"(701) 389-","Cell Number","Bottineau","Bottineau","ND","North Dakota","58318","Central / Mountain","48.830347","-100.601174"
"(701) 664-","Landline","Williams","Tioga","ND","North Dakota","58852","Central / Mountain","48.364623","-102.957597"
"(701) 673-","Landline","Burleigh","Sterling","ND","North Dakota","58572","Central / Mountain","46.876069","-100.277434"
"(701) 926-","Landline","Burke","Portal","ND","North Dakota","58772","Central / Mountain","48.953774","-102.622651"
"(701) 687-","Unknown","Bottineau","Willow City","ND","North Dakota","58384","Central / Mountain","48.660609","-100.352409"
"(701) 841-","Unknown","Grand Forks","Reynolds","ND","North Dakota","58275","Central / Mountain","47.872332","-97.236128"
"(701) 575-","Landline","Stark","Belfield","ND","North Dakota","58622","Central / Mountain","46.819805","-103.126111"
"(701) 341-","Cell Number","Wells","Harvey","ND","North Dakota","58341","Central / Mountain","47.703539","-99.747755"
"(701) 651-","Unknown","Williams","Williston","ND","North Dakota","58802","Central / Mountain","48.168836","-103.614824"
"(701) 317-","Cell Number","Grand Forks","Emerado","ND","North Dakota","58228","Central / Mountain","47.889676","-97.280993"
"(701) 721-","Cell Number","Ward","Minot","ND","North Dakota","58701","Central / Mountain","48.084625","-101.419006"
"(701) 551-","Unknown","Cass","Fargo","ND","North Dakota","58108","Central / Mountain","46.934596","-97.229718"
"(701) 944-","Landline","Walsh","Adams","ND","North Dakota","58210","Central / Mountain","48.383547","-97.997964"
"(701) 364-","Landline","Cass","Fargo","ND","North Dakota","58108","Central / Mountain","46.934596","-97.229718"
"(701) 261-","Cell Number","Cass","Fargo","ND","North Dakota","58108","Central / Mountain","46.934596","-97.229718"
"(701) 227-","Landline","Stark","Dickinson","ND","North Dakota","58601","Central / Mountain","46.805716","-102.756514"
"(701) 636-","Landline","Traill","Hillsboro","ND","North Dakota","58045","Central / Mountain","47.383461","-97.060324"
"(701) 246-","Landline","Rolette","Rolette","ND","North Dakota","58366","Central / Mountain","48.700886","-99.878456"
"(701) 767-","Unknown","Towner","Bisbee","ND","North Dakota","58317","Central / Mountain","48.58807","-99.23173"
"(701) 847-","Landline","Grand Forks","Reynolds","ND","North Dakota","58275","Central / Mountain","47.872332","-97.236128"
"(701) 232-","Landline","Cass","Fargo","ND","North Dakota","58108","Central / Mountain","46.934596","-97.229718"
"(701) 458-","Unknown","Bowman","Bowman","ND","North Dakota","58623","Central / Mountain","46.205537","-103.521263"
"(701) 741-","Cell Number","Grand Forks","Emerado","ND","North Dakota","58228","Central / Mountain","47.889676","-97.280993"
"(701) 526-","Landline","Cass","Fargo","ND","North Dakota","58108","Central / Mountain","46.934596","-97.229718"
"(701) 625-","Unknown","Sheridan","Martin","ND","North Dakota","58758","Central / Mountain","47.717951","-100.21234"
"(701) 570-","Cell Number","Williams","Williston","ND","North Dakota","58802","Central / Mountain","48.168836","-103.614824"
"(701) 440-","Cell Number","Bowman","Bowman","ND","North Dakota","58623","Central / Mountain","46.205537","-103.521263"
"(701) 966-","Landline","Walsh","Fairdale","ND","North Dakota","58229","Central / Mountain","48.380603","-98.054828"
"(701) 366-","Landline","Bottineau","Willow City","ND","North Dakota","58384","Central / Mountain","48.660609","-100.352409"
"(701) 215-","Cell Number","Grand Forks","Grand Forks","ND","North Dakota","58208","Central / Mountain","47.933481","-97.394446"
"(701) 435-","Landline","Stutsman","Courtenay","ND","North Dakota","58426","Central / Mountain","47.196576","-98.594244"
"(701) 234-","Landline","Cass","Fargo","ND","North Dakota","58108","Central / Mountain","46.934596","-97.229718"
"(701) 868-","Landline","Ramsey","Hampden","ND","North Dakota","58338","Central / Mountain","48.499953","-98.644371"
"(701) 587-","Landline","Grand Forks","Northwood","ND","North Dakota","58267","Central / Mountain","47.759107","-97.603773"
"(701) 370-","Cell Number","Cavalier","Langdon","ND","North Dakota","58249","Central / Mountain","48.753679","-98.288629"
"(701) 448-","Landline","Mclean","Turtle Lake","ND","North Dakota","58575","Central / Mountain","47.501425","-100.895863"
"(701) 361-","Cell Number","Cass","Fargo","ND","North Dakota","58108","Central / Mountain","46.934596","-97.229718"
"(701) 278-","Cell Number","Rolette","Rolla","ND","North Dakota","58367","Central / Mountain","48.826826","-99.786546"
"(701) 840-","Cell Number","Barnes","Valley City","ND","North Dakota","58072","Central / Mountain","46.972286","-98.007534"
"(701) 693-","Landline","Sheridan","Martin","ND","North Dakota","58758","Central / Mountain","47.717951","-100.21234"
"(701) 647-","Landline","Lamoure","Kulm","ND","North Dakota","58456","Central / Mountain","46.391635","-98.603141"
"(701) 398-","Landline","Ramsey","Devils Lake","ND","North Dakota","58301","Central / Mountain","48.264352","-98.781979"
"(701) 875-","Landline","Williams","Williston","ND","North Dakota","58802","Central / Mountain","48.168836","-103.614824"
"(701) 849-","Unknown","Wells","Harvey","ND","North Dakota","58341","Central / Mountain","47.703539","-99.747755"
"(701) 564-","Unknown","Grand Forks","Manvel","ND","North Dakota","58256","Central / Mountain","48.107279","-97.28791"
"(701) 734-","Landline","Mclean","Wilton","ND","North Dakota","58579","Central / Mountain","47.488872","-101.085504"
"(701) 892-","Landline","Richland","Wahpeton","ND","North Dakota","58074","Central / Mountain","46.283291","-96.917614"
"(701) 397-","Landline","Grand Forks","Niagara","ND","North Dakota","58266","Central / Mountain","48.015728","-97.817106"
"(701) 830-","Cell Number","Lamoure","Edgeley","ND","North Dakota","58433","Central / Mountain","46.41198","-98.713086"
"(701) 858-","Landline","Ward","Minot","ND","North Dakota","58701","Central / Mountain","48.084625","-101.419006"
"(701) 490-","Cell Number","Barnes","Valley City","ND","North Dakota","58072","Central / Mountain","46.972286","-98.007534"
"(701) 980-","Cell Number","Mclean","Underwood","ND","North Dakota","58576","Central / Mountain","47.445896","-101.21736"
"(701) 381-","Cell Number","Ramsey","Devils Lake","ND","North Dakota","58301","Central / Mountain","48.264352","-98.781979"
"(701) 848-","Landline","Ward","Kenmare","ND","North Dakota","58746","Central / Mountain","48.523046","-101.670989"
"(701) 554-","Unknown","Grand Forks","Thompson","ND","North Dakota","58278","Central / Mountain","47.785848","-97.34703"
"(701) 692-","Unknown","Logan","Napoleon","ND","North Dakota","58561","Central / Mountain","46.464858","-99.65682"
"(701) 294-","Landline","Benson","Warwick","ND","North Dakota","58381","Central / Mountain","47.910133","-98.75889"
"(701) 571-","Cell Number","Williams","Williston","ND","North Dakota","58802","Central / Mountain","48.168836","-103.614824"
"(701) 459-","Landline","Renville","Sherwood","ND","North Dakota","58782","Central / Mountain","48.863353","-101.770037"
"(701) 240-","Cell Number","Ward","Minot","ND","North Dakota","58701","Central / Mountain","48.084625","-101.419006"
"(701) 260-","Cell Number","Stark","Dickinson","ND","North Dakota","58601","Central / Mountain","46.805716","-102.756514"
"(701) 846-","Landline","Dunn","Dodge","ND","North Dakota","58625","Central / Mountain","47.305726","-102.202834"
"(701) 332-","Landline","Emmons","Braddock","ND","North Dakota","58524","Central / Mountain","46.56035","-100.107546"
"(701) 568-","Landline","Williams","Tioga","ND","North Dakota","58852","Central / Mountain","48.364623","-102.957597"
"(701) 622-","Landline","Grant","Carson","ND","North Dakota","58529","Central / Mountain","46.300853","-101.673608"
"(701) 331-","Cell Number","Walsh","Park River","ND","North Dakota","58270","Central / Mountain","48.420411","-97.774812"
"(701) 674-","Landline","Foster","Carrington","ND","North Dakota","58421","Central / Mountain","47.457278","-98.893314"
"(701) 469-","Landline","Richland","Walcott","ND","North Dakota","58077","Central / Mountain","46.445916","-97.013693"
"(701) 480-","Cell Number","Bottineau","Bottineau","ND","North Dakota","58318","Central / Mountain","48.830347","-100.601174"
"(701) 342-","Unknown","Cass","Gardner","ND","North Dakota","58036","Central / Mountain","47.157949","-96.957752"
"(701) 788-","Landline","Traill","Mayville","ND","North Dakota","58257","Central / Mountain","47.487262","-97.345104"
"(701) 924-","Landline","Barnes","Oriska","ND","North Dakota","58063","Central / Mountain","46.964791","-97.789289"
"(701) 250-","Landline","Burleigh","Bismarck","ND","North Dakota","58507","Central / Mountain","46.980475","-100.520063"
"(701) 879-","Landline","Slope","Amidon","ND","North Dakota","58620","Central / Mountain","46.454966","-103.485325"
"(701) 321-","Cell Number","Emmons","Strasburg","ND","North Dakota","58573","Central / Mountain","46.080388","-100.223542"
"(701) 549-","Landline","Pembina","Walhalla","ND","North Dakota","58282","Central / Mountain","48.880795","-97.797358"
"(701) 874-","Landline","Cass","Hunter","ND","North Dakota","58048","Central / Mountain","46.981541","-97.150669"
"(701) 631-","Unknown","Grand Forks","Emerado","ND","North Dakota","58228","Central / Mountain","47.889676","-97.280993"
"(701) 668-","Landline","Cass","Erie","ND","North Dakota","58029","Central / Mountain","47.115505","-97.377138"
"(701) 243-","Landline","Bottineau","Souris","ND","North Dakota","58783","Central / Mountain","48.87384","-100.735863"
"(701) 866-","Cell Number","Cass","Fargo","ND","North Dakota","58108","Central / Mountain","46.934596","-97.229718"
"(701) 500-","Unknown","Ward","Minot","ND","North Dakota","58701","Central / Mountain","48.084625","-101.419006"
"(701) 996-","Landline","Eddy","Sheyenne","ND","North Dakota","58374","Central / Mountain","47.761272","-98.90997"
"(701) 898-","Cell Number","Mountrail","Parshall","ND","North Dakota","58770","Central / Mountain","47.946158","-102.103378"
"(701) 348-","Landline","Morton","Glen Ullin","ND","North Dakota","58631","Central / Mountain","46.813372","-101.822672"
"(701) 644-","Landline","Ramsey","Edmore","ND","North Dakota","58330","Central / Mountain","48.422614","-98.49963"
