"Prefix","Usage","County","City","ShortState","LongState","Zip","Timezone","Latitude","Longitude"
"(308) 368-","Landline","Lincoln","Hershey","NE","Nebraska","69143","Central / Mountain","40.98993","-100.96308"
"(308) 584-","Landline","Lincoln","Brady","NE","Nebraska","69123","Central / Mountain","41.049046","-100.391826"
"(402) 200-","Cell Number","Thayer","Hebron","NE","Nebraska","68370","Central","40.240562","-97.64485"
"(308) 850-","Cell Number","Hall","Grand Island","NE","Nebraska","68803","Central / Mountain","40.872531","-98.521343"
"(308) 889-","Landline","Deuel","Big Springs","NE","Nebraska","69122","Central / Mountain","41.111961","-102.261262"
"(402) 682-","Landline","Sarpy","Omaha","NE","Nebraska","68136","Central","41.169034","-96.172007"
"(402) 925-","Landline","Holt","Atkinson","NE","Nebraska","68713","Central","42.533852","-98.975603"
"(402) 824-","Landline","Nemaha","Nemaha","NE","Nebraska","68414","Central","40.339435","-95.676576"
"(402) 833-","Landline","Wayne","Wayne","NE","Nebraska","68787","Central","42.206417","-96.979049"
"(402) 797-","Landline","Lancaster","Denton","NE","Nebraska","68339","Central","40.719464","-96.850518"
"(308) 947-","Cell Number","Merrick","Central City","NE","Nebraska","68826","Central / Mountain","41.162876","-98.010548"
"(402) 621-","Cell Number","Nuckolls","Nelson","NE","Nebraska","68961","Central","40.20105","-98.068371"
"(402) 418-","Cell Number","Saline","Crete","NE","Nebraska","68333","Central","40.628937","-97.016925"
"(402) 226-","Landline","Nuckolls","Ruskin","NE","Nebraska","68974","Central","40.152394","-97.91468"
"(402) 881-","Unknown","Sarpy","Omaha","NE","Nebraska","68136","Central","41.169034","-96.172007"
"(402) 315-","Landline","Douglas","Omaha","NE","Nebraska","68136","Central","41.169034","-96.172007"
"(308) 455-","Landline","Buffalo","Kearney","NE","Nebraska","68849","Central / Mountain","40.849654","-99.074058"
"(402) 707-","Cell Number","Douglas","Omaha","NE","Nebraska","68136","Central","41.169034","-96.172007"
"(402) 924-","Landline","Holt","Stuart","NE","Nebraska","68780","Central","42.599715","-99.141514"
"(402) 457-","Landline","Douglas","Omaha","NE","Nebraska","68136","Central","41.169034","-96.172007"
"(402) 330-","Landline","Douglas","Omaha","NE","Nebraska","68136","Central","41.169034","-96.172007"
"(402) 202-","Cell Number","Lancaster","Lincoln","NE","Nebraska","68542","Central","40.784451","-96.688799"
"(402) 456-","Landline","Washington","Herman","NE","Nebraska","68029","Central","41.63256","-96.273735"
"(402) 594-","Landline","Douglas","Omaha","NE","Nebraska","68136","Central","41.169034","-96.172007"
"(402) 276-","Cell Number","Platte","Columbus","NE","Nebraska","68601","Central","41.542962","-97.376314"
"(402) 719-","Cell Number","Dodge","Fremont","NE","Nebraska","68025","Central","41.487786","-96.501672"
"(402) 625-","Landline","Saunders","Yutan","NE","Nebraska","68073","Central","41.211111","-96.453285"
"(402) 770-","Cell Number","Lancaster","Lincoln","NE","Nebraska","68542","Central","40.784451","-96.688799"
"(402) 967-","Landline","Cherry","Wood Lake","NE","Nebraska","69221","Central","42.542631","-101.126167"
"(402) 775-","Landline","Boyd","Butte","NE","Nebraska","68722","Central","42.911492","-98.847065"
"(402) 790-","Landline","Lancaster","Lincoln","NE","Nebraska","68542","Central","40.784451","-96.688799"
"(402) 219-","Landline","Lancaster","Lincoln","NE","Nebraska","68542","Central","40.784451","-96.688799"
"(308) 414-","Cell Number","Chase","Imperial","NE","Nebraska","69033","Central / Mountain","40.515114","-101.632038"
"(402) 889-","Unknown","Sarpy","Omaha","NE","Nebraska","68136","Central","41.169034","-96.172007"
"(402) 923-","Landline","Platte","Humphrey","NE","Nebraska","68642","Central","41.690226","-97.487407"
"(402) 671-","Cell Number","Douglas","Omaha","NE","Nebraska","68136","Central","41.169034","-96.172007"
"(402) 335-","Landline","Johnson","Tecumseh","NE","Nebraska","68450","Central","40.410949","-96.280341"
"(402) 612-","Cell Number","Douglas","Omaha","NE","Nebraska","68136","Central","41.169034","-96.172007"
"(308) 752-","Landline","Dawson","Sumner","NE","Nebraska","68878","Central / Mountain","40.959402","-99.539866"
"(308) 436-","Landline","Scotts Bluff","Gering","NE","Nebraska","69341","Central / Mountain","41.80602","-103.75796"
"(308) 890-","Cell Number","Deuel","Chappell","NE","Nebraska","69129","Central / Mountain","41.112122","-102.421494"
"(402) 866-","Landline","Johnson","Sterling","NE","Nebraska","68443","Central","40.463451","-96.378249"
"(308) 230-","Landline","Kimball","Kimball","NE","Nebraska","69145","Central / Mountain","41.206972","-103.769557"
"(402) 210-","Cell Number","Douglas","Omaha","NE","Nebraska","68136","Central","41.169034","-96.172007"
"(402) 593-","Landline","Douglas","Omaha","NE","Nebraska","68136","Central","41.169034","-96.172007"
"(402) 640-","Cell Number","Madison","Norfolk","NE","Nebraska","68701","Central","41.99641","-97.601189"
"(402) 668-","Landline","Knox","Verdigre","NE","Nebraska","68783","Central","42.624821","-98.129817"
"(402) 656-","Landline","Jefferson","Plymouth","NE","Nebraska","68424","Central","40.291721","-97.029005"
"(402) 647-","Landline","Saunders","Colon","NE","Nebraska","68018","Central","41.307157","-96.610014"
"(402) 586-","Landline","Knox","Wausa","NE","Nebraska","68786","Central","42.518247","-97.608966"
"(308) 799-","Landline","Harlan","Republican City","NE","Nebraska","68971","Central / Mountain","40.093106","-99.246197"
"(402) 786-","Landline","Lancaster","Waverly","NE","Nebraska","68462","Central","40.935601","-96.543431"
"(402) 661-","Landline","Douglas","Omaha","NE","Nebraska","68136","Central","41.169034","-96.172007"
"(402) 235-","Landline","Cass","Murray","NE","Nebraska","68409","Central","40.90767","-95.949383"
"(402) 840-","Cell Number","Lancaster","Lincoln","NE","Nebraska","68542","Central","40.784451","-96.688799"
"(402) 204-","Cell Number","York","York","NE","Nebraska","68467","Central","40.890132","-97.597278"
"(308) 226-","Landline","Howard","Dannebrog","NE","Nebraska","68831","Central / Mountain","41.16614","-98.546616"
"(402) 665-","Landline","Saunders","Ceresco","NE","Nebraska","68017","Central","41.096052","-96.638116"
"(402) 721-","Landline","Dodge","Fremont","NE","Nebraska","68025","Central","41.487786","-96.501672"
"(402) 487-","Landline","Colfax","Leigh","NE","Nebraska","68643","Central","41.647114","-97.184984"
"(402) 780-","Landline","Otoe","Palmyra","NE","Nebraska","68418","Central","40.705559","-96.397545"
"(402) 744-","Landline","Hall","Doniphan","NE","Nebraska","68832","Central","40.800367","-98.446665"
"(402) 679-","Cell Number","Douglas","Omaha","NE","Nebraska","68136","Central","41.169034","-96.172007"
"(308) 202-","Cell Number","Valley","Arcadia","NE","Nebraska","68815","Central / Mountain","41.52244","-99.038945"
"(402) 902-","Cell Number","Adams","Hastings","NE","Nebraska","68901","Central","40.582425","-98.389035"
"(402) 993-","Landline","Nance","Genoa","NE","Nebraska","68640","Central","41.445863","-97.732584"
"(308) 893-","Landline","Buffalo","Riverdale","NE","Nebraska","68870","Central / Mountain","40.829478","-99.126061"
"(308) 962-","Landline","Furnas","Arapahoe","NE","Nebraska","68922","Central / Mountain","40.294628","-99.842844"
"(402) 295-","Landline","Fillmore","Ohiowa","NE","Nebraska","68416","Central","40.454112","-97.421084"
"(308) 698-","Landline","Buffalo","Kearney","NE","Nebraska","68849","Central / Mountain","40.849654","-99.074058"
"(402) 544-","Landline","Douglas","Omaha","NE","Nebraska","68136","Central","41.169034","-96.172007"
"(402) 667-","Landline","Cedar","Saint Helena","NE","Nebraska","68774","Central","42.804591","-97.304691"
"(402) 364-","Landline","Thayer","Davenport","NE","Nebraska","68335","Central","40.312473","-97.811467"
"(308) 520-","Cell Number","Lincoln","North Platte","NE","Nebraska","69103","Central / Mountain","41.046447","-100.746912"
"(308) 667-","Landline","Dawes","Crawford","NE","Nebraska","69339","Central / Mountain","42.611517","-103.303223"
"(308) 582-","Landline","Lincoln","Maxwell","NE","Nebraska","69151","Central / Mountain","41.096752","-100.583269"
"(402) 230-","Landline","Gage","Beatrice","NE","Nebraska","68310","Central","40.313364","-96.693082"
"(402) 277-","Landline","Saunders","Wahoo","NE","Nebraska","68066","Central","41.197043","-96.669114"
"(402) 454-","Landline","Madison","Madison","NE","Nebraska","68748","Central","41.881046","-97.48448"
"(308) 217-","Landline","Dawson","Lexington","NE","Nebraska","68850","Central / Mountain","40.873227","-99.718408"
"(402) 425-","Landline","Cherry","Crookston","NE","Nebraska","69212","Central","42.542631","-101.126167"
"(402) 491-","Landline","Douglas","Omaha","NE","Nebraska","68136","Central","41.169034","-96.172007"
"(402) 884-","Landline","Douglas","Omaha","NE","Nebraska","68136","Central","41.169034","-96.172007"
"(402) 713-","Cell Number","Otoe","Nebraska City","NE","Nebraska","68410","Central","40.707742","-95.907718"
"(308) 263-","Landline","Phelps","Funk","NE","Nebraska","68940","Central / Mountain","40.464046","-99.251676"
"(308) 695-","Cell Number","Red Willow","Mc Cook","NE","Nebraska","69001","Central / Mountain","40.207969","-100.620628"
"(308) 987-","Landline","Dawson","Overton","NE","Nebraska","68863","Central / Mountain","40.801246","-99.521933"
"(308) 286-","Landline","Hayes","Hayes Center","NE","Nebraska","69032","Central / Mountain","40.524819","-101.061328"
"(402) 520-","Cell Number","Gage","Beatrice","NE","Nebraska","68310","Central","40.313364","-96.693082"
"(402) 938-","Landline","Douglas","Omaha","NE","Nebraska","68136","Central","41.169034","-96.172007"
"(402) 596-","Landline","Douglas","Omaha","NE","Nebraska","68136","Central","41.169034","-96.172007"
"(402) 951-","Landline","Douglas","Omaha","NE","Nebraska","68136","Central","41.169034","-96.172007"
"(402) 549-","Landline","Butler","Ulysses","NE","Nebraska","68669","Central","41.09176","-97.224683"
"(402) 356-","Landline","Thayer","Carleton","NE","Nebraska","68326","Central","40.303471","-97.67615"
"(402) 476-","Landline","Lancaster","Lincoln","NE","Nebraska","68542","Central","40.784451","-96.688799"
"(402) 548-","Landline","Douglas","Omaha","NE","Nebraska","68136","Central","41.169034","-96.172007"
"(402) 266-","Landline","Fillmore","Exeter","NE","Nebraska","68351","Central","40.653635","-97.430884"
"(402) 960-","Cell Number","Douglas","Omaha","NE","Nebraska","68136","Central","41.169034","-96.172007"
"(402) 760-","Cell Number","Brown","Long Pine","NE","Nebraska","69217","Central","42.533987","-99.702813"
"(402) 289-","Landline","Douglas","Elkhorn","NE","Nebraska","68022","Central","41.288631","-96.238818"
"(402) 787-","Landline","Lancaster","Hallam","NE","Nebraska","68368","Central","40.573856","-96.79982"
"(402) 899-","Cell Number","Douglas","Omaha","NE","Nebraska","68136","Central","41.169034","-96.172007"
"(402) 247-","Landline","Thayer","Reynolds","NE","Nebraska","68429","Central","40.059775","-97.380646"
"(308) 468-","Landline","Buffalo","Gibbon","NE","Nebraska","68840","Central / Mountain","40.770884","-98.882818"
"(402) 624-","Landline","Saunders","Mead","NE","Nebraska","68041","Central","41.19999","-96.640076"
"(402) 735-","Landline","York","Gresham","NE","Nebraska","68367","Central","41.010433","-97.425506"
"(308) 994-","Landline","Phelps","Holdrege","NE","Nebraska","68949","Central / Mountain","40.429207","-99.325955"
"(402) 832-","Landline","Boyd","Naper","NE","Nebraska","68755","Central","42.879903","-98.781334"
"(308) 675-","Unknown","Hall","Grand Island","NE","Nebraska","68803","Central / Mountain","40.872531","-98.521343"
"(402) 919-","Unknown","Dodge","Fremont","NE","Nebraska","68025","Central","41.487786","-96.501672"
"(402) 749-","Landline","Thayer","Alexandria","NE","Nebraska","68303","Central","40.244068","-97.386612"
"(402) 419-","Landline","Lancaster","Lincoln","NE","Nebraska","68542","Central","40.784451","-96.688799"
"(308) 284-","Landline","Keith","Ogallala","NE","Nebraska","69153","Central / Mountain","41.131676","-101.663033"
"(308) 285-","Landline","Hitchcock","Palisade","NE","Nebraska","69040","Central / Mountain","40.267333","-101.065001"
"(402) 250-","Cell Number","Douglas","Omaha","NE","Nebraska","68136","Central","41.169034","-96.172007"
"(308) 946-","Landline","Merrick","Central City","NE","Nebraska","68826","Central / Mountain","41.162876","-98.010548"
"(402) 932-","Landline","Douglas","Omaha","NE","Nebraska","68136","Central","41.169034","-96.172007"
"(402) 841-","Cell Number","Madison","Norfolk","NE","Nebraska","68701","Central","41.99641","-97.601189"
"(402) 831-","Cell Number","Adams","Hastings","NE","Nebraska","68901","Central","40.582425","-98.389035"
"(402) 876-","Landline","Johnson","Crab Orchard","NE","Nebraska","68332","Central","40.392595","-96.26478"
"(402) 568-","Landline","Dodge","Dodge","NE","Nebraska","68633","Central","41.593378","-96.675369"
"(402) 620-","Landline","Dodge","Fremont","NE","Nebraska","68025","Central","41.487786","-96.501672"
"(308) 708-","Cell Number","Buffalo","Kearney","NE","Nebraska","68849","Central / Mountain","40.849654","-99.074058"
"(402) 559-","Landline","Douglas","Omaha","NE","Nebraska","68136","Central","41.169034","-96.172007"
"(402) 449-","Landline","Douglas","Omaha","NE","Nebraska","68136","Central","41.169034","-96.172007"
"(402) 748-","Landline","Pierce","Osmond","NE","Nebraska","68765","Central","42.360661","-97.598511"
"(402) 231-","Landline","Douglas","Omaha","NE","Nebraska","68136","Central","41.169034","-96.172007"
"(308) 862-","Landline","Sheridan","Rushville","NE","Nebraska","69360","Central / Mountain","42.71634","-102.46359"
"(308) 237-","Landline","Buffalo","Kearney","NE","Nebraska","68849","Central / Mountain","40.849654","-99.074058"
"(308) 385-","Landline","Hall","Grand Island","NE","Nebraska","68803","Central / Mountain","40.872531","-98.521343"
"(402) 541-","Landline","Douglas","Omaha","NE","Nebraska","68136","Central","41.169034","-96.172007"
"(402) 501-","Landline","Douglas","Omaha","NE","Nebraska","68136","Central","41.169034","-96.172007"
"(308) 275-","Unknown","Scotts Bluff","Gering","NE","Nebraska","69341","Central / Mountain","41.80602","-103.75796"
"(402) 550-","Landline","Douglas","Omaha","NE","Nebraska","68136","Central","41.169034","-96.172007"
"(402) 390-","Landline","Douglas","Omaha","NE","Nebraska","68136","Central","41.169034","-96.172007"
"(402) 579-","Cell Number","Douglas","Omaha","NE","Nebraska","68136","Central","41.169034","-96.172007"
"(402) 397-","Landline","Douglas","Omaha","NE","Nebraska","68136","Central","41.169034","-96.172007"
"(402) 574-","Landline","Douglas","Omaha","NE","Nebraska","68136","Central","41.169034","-96.172007"
"(308) 337-","Landline","Phelps","Holdrege","NE","Nebraska","68949","Central / Mountain","40.429207","-99.325955"
"(308) 652-","Landline","Harlan","Alma","NE","Nebraska","68920","Central / Mountain","40.101761","-99.352846"
"(402) 623-","Landline","Saunders","Ithaca","NE","Nebraska","68033","Central","41.147084","-96.523011"
"(308) 874-","Landline","Deuel","Chappell","NE","Nebraska","69129","Central / Mountain","41.112122","-102.421494"
"(402) 851-","Landline","Madison","Norfolk","NE","Nebraska","68701","Central","41.99641","-97.601189"
"(402) 909-","Unknown","Dodge","Fremont","NE","Nebraska","68025","Central","41.487786","-96.501672"
"(402) 436-","Landline","Lancaster","Lincoln","NE","Nebraska","68542","Central","40.784451","-96.688799"
"(308) 262-","Landline","Morrill","Bridgeport","NE","Nebraska","69336","Central / Mountain","41.667733","-103.102335"
"(308) 216-","Cell Number","Buffalo","Shelton","NE","Nebraska","68876","Central / Mountain","40.812713","-98.788349"
"(402) 582-","Landline","Pierce","Plainview","NE","Nebraska","68769","Central","42.35378","-97.788065"
"(308) 773-","Landline","Merrick","Silver Creek","NE","Nebraska","68663","Central / Mountain","41.303844","-97.723453"
"(402) 988-","Landline","Gage","Adams","NE","Nebraska","68301","Central","40.45603","-96.513526"
"(402) 863-","Landline","Thurston","Rosalie","NE","Nebraska","68055","Central","42.056416","-96.513859"
"(402) 577-","Landline","Douglas","Omaha","NE","Nebraska","68136","Central","41.169034","-96.172007"
"(308) 746-","Cell Number","Dawson","Lexington","NE","Nebraska","68850","Central / Mountain","40.873227","-99.718408"
"(402) 284-","Landline","Clay","Ong","NE","Nebraska","68452","Central","40.524526","-98.051184"
"(402) 637-","Landline","Douglas","Omaha","NE","Nebraska","68136","Central","41.169034","-96.172007"
"(402) 496-","Landline","Douglas","Omaha","NE","Nebraska","68136","Central","41.169034","-96.172007"
"(402) 672-","Cell Number","Douglas","Omaha","NE","Nebraska","68136","Central","41.169034","-96.172007"
"(308) 673-","Landline","Kimball","Bushnell","NE","Nebraska","69128","Central / Mountain","41.232626","-103.891757"
"(402) 844-","Landline","Madison","Norfolk","NE","Nebraska","68701","Central","41.99641","-97.601189"
"(402) 433-","Landline","Saline","Western","NE","Nebraska","68464","Central","40.403717","-97.265045"
"(402) 848-","Landline","Otoe","Burr","NE","Nebraska","68324","Central","40.536353","-96.299662"
"(308) 428-","Landline","Greeley","Greeley","NE","Nebraska","68842","Central / Mountain","41.563806","-98.530685"
"(402) 982-","Unknown","Sarpy","Omaha","NE","Nebraska","68136","Central","41.169034","-96.172007"
"(402) 313-","Landline","Cuming","West Point","NE","Nebraska","68788","Central","41.870968","-96.777787"
"(402) 726-","Landline","Clay","Fairfield","NE","Nebraska","68938","Central","40.395335","-98.053432"
"(402) 587-","Cell Number","Jefferson","Fairbury","NE","Nebraska","68352","Central","40.175641","-97.171023"
"(402) 888-","Landline","Douglas","Omaha","NE","Nebraska","68136","Central","41.169034","-96.172007"
"(402) 966-","Landline","Cherry","Kilgore","NE","Nebraska","69216","Central","42.542631","-101.126167"
"(308) 220-","Landline","Scotts Bluff","Scottsbluff","NE","Nebraska","69361","Central / Mountain","41.872005","-103.77023"
"(402) 683-","Landline","Saline","De Witt","NE","Nebraska","68341","Central","40.374875","-96.960827"
"(402) 474-","Landline","Lancaster","Lincoln","NE","Nebraska","68542","Central","40.784451","-96.688799"
"(402) 741-","Cell Number","Boone","Albion","NE","Nebraska","68620","Central","41.648736","-98.011092"
"(402) 557-","Landline","Douglas","Omaha","NE","Nebraska","68136","Central","41.169034","-96.172007"
"(308) 269-","Landline","Franklin","Naponee","NE","Nebraska","68960","Central / Mountain","40.074785","-99.137325"
"(402) 360-","Cell Number","Cedar","Randolph","NE","Nebraska","68771","Central","42.438743","-97.319835"
"(308) 927-","Landline","Furnas","Edison","NE","Nebraska","68936","Central / Mountain","40.277359","-99.776089"
"(308) 876-","Landline","Phelps","Loomis","NE","Nebraska","68958","Central / Mountain","40.477867","-99.508075"
"(402) 964-","Landline","Douglas","Omaha","NE","Nebraska","68136","Central","41.169034","-96.172007"
"(308) 280-","Cell Number","Keith","Ogallala","NE","Nebraska","69153","Central / Mountain","41.131676","-101.663033"
"(308) 872-","Landline","Custer","Broken Bow","NE","Nebraska","68822","Central / Mountain","41.451119","-99.621491"
"(402) 348-","Landline","Douglas","Omaha","NE","Nebraska","68136","Central","41.169034","-96.172007"
"(308) 234-","Landline","Buffalo","Kearney","NE","Nebraska","68849","Central / Mountain","40.849654","-99.074058"
"(402) 283-","Landline","Cedar","Coleridge","NE","Nebraska","68727","Central","42.530505","-97.260393"
"(402) 989-","Landline","Gage","Clatonia","NE","Nebraska","68328","Central","40.466038","-96.850863"
"(308) 425-","Landline","Franklin","Franklin","NE","Nebraska","68939","Central / Mountain","40.096305","-98.995406"
"(308) 236-","Landline","Buffalo","Kearney","NE","Nebraska","68849","Central / Mountain","40.849654","-99.074058"
"(402) 756-","Landline","Webster","Blue Hill","NE","Nebraska","68930","Central","40.316739","-98.450468"
"(402) 864-","Landline","Johnson","Cook","NE","Nebraska","68329","Central","40.510888","-96.161196"
"(402) 842-","Landline","Antelope","Brunswick","NE","Nebraska","68720","Central","42.176397","-98.066911"
"(402) 965-","Landline","Douglas","Omaha","NE","Nebraska","68136","Central","41.169034","-96.172007"
"(402) 589-","Landline","Boyd","Spencer","NE","Nebraska","68777","Central","42.872702","-98.701552"
"(402) 232-","Landline","Sarpy","Omaha","NE","Nebraska","68136","Central","41.169034","-96.172007"
"(402) 538-","Landline","Butler","Bellwood","NE","Nebraska","68624","Central","41.342556","-97.214802"
"(308) 986-","Landline","Merrick","Chapman","NE","Nebraska","68827","Central / Mountain","41.046263","-98.188441"
"(402) 333-","Landline","Douglas","Omaha","NE","Nebraska","68136","Central","41.169034","-96.172007"
"(402) 324-","Landline","Thayer","Chester","NE","Nebraska","68327","Central","40.00937","-97.617985"
"(402) 343-","Landline","Douglas","Omaha","NE","Nebraska","68136","Central","41.169034","-96.172007"
"(308) 831-","Landline","Kearney","Minden","NE","Nebraska","68959","Central / Mountain","40.502515","-98.907731"
"(308) 765-","Cell Number","Scotts Bluff","Scottsbluff","NE","Nebraska","69361","Central / Mountain","41.872005","-103.77023"
"(402) 298-","Landline","Cass","Plattsmouth","NE","Nebraska","68048","Central","40.971961","-96.001244"
"(402) 828-","Landline","Otoe","Unadilla","NE","Nebraska","68454","Central","40.684941","-96.270409"
"(402) 326-","Cell Number","Lancaster","Lincoln","NE","Nebraska","68542","Central","40.784451","-96.688799"
"(402) 604-","Cell Number","Hamilton","Aurora","NE","Nebraska","68818","Central","40.850832","-98.054272"
"(402) 627-","Landline","Fillmore","Shickley","NE","Nebraska","68436","Central","40.416166","-97.722218"
"(402) 610-","Cell Number","Lancaster","Lincoln","NE","Nebraska","68542","Central","40.784451","-96.688799"
"(308) 231-","Landline","Buffalo","Kearney","NE","Nebraska","68849","Central / Mountain","40.849654","-99.074058"
"(308) 650-","Cell Number","Lincoln","North Platte","NE","Nebraska","69103","Central / Mountain","41.046447","-100.746912"
"(402) 644-","Landline","Madison","Norfolk","NE","Nebraska","68701","Central","41.99641","-97.601189"
"(308) 764-","Landline","Arthur","Arthur","NE","Nebraska","69121","Central / Mountain","41.554073","-101.714495"
"(402) 316-","Cell Number","Madison","Norfolk","NE","Nebraska","68701","Central","41.99641","-97.601189"
"(402) 292-","Landline","Sarpy","Omaha","NE","Nebraska","68136","Central","41.169034","-96.172007"
"(402) 254-","Landline","Cedar","Hartington","NE","Nebraska","68739","Central","42.591685","-97.250509"
"(308) 880-","Cell Number","Custer","Merna","NE","Nebraska","68856","Central / Mountain","41.484951","-99.760782"
"(402) 361-","Landline","Douglas","Omaha","NE","Nebraska","68136","Central","41.169034","-96.172007"
"(402) 709-","Cell Number","Douglas","Omaha","NE","Nebraska","68136","Central","41.169034","-96.172007"
"(308) 201-","Cell Number","Wheeler","Ericson","NE","Nebraska","68637","Central / Mountain","41.779992","-98.679988"
"(402) 494-","Landline","Dakota","South Sioux City","NE","Nebraska","68776","Central","42.459711","-96.457068"
"(402) 869-","Landline","Pawnee","Steinauer","NE","Nebraska","68441","Central","40.207313","-96.231879"
"(402) 767-","Cell Number","Webster","Red Cloud","NE","Nebraska","68970","Central","40.201919","-98.500021"
"(402) 314-","Cell Number","Lancaster","Lincoln","NE","Nebraska","68542","Central","40.784451","-96.688799"
"(308) 563-","Landline","Kearney","Heartwell","NE","Nebraska","68945","Central / Mountain","40.55428","-98.790623"
"(308) 445-","Landline","Deuel","Big Springs","NE","Nebraska","69122","Central / Mountain","41.111961","-102.261262"
"(402) 871-","Cell Number","Douglas","Omaha","NE","Nebraska","68136","Central","41.169034","-96.172007"
"(308) 249-","Cell Number","Cheyenne","Sidney","NE","Nebraska","69162","Central / Mountain","41.161943","-103.066015"
"(308) 870-","Cell Number","Custer","Broken Bow","NE","Nebraska","68822","Central / Mountain","41.451119","-99.621491"
"(402) 947-","Landline","Saline","Friend","NE","Nebraska","68359","Central","40.526915","-97.111028"
"(308) 375-","Landline","Red Willow","Lebanon","NE","Nebraska","69036","Central / Mountain","40.176507","-100.476977"
"(308) 432-","Landline","Dawes","Chadron","NE","Nebraska","69337","Central / Mountain","42.774479","-103.138479"
"(402) 752-","Landline","Adams","Kenesaw","NE","Nebraska","68956","Central","40.611581","-98.610696"
"(308) 439-","Unknown","Scotts Bluff","Minatare","NE","Nebraska","69356","Central / Mountain","41.861192","-103.643939"
"(308) 367-","Landline","Frontier","Maywood","NE","Nebraska","69038","Central / Mountain","40.524809","-100.38203"
"(402) 674-","Landline","Gage","Liberty","NE","Nebraska","68381","Central","40.262266","-96.689998"
"(402) 367-","Landline","Butler","David City","NE","Nebraska","68632","Central","41.220715","-97.157229"
"(402) 774-","Landline","Boyd","Naper","NE","Nebraska","68755","Central","42.879903","-98.781334"
"(402) 228-","Landline","Gage","Beatrice","NE","Nebraska","68310","Central","40.313364","-96.693082"
"(402) 717-","Landline","Douglas","Omaha","NE","Nebraska","68136","Central","41.169034","-96.172007"
"(308) 493-","Landline","Furnas","Holbrook","NE","Nebraska","68948","Central / Mountain","40.304641","-99.959503"
"(402) 727-","Landline","Dodge","Fremont","NE","Nebraska","68025","Central","41.487786","-96.501672"
"(308) 832-","Landline","Kearney","Minden","NE","Nebraska","68959","Central / Mountain","40.502515","-98.907731"
"(308) 639-","Landline","Thomas","Seneca","NE","Nebraska","69161","Central / Mountain","41.913806","-100.555805"
"(402) 808-","Landline","Burt","Tekamah","NE","Nebraska","68061","Central","41.808435","-96.25543"
"(402) 738-","Landline","Douglas","Omaha","NE","Nebraska","68136","Central","41.169034","-96.172007"
"(402) 768-","Landline","Thayer","Hebron","NE","Nebraska","68370","Central","40.240562","-97.64485"
"(402) 320-","Cell Number","Douglas","Omaha","NE","Nebraska","68136","Central","41.169034","-96.172007"
"(308) 653-","Landline","Wheeler","Ericson","NE","Nebraska","68637","Central / Mountain","41.779992","-98.679988"
"(402) 258-","Landline","Douglas","Omaha","NE","Nebraska","68136","Central","41.169034","-96.172007"
"(402) 338-","Landline","Holt","Page","NE","Nebraska","68766","Central","42.492295","-98.778556"
"(402) 632-","Landline","Dakota","Jackson","NE","Nebraska","68743","Central","42.452053","-96.631738"
"(308) 386-","Landline","Lincoln","Sutherland","NE","Nebraska","69165","Central / Mountain","41.1597","-101.136616"
"(308) 575-","Unknown","Scotts Bluff","Scottsbluff","NE","Nebraska","69361","Central / Mountain","41.872005","-103.77023"
"(402) 572-","Landline","Douglas","Omaha","NE","Nebraska","68136","Central","41.169034","-96.172007"
"(308) 682-","Landline","Kimball","Dix","NE","Nebraska","69133","Central / Mountain","41.19801","-103.714501"
"(402) 370-","Landline","Madison","Norfolk","NE","Nebraska","68701","Central","41.99641","-97.601189"
"(402) 622-","Landline","Madison","Norfolk","NE","Nebraska","68701","Central","41.99641","-97.601189"
"(402) 688-","Landline","Gage","Virginia","NE","Nebraska","68458","Central","40.262266","-96.689998"
"(402) 321-","Cell Number","Douglas","Omaha","NE","Nebraska","68136","Central","41.169034","-96.172007"
"(402) 212-","Cell Number","Douglas","Omaha","NE","Nebraska","68136","Central","41.169034","-96.172007"
"(402) 972-","Landline","Douglas","Valley","NE","Nebraska","68064","Central","41.342714","-96.344273"
"(402) 650-","Cell Number","Douglas","Omaha","NE","Nebraska","68136","Central","41.169034","-96.172007"
"(402) 414-","Cell Number","Nemaha","Auburn","NE","Nebraska","68305","Central","40.428801","-95.843077"
"(402) 595-","Landline","Douglas","Omaha","NE","Nebraska","68136","Central","41.169034","-96.172007"
"(402) 445-","Landline","Douglas","Omaha","NE","Nebraska","68136","Central","41.169034","-96.172007"
"(402) 635-","Landline","Dixon","Allen","NE","Nebraska","68710","Central","42.445278","-96.884378"
"(402) 761-","Landline","Seward","Milford","NE","Nebraska","68405","Central","40.77786","-97.082489"
"(402) 455-","Landline","Douglas","Omaha","NE","Nebraska","68136","Central","41.169034","-96.172007"
"(402) 341-","Landline","Douglas","Omaha","NE","Nebraska","68136","Central","41.169034","-96.172007"
"(308) 569-","Landline","Dawson","Farnam","NE","Nebraska","69029","Central / Mountain","40.740544","-100.173314"
"(308) 239-","Landline","Keith","Paxton","NE","Nebraska","69155","Central / Mountain","41.199097","-101.423214"
"(402) 240-","Unknown","Sarpy","Omaha","NE","Nebraska","68136","Central","41.169034","-96.172007"
"(402) 363-","Landline","York","York","NE","Nebraska","68467","Central","40.890132","-97.597278"
"(308) 767-","Unknown","Custer","Broken Bow","NE","Nebraska","68822","Central / Mountain","41.451119","-99.621491"
"(402) 957-","Landline","Douglas","Omaha","NE","Nebraska","68136","Central","41.169034","-96.172007"
"(402) 429-","Cell Number","Lancaster","Lincoln","NE","Nebraska","68542","Central","40.784451","-96.688799"
"(402) 318-","Unknown","Lancaster","Lincoln","NE","Nebraska","68542","Central","40.784451","-96.688799"
"(402) 221-","Landline","Douglas","Omaha","NE","Nebraska","68136","Central","41.169034","-96.172007"
"(402) 658-","Cell Number","Douglas","Omaha","NE","Nebraska","68136","Central","41.169034","-96.172007"
"(402) 588-","Landline","Seward","Garland","NE","Nebraska","68360","Central","40.966358","-96.96783"
"(402) 518-","Cell Number","Wayne","Wayne","NE","Nebraska","68787","Central","42.206417","-96.979049"
"(402) 234-","Landline","Cass","Louisville","NE","Nebraska","68037","Central","40.979898","-96.084122"
"(402) 256-","Landline","Cedar","Laurel","NE","Nebraska","68745","Central","42.475072","-97.142457"
"(402) 619-","Cell Number","Douglas","Omaha","NE","Nebraska","68136","Central","41.169034","-96.172007"
"(308) 537-","Landline","Dawson","Gothenburg","NE","Nebraska","69138","Central / Mountain","40.945256","-100.129125"
"(402) 782-","Landline","Lancaster","Bennet","NE","Nebraska","68317","Central","40.664491","-96.518083"
"(308) 452-","Landline","Buffalo","Ravenna","NE","Nebraska","68869","Central / Mountain","40.960075","-98.902302"
"(308) 633-","Landline","Scotts Bluff","Scottsbluff","NE","Nebraska","69361","Central / Mountain","41.872005","-103.77023"
"(402) 516-","Landline","Douglas","Omaha","NE","Nebraska","68136","Central","41.169034","-96.172007"
"(402) 415-","Cell Number","Douglas","Omaha","NE","Nebraska","68136","Central","41.169034","-96.172007"
"(402) 388-","Landline","Knox","Crofton","NE","Nebraska","68730","Central","42.758387","-97.603391"
"(402) 715-","Landline","Douglas","Omaha","NE","Nebraska","68136","Central","41.169034","-96.172007"
"(402) 718-","Cell Number","Douglas","Omaha","NE","Nebraska","68136","Central","41.169034","-96.172007"
"(402) 977-","Landline","Douglas","Omaha","NE","Nebraska","68136","Central","41.169034","-96.172007"
"(402) 450-","Cell Number","Lancaster","Lincoln","NE","Nebraska","68542","Central","40.784451","-96.688799"
"(402) 481-","Landline","Lancaster","Lincoln","NE","Nebraska","68542","Central","40.784451","-96.688799"
"(402) 961-","Unknown","Holt","Oneill","NE","Nebraska","68763","Central","42.370456","-98.665685"
"(402) 469-","Cell Number","Adams","Hastings","NE","Nebraska","68901","Central","40.582425","-98.389035"
"(402) 382-","Landline","Brown","Ainsworth","NE","Nebraska","69210","Central","42.542734","-99.852364"
"(402) 375-","Landline","Wayne","Wayne","NE","Nebraska","68787","Central","42.206417","-96.979049"
"(402) 479-","Landline","Lancaster","Lincoln","NE","Nebraska","68542","Central","40.784451","-96.688799"
"(402) 737-","Landline","Clay","Saronville","NE","Nebraska","68975","Central","40.602128","-97.938811"
"(402) 996-","Landline","Douglas","Omaha","NE","Nebraska","68136","Central","41.169034","-96.172007"
"(402) 956-","Cell Number","Douglas","Omaha","NE","Nebraska","68136","Central","41.169034","-96.172007"
"(402) 608-","Cell Number","Boone","Albion","NE","Nebraska","68620","Central","41.648736","-98.011092"
"(402) 421-","Landline","Lancaster","Lincoln","NE","Nebraska","68542","Central","40.784451","-96.688799"
"(402) 676-","Cell Number","Douglas","Omaha","NE","Nebraska","68136","Central","41.169034","-96.172007"
"(402) 766-","Landline","Gage","Odell","NE","Nebraska","68415","Central","40.050592","-96.801542"
"(308) 523-","Cell Number","Dawes","Chadron","NE","Nebraska","69337","Central / Mountain","42.774479","-103.138479"
"(308) 629-","Unknown","Box Butte","Alliance","NE","Nebraska","69301","Central / Mountain","42.219844","-103.073327"
"(308) 446-","Landline","Sherman","Litchfield","NE","Nebraska","68852","Central / Mountain","41.156948","-99.153012"
"(402) 793-","Landline","Jefferson","Diller","NE","Nebraska","68342","Central","40.109484","-97.125705"
"(402) 591-","Landline","Douglas","Omaha","NE","Nebraska","68136","Central","41.169034","-96.172007"
"(402) 340-","Cell Number","Holt","Oneill","NE","Nebraska","68763","Central","42.370456","-98.665685"
"(402) 921-","Unknown","Johnson","Tecumseh","NE","Nebraska","68450","Central","40.410949","-96.280341"
"(308) 464-","Cell Number","Keith","Ogallala","NE","Nebraska","69153","Central / Mountain","41.131676","-101.663033"
"(402) 914-","Cell Number","Pawnee","Burchard","NE","Nebraska","68323","Central","40.146335","-96.348151"
"(308) 635-","Landline","Scotts Bluff","Scottsbluff","NE","Nebraska","69361","Central / Mountain","41.872005","-103.77023"
"(308) 532-","Landline","Lincoln","North Platte","NE","Nebraska","69103","Central / Mountain","41.046447","-100.746912"
"(402) 484-","Landline","Lancaster","Lincoln","NE","Nebraska","68542","Central","40.784451","-96.688799"
"(402) 509-","Unknown","Sarpy","Omaha","NE","Nebraska","68136","Central","41.169034","-96.172007"
"(402) 942-","Landline","Platte","Columbus","NE","Nebraska","68601","Central","41.542962","-97.376314"
"(402) 279-","Landline","Nuckolls","Hardy","NE","Nebraska","68943","Central","40.074907","-97.900651"
"(402) 551-","Landline","Douglas","Omaha","NE","Nebraska","68136","Central","41.169034","-96.172007"
"(402) 208-","Cell Number","Douglas","Omaha","NE","Nebraska","68136","Central","41.169034","-96.172007"
"(402) 934-","Landline","Douglas","Omaha","NE","Nebraska","68136","Central","41.169034","-96.172007"
"(402) 928-","Cell Number","Madison","Tilden","NE","Nebraska","68781","Central","42.042732","-97.829855"
"(402) 859-","Landline","Pawnee","Du Bois","NE","Nebraska","68345","Central","40.037725","-96.069797"
"(308) 655-","Cell Number","Furnas","Arapahoe","NE","Nebraska","68922","Central / Mountain","40.294628","-99.842844"
"(402) 618-","Cell Number","Douglas","Omaha","NE","Nebraska","68136","Central","41.169034","-96.172007"
"(402) 567-","Landline","Dodge","Hooper","NE","Nebraska","68031","Central","41.621961","-96.549316"
"(308) 995-","Landline","Phelps","Holdrege","NE","Nebraska","68949","Central / Mountain","40.429207","-99.325955"
"(402) 310-","Cell Number","Lancaster","Lincoln","NE","Nebraska","68542","Central","40.784451","-96.688799"
"(308) 381-","Landline","Hall","Grand Island","NE","Nebraska","68803","Central / Mountain","40.872531","-98.521343"
"(402) 937-","Unknown","Lancaster","Lincoln","NE","Nebraska","68542","Central","40.784451","-96.688799"
"(402) 816-","Unknown","Dodge","Fremont","NE","Nebraska","68025","Central","41.487786","-96.501672"
"(308) 865-","Landline","Buffalo","Kearney","NE","Nebraska","68849","Central / Mountain","40.849654","-99.074058"
"(402) 462-","Landline","Adams","Hastings","NE","Nebraska","68901","Central","40.582425","-98.389035"
"(308) 472-","Landline","Phelps","Bertrand","NE","Nebraska","68927","Central / Mountain","40.525235","-99.634275"
"(402) 813-","Cell Number","Douglas","Omaha","NE","Nebraska","68136","Central","41.169034","-96.172007"
"(308) 377-","Landline","Cheyenne","Dalton","NE","Nebraska","69131","Central / Mountain","41.380172","-103.031435"
"(308) 240-","Cell Number","Buffalo","Kearney","NE","Nebraska","68849","Central / Mountain","40.849654","-99.074058"
"(402) 355-","Landline","Dixon","Newcastle","NE","Nebraska","68757","Central","42.494685","-96.861558"
"(402) 465-","Landline","Lancaster","Lincoln","NE","Nebraska","68542","Central","40.784451","-96.688799"
"(402) 597-","Landline","Douglas","Omaha","NE","Nebraska","68136","Central","41.169034","-96.172007"
"(308) 478-","Landline","Kearney","Wilcox","NE","Nebraska","68982","Central / Mountain","40.378795","-99.152181"
"(402) 523-","Landline","Seward","Utica","NE","Nebraska","68456","Central","40.938023","-97.292178"
"(308) 489-","Landline","Morrill","Broadwater","NE","Nebraska","69125","Central / Mountain","41.598622","-102.852752"
"(308) 394-","Landline","Chase","Wauneta","NE","Nebraska","69045","Central / Mountain","40.416806","-101.370507"
"(402) 584-","Landline","Dixon","Dixon","NE","Nebraska","68732","Central","42.480297","-96.967598"
"(402) 443-","Landline","Saunders","Wahoo","NE","Nebraska","68066","Central","41.197043","-96.669114"
"(308) 534-","Landline","Lincoln","North Platte","NE","Nebraska","69103","Central / Mountain","41.046447","-100.746912"
"(402) 763-","Landline","Douglas","Omaha","NE","Nebraska","68136","Central","41.169034","-96.172007"
"(402) 222-","Landline","Douglas","Omaha","NE","Nebraska","68136","Central","41.169034","-96.172007"
"(308) 654-","Landline","Wheeler","Bartlett","NE","Nebraska","68622","Central / Mountain","41.914601","-98.528373"
"(402) 475-","Landline","Lancaster","Lincoln","NE","Nebraska","68542","Central","40.784451","-96.688799"
"(402) 633-","Landline","Douglas","Omaha","NE","Nebraska","68136","Central","41.169034","-96.172007"
"(402) 920-","Cell Number","Platte","Humphrey","NE","Nebraska","68642","Central","41.690226","-97.487407"
"(308) 358-","Landline","Boone","Cedar Rapids","NE","Nebraska","68627","Central / Mountain","41.558087","-98.150139"
"(402) 724-","Landline","York","Mc Cool Junction","NE","Nebraska","68401","Central","40.734852","-97.568381"
"(402) 505-","Landline","Douglas","Omaha","NE","Nebraska","68136","Central","41.169034","-96.172007"
"(402) 273-","Landline","Brown","Long Pine","NE","Nebraska","69217","Central","42.533987","-99.702813"
"(402) 997-","Landline","Douglas","Omaha","NE","Nebraska","68136","Central","41.169034","-96.172007"
"(402) 732-","Landline","York","Benedict","NE","Nebraska","68316","Central","41.003042","-97.610404"
"(402) 629-","Landline","Fillmore","Milligan","NE","Nebraska","68406","Central","40.501806","-97.385947"
"(402) 562-","Landline","Platte","Columbus","NE","Nebraska","68601","Central","41.542962","-97.376314"
"(308) 221-","Landline","Lincoln","North Platte","NE","Nebraska","69103","Central / Mountain","41.046447","-100.746912"
"(402) 427-","Landline","Washington","Kennard","NE","Nebraska","68034","Central","41.45256","-96.190348"
"(402) 870-","Cell Number","Burt","Tekamah","NE","Nebraska","68061","Central","41.808435","-96.25543"
"(308) 963-","Landline","Lincoln","Wellfleet","NE","Nebraska","69170","Central / Mountain","40.762172","-100.760429"
"(308) 684-","Landline","Cherry","Merriman","NE","Nebraska","69218","Central / Mountain","42.542631","-101.126167"
"(402) 241-","Landline","Dakota","South Sioux City","NE","Nebraska","68776","Central","42.459711","-96.457068"
"(402) 846-","Landline","Thurston","Walthill","NE","Nebraska","68067","Central","42.14967","-96.493734"
"(308) 313-","Unknown","Box Butte","Alliance","NE","Nebraska","69301","Central / Mountain","42.219844","-103.073327"
"(402) 246-","Landline","Platte","Platte Center","NE","Nebraska","68653","Central","41.537151","-97.48488"
"(308) 353-","Cell Number","Perkins","Grant","NE","Nebraska","69140","Central / Mountain","40.846046","-101.7258"
"(308) 646-","Landline","Hall","Grand Island","NE","Nebraska","68803","Central / Mountain","40.872531","-98.521343"
"(402) 563-","Landline","Platte","Columbus","NE","Nebraska","68601","Central","41.542962","-97.376314"
"(402) 403-","Landline","Sarpy","Omaha","NE","Nebraska","68136","Central","41.169034","-96.172007"
"(308) 586-","Landline","Morrill","Bayard","NE","Nebraska","69334","Central / Mountain","41.760711","-103.32705"
"(308) 238-","Landline","Buffalo","Kearney","NE","Nebraska","68849","Central / Mountain","40.849654","-99.074058"
"(402) 422-","Landline","Douglas","Omaha","NE","Nebraska","68136","Central","41.169034","-96.172007"
"(402) 935-","Landline","Douglas","Omaha","NE","Nebraska","68136","Central","41.169034","-96.172007"
"(402) 371-","Landline","Madison","Norfolk","NE","Nebraska","68701","Central","41.99641","-97.601189"
"(308) 388-","Landline","Buffalo","Pleasanton","NE","Nebraska","68866","Central / Mountain","40.960145","-99.121861"
"(402) 263-","Landline","Cass","Union","NE","Nebraska","68455","Central","40.831238","-95.903802"
"(402) 384-","Landline","Douglas","Omaha","NE","Nebraska","68136","Central","41.169034","-96.172007"
"(402) 251-","Landline","Douglas","Omaha","NE","Nebraska","68136","Central","41.169034","-96.172007"
"(402) 332-","Landline","Sarpy","Gretna","NE","Nebraska","68028","Central","41.098888","-96.239744"
"(402) 981-","Cell Number","Douglas","Omaha","NE","Nebraska","68136","Central","41.169034","-96.172007"
"(308) 535-","Landline","Lincoln","North Platte","NE","Nebraska","69103","Central / Mountain","41.046447","-100.746912"
"(402) 463-","Landline","Adams","Hastings","NE","Nebraska","68901","Central","40.582425","-98.389035"
"(308) 370-","Cell Number","Hall","Grand Island","NE","Nebraska","68803","Central / Mountain","40.872531","-98.521343"
"(402) 325-","Landline","Lancaster","Lincoln","NE","Nebraska","68542","Central","40.784451","-96.688799"
"(402) 329-","Landline","Pierce","Pierce","NE","Nebraska","68767","Central","42.224218","-97.581551"
"(308) 694-","Landline","Furnas","Cambridge","NE","Nebraska","69022","Central / Mountain","40.269966","-100.171378"
"(402) 992-","Cell Number","Madison","Norfolk","NE","Nebraska","68701","Central","41.99641","-97.601189"
"(308) 929-","Landline","Harlan","Alma","NE","Nebraska","68920","Central / Mountain","40.101761","-99.352846"
"(402) 376-","Landline","Cherry","Valentine","NE","Nebraska","69201","Central","42.906836","-100.996747"
"(402) 201-","Cell Number","Douglas","Omaha","NE","Nebraska","68136","Central","41.169034","-96.172007"
"(308) 364-","Landline","Red Willow","Indianola","NE","Nebraska","69034","Central / Mountain","40.240034","-100.365256"
"(308) 882-","Landline","Chase","Imperial","NE","Nebraska","69033","Central / Mountain","40.515114","-101.632038"
"(308) 207-","Landline","Dawes","Chadron","NE","Nebraska","69337","Central / Mountain","42.774479","-103.138479"
"(308) 423-","Landline","Dundy","Benkelman","NE","Nebraska","69021","Central / Mountain","40.103088","-101.789168"
"(308) 672-","Cell Number","Scotts Bluff","Scottsbluff","NE","Nebraska","69361","Central / Mountain","41.872005","-103.77023"
"(308) 545-","Landline","Merrick","Bayard","NE","Nebraska","69334","Central / Mountain","41.760711","-103.32705"
"(308) 577-","Landline","Grant","Ashby","NE","Nebraska","69333","Central / Mountain","41.919117","-101.746919"
"(402) 773-","Landline","Clay","Sutton","NE","Nebraska","68979","Central","40.507387","-97.85543"
"(402) 407-","Cell Number","Platte","Platte Center","NE","Nebraska","68653","Central","41.537151","-97.48488"
"(402) 856-","Landline","Nemaha","Brock","NE","Nebraska","68320","Central","40.479009","-95.960638"
"(402) 287-","Landline","Dixon","Wakefield","NE","Nebraska","68784","Central","42.307797","-96.930286"
"(402) 854-","Landline","Hamilton","Marquette","NE","Nebraska","68854","Central","41.015778","-98.008324"
"(402) 750-","Cell Number","Madison","Norfolk","NE","Nebraska","68701","Central","41.99641","-97.601189"
"(402) 573-","Landline","Douglas","Omaha","NE","Nebraska","68136","Central","41.169034","-96.172007"
"(308) 567-","Landline","Kearney","Wilcox","NE","Nebraska","68982","Central / Mountain","40.378795","-99.152181"
"(308) 424-","Unknown","Scotts Bluff","Mitchell","NE","Nebraska","69357","Central / Mountain","41.874333","-103.803504"
"(402) 670-","Cell Number","Douglas","Omaha","NE","Nebraska","68136","Central","41.169034","-96.172007"
"(402) 933-","Landline","Douglas","Omaha","NE","Nebraska","68136","Central","41.169034","-96.172007"
"(308) 663-","Unknown","Hall","Grand Island","NE","Nebraska","68803","Central / Mountain","40.872531","-98.521343"
"(402) 529-","Landline","Cuming","Wisner","NE","Nebraska","68791","Central","41.960145","-96.893932"
"(308) 778-","Landline","Garden","Lewellen","NE","Nebraska","69147","Central / Mountain","41.315509","-102.153084"
"(402) 714-","Cell Number","Douglas","Omaha","NE","Nebraska","68136","Central","41.169034","-96.172007"
"(402) 788-","Landline","Lancaster","Hickman","NE","Nebraska","68372","Central","40.61189","-96.62468"
"(402) 213-","Cell Number","Douglas","Omaha","NE","Nebraska","68136","Central","41.169034","-96.172007"
"(402) 936-","Cell Number","Dodge","Fremont","NE","Nebraska","68025","Central","41.487786","-96.501672"
"(402) 306-","Cell Number","Douglas","Omaha","NE","Nebraska","68136","Central","41.169034","-96.172007"
"(402) 746-","Landline","Webster","Red Cloud","NE","Nebraska","68970","Central","40.201919","-98.500021"
"(402) 237-","Unknown","Washington","Blair","NE","Nebraska","68008","Central","41.543582","-96.17653"
"(402) 530-","Landline","Douglas","Omaha","NE","Nebraska","68136","Central","41.169034","-96.172007"
"(402) 708-","Cell Number","Douglas","Omaha","NE","Nebraska","68136","Central","41.169034","-96.172007"
"(402) 945-","Landline","Dixon","Waterbury","NE","Nebraska","68785","Central","42.512745","-96.824742"
"(402) 729-","Landline","Jefferson","Fairbury","NE","Nebraska","68352","Central","40.175641","-97.171023"
"(402) 552-","Landline","Douglas","Omaha","NE","Nebraska","68136","Central","41.169034","-96.172007"
"(402) 990-","Cell Number","Douglas","Omaha","NE","Nebraska","68136","Central","41.169034","-96.172007"
"(308) 940-","Cell Number","Merrick","Central City","NE","Nebraska","68826","Central / Mountain","41.162876","-98.010548"
"(402) 498-","Landline","Douglas","Omaha","NE","Nebraska","68136","Central","41.169034","-96.172007"
"(402) 978-","Landline","Douglas","Omaha","NE","Nebraska","68136","Central","41.169034","-96.172007"
"(308) 547-","Landline","Blaine","Brewster","NE","Nebraska","68821","Central / Mountain","41.936376","-99.857111"
"(402) 352-","Landline","Colfax","Schuyler","NE","Nebraska","68661","Central","41.559744","-97.079635"
"(402) 879-","Landline","Nuckolls","Superior","NE","Nebraska","68978","Central","40.036673","-98.069593"
"(402) 968-","Cell Number","Douglas","Omaha","NE","Nebraska","68136","Central","41.169034","-96.172007"
"(402) 437-","Landline","Lancaster","Lincoln","NE","Nebraska","68542","Central","40.784451","-96.688799"
"(402) 492-","Landline","Douglas","Omaha","NE","Nebraska","68136","Central","41.169034","-96.172007"
"(402) 922-","Cell Number","Thurston","Pender","NE","Nebraska","68047","Central","42.110449","-96.723917"
"(308) 327-","Landline","Sheridan","Rushville","NE","Nebraska","69360","Central / Mountain","42.71634","-102.46359"
"(402) 253-","Landline","Sarpy","Springfield","NE","Nebraska","68059","Central","41.066988","-96.184792"
"(308) 726-","Landline","Keith","Keystone","NE","Nebraska","69144","Central / Mountain","41.293525","-101.604569"
"(402) 827-","Landline","Douglas","Omaha","NE","Nebraska","68136","Central","41.169034","-96.172007"
"(402) 399-","Landline","Douglas","Omaha","NE","Nebraska","68136","Central","41.169034","-96.172007"
"(402) 994-","Landline","Cass","Elmwood","NE","Nebraska","68349","Central","40.834419","-96.323714"
"(308) 743-","Landline","Kearney","Axtell","NE","Nebraska","68924","Central / Mountain","40.50339","-99.091654"
"(308) 390-","Cell Number","Hall","Grand Island","NE","Nebraska","68803","Central / Mountain","40.872531","-98.521343"
"(402) 684-","Landline","Rock","Bassett","NE","Nebraska","68714","Central","42.583147","-99.551245"
"(402) 524-","Landline","Douglas","Omaha","NE","Nebraska","68136","Central","41.169034","-96.172007"
"(402) 461-","Landline","Adams","Hastings","NE","Nebraska","68901","Central","40.582425","-98.389035"
"(402) 698-","Landline","Dakota","Homer","NE","Nebraska","68030","Central","42.332188","-96.465599"
"(402) 897-","Landline","Platte","Columbus","NE","Nebraska","68601","Central","41.542962","-97.376314"
"(402) 649-","Cell Number","Madison","Norfolk","NE","Nebraska","68701","Central","41.99641","-97.601189"
"(402) 485-","Landline","Antelope","Clearwater","NE","Nebraska","68726","Central","42.176397","-98.066911"
"(402) 249-","Cell Number","Douglas","Omaha","NE","Nebraska","68136","Central","41.169034","-96.172007"
"(308) 486-","Landline","Frontier","Eustis","NE","Nebraska","69028","Central / Mountain","40.564186","-100.00978"
"(402) 554-","Landline","Douglas","Omaha","NE","Nebraska","68136","Central","41.169034","-96.172007"
"(308) 795-","Landline","Merrick","Palmer","NE","Nebraska","68864","Central / Mountain","41.244701","-98.182952"
"(402) 931-","Landline","Washington","Arlington","NE","Nebraska","68002","Central","41.501979","-96.317932"
"(308) 320-","Cell Number","Dawson","Lexington","NE","Nebraska","68850","Central / Mountain","40.873227","-99.718408"
"(308) 737-","Cell Number","Red Willow","Mc Cook","NE","Nebraska","69001","Central / Mountain","40.207969","-100.620628"
"(402) 794-","Landline","Lancaster","Martell","NE","Nebraska","68404","Central","40.617579","-96.669936"
"(308) 823-","Landline","Furnas","Oxford","NE","Nebraska","68967","Central / Mountain","40.254078","-99.637884"
"(308) 787-","Landline","Scotts Bluff","Lyman","NE","Nebraska","69352","Central / Mountain","41.835492","-103.974153"
"(402) 564-","Landline","Platte","Columbus","NE","Nebraska","68601","Central","41.542962","-97.376314"
"(402) 858-","Unknown","Lancaster","Lincoln","NE","Nebraska","68542","Central","40.784451","-96.688799"
"(402) 477-","Landline","Lancaster","Lincoln","NE","Nebraska","68542","Central","40.784451","-96.688799"
"(402) 896-","Landline","Douglas","Omaha","NE","Nebraska","68136","Central","41.169034","-96.172007"
"(402) 969-","Cell Number","Cass","Union","NE","Nebraska","68455","Central","40.831238","-95.903802"
"(402) 297-","Cell Number","Cass","Plattsmouth","NE","Nebraska","68048","Central","40.971961","-96.001244"
"(308) 636-","Landline","Logan","Stapleton","NE","Nebraska","69163","Central / Mountain","41.480166","-100.512463"
"(402) 759-","Landline","Fillmore","Geneva","NE","Nebraska","68361","Central","40.52749","-97.600691"
"(402) 725-","Landline","Hamilton","Hampton","NE","Nebraska","68843","Central","40.933448","-98.021035"
"(402) 238-","Landline","Douglas","Bennington","NE","Nebraska","68007","Central","41.357015","-96.203393"
"(402) 441-","Landline","Lancaster","Lincoln","NE","Nebraska","68542","Central","40.784451","-96.688799"
"(308) 623-","Landline","Scotts Bluff","Mitchell","NE","Nebraska","69357","Central / Mountain","41.874333","-103.803504"
"(402) 514-","Landline","Douglas","Omaha","NE","Nebraska","68136","Central","41.169034","-96.172007"
"(402) 285-","Landline","Platte","Humphrey","NE","Nebraska","68642","Central","41.690226","-97.487407"
"(308) 529-","Cell Number","Dawson","Gothenburg","NE","Nebraska","69138","Central / Mountain","40.945256","-100.129125"
"(402) 556-","Landline","Douglas","Omaha","NE","Nebraska","68136","Central","41.169034","-96.172007"
"(308) 628-","Landline","Custer","Comstock","NE","Nebraska","68828","Central / Mountain","41.393902","-99.728097"
"(402) 963-","Landline","Douglas","Omaha","NE","Nebraska","68136","Central","41.169034","-96.172007"
"(402) 886-","Landline","Hamilton","Phillips","NE","Nebraska","68865","Central","40.893539","-98.102223"
"(308) 856-","Landline","Buffalo","Elm Creek","NE","Nebraska","68836","Central / Mountain","40.779914","-99.331426"
"(308) 483-","Landline","Cheyenne","Lodgepole","NE","Nebraska","69149","Central / Mountain","41.223638","-102.794277"
"(402) 974-","Landline","Keya Paha","Mills","NE","Nebraska","68753","Central","42.858168","-99.726221"
"(308) 382-","Landline","Hall","Grand Island","NE","Nebraska","68803","Central / Mountain","40.872531","-98.521343"
"(308) 761-","Unknown","Box Butte","Alliance","NE","Nebraska","69301","Central / Mountain","42.219844","-103.073327"
"(402) 839-","Landline","Pawnee","Table Rock","NE","Nebraska","68447","Central","40.179541","-96.097374"
"(308) 396-","Landline","Boone","Cedar Rapids","NE","Nebraska","68627","Central / Mountain","41.558087","-98.150139"
"(402) 628-","Landline","Saunders","Cedar Bluffs","NE","Nebraska","68015","Central","41.365495","-96.631576"
"(308) 770-","Cell Number","Garden","Oshkosh","NE","Nebraska","69190","Central / Mountain","41.615307","-102.331762"
"(402) 687-","Landline","Burt","Lyons","NE","Nebraska","68038","Central","41.951479","-96.450944"
"(402) 291-","Landline","Sarpy","Omaha","NE","Nebraska","68136","Central","41.169034","-96.172007"
"(308) 289-","Cell Number","Keith","Ogallala","NE","Nebraska","69153","Central / Mountain","41.131676","-101.663033"
"(402) 344-","Landline","Douglas","Omaha","NE","Nebraska","68136","Central","41.169034","-96.172007"
"(402) 239-","Cell Number","Gage","Beatrice","NE","Nebraska","68310","Central","40.313364","-96.693082"
"(402) 336-","Landline","Holt","Oneill","NE","Nebraska","68763","Central","42.370456","-98.665685"
"(402) 918-","Landline","Douglas","Omaha","NE","Nebraska","68136","Central","41.169034","-96.172007"
"(402) 270-","Cell Number","Platte","Columbus","NE","Nebraska","68601","Central","41.542962","-97.376314"
"(402) 236-","Landline","Thayer","Byron","NE","Nebraska","68325","Central","40.005757","-97.76566"
"(308) 245-","Landline","Valley","North Loup","NE","Nebraska","68859","Central / Mountain","41.567344","-98.981592"
"(402) 939-","Unknown","Sarpy","Omaha","NE","Nebraska","68136","Central","41.169034","-96.172007"
"(402) 558-","Landline","Douglas","Omaha","NE","Nebraska","68136","Central","41.169034","-96.172007"
"(402) 473-","Landline","Lancaster","Lincoln","NE","Nebraska","68542","Central","40.784451","-96.688799"
"(402) 515-","Cell Number","Douglas","Omaha","NE","Nebraska","68136","Central","41.169034","-96.172007"
"(308) 738-","Landline","Sherman","Ashton","NE","Nebraska","68817","Central / Mountain","41.249476","-98.79476"
"(402) 294-","Landline","Sarpy","Omaha","NE","Nebraska","68136","Central","41.169034","-96.172007"
"(402) 651-","Cell Number","Douglas","Omaha","NE","Nebraska","68136","Central","41.169034","-96.172007"
"(308) 643-","Landline","Custer","Merna","NE","Nebraska","68856","Central / Mountain","41.484951","-99.760782"
"(308) 366-","Landline","Frontier","Maywood","NE","Nebraska","69038","Central / Mountain","40.524809","-100.38203"
"(402) 806-","Cell Number","Gage","Beatrice","NE","Nebraska","68310","Central","40.313364","-96.693082"
"(308) 632-","Landline","Scotts Bluff","Scottsbluff","NE","Nebraska","69361","Central / Mountain","41.872005","-103.77023"
"(308) 473-","Landline","Harlan","Orleans","NE","Nebraska","68966","Central / Mountain","40.130072","-99.45511"
"(402) 730-","Cell Number","Lancaster","Lincoln","NE","Nebraska","68542","Central","40.784451","-96.688799"
"(308) 630-","Landline","Scotts Bluff","Scottsbluff","NE","Nebraska","69361","Central / Mountain","41.872005","-103.77023"
"(402) 952-","Landline","Douglas","Omaha","NE","Nebraska","68136","Central","41.169034","-96.172007"
"(402) 275-","Landline","Cass","Avoca","NE","Nebraska","68307","Central","40.881809","-96.239403"
"(308) 863-","Landline","Howard","Elba","NE","Nebraska","68835","Central / Mountain","41.32178","-98.604437"
"(308) 387-","Landline","Lincoln","Wallace","NE","Nebraska","69169","Central / Mountain","41.046447","-100.746912"
"(402) 446-","Landline","Jefferson","Daykin","NE","Nebraska","68338","Central","40.306449","-97.14239"
"(402) 607-","Cell Number","Saunders","Wahoo","NE","Nebraska","68066","Central","41.197043","-96.669114"
"(308) 785-","Landline","Gosper","Elwood","NE","Nebraska","68937","Central / Mountain","40.56962","-99.831972"
"(402) 296-","Landline","Cass","Plattsmouth","NE","Nebraska","68048","Central","40.971961","-96.001244"
"(308) 215-","Cell Number","Custer","Sargent","NE","Nebraska","68874","Central / Mountain","41.645695","-99.371585"
"(402) 891-","Landline","Douglas","Omaha","NE","Nebraska","68136","Central","41.169034","-96.172007"
"(308) 544-","Landline","Grant","Whitman","NE","Nebraska","69366","Central / Mountain","41.919117","-101.746919"
"(402) 662-","Landline","Gage","Filley","NE","Nebraska","68357","Central","40.284748","-96.535195"
"(402) 850-","Cell Number","Douglas","Omaha","NE","Nebraska","68136","Central","41.169034","-96.172007"
"(402) 615-","Cell Number","Colfax","Schuyler","NE","Nebraska","68661","Central","41.559744","-97.079635"
"(308) 223-","Cell Number","Greeley","Greeley","NE","Nebraska","68842","Central / Mountain","41.563806","-98.530685"
"(402) 576-","Landline","Saline","Friend","NE","Nebraska","68359","Central","40.526915","-97.111028"
"(402) 785-","Landline","Lancaster","Davey","NE","Nebraska","68336","Central","40.955071","-96.699697"
"(402) 448-","Landline","Saline","Swanton","NE","Nebraska","68445","Central","40.379788","-97.080431"
"(402) 585-","Landline","Wayne","Carroll","NE","Nebraska","68723","Central","42.286328","-97.193337"
"(402) 731-","Landline","Douglas","Omaha","NE","Nebraska","68136","Central","41.169034","-96.172007"
"(402) 776-","Landline","Antelope","Oakdale","NE","Nebraska","68761","Central","42.176397","-98.066911"
"(402) 510-","Cell Number","Douglas","Omaha","NE","Nebraska","68136","Central","41.169034","-96.172007"
"(402) 944-","Landline","Saunders","Ashland","NE","Nebraska","68003","Central","41.102696","-96.577634"
"(402) 638-","Landline","Dixon","Allen","NE","Nebraska","68710","Central","42.445278","-96.884378"
"(402) 309-","Landline","Lancaster","Lincoln","NE","Nebraska","68542","Central","40.784451","-96.688799"
"(308) 254-","Landline","Cheyenne","Sidney","NE","Nebraska","69162","Central / Mountain","41.161943","-103.066015"
"(402) 747-","Landline","Polk","Osceola","NE","Nebraska","68651","Central","41.170633","-97.57"
"(402) 681-","Cell Number","Douglas","Omaha","NE","Nebraska","68136","Central","41.169034","-96.172007"
"(402) 830-","Cell Number","Douglas","Omaha","NE","Nebraska","68136","Central","41.169034","-96.172007"
"(402) 522-","Landline","Douglas","Omaha","NE","Nebraska","68136","Central","41.169034","-96.172007"
"(308) 344-","Landline","Red Willow","Mc Cook","NE","Nebraska","69001","Central / Mountain","40.207969","-100.620628"
"(402) 440-","Cell Number","Lancaster","Lincoln","NE","Nebraska","68542","Central","40.784451","-96.688799"
"(402) 392-","Landline","Douglas","Omaha","NE","Nebraska","68136","Central","41.169034","-96.172007"
"(308) 345-","Landline","Red Willow","Mc Cook","NE","Nebraska","69001","Central / Mountain","40.207969","-100.620628"
"(308) 362-","Landline","Frontier","Maywood","NE","Nebraska","69038","Central / Mountain","40.524809","-100.38203"
"(308) 830-","Cell Number","Kearney","Minden","NE","Nebraska","68959","Central / Mountain","40.502515","-98.907731"
"(402) 218-","Landline","Douglas","Omaha","NE","Nebraska","68136","Central","41.169034","-96.172007"
"(402) 565-","Landline","Wayne","Hoskins","NE","Nebraska","68740","Central","42.221141","-97.309909"
"(402) 691-","Landline","Douglas","Omaha","NE","Nebraska","68136","Central","41.169034","-96.172007"
"(308) 487-","Landline","Box Butte","Hemingford","NE","Nebraska","69348","Central / Mountain","42.314537","-103.097258"
"(308) 836-","Landline","Custer","Callaway","NE","Nebraska","68825","Central / Mountain","41.290502","-99.921245"
"(402) 400-","Cell Number","Lancaster","Lincoln","NE","Nebraska","68542","Central","40.784451","-96.688799"
"(402) 736-","Landline","York","Bradshaw","NE","Nebraska","68319","Central","40.930567","-97.750193"
"(402) 542-","Landline","Butler","Rising City","NE","Nebraska","68658","Central","41.19712","-97.181952"
"(402) 723-","Landline","York","Henderson","NE","Nebraska","68371","Central","40.796446","-97.773811"
"(402) 432-","Cell Number","Lancaster","Lincoln","NE","Nebraska","68542","Central","40.784451","-96.688799"
"(402) 603-","Landline","Polk","Osceola","NE","Nebraska","68651","Central","41.170633","-97.57"
"(308) 999-","Cell Number","Phelps","Holdrege","NE","Nebraska","68949","Central / Mountain","40.429207","-99.325955"
"(402) 772-","Landline","Clay","Harvard","NE","Nebraska","68944","Central","40.620578","-98.096849"
"(402) 482-","Landline","Holt","Chambers","NE","Nebraska","68725","Central","42.20186","-98.749451"
"(402) 984-","Cell Number","Adams","Hastings","NE","Nebraska","68901","Central","40.582425","-98.389035"
"(402) 493-","Landline","Douglas","Omaha","NE","Nebraska","68136","Central","41.169034","-96.172007"
"(402) 423-","Landline","Lancaster","Lincoln","NE","Nebraska","68542","Central","40.784451","-96.688799"
"(402) 359-","Landline","Douglas","Valley","NE","Nebraska","68064","Central","41.342714","-96.344273"
"(402) 987-","Landline","Dakota","Dakota City","NE","Nebraska","68731","Central","42.381775","-96.565385"
"(308) 925-","Unknown","Scotts Bluff","Mitchell","NE","Nebraska","69357","Central / Mountain","41.874333","-103.803504"
"(402) 757-","Landline","Hamilton","Hordville","NE","Nebraska","68846","Central","40.962667","-97.991525"
"(402) 262-","Landline","Clay","Fairfield","NE","Nebraska","68938","Central","40.395335","-98.053432"
"(402) 799-","Landline","Otoe","Douglas","NE","Nebraska","68344","Central","40.569758","-96.42238"
"(402) 943-","Landline","Douglas","Omaha","NE","Nebraska","68136","Central","41.169034","-96.172007"
"(308) 530-","Cell Number","Lincoln","North Platte","NE","Nebraska","69103","Central / Mountain","41.046447","-100.746912"
"(402) 894-","Landline","Douglas","Omaha","NE","Nebraska","68136","Central","41.169034","-96.172007"
"(402) 342-","Landline","Douglas","Omaha","NE","Nebraska","68136","Central","41.169034","-96.172007"
"(402) 853-","Unknown","Lancaster","Lincoln","NE","Nebraska","68542","Central","40.784451","-96.688799"
"(402) 857-","Landline","Knox","Niobrara","NE","Nebraska","68760","Central","42.739127","-97.924783"
"(402) 578-","Cell Number","Douglas","Omaha","NE","Nebraska","68136","Central","41.169034","-96.172007"
"(308) 485-","Landline","Hall","Cairo","NE","Nebraska","68824","Central / Mountain","40.908706","-98.568185"
"(402) 609-","Unknown","Sarpy","Omaha","NE","Nebraska","68136","Central","41.169034","-96.172007"
"(402) 677-","Cell Number","Douglas","Omaha","NE","Nebraska","68136","Central","41.169034","-96.172007"
"(402) 838-","Cell Number","Burt","Tekamah","NE","Nebraska","68061","Central","41.808435","-96.25543"
"(402) 643-","Landline","Seward","Seward","NE","Nebraska","68434","Central","40.91582","-97.101341"
"(402) 488-","Landline","Lancaster","Lincoln","NE","Nebraska","68542","Central","40.784451","-96.688799"
"(402) 626-","Landline","Holt","Ewing","NE","Nebraska","68735","Central","42.259207","-98.344313"
"(308) 668-","Landline","Sioux","Harrison","NE","Nebraska","69346","Central / Mountain","42.631216","-103.782027"
"(402) 369-","Cell Number","Wayne","Wayne","NE","Nebraska","68787","Central","42.206417","-96.979049"
"(402) 543-","Landline","Butler","Bruno","NE","Nebraska","68014","Central","41.278245","-96.975393"
"(402) 286-","Landline","Wayne","Winside","NE","Nebraska","68790","Central","42.155768","-97.193232"
"(402) 533-","Landline","Washington","Blair","NE","Nebraska","68008","Central","41.543582","-96.17653"
"(402) 771-","Landline","Clay","Glenvil","NE","Nebraska","68941","Central","40.503252","-98.255757"
"(402) 890-","Cell Number","Lancaster","Lincoln","NE","Nebraska","68542","Central","40.784451","-96.688799"
"(402) 904-","Unknown","Lancaster","Lincoln","NE","Nebraska","68542","Central","40.784451","-96.688799"
"(308) 920-","Cell Number","Harlan","Alma","NE","Nebraska","68920","Central / Mountain","40.101761","-99.352846"
"(308) 631-","Cell Number","Scotts Bluff","Scottsbluff","NE","Nebraska","69361","Central / Mountain","41.872005","-103.77023"
"(402) 438-","Landline","Lancaster","Lincoln","NE","Nebraska","68542","Central","40.784451","-96.688799"
"(402) 781-","Landline","Cass","Eagle","NE","Nebraska","68347","Central","40.899936","-96.378887"
"(402) 416-","Cell Number","Lancaster","Lincoln","NE","Nebraska","68542","Central","40.784451","-96.688799"
"(402) 337-","Landline","Cedar","Randolph","NE","Nebraska","68771","Central","42.438743","-97.319835"
"(402) 695-","Landline","Dakota","Emerson","NE","Nebraska","68733","Central","42.361551","-96.639317"
"(402) 224-","Landline","Clay","Ong","NE","Nebraska","68452","Central","40.524526","-98.051184"
"(402) 630-","Cell Number","Douglas","Omaha","NE","Nebraska","68136","Central","41.169034","-96.172007"
"(402) 822-","Cell Number","Rock","Bassett","NE","Nebraska","68714","Central","42.583147","-99.551245"
"(308) 826-","Landline","Buffalo","Amherst","NE","Nebraska","68812","Central / Mountain","40.916581","-99.292974"
"(402) 358-","Landline","Knox","Creighton","NE","Nebraska","68729","Central","42.490856","-97.919351"
"(402) 796-","Landline","Lancaster","Malcolm","NE","Nebraska","68402","Central","40.908246","-96.813503"
"(402) 444-","Landline","Douglas","Omaha","NE","Nebraska","68136","Central","41.169034","-96.172007"
"(402) 795-","Landline","Seward","Pleasant Dale","NE","Nebraska","68423","Central","40.813869","-96.968018"
"(308) 763-","Landline","Box Butte","Alliance","NE","Nebraska","69301","Central / Mountain","42.219844","-103.073327"
"(402) 779-","Landline","Douglas","Elkhorn","NE","Nebraska","68022","Central","41.288631","-96.238818"
"(308) 224-","Cell Number","Buffalo","Kearney","NE","Nebraska","68849","Central / Mountain","40.849654","-99.074058"
"(402) 428-","Landline","Platte","Lindsay","NE","Nebraska","68644","Central","41.701476","-97.694247"
"(402) 497-","Landline","Keya Paha","Springview","NE","Nebraska","68778","Central","42.836424","-99.747046"
"(402) 561-","Landline","Douglas","Omaha","NE","Nebraska","68136","Central","41.169034","-96.172007"
"(402) 486-","Landline","Lancaster","Lincoln","NE","Nebraska","68542","Central","40.784451","-96.688799"
"(308) 627-","Cell Number","Buffalo","Kearney","NE","Nebraska","68849","Central / Mountain","40.849654","-99.074058"
"(402) 468-","Landline","Washington","Fort Calhoun","NE","Nebraska","68023","Central","41.447307","-96.023829"
"(402) 339-","Landline","Douglas","Omaha","NE","Nebraska","68136","Central","41.169034","-96.172007"
"(402) 451-","Landline","Douglas","Omaha","NE","Nebraska","68136","Central","41.169034","-96.172007"
"(308) 458-","Landline","Grant","Hyannis","NE","Nebraska","69350","Central / Mountain","41.959181","-101.751854"
"(402) 327-","Landline","Lancaster","Lincoln","NE","Nebraska","68542","Central","40.784451","-96.688799"
"(402) 883-","Landline","Richardson","Shubert","NE","Nebraska","68437","Central","40.236756","-95.684024"
"(402) 393-","Landline","Douglas","Omaha","NE","Nebraska","68136","Central","41.169034","-96.172007"
"(402) 504-","Landline","Douglas","Omaha","NE","Nebraska","68136","Central","41.169034","-96.172007"
"(402) 293-","Landline","Sarpy","Omaha","NE","Nebraska","68136","Central","41.169034","-96.172007"
"(308) 638-","Landline","Sheridan","Hay Springs","NE","Nebraska","69347","Central / Mountain","42.636894","-102.665536"
"(402) 374-","Landline","Burt","Tekamah","NE","Nebraska","68061","Central","41.808435","-96.25543"
"(402) 517-","Landline","Douglas","Omaha","NE","Nebraska","68136","Central","41.169034","-96.172007"
"(402) 261-","Landline","Lancaster","Lincoln","NE","Nebraska","68542","Central","40.784451","-96.688799"
"(402) 706-","Cell Number","Douglas","Omaha","NE","Nebraska","68136","Central","41.169034","-96.172007"
"(402) 398-","Landline","Douglas","Omaha","NE","Nebraska","68136","Central","41.169034","-96.172007"
"(402) 223-","Landline","Gage","Beatrice","NE","Nebraska","68310","Central","40.313364","-96.693082"
"(402) 535-","Landline","Seward","Staplehurst","NE","Nebraska","68439","Central","40.95971","-97.251684"
"(402) 728-","Landline","Seward","Utica","NE","Nebraska","68456","Central","40.938023","-97.292178"
"(402) 471-","Landline","Lancaster","Lincoln","NE","Nebraska","68542","Central","40.784451","-96.688799"
"(308) 991-","Cell Number","Phelps","Holdrege","NE","Nebraska","68949","Central / Mountain","40.429207","-99.325955"
"(308) 357-","Landline","Boone","Cedar Rapids","NE","Nebraska","68627","Central / Mountain","41.558087","-98.150139"
"(402) 616-","Cell Number","Douglas","Omaha","NE","Nebraska","68136","Central","41.169034","-96.172007"
"(402) 861-","Landline","Douglas","Omaha","NE","Nebraska","68136","Central","41.169034","-96.172007"
"(308) 728-","Landline","Valley","Ord","NE","Nebraska","68862","Central / Mountain","41.603603","-98.932718"
"(402) 953-","Unknown","Sarpy","Omaha","NE","Nebraska","68136","Central","41.169034","-96.172007"
"(308) 583-","Landline","Hall","Wood River","NE","Nebraska","68883","Central / Mountain","40.872494","-98.589324"
"(308) 587-","Landline","Mcpherson","Tryon","NE","Nebraska","69167","Central / Mountain","41.568548","-101.059489"
"(402) 248-","Landline","Gage","Liberty","NE","Nebraska","68381","Central","40.262266","-96.689998"
"(402) 299-","Cell Number","Douglas","Omaha","NE","Nebraska","68136","Central","41.169034","-96.172007"
"(402) 460-","Landline","Adams","Hastings","NE","Nebraska","68901","Central","40.582425","-98.389035"
"(402) 580-","Cell Number","Lancaster","Lincoln","NE","Nebraska","68542","Central","40.784451","-96.688799"
"(402) 472-","Landline","Lancaster","Lincoln","NE","Nebraska","68542","Central","40.784451","-96.688799"
"(308) 246-","Landline","Greeley","Wolbach","NE","Nebraska","68882","Central / Mountain","41.397214","-98.431898"
"(402) 734-","Landline","Douglas","Omaha","NE","Nebraska","68136","Central","41.169034","-96.172007"
"(402) 639-","Cell Number","Douglas","Omaha","NE","Nebraska","68136","Central","41.169034","-96.172007"
"(402) 696-","Landline","Gage","Liberty","NE","Nebraska","68381","Central","40.262266","-96.689998"
"(308) 420-","Landline","Dundy","Benkelman","NE","Nebraska","69021","Central / Mountain","40.103088","-101.789168"
"(402) 836-","Unknown","Sarpy","Omaha","NE","Nebraska","68136","Central","41.169034","-96.172007"
"(308) 858-","Landline","Custer","Oconto","NE","Nebraska","68860","Central / Mountain","41.393902","-99.728097"
"(402) 995-","Cell Number","Douglas","Omaha","NE","Nebraska","68136","Central","41.169034","-96.172007"
"(308) 834-","Landline","Blaine","Purdum","NE","Nebraska","69157","Central / Mountain","41.912303","-99.977135"
"(308) 990-","Cell Number","Scotts Bluff","Scottsbluff","NE","Nebraska","69361","Central / Mountain","41.872005","-103.77023"
"(402) 540-","Cell Number","Lancaster","Lincoln","NE","Nebraska","68542","Central","40.784451","-96.688799"
"(308) 522-","Cell Number","Box Butte","Alliance","NE","Nebraska","69301","Central / Mountain","42.219844","-103.073327"
"(308) 250-","Cell Number","Cheyenne","Sidney","NE","Nebraska","69162","Central / Mountain","41.161943","-103.066015"
"(402) 304-","Cell Number","Lancaster","Lincoln","NE","Nebraska","68542","Central","40.784451","-96.688799"
"(402) 837-","Landline","Thurston","Macy","NE","Nebraska","68039","Central","42.146597","-96.545297"
"(308) 760-","Cell Number","Box Butte","Alliance","NE","Nebraska","69301","Central / Mountain","42.219844","-103.073327"
"(402) 245-","Landline","Richardson","Falls City","NE","Nebraska","68355","Central","40.073908","-95.602053"
"(402) 821-","Landline","Saline","Wilber","NE","Nebraska","68465","Central","40.484136","-96.96829"
"(308) 247-","Landline","Scotts Bluff","Morrill","NE","Nebraska","69358","Central / Mountain","41.929379","-103.950162"
"(402) 537-","Landline","Douglas","Omaha","NE","Nebraska","68136","Central","41.169034","-96.172007"
"(402) 631-","Landline","Hamilton","Aurora","NE","Nebraska","68818","Central","40.850832","-98.054272"
"(308) 651-","Cell Number","Dawson","Lexington","NE","Nebraska","68850","Central / Mountain","40.873227","-99.718408"
"(308) 203-","Unknown","Cheyenne","Sidney","NE","Nebraska","69162","Central / Mountain","41.161943","-103.066015"
"(402) 873-","Landline","Otoe","Nebraska City","NE","Nebraska","68410","Central","40.707742","-95.907718"
"(308) 996-","Landline","Howard","Boelus","NE","Nebraska","68820","Central / Mountain","41.11924","-98.681367"
"(402) 659-","Cell Number","Douglas","Omaha","NE","Nebraska","68136","Central","41.169034","-96.172007"
"(402) 705-","Cell Number","Adams","Hastings","NE","Nebraska","68901","Central","40.582425","-98.389035"
"(402) 784-","Landline","Saunders","Valparaiso","NE","Nebraska","68065","Central","41.108919","-96.831839"
"(308) 276-","Landline","Hitchcock","Stratton","NE","Nebraska","69043","Central / Mountain","40.15014","-101.227939"
"(402) 908-","Unknown","York","York","NE","Nebraska","68467","Central","40.890132","-97.597278"
"(402) 233-","Landline","Douglas","Omaha","NE","Nebraska","68136","Central","41.169034","-96.172007"
"(402) 500-","Unknown","Madison","Norfolk","NE","Nebraska","68701","Central","41.99641","-97.601189"
"(402) 765-","Landline","Polk","Polk","NE","Nebraska","68654","Central","41.075237","-97.78707"
"(308) 391-","Cell Number","Hall","Grand Island","NE","Nebraska","68803","Central / Mountain","40.872531","-98.521343"
"(308) 665-","Landline","Dawes","Crawford","NE","Nebraska","69339","Central / Mountain","42.611517","-103.303223"
"(402) 242-","Landline","Nemaha","Brock","NE","Nebraska","68320","Central","40.479009","-95.960638"
"(402) 720-","Cell Number","Dodge","Fremont","NE","Nebraska","68025","Central","41.487786","-96.501672"
"(308) 457-","Landline","Buffalo","Miller","NE","Nebraska","68858","Central / Mountain","40.952708","-99.364921"
"(402) 758-","Landline","Douglas","Omaha","NE","Nebraska","68136","Central","41.169034","-96.172007"
"(402) 379-","Landline","Madison","Norfolk","NE","Nebraska","68701","Central","41.99641","-97.601189"
"(308) 210-","Cell Number","Hall","Grand Island","NE","Nebraska","68803","Central / Mountain","40.872531","-98.521343"
"(402) 255-","Landline","Douglas","Omaha","NE","Nebraska","68136","Central","41.169034","-96.172007"
"(402) 581-","Landline","Douglas","Omaha","NE","Nebraska","68136","Central","41.169034","-96.172007"
"(402) 395-","Landline","Boone","Albion","NE","Nebraska","68620","Central","41.648736","-98.011092"
"(402) 527-","Landline","Polk","Shelby","NE","Nebraska","68662","Central","41.154703","-97.519253"
"(402) 349-","Landline","Burt","Decatur","NE","Nebraska","68020","Central","41.974318","-96.250681"
"(402) 264-","Landline","Otoe","Talmage","NE","Nebraska","68448","Central","40.55711","-95.998514"
"(402) 478-","Landline","Washington","Arlington","NE","Nebraska","68002","Central","41.501979","-96.317932"
"(402) 280-","Landline","Douglas","Omaha","NE","Nebraska","68136","Central","41.169034","-96.172007"
"(402) 257-","Landline","Webster","Guide Rock","NE","Nebraska","68942","Central","40.071648","-98.330001"
"(308) 550-","Cell Number","Nance","Fullerton","NE","Nebraska","68638","Central / Mountain","41.414475","-97.899889"
"(402) 642-","Landline","Saunders","Weston","NE","Nebraska","68070","Central","41.20724","-96.758162"
"(402) 946-","Landline","Saline","Dorchester","NE","Nebraska","68343","Central","40.646087","-97.114965"
"(402) 949-","Cell Number","Cass","Louisville","NE","Nebraska","68037","Central","40.979898","-96.084122"
"(402) 926-","Landline","Douglas","Omaha","NE","Nebraska","68136","Central","41.169034","-96.172007"
"(402) 282-","Landline","Fillmore","Grafton","NE","Nebraska","68365","Central","40.629407","-97.714675"
"(402) 214-","Cell Number","Douglas","Omaha","NE","Nebraska","68136","Central","41.169034","-96.172007"
"(402) 678-","Landline","Boone","Saint Edward","NE","Nebraska","68660","Central","41.570444","-97.863484"
"(402) 387-","Landline","Brown","Ainsworth","NE","Nebraska","69210","Central","42.542734","-99.852364"
"(308) 282-","Landline","Sheridan","Gordon","NE","Nebraska","69343","Central / Mountain","42.763456","-102.314593"
"(402) 566-","Landline","Butler","Dwight","NE","Nebraska","68635","Central","41.066016","-97.114365"
"(308) 232-","Landline","Sheridan","Hay Springs","NE","Nebraska","69347","Central / Mountain","42.636894","-102.665536"
"(308) 748-","Landline","Thomas","Seneca","NE","Nebraska","69161","Central / Mountain","41.913806","-100.555805"
"(402) 272-","Landline","Douglas","Omaha","NE","Nebraska","68136","Central","41.169034","-96.172007"
"(402) 753-","Landline","Dodge","Fremont","NE","Nebraska","68025","Central","41.487786","-96.501672"
"(402) 834-","Unknown","Adams","Hastings","NE","Nebraska","68901","Central","40.582425","-98.389035"
"(402) 532-","Landline","Seward","Beaver Crossing","NE","Nebraska","68313","Central","40.785436","-97.23499"
"(308) 350-","Cell Number","Red Willow","Indianola","NE","Nebraska","69034","Central / Mountain","40.240034","-100.365256"
"(402) 916-","Landline","Douglas","Omaha","NE","Nebraska","68136","Central","41.169034","-96.172007"
"(402) 525-","Cell Number","Lancaster","Lincoln","NE","Nebraska","68542","Central","40.784451","-96.688799"
"(402) 547-","Landline","Douglas","Omaha","NE","Nebraska","68136","Central","41.169034","-96.172007"
"(402) 396-","Landline","Stanton","Pilger","NE","Nebraska","68768","Central","41.976143","-97.07791"
"(402) 560-","Cell Number","Lancaster","Lincoln","NE","Nebraska","68542","Central","40.784451","-96.688799"
"(402) 267-","Landline","Cass","Weeping Water","NE","Nebraska","68463","Central","40.884503","-96.146512"
"(402) 991-","Landline","Douglas","Omaha","NE","Nebraska","68136","Central","41.169034","-96.172007"
"(402) 328-","Landline","Lancaster","Lincoln","NE","Nebraska","68542","Central","40.784451","-96.688799"
"(402) 452-","Landline","Douglas","Omaha","NE","Nebraska","68136","Central","41.169034","-96.172007"
"(402) 430-","Cell Number","Lancaster","Lincoln","NE","Nebraska","68542","Central","40.784451","-96.688799"
"(308) 747-","Unknown","Dawes","Chadron","NE","Nebraska","69337","Central / Mountain","42.774479","-103.138479"
"(402) 835-","Landline","Platte","Columbus","NE","Nebraska","68601","Central","41.542962","-97.376314"
"(402) 366-","Cell Number","York","York","NE","Nebraska","68467","Central","40.890132","-97.597278"
"(402) 743-","Landline","Clay","Trumbull","NE","Nebraska","68980","Central","40.639247","-98.25112"
"(308) 227-","Cell Number","Hall","Grand Island","NE","Nebraska","68803","Central / Mountain","40.872531","-98.521343"
"(308) 624-","Cell Number","Merrick","Central City","NE","Nebraska","68826","Central / Mountain","41.162876","-98.010548"
"(402) 755-","Landline","Dixon","Ponca","NE","Nebraska","68770","Central","42.565991","-96.711058"
"(402) 666-","Landline","Saunders","Morse Bluff","NE","Nebraska","68648","Central","41.375782","-96.811409"
"(402) 405-","Unknown","Lancaster","Lincoln","NE","Nebraska","68542","Central","40.784451","-96.688799"
"(402) 875-","Unknown","Lancaster","Lincoln","NE","Nebraska","68542","Central","40.784451","-96.688799"
"(308) 352-","Landline","Perkins","Grant","NE","Nebraska","69140","Central / Mountain","40.846046","-101.7258"
"(402) 512-","Unknown","Dodge","Fremont","NE","Nebraska","68025","Central","41.487786","-96.501672"
"(402) 346-","Landline","Douglas","Omaha","NE","Nebraska","68136","Central","41.169034","-96.172007"
"(308) 397-","Landline","Chase","Wauneta","NE","Nebraska","69045","Central / Mountain","40.416806","-101.370507"
"(402) 697-","Landline","Douglas","Omaha","NE","Nebraska","68136","Central","41.169034","-96.172007"
"(402) 868-","Landline","Nemaha","Johnson","NE","Nebraska","68378","Central","40.345196","-96.000386"
"(402) 424-","Landline","Jefferson","Jansen","NE","Nebraska","68377","Central","40.232006","-97.028942"
"(308) 660-","Cell Number","Lincoln","North Platte","NE","Nebraska","69103","Central / Mountain","41.046447","-100.746912"
"(402) 948-","Cell Number","Nance","Genoa","NE","Nebraska","68640","Central","41.445863","-97.732584"
"(402) 519-","Cell Number","Adams","Hastings","NE","Nebraska","68901","Central","40.582425","-98.389035"
"(308) 372-","Landline","Sherman","Rockville","NE","Nebraska","68871","Central / Mountain","41.117178","-98.832654"
"(402) 655-","Landline","Antelope","Orchard","NE","Nebraska","68764","Central","42.337003","-98.239908"
"(402) 892-","Landline","Colfax","Clarkson","NE","Nebraska","68629","Central","41.663195","-97.137751"
"(308) 615-","Cell Number","Dawes","Chadron","NE","Nebraska","69337","Central / Mountain","42.774479","-103.138479"
"(402) 764-","Landline","Polk","Stromsburg","NE","Nebraska","68666","Central","41.114446","-97.591433"
"(308) 339-","Unknown","Hall","Grand Island","NE","Nebraska","68803","Central / Mountain","40.872531","-98.521343"
"(308) 496-","Landline","Valley","North Loup","NE","Nebraska","68859","Central / Mountain","41.567344","-98.981592"
"(402) 386-","Landline","Boone","Petersburg","NE","Nebraska","68652","Central","41.853086","-98.07996"
"(402) 220-","Landline","Douglas","Omaha","NE","Nebraska","68136","Central","41.169034","-96.172007"
"(402) 334-","Landline","Douglas","Omaha","NE","Nebraska","68136","Central","41.169034","-96.172007"
"(308) 548-","Landline","Merrick","Clarks","NE","Nebraska","68628","Central / Mountain","41.202853","-97.80937"
"(308) 696-","Landline","Lincoln","North Platte","NE","Nebraska","69103","Central / Mountain","41.046447","-100.746912"
"(402) 420-","Landline","Lancaster","Lincoln","NE","Nebraska","68542","Central","40.784451","-96.688799"
"(308) 775-","Landline","Franklin","Bloomington","NE","Nebraska","68929","Central / Mountain","40.097871","-99.037737"
"(402) 694-","Landline","Hamilton","Aurora","NE","Nebraska","68818","Central","40.850832","-98.054272"
"(402) 331-","Landline","Douglas","Omaha","NE","Nebraska","68136","Central","41.169034","-96.172007"
"(402) 954-","Unknown","Butler","David City","NE","Nebraska","68632","Central","41.220715","-97.157229"
"(308) 297-","Landline","Dundy","Haigler","NE","Nebraska","69030","Central / Mountain","40.176417","-101.687688"
"(308) 398-","Landline","Hall","Grand Island","NE","Nebraska","68803","Central / Mountain","40.872531","-98.521343"
"(402) 300-","Cell Number","Jefferson","Fairbury","NE","Nebraska","68352","Central","40.175641","-97.171023"
"(402) 317-","Cell Number","Dodge","Fremont","NE","Nebraska","68025","Central","41.487786","-96.501672"
"(402) 345-","Landline","Douglas","Omaha","NE","Nebraska","68136","Central","41.169034","-96.172007"
"(402) 365-","Landline","Thayer","Deshler","NE","Nebraska","68340","Central","40.139448","-97.723461"
"(308) 349-","Landline","Furnas","Wilsonville","NE","Nebraska","69046","Central / Mountain","40.112009","-100.106003"
"(402) 312-","Cell Number","Douglas","Omaha","NE","Nebraska","68136","Central","41.169034","-96.172007"
"(402) 872-","Landline","Nemaha","Peru","NE","Nebraska","68421","Central","40.477743","-95.729589"
"(308) 533-","Landline","Thomas","Halsey","NE","Nebraska","69142","Central / Mountain","41.913806","-100.555805"
"(308) 430-","Cell Number","Dawes","Chadron","NE","Nebraska","69337","Central / Mountain","42.774479","-103.138479"
"(402) 745-","Cell Number","York","York","NE","Nebraska","68467","Central","40.890132","-97.597278"
"(402) 985-","Landline","Cedar","Belden","NE","Nebraska","68717","Central","42.429295","-97.212986"
"(308) 942-","Landline","Loup","Taylor","NE","Nebraska","68879","Central / Mountain","41.91406","-99.454335"
"(402) 502-","Landline","Douglas","Omaha","NE","Nebraska","68136","Central","41.169034","-96.172007"
"(308) 883-","Cell Number","Chase","Imperial","NE","Nebraska","69033","Central / Mountain","40.515114","-101.632038"
"(402) 599-","Landline","Douglas","Omaha","NE","Nebraska","68136","Central","41.169034","-96.172007"
"(402) 917-","Landline","Douglas","Omaha","NE","Nebraska","68136","Central","41.169034","-96.172007"
"(402) 274-","Landline","Nemaha","Auburn","NE","Nebraska","68305","Central","40.428801","-95.843077"
"(402) 536-","Landline","Douglas","Omaha","NE","Nebraska","68136","Central","41.169034","-96.172007"
"(308) 219-","Cell Number","Valley","North Loup","NE","Nebraska","68859","Central / Mountain","41.567344","-98.981592"
"(402) 740-","Cell Number","Douglas","Omaha","NE","Nebraska","68136","Central","41.169034","-96.172007"
"(308) 379-","Cell Number","Hall","Grand Island","NE","Nebraska","68803","Central / Mountain","40.872531","-98.521343"
"(402) 912-","Unknown","Sarpy","Omaha","NE","Nebraska","68136","Central","41.169034","-96.172007"
"(402) 268-","Landline","Fillmore","Fairmont","NE","Nebraska","68354","Central","40.641428","-97.559927"
"(402) 645-","Landline","Gage","Wymore","NE","Nebraska","68466","Central","40.122407","-96.666863"
"(308) 824-","Landline","Furnas","Oxford","NE","Nebraska","68967","Central / Mountain","40.254078","-99.637884"
"(308) 562-","Unknown","Scotts Bluff","Scottsbluff","NE","Nebraska","69361","Central / Mountain","41.872005","-103.77023"
"(402) 710-","Cell Number","York","York","NE","Nebraska","68467","Central","40.890132","-97.597278"
"(308) 346-","Landline","Garfield","Burwell","NE","Nebraska","68823","Central / Mountain","41.782277","-99.134041"
"(308) 536-","Landline","Nance","Fullerton","NE","Nebraska","68638","Central / Mountain","41.414475","-97.899889"
"(402) 646-","Landline","Seward","Seward","NE","Nebraska","68434","Central","40.91582","-97.101341"
"(308) 497-","Landline","Greeley","Spalding","NE","Nebraska","68665","Central / Mountain","41.688144","-98.363282"
"(402) 862-","Landline","Richardson","Humboldt","NE","Nebraska","68376","Central","40.167245","-95.945731"
"(402) 351-","Landline","Douglas","Omaha","NE","Nebraska","68136","Central","41.169034","-96.172007"
"(308) 692-","Landline","Red Willow","Bartley","NE","Nebraska","69020","Central / Mountain","40.252545","-100.305432"
"(402) 377-","Landline","Burt","Craig","NE","Nebraska","68019","Central","41.792415","-96.376462"
"(402) 259-","Landline","Otoe","Dunbar","NE","Nebraska","68346","Central","40.634055","-96.030125"
"(402) 653-","Landline","Boyd","Naper","NE","Nebraska","68755","Central","42.879903","-98.781334"
"(402) 980-","Cell Number","Douglas","Omaha","NE","Nebraska","68136","Central","41.169034","-96.172007"
"(402) 288-","Landline","Knox","Winnetoon","NE","Nebraska","68789","Central","42.533387","-98.004988"
"(402) 489-","Landline","Lancaster","Lincoln","NE","Nebraska","68542","Central","40.784451","-96.688799"
"(402) 692-","Landline","Dixon","Newcastle","NE","Nebraska","68757","Central","42.494685","-96.861558"
"(308) 360-","Cell Number","Sheridan","Gordon","NE","Nebraska","69343","Central / Mountain","42.763456","-102.314593"
"(308) 697-","Landline","Furnas","Cambridge","NE","Nebraska","69022","Central / Mountain","40.269966","-100.171378"
"(402) 874-","Landline","Otoe","Nebraska City","NE","Nebraska","68410","Central","40.707742","-95.907718"
"(308) 928-","Landline","Harlan","Alma","NE","Nebraska","68920","Central / Mountain","40.101761","-99.352846"
"(308) 241-","Cell Number","Kimball","Kimball","NE","Nebraska","69145","Central / Mountain","41.206972","-103.769557"
"(308) 846-","Landline","Kimball","Bushnell","NE","Nebraska","69128","Central / Mountain","41.232626","-103.891757"
"(402) 216-","Cell Number","Douglas","Omaha","NE","Nebraska","68136","Central","41.169034","-96.172007"
"(402) 910-","Cell Number","Platte","Columbus","NE","Nebraska","68601","Central","41.542962","-97.376314"
"(308) 884-","Landline","Cheyenne","Gurley","NE","Nebraska","69141","Central / Mountain","41.315041","-102.983464"
"(308) 268-","Landline","Furnas","Beaver City","NE","Nebraska","68926","Central / Mountain","40.137671","-99.82693"
"(402) 826-","Landline","Saline","Crete","NE","Nebraska","68333","Central","40.628937","-97.016925"
"(308) 228-","Landline","Perkins","Elsie","NE","Nebraska","69134","Central / Mountain","40.850739","-101.649075"
"(402) 442-","Landline","Jefferson","Steele City","NE","Nebraska","68440","Central","40.152861","-97.126435"
"(308) 745-","Landline","Sherman","Loup City","NE","Nebraska","68853","Central / Mountain","41.276435","-98.966954"
"(402) 439-","Landline","Stanton","Stanton","NE","Nebraska","68779","Central","41.982175","-97.203396"
"(402) 634-","Landline","Madison","Meadow Grove","NE","Nebraska","68752","Central","42.034395","-97.782829"
"(308) 981-","Unknown","Scotts Bluff","Scottsbluff","NE","Nebraska","69361","Central / Mountain","41.872005","-103.77023"
"(308) 528-","Cell Number","Kearney","Minden","NE","Nebraska","68959","Central / Mountain","40.502515","-98.907731"
"(402) 470-","Landline","Lancaster","Lincoln","NE","Nebraska","68542","Central","40.784451","-96.688799"
"(402) 867-","Landline","Cass","Murdock","NE","Nebraska","68407","Central","40.907906","-96.268221"
"(402) 368-","Landline","Madison","Tilden","NE","Nebraska","68781","Central","42.042732","-97.829855"
"(402) 453-","Landline","Douglas","Omaha","NE","Nebraska","68136","Central","41.169034","-96.172007"
"(308) 328-","Landline","Red Willow","Culbertson","NE","Nebraska","69024","Central / Mountain","40.231495","-100.835774"
"(402) 301-","Cell Number","Douglas","Omaha","NE","Nebraska","68136","Central","41.169034","-96.172007"
"(402) 652-","Landline","Dodge","North Bend","NE","Nebraska","68649","Central","41.54148","-96.685416"
"(308) 395-","Landline","Hall","Grand Island","NE","Nebraska","68803","Central / Mountain","40.872531","-98.521343"
"(308) 467-","Landline","Buffalo","Ravenna","NE","Nebraska","68869","Central / Mountain","40.960075","-98.902302"
"(308) 641-","Cell Number","Scotts Bluff","Scottsbluff","NE","Nebraska","69361","Central / Mountain","41.872005","-103.77023"
"(308) 772-","Landline","Garden","Oshkosh","NE","Nebraska","69190","Central / Mountain","41.615307","-102.331762"
"(402) 845-","Landline","Hall","Doniphan","NE","Nebraska","68832","Central","40.800367","-98.446665"
"(402) 855-","Landline","Richardson","Dawson","NE","Nebraska","68337","Central","40.132685","-95.830408"
"(308) 378-","Landline","Hall","Grand Island","NE","Nebraska","68803","Central / Mountain","40.872531","-98.521343"
"(308) 279-","Cell Number","Morrill","Bridgeport","NE","Nebraska","69336","Central / Mountain","41.667733","-103.102335"
"(402) 307-","Cell Number","Burt","Tekamah","NE","Nebraska","68061","Central","41.808435","-96.25543"
"(308) 392-","Landline","Hall","Grand Island","NE","Nebraska","68803","Central / Mountain","40.872531","-98.521343"
"(308) 334-","Landline","Hitchcock","Trenton","NE","Nebraska","69044","Central / Mountain","40.176356","-101.010823"
"(402) 742-","Landline","Lancaster","Lincoln","NE","Nebraska","68542","Central","40.784451","-96.688799"
"(308) 524-","Cell Number","Cheyenne","Sidney","NE","Nebraska","69162","Central / Mountain","41.161943","-103.066015"
"(308) 222-","Cell Number","Buffalo","Miller","NE","Nebraska","68858","Central / Mountain","40.952708","-99.364921"
"(402) 385-","Landline","Thurston","Pender","NE","Nebraska","68047","Central","42.110449","-96.723917"
"(308) 588-","Landline","Sheridan","Bingham","NE","Nebraska","69335","Central / Mountain","42.730616","-102.471549"
"(402) 598-","Cell Number","Douglas","Omaha","NE","Nebraska","68136","Central","41.169034","-96.172007"
"(308) 935-","Landline","Custer","Ansley","NE","Nebraska","68814","Central / Mountain","41.289827","-99.381735"
"(308) 525-","Landline","Dawes","Whitney","NE","Nebraska","69367","Central / Mountain","42.788579","-103.299462"
"(402) 893-","Landline","Antelope","Orchard","NE","Nebraska","68764","Central","42.337003","-98.239908"
"(308) 783-","Landline","Scotts Bluff","Minatare","NE","Nebraska","69356","Central / Mountain","41.861192","-103.643939"
"(308) 879-","Landline","Cheyenne","Potter","NE","Nebraska","69156","Central / Mountain","41.212817","-103.247811"
"(402) 217-","Cell Number","Lancaster","Lincoln","NE","Nebraska","68542","Central","40.784451","-96.688799"
"(308) 527-","Landline","Custer","Sargent","NE","Nebraska","68874","Central / Mountain","41.645695","-99.371585"
"(402) 526-","Landline","Butler","Ulysses","NE","Nebraska","68669","Central","41.09176","-97.224683"
"(402) 970-","Landline","Douglas","Omaha","NE","Nebraska","68136","Central","41.169034","-96.172007"
"(402) 372-","Landline","Cuming","West Point","NE","Nebraska","68788","Central","41.870968","-96.777787"
"(402) 675-","Landline","Madison","Battle Creek","NE","Nebraska","68715","Central","41.976904","-97.568855"
"(308) 546-","Landline","Hooker","Mullen","NE","Nebraska","69152","Central / Mountain","42.042143","-101.045192"
"(402) 521-","Cell Number","Saunders","Ashland","NE","Nebraska","68003","Central","41.102696","-96.577634"
"(402) 789-","Landline","Cass","Greenwood","NE","Nebraska","68366","Central","40.905385","-96.290223"
"(402) 791-","Landline","Lancaster","Firth","NE","Nebraska","68358","Central","40.560657","-96.58393"
"(402) 260-","Cell Number","Cuming","West Point","NE","Nebraska","68788","Central","41.870968","-96.777787"
"(308) 218-","Unknown","Hall","Grand Island","NE","Nebraska","68803","Central / Mountain","40.872531","-98.521343"
"(308) 384-","Landline","Hall","Grand Island","NE","Nebraska","68803","Central / Mountain","40.872531","-98.521343"
"(308) 645-","Landline","Thomas","Thedford","NE","Nebraska","69166","Central / Mountain","41.979407","-100.557354"
"(308) 895-","Landline","Red Willow","Danbury","NE","Nebraska","69026","Central / Mountain","40.176507","-100.476977"
"(402) 686-","Landline","Douglas","Omaha","NE","Nebraska","68136","Central","41.169034","-96.172007"
"(402) 860-","Cell Number","Madison","Norfolk","NE","Nebraska","68701","Central","41.99641","-97.601189"
"(402) 962-","Landline","Douglas","Omaha","NE","Nebraska","68136","Central","41.169034","-96.172007"
"(402) 362-","Landline","York","York","NE","Nebraska","68467","Central","40.890132","-97.597278"
"(308) 789-","Landline","Valley","Arcadia","NE","Nebraska","68815","Central / Mountain","41.52244","-99.038945"
"(402) 685-","Landline","Burt","Oakland","NE","Nebraska","68045","Central","41.845492","-96.401432"
"(402) 480-","Cell Number","Lancaster","Lincoln","NE","Nebraska","68542","Central","40.784451","-96.688799"
"(402) 940-","Landline","Madison","Norfolk","NE","Nebraska","68701","Central","41.99641","-97.601189"
"(402) 539-","Landline","Colfax","Schuyler","NE","Nebraska","68661","Central","41.559744","-97.079635"
"(402) 394-","Landline","Holt","Inman","NE","Nebraska","68742","Central","42.380604","-98.530866"
"(402) 215-","Cell Number","Douglas","Omaha","NE","Nebraska","68136","Central","41.169034","-96.172007"
"(402) 722-","Landline","Brown","Johnstown","NE","Nebraska","69214","Central","42.465698","-99.930477"
"(402) 569-","Landline","Boyd","Lynch","NE","Nebraska","68746","Central","42.879903","-98.781334"
"(402) 689-","Cell Number","Douglas","Omaha","NE","Nebraska","68136","Central","41.169034","-96.172007"
"(402) 271-","Landline","Douglas","Omaha","NE","Nebraska","68136","Central","41.169034","-96.172007"
"(402) 383-","Landline","Nemaha","Peru","NE","Nebraska","68421","Central","40.477743","-95.729589"
"(402) 545-","Landline","Butler","Brainard","NE","Nebraska","68626","Central","41.143956","-96.992319"
"(402) 852-","Landline","Pawnee","Pawnee City","NE","Nebraska","68420","Central","40.111565","-96.151758"
"(402) 408-","Landline","Douglas","Omaha","NE","Nebraska","68136","Central","41.169034","-96.172007"
"(402) 269-","Landline","Otoe","Syracuse","NE","Nebraska","68446","Central","40.645896","-96.169603"
"(402) 905-","Landline","Douglas","Omaha","NE","Nebraska","68136","Central","41.169034","-96.172007"
"(402) 817-","Landline","Lancaster","Lincoln","NE","Nebraska","68542","Central","40.784451","-96.688799"
"(402) 654-","Landline","Dodge","Hooper","NE","Nebraska","68031","Central","41.621961","-96.549316"
"(308) 229-","Landline","Scotts Bluff","Lyman","NE","Nebraska","69352","Central / Mountain","41.835492","-103.974153"
"(402) 265-","Landline","Cass","Avoca","NE","Nebraska","68307","Central","40.881809","-96.239403"
"(402) 815-","Unknown","Sarpy","Omaha","NE","Nebraska","68136","Central","41.169034","-96.172007"
"(308) 380-","Cell Number","Hall","Grand Island","NE","Nebraska","68803","Central / Mountain","40.872531","-98.521343"
"(402) 490-","Cell Number","Douglas","Omaha","NE","Nebraska","68136","Central","41.169034","-96.172007"
"(402) 669-","Cell Number","Douglas","Omaha","NE","Nebraska","68136","Central","41.169034","-96.172007"
"(308) 440-","Cell Number","Buffalo","Kearney","NE","Nebraska","68849","Central / Mountain","40.849654","-99.074058"
"(402) 804-","Cell Number","Cass","Plattsmouth","NE","Nebraska","68048","Central","40.971961","-96.001244"
"(402) 553-","Landline","Douglas","Omaha","NE","Nebraska","68136","Central","41.169034","-96.172007"
"(402) 417-","Cell Number","Lancaster","Lincoln","NE","Nebraska","68542","Central","40.784451","-96.688799"
"(308) 325-","Cell Number","Dawson","Lexington","NE","Nebraska","68850","Central / Mountain","40.873227","-99.718408"
"(402) 801-","Cell Number","Richardson","Falls City","NE","Nebraska","68355","Central","40.073908","-95.602053"
"(402) 278-","Cell Number","Washington","Kennard","NE","Nebraska","68034","Central","41.45256","-96.190348"
"(402) 929-","Cell Number","Antelope","Neligh","NE","Nebraska","68756","Central","42.216925","-98.13176"
"(402) 898-","Landline","Douglas","Omaha","NE","Nebraska","68136","Central","41.169034","-96.172007"
"(402) 716-","Landline","Douglas","Omaha","NE","Nebraska","68136","Central","41.169034","-96.172007"
"(402) 435-","Landline","Lancaster","Lincoln","NE","Nebraska","68542","Central","40.784451","-96.688799"
"(402) 998-","Landline","Douglas","Omaha","NE","Nebraska","68136","Central","41.169034","-96.172007"
"(308) 784-","Landline","Dawson","Cozad","NE","Nebraska","69130","Central / Mountain","40.895003","-99.967448"
"(308) 453-","Landline","Sioux","Harrison","NE","Nebraska","69346","Central / Mountain","42.631216","-103.782027"
"(402) 802-","Landline","Lancaster","Lincoln","NE","Nebraska","68542","Central","40.784451","-96.688799"
"(402) 783-","Landline","Lancaster","Raymond","NE","Nebraska","68428","Central","40.934176","-96.786573"
"(402) 499-","Cell Number","Lancaster","Lincoln","NE","Nebraska","68542","Central","40.784451","-96.688799"
"(402) 447-","Landline","Madison","Newman Grove","NE","Nebraska","68758","Central","41.747884","-97.777198"
"(402) 391-","Landline","Douglas","Omaha","NE","Nebraska","68136","Central","41.169034","-96.172007"
"(308) 340-","Cell Number","Red Willow","Mc Cook","NE","Nebraska","69001","Central / Mountain","40.207969","-100.620628"
"(402) 434-","Landline","Lancaster","Lincoln","NE","Nebraska","68542","Central","40.784451","-96.688799"
"(308) 335-","Landline","Cheyenne","Sidney","NE","Nebraska","69162","Central / Mountain","41.161943","-103.066015"
"(402) 805-","Cell Number","Lancaster","Lincoln","NE","Nebraska","68542","Central","40.784451","-96.688799"
"(308) 868-","Landline","Harlan","Stamford","NE","Nebraska","68977","Central / Mountain","40.176513","-99.404864"
"(402) 887-","Landline","Antelope","Neligh","NE","Nebraska","68756","Central","42.216925","-98.13176"
"(402) 641-","Cell Number","Seward","Seward","NE","Nebraska","68434","Central","40.91582","-97.101341"
"(402) 227-","Landline","Cass","Nehawka","NE","Nebraska","68413","Central","40.856763","-96.015428"
"(308) 566-","Unknown","Deuel","Chappell","NE","Nebraska","69129","Central / Mountain","41.112122","-102.421494"
"(308) 326-","Landline","Perkins","Madrid","NE","Nebraska","69150","Central / Mountain","40.850739","-101.649075"
"(402) 528-","Landline","Cuming","Beemer","NE","Nebraska","68716","Central","41.909399","-96.816403"
"(402) 895-","Landline","Douglas","Omaha","NE","Nebraska","68136","Central","41.169034","-96.172007"
"(402) 319-","Cell Number","Douglas","Omaha","NE","Nebraska","68136","Central","41.169034","-96.172007"
"(308) 526-","Landline","Lincoln","North Platte","NE","Nebraska","69103","Central / Mountain","41.046447","-100.746912"
"(402) 357-","Landline","Cedar","Wynot","NE","Nebraska","68792","Central","42.708262","-97.161919"
"(402) 865-","Landline","Pawnee","Burchard","NE","Nebraska","68323","Central","40.146335","-96.348151"
"(308) 244-","Landline","Kimball","Bushnell","NE","Nebraska","69128","Central / Mountain","41.232626","-103.891757"
"(402) 606-","Cell Number","Platte","Columbus","NE","Nebraska","68601","Central","41.542962","-97.376314"
"(308) 538-","Landline","Blaine","Dunning","NE","Nebraska","68833","Central / Mountain","41.912303","-99.977135"
"(308) 214-","Cell Number","Custer","Sargent","NE","Nebraska","68874","Central / Mountain","41.645695","-99.371585"
"(402) 751-","Landline","Adams","Juniata","NE","Nebraska","68955","Central","40.596951","-98.506045"
"(402) 290-","Cell Number","Douglas","Omaha","NE","Nebraska","68136","Central","41.169034","-96.172007"
"(402) 690-","Cell Number","Douglas","Omaha","NE","Nebraska","68136","Central","41.169034","-96.172007"
"(308) 938-","Landline","Franklin","Hildreth","NE","Nebraska","68947","Central / Mountain","40.337828","-99.043138"
"(402) 927-","Landline","Douglas","Omaha","NE","Nebraska","68136","Central","41.169034","-96.172007"
"(308) 470-","Cell Number","Franklin","Franklin","NE","Nebraska","68939","Central / Mountain","40.096305","-98.995406"
"(402) 575-","Landline","Douglas","Omaha","NE","Nebraska","68136","Central","41.169034","-96.172007"
"(402) 664-","Landline","Dodge","Scribner","NE","Nebraska","68057","Central","41.567768","-96.588672"
"(402) 680-","Cell Number","Douglas","Omaha","NE","Nebraska","68136","Central","41.169034","-96.172007"
"(308) 389-","Landline","Hall","Grand Island","NE","Nebraska","68803","Central / Mountain","40.872531","-98.521343"
"(308) 287-","Landline","Keith","Brule","NE","Nebraska","69127","Central / Mountain","41.135819","-101.921709"
"(402) 464-","Landline","Lancaster","Lincoln","NE","Nebraska","68542","Central","40.784451","-96.688799"
"(308) 355-","Landline","Keith","Lemoyne","NE","Nebraska","69146","Central / Mountain","41.323607","-101.767329"
"(402) 885-","Landline","Douglas","Omaha","NE","Nebraska","68136","Central","41.169034","-96.172007"
"(308) 750-","Cell Number","Howard","Saint Paul","NE","Nebraska","68873","Central / Mountain","41.232405","-98.503283"
"(402) 534-","Landline","Seward","Utica","NE","Nebraska","68456","Central","40.938023","-97.292178"
"(402) 205-","Cell Number","Gage","Beatrice","NE","Nebraska","68310","Central","40.313364","-96.693082"
"(308) 589-","Landline","Hall","Grand Island","NE","Nebraska","68803","Central / Mountain","40.872531","-98.521343"
"(402) 583-","Landline","Boyd","Spencer","NE","Nebraska","68777","Central","42.872702","-98.701552"
"(308) 235-","Landline","Kimball","Kimball","NE","Nebraska","69145","Central / Mountain","41.206972","-103.769557"
"(402) 847-","Landline","Knox","Winnetoon","NE","Nebraska","68789","Central","42.533387","-98.004988"
"(402) 244-","Landline","Keya Paha","Newport","NE","Nebraska","68759","Central","42.858168","-99.726221"
"(402) 823-","Landline","Cherry","Nenzel","NE","Nebraska","69219","Central","42.542631","-101.126167"
"(402) 323-","Landline","Lancaster","Lincoln","NE","Nebraska","68542","Central","40.784451","-96.688799"
"(402) 673-","Landline","Gage","Pickrell","NE","Nebraska","68422","Central","40.378063","-96.728578"
"(402) 354-","Landline","Douglas","Omaha","NE","Nebraska","68136","Central","41.169034","-96.172007"
"(402) 458-","Landline","Lancaster","Lincoln","NE","Nebraska","68542","Central","40.784451","-96.688799"
"(402) 353-","Landline","Thayer","Bruning","NE","Nebraska","68322","Central","40.335959","-97.56495"
"(308) 762-","Landline","Box Butte","Alliance","NE","Nebraska","69301","Central / Mountain","42.219844","-103.073327"
"(402) 305-","Cell Number","Douglas","Omaha","NE","Nebraska","68136","Central","41.169034","-96.172007"
"(402) 849-","Landline","Hamilton","Giltner","NE","Nebraska","68841","Central","40.763612","-98.158838"
"(402) 380-","Cell Number","Cuming","West Point","NE","Nebraska","68788","Central","41.870968","-96.777787"
"(402) 431-","Landline","Douglas","Omaha","NE","Nebraska","68136","Central","41.169034","-96.172007"
"(402) 546-","Landline","Douglas","Omaha","NE","Nebraska","68136","Central","41.169034","-96.172007"
"(402) 778-","Landline","Douglas","Omaha","NE","Nebraska","68136","Central","41.169034","-96.172007"
"(402) 381-","Landline","Saline","Crete","NE","Nebraska","68333","Central","40.628937","-97.016925"
"(308) 637-","Cell Number","Scotts Bluff","Scottsbluff","NE","Nebraska","69361","Central / Mountain","41.872005","-103.77023"
"(308) 336-","Landline","Howard","Farwell","NE","Nebraska","68838","Central / Mountain","41.206635","-98.679842"
"(402) 877-","Landline","Johnson","Elk Creek","NE","Nebraska","68348","Central","40.287778","-96.12748"
"(308) 730-","Cell Number","Valley","Ord","NE","Nebraska","68862","Central / Mountain","41.603603","-98.932718"
"(308) 225-","Cell Number","Scotts Bluff","Scottsbluff","NE","Nebraska","69361","Central / Mountain","41.872005","-103.77023"
"(402) 792-","Landline","Lancaster","Hickman","NE","Nebraska","68372","Central","40.61189","-96.62468"
"(402) 602-","Unknown","Sarpy","Omaha","NE","Nebraska","68136","Central","41.169034","-96.172007"
"(402) 733-","Landline","Douglas","Omaha","NE","Nebraska","68136","Central","41.169034","-96.172007"
"(308) 278-","Landline","Hitchcock","Culbertson","NE","Nebraska","69024","Central / Mountain","40.231495","-100.835774"
"(402) 660-","Cell Number","Douglas","Omaha","NE","Nebraska","68136","Central","41.169034","-96.172007"
"(402) 636-","Landline","Douglas","Omaha","NE","Nebraska","68136","Central","41.169034","-96.172007"
"(402) 483-","Landline","Lancaster","Lincoln","NE","Nebraska","68542","Central","40.784451","-96.688799"
"(402) 243-","Landline","Saline","Tobias","NE","Nebraska","68453","Central","40.418436","-97.336671"
"(402) 350-","Cell Number","Douglas","Omaha","NE","Nebraska","68136","Central","41.169034","-96.172007"
"(308) 447-","Landline","Perkins","Venango","NE","Nebraska","69168","Central / Mountain","40.850739","-101.649075"
"(402) 880-","Cell Number","Douglas","Omaha","NE","Nebraska","68136","Central","41.169034","-96.172007"
"(402) 225-","Landline","Nuckolls","Nelson","NE","Nebraska","68961","Central","40.20105","-98.068371"
"(308) 383-","Cell Number","Hall","Grand Island","NE","Nebraska","68803","Central / Mountain","40.872531","-98.521343"
"(308) 859-","Landline","Harlan","Stamford","NE","Nebraska","68977","Central / Mountain","40.176513","-99.404864"
"(402) 209-","Cell Number","Otoe","Nebraska City","NE","Nebraska","68410","Central","40.707742","-95.907718"
"(308) 594-","Unknown","Hall","Wood River","NE","Nebraska","68883","Central / Mountain","40.872494","-98.589324"
"(402) 410-","Cell Number","Clay","Sutton","NE","Nebraska","68979","Central","40.507387","-97.85543"
"(402) 663-","Landline","Saunders","Prague","NE","Nebraska","68050","Central","41.314461","-96.823281"
"(308) 848-","Landline","Custer","Arnold","NE","Nebraska","69120","Central / Mountain","41.423996","-100.194253"
"(402) 322-","Cell Number","Cherry","Valentine","NE","Nebraska","69201","Central","42.906836","-100.996747"
"(308) 233-","Landline","Buffalo","Kearney","NE","Nebraska","68849","Central / Mountain","40.849654","-99.074058"
"(402) 930-","Landline","Douglas","Omaha","NE","Nebraska","68136","Central","41.169034","-96.172007"
"(402) 389-","Cell Number","Cherry","Valentine","NE","Nebraska","69201","Central","42.906836","-100.996747"
"(402) 495-","Landline","Platte","Monroe","NE","Nebraska","68647","Central","41.465573","-97.625525"
"(402) 206-","Unknown","Sarpy","Omaha","NE","Nebraska","68136","Central","41.169034","-96.172007"
"(308) 258-","Landline","Hall","Grand Island","NE","Nebraska","68803","Central / Mountain","40.872531","-98.521343"
"(402) 467-","Landline","Lancaster","Lincoln","NE","Nebraska","68542","Central","40.784451","-96.688799"
"(308) 212-","Cell Number","Custer","Westerville","NE","Nebraska","68881","Central / Mountain","41.393902","-99.728097"
"(402) 613-","Cell Number","Lancaster","Lincoln","NE","Nebraska","68542","Central","40.784451","-96.688799"
"(308) 539-","Cell Number","Lincoln","North Platte","NE","Nebraska","69103","Central / Mountain","41.046447","-100.746912"
"(402) 617-","Cell Number","Lancaster","Lincoln","NE","Nebraska","68542","Central","40.784451","-96.688799"
"(402) 657-","Cell Number","Douglas","Omaha","NE","Nebraska","68136","Central","41.169034","-96.172007"
"(402) 601-","Cell Number","Lancaster","Lincoln","NE","Nebraska","68542","Central","40.784451","-96.688799"
"(402) 648-","Landline","Cuming","Bancroft","NE","Nebraska","68004","Central","41.995729","-96.671008"
"(308) 894-","Landline","Merrick","Palmer","NE","Nebraska","68864","Central / Mountain","41.244701","-98.182952"
"(402) 699-","Cell Number","Douglas","Omaha","NE","Nebraska","68136","Central","41.169034","-96.172007"
"(308) 265-","Landline","Furnas","Hendley","NE","Nebraska","68946","Central / Mountain","40.176314","-99.913076"
"(308) 930-","Cell Number","Hall","Grand Island","NE","Nebraska","68803","Central / Mountain","40.872531","-98.521343"
"(402) 252-","Landline","Douglas","Omaha","NE","Nebraska","68136","Central","41.169034","-96.172007"
"(308) 338-","Landline","Buffalo","Kearney","NE","Nebraska","68849","Central / Mountain","40.849654","-99.074058"
"(402) 570-","Cell Number","Lancaster","Lincoln","NE","Nebraska","68542","Central","40.784451","-96.688799"
"(402) 812-","Cell Number","Douglas","Omaha","NE","Nebraska","68136","Central","41.169034","-96.172007"
"(402) 986-","Landline","Colfax","Howells","NE","Nebraska","68641","Central","41.66172","-97.103325"
"(402) 373-","Landline","Knox","Bloomfield","NE","Nebraska","68718","Central","42.628731","-97.659606"
"(402) 592-","Landline","Douglas","Omaha","NE","Nebraska","68136","Central","41.169034","-96.172007"
"(402) 459-","Cell Number","Dodge","Fremont","NE","Nebraska","68025","Central","41.487786","-96.501672"
"(308) 749-","Landline","Custer","Anselmo","NE","Nebraska","68813","Central / Mountain","41.620773","-99.864392"
"(402) 825-","Landline","Nemaha","Brownville","NE","Nebraska","68321","Central","40.397541","-95.663987"
"(402) 762-","Landline","Clay","Clay Center","NE","Nebraska","68933","Central","40.565856","-98.070907"
"(402) 466-","Landline","Lancaster","Lincoln","NE","Nebraska","68542","Central","40.784451","-96.688799"
"(402) 820-","Cell Number","Lancaster","Lincoln","NE","Nebraska","68542","Central","40.784451","-96.688799"
"(308) 647-","Landline","Buffalo","Shelton","NE","Nebraska","68876","Central / Mountain","40.812713","-98.788349"
"(308) 255-","Landline","Cheyenne","Sidney","NE","Nebraska","69162","Central / Mountain","41.161943","-103.066015"
"(402) 590-","Landline","Douglas","Omaha","NE","Nebraska","68136","Central","41.169034","-96.172007"
"(402) 798-","Landline","Gage","Cortland","NE","Nebraska","68331","Central","40.50528","-96.752373"
"(402) 426-","Landline","Washington","Blair","NE","Nebraska","68008","Central","41.543582","-96.17653"
"(402) 843-","Landline","Antelope","Elgin","NE","Nebraska","68636","Central","41.982761","-98.083714"
"(402) 955-","Landline","Douglas","Omaha","NE","Nebraska","68136","Central","41.169034","-96.172007"
"(308) 640-","Cell Number","Dawson","Gothenburg","NE","Nebraska","69138","Central / Mountain","40.945256","-100.129125"
"(402) 229-","Landline","Knox","Niobrara","NE","Nebraska","68760","Central","42.739127","-97.924783"
"(402) 829-","Landline","Douglas","Omaha","NE","Nebraska","68136","Central","41.169034","-96.172007"
"(308) 732-","Landline","Custer","Mason City","NE","Nebraska","68855","Central / Mountain","41.283369","-99.37871"
"(402) 777-","Landline","Douglas","Omaha","NE","Nebraska","68136","Central","41.169034","-96.172007"
"(402) 571-","Landline","Douglas","Omaha","NE","Nebraska","68136","Central","41.169034","-96.172007"
"(308) 324-","Landline","Dawson","Lexington","NE","Nebraska","68850","Central / Mountain","40.873227","-99.718408"
"(402) 941-","Landline","Dodge","Fremont","NE","Nebraska","68025","Central","41.487786","-96.501672"
"(402) 693-","Landline","Dodge","Dodge","NE","Nebraska","68633","Central","41.593378","-96.675369"
"(402) 203-","Cell Number","Douglas","Omaha","NE","Nebraska","68136","Central","41.169034","-96.172007"
"(402) 878-","Landline","Thurston","Winnebago","NE","Nebraska","68071","Central","42.238161","-96.472847"
"(402) 614-","Landline","Douglas","Omaha","NE","Nebraska","68136","Central","41.169034","-96.172007"
"(308) 293-","Cell Number","Buffalo","Kearney","NE","Nebraska","68849","Central / Mountain","40.849654","-99.074058"
