"Prefix","Usage","County","City","ShortState","LongState","Zip","Timezone","Latitude","Longitude"
"(603) 294-","Landline","Rockingham","Portsmouth","NH","New Hampshire","3804","Eastern","43.005895","-71.013202"
"(603) 224-","Landline","Merrimack","Concord","NH","New Hampshire","3305","Eastern","43.2134","-71.517151"
"(603) 929-","Landline","Rockingham","Hampton","NH","New Hampshire","3842","Eastern","42.917389","-70.95095"
"(603) 650-","Landline","Grafton","Hanover","NH","New Hampshire","3755","Eastern","43.861077","-72.120314"
"(603) 328-","Landline","Rockingham","Salem","NH","New Hampshire","3079","Eastern","42.872045","-71.196195"
"(603) 770-","Cell Number","Rockingham","Exeter","NH","New Hampshire","3833","Eastern","42.951274","-70.922262"
"(603) 476-","Landline","Carroll","South Tamworth","NH","New Hampshire","3883","Eastern","43.883871","-71.257726"
"(603) 259-","Landline","Grafton","Littleton","NH","New Hampshire","3561","Eastern","44.335289","-71.877638"
"(603) 502-","Cell Number","Rockingham","Portsmouth","NH","New Hampshire","3804","Eastern","43.005895","-71.013202"
"(603) 203-","Cell Number","Hillsborough","Manchester","NH","New Hampshire","3101","Eastern","42.988483","-71.462111"
"(603) 846-","Landline","Grafton","Bethlehem","NH","New Hampshire","3574","Eastern","44.30632","-71.728049"
"(603) 896-","Landline","Rockingham","Salem","NH","New Hampshire","3079","Eastern","42.872045","-71.196195"
"(603) 963-","Landline","Coos","Colebrook","NH","New Hampshire","3576","Eastern","44.902731","-71.500809"
"(603) 902-","Unknown","Merrimack","Newbury","NH","New Hampshire","3255","Eastern","43.321723","-72.01184"
"(603) 317-","Landline","Coos","Milan","NH","New Hampshire","3588","Eastern","44.56532","-71.218672"
"(603) 752-","Landline","Coos","Berlin","NH","New Hampshire","3570","Eastern","44.512344","-71.194226"
"(603) 498-","Cell Number","Rockingham","Portsmouth","NH","New Hampshire","3804","Eastern","43.005895","-71.013202"
"(603) 575-","Landline","Grafton","Littleton","NH","New Hampshire","3561","Eastern","44.335289","-71.877638"
"(603) 242-","Landline","Cheshire","Troy","NH","New Hampshire","3465","Eastern","42.843617","-72.279814"
"(603) 217-","Landline","Grafton","Bristol","NH","New Hampshire","3222","Eastern","43.70781","-71.72158"
"(603) 302-","Cell Number","Hillsborough","Manchester","NH","New Hampshire","3101","Eastern","42.988483","-71.462111"
"(603) 341-","Cell Number","Hillsborough","Merrimack","NH","New Hampshire","3054","Eastern","42.924928","-71.667508"
"(603) 888-","Landline","Hillsborough","Nashua","NH","New Hampshire","3062","Eastern","42.860117","-71.49976"
"(603) 445-","Landline","Cheshire","North Walpole","NH","New Hampshire","3609","Eastern","43.138018","-72.407236"
"(603) 849-","Landline","Rockingham","Exeter","NH","New Hampshire","3833","Eastern","42.951274","-70.922262"
"(603) 869-","Landline","Grafton","Bethlehem","NH","New Hampshire","3574","Eastern","44.30632","-71.728049"
"(603) 556-","Landline","Belknap","Laconia","NH","New Hampshire","3247","Eastern","43.588972","-71.445452"
"(603) 576-","Landline","Grafton","Lyme","NH","New Hampshire","3768","Eastern","43.801656","-72.130495"
"(603) 249-","Landline","Hillsborough","Milford","NH","New Hampshire","3055","Eastern","42.848787","-71.743882"
"(603) 469-","Landline","Grafton","Lebanon","NH","New Hampshire","3766","Eastern","43.637148","-72.23546"
"(603) 761-","Landline","Grafton","Littleton","NH","New Hampshire","3561","Eastern","44.335289","-71.877638"
"(603) 618-","Landline","Grafton","Woodsville","NH","New Hampshire","3785","Eastern","43.948644","-72.080708"
"(603) 656-","Landline","Hillsborough","Manchester","NH","New Hampshire","3101","Eastern","42.988483","-71.462111"
"(603) 536-","Landline","Grafton","Plymouth","NH","New Hampshire","3264","Eastern","43.710919","-71.694017"
"(603) 629-","Landline","Hillsborough","Manchester","NH","New Hampshire","3101","Eastern","42.988483","-71.462111"
"(603) 872-","Unknown","Belknap","Gilmanton Iron Works","NH","New Hampshire","3837","Eastern","43.446567","-71.299456"
"(603) 489-","Landline","Hillsborough","Manchester","NH","New Hampshire","3101","Eastern","42.988483","-71.462111"
"(603) 286-","Landline","Belknap","Tilton","NH","New Hampshire","3276","Eastern","43.536056","-71.49166"
"(603) 630-","Cell Number","Belknap","Laconia","NH","New Hampshire","3247","Eastern","43.588972","-71.445452"
"(603) 808-","Unknown","Hillsborough","Antrim","NH","New Hampshire","3440","Eastern","43.044535","-71.971353"
"(603) 572-","Cell Number","Hillsborough","Nashua","NH","New Hampshire","3062","Eastern","42.860117","-71.49976"
"(603) 280-","Landline","Strafford","Barrington","NH","New Hampshire","3825","Eastern","43.29779","-71.097423"
"(603) 727-","Landline","Grafton","Lebanon","NH","New Hampshire","3766","Eastern","43.637148","-72.23546"
"(603) 880-","Landline","Hillsborough","Nashua","NH","New Hampshire","3062","Eastern","42.860117","-71.49976"
"(603) 927-","Landline","Merrimack","Newbury","NH","New Hampshire","3255","Eastern","43.321723","-72.01184"
"(603) 230-","Landline","Merrimack","Concord","NH","New Hampshire","3305","Eastern","43.2134","-71.517151"
"(603) 839-","Unknown","Strafford","Farmington","NH","New Hampshire","3835","Eastern","43.306172","-71.003435"
"(603) 480-","Cell Number","Hillsborough","Manchester","NH","New Hampshire","3101","Eastern","42.988483","-71.462111"
"(603) 413-","Landline","Hillsborough","Manchester","NH","New Hampshire","3101","Eastern","42.988483","-71.462111"
"(603) 686-","Cell Number","Rockingham","Exeter","NH","New Hampshire","3833","Eastern","42.951274","-70.922262"
"(603) 424-","Landline","Hillsborough","Merrimack","NH","New Hampshire","3054","Eastern","42.924928","-71.667508"
"(603) 714-","Cell Number","Hillsborough","Manchester","NH","New Hampshire","3101","Eastern","42.988483","-71.462111"
"(603) 664-","Landline","Strafford","Barrington","NH","New Hampshire","3825","Eastern","43.29779","-71.097423"
"(603) 415-","Landline","Merrimack","Concord","NH","New Hampshire","3305","Eastern","43.2134","-71.517151"
"(603) 774-","Landline","Merrimack","Bow","NH","New Hampshire","3304","Eastern","43.128256","-71.544599"
"(603) 967-","Landline","Rockingham","Hampton","NH","New Hampshire","3842","Eastern","42.917389","-70.95095"
"(603) 717-","Landline","Merrimack","Concord","NH","New Hampshire","3305","Eastern","43.2134","-71.517151"
"(603) 558-","Cell Number","Sullivan","Claremont","NH","New Hampshire","3743","Eastern","43.415993","-72.209819"
"(603) 804-","Landline","Hillsborough","Milford","NH","New Hampshire","3055","Eastern","42.848787","-71.743882"
"(603) 451-","Landline","Coos","Milan","NH","New Hampshire","3588","Eastern","44.56532","-71.218672"
"(603) 613-","Landline","Coos","Colebrook","NH","New Hampshire","3576","Eastern","44.902731","-71.500809"
"(603) 368-","Landline","Sullivan","Newport","NH","New Hampshire","3773","Eastern","43.390485","-72.199659"
"(603) 968-","Landline","Grafton","Ashland","NH","New Hampshire","3217","Eastern","43.715626","-71.639896"
"(603) 917-","Landline","Cheshire","Keene","NH","New Hampshire","3431","Eastern","42.903656","-72.248052"
"(603) 345-","Cell Number","Hillsborough","Merrimack","NH","New Hampshire","3054","Eastern","42.924928","-71.667508"
"(603) 734-","Landline","Rockingham","Epping","NH","New Hampshire","3042","Eastern","43.047595","-71.084411"
"(603) 832-","Landline","Belknap","Laconia","NH","New Hampshire","3247","Eastern","43.588972","-71.445452"
"(603) 215-","Landline","Coos","Berlin","NH","New Hampshire","3570","Eastern","44.512344","-71.194226"
"(603) 412-","Cell Number","Grafton","Plymouth","NH","New Hampshire","3264","Eastern","43.710919","-71.694017"
"(603) 793-","Cell Number","Rockingham","Exeter","NH","New Hampshire","3833","Eastern","42.951274","-70.922262"
"(603) 332-","Landline","Strafford","Rochester","NH","New Hampshire","3867","Eastern","43.326831","-70.993148"
"(603) 388-","Landline","Coos","Colebrook","NH","New Hampshire","3576","Eastern","44.902731","-71.500809"
"(603) 507-","Landline","Grafton","Canaan","NH","New Hampshire","3741","Eastern","43.63123","-72.057312"
"(603) 452-","Landline","Carroll","Conway","NH","New Hampshire","3818","Eastern","43.78892","-71.10261"
"(603) 957-","Cell Number","Rockingham","Portsmouth","NH","New Hampshire","3804","Eastern","43.005895","-71.013202"
"(603) 582-","Cell Number","Hillsborough","Merrimack","NH","New Hampshire","3054","Eastern","42.924928","-71.667508"
"(603) 471-","Landline","Hillsborough","Bedford","NH","New Hampshire","3110","Eastern","42.93743","-71.535515"
"(603) 379-","Landline","Rockingham","Rye","NH","New Hampshire","3870","Eastern","43.010939","-70.764813"
"(603) 479-","Cell Number","Rockingham","Derry","NH","New Hampshire","3038","Eastern","42.950825","-71.197169"
"(603) 570-","Landline","Rockingham","Portsmouth","NH","New Hampshire","3804","Eastern","43.005895","-71.013202"
"(603) 419-","Cell Number","Merrimack","Suncook","NH","New Hampshire","3275","Eastern","43.286382","-71.599047"
"(603) 695-","Landline","Hillsborough","Manchester","NH","New Hampshire","3101","Eastern","42.988483","-71.462111"
"(603) 503-","Landline","Coos","Lancaster","NH","New Hampshire","3584","Eastern","44.476575","-71.561225"
"(603) 598-","Landline","Hillsborough","Nashua","NH","New Hampshire","3062","Eastern","42.860117","-71.49976"
"(603) 425-","Landline","Rockingham","Derry","NH","New Hampshire","3038","Eastern","42.950825","-71.197169"
"(603) 814-","Unknown","Rockingham","Seabrook","NH","New Hampshire","3874","Eastern","42.964415","-70.819897"
"(603) 681-","Landline","Rockingham","Salem","NH","New Hampshire","3079","Eastern","42.872045","-71.196195"
"(603) 601-","Landline","Rockingham","Hampton","NH","New Hampshire","3842","Eastern","42.917389","-70.95095"
"(603) 429-","Landline","Hillsborough","Merrimack","NH","New Hampshire","3054","Eastern","42.924928","-71.667508"
"(603) 312-","Cell Number","Strafford","Dover","NH","New Hampshire","3822","Eastern","43.326734","-71.028427"
"(603) 238-","Landline","Grafton","Plymouth","NH","New Hampshire","3264","Eastern","43.710919","-71.694017"
"(603) 823-","Landline","Grafton","Franconia","NH","New Hampshire","3580","Eastern","44.212814","-71.737162"
"(603) 421-","Landline","Rockingham","Derry","NH","New Hampshire","3038","Eastern","42.950825","-71.197169"
"(603) 738-","Cell Number","Merrimack","Concord","NH","New Hampshire","3305","Eastern","43.2134","-71.517151"
"(603) 913-","Landline","Hillsborough","Manchester","NH","New Hampshire","3101","Eastern","42.988483","-71.462111"
"(603) 947-","Landline","Grafton","Plymouth","NH","New Hampshire","3264","Eastern","43.710919","-71.694017"
"(603) 864-","Landline","Hillsborough","Nashua","NH","New Hampshire","3062","Eastern","42.860117","-71.49976"
"(603) 499-","Landline","Cheshire","Keene","NH","New Hampshire","3431","Eastern","42.903656","-72.248052"
"(603) 543-","Landline","Sullivan","Claremont","NH","New Hampshire","3743","Eastern","43.415993","-72.209819"
"(603) 788-","Landline","Coos","Lancaster","NH","New Hampshire","3584","Eastern","44.476575","-71.561225"
"(603) 497-","Landline","Hillsborough","Goffstown","NH","New Hampshire","3045","Eastern","42.94671","-71.687633"
"(603) 355-","Landline","Cheshire","Keene","NH","New Hampshire","3431","Eastern","42.903656","-72.248052"
"(603) 655-","Cell Number","Hillsborough","Manchester","NH","New Hampshire","3101","Eastern","42.988483","-71.462111"
"(603) 494-","Cell Number","Hillsborough","Merrimack","NH","New Hampshire","3054","Eastern","42.924928","-71.667508"
"(603) 590-","Landline","Strafford","Durham","NH","New Hampshire","3824","Eastern","43.165772","-70.962843"
"(603) 231-","Cell Number","Rockingham","Derry","NH","New Hampshire","3038","Eastern","42.950825","-71.197169"
"(603) 878-","Landline","Hillsborough","Greenville","NH","New Hampshire","3048","Eastern","42.875116","-71.717548"
"(603) 562-","Cell Number","Hillsborough","Peterborough","NH","New Hampshire","3458","Eastern","42.956433","-71.9372"
"(603) 838-","Landline","Grafton","Lisbon","NH","New Hampshire","3585","Eastern","44.245004","-71.888882"
"(603) 923-","Landline","Strafford","Rochester","NH","New Hampshire","3867","Eastern","43.326831","-70.993148"
"(603) 423-","Landline","Hillsborough","Merrimack","NH","New Hampshire","3054","Eastern","42.924928","-71.667508"
"(603) 915-","Cell Number","Coos","Gorham","NH","New Hampshire","3581","Eastern","44.404848","-71.154758"
"(603) 501-","Landline","Rockingham","Portsmouth","NH","New Hampshire","3804","Eastern","43.005895","-71.013202"
"(603) 574-","Landline","Cheshire","Alstead","NH","New Hampshire","3602","Eastern","43.134412","-72.310623"
"(603) 706-","Landline","Rockingham","Raymond","NH","New Hampshire","3077","Eastern","43.05932","-71.204521"
"(603) 510-","Unknown","Sullivan","Meriden","NH","New Hampshire","3770","Eastern","43.421675","-72.255638"
"(603) 571-","Cell Number","Rockingham","Derry","NH","New Hampshire","3038","Eastern","42.950825","-71.197169"
"(603) 994-","Landline","Strafford","Rochester","NH","New Hampshire","3867","Eastern","43.326831","-70.993148"
"(603) 608-","Cell Number","Rockingham","Northwood","NH","New Hampshire","3261","Eastern","43.208676","-71.202568"
"(603) 610-","Landline","Rockingham","Portsmouth","NH","New Hampshire","3804","Eastern","43.005895","-71.013202"
"(603) 458-","Landline","Rockingham","Salem","NH","New Hampshire","3079","Eastern","42.872045","-71.196195"
"(603) 486-","Cell Number","Hillsborough","Manchester","NH","New Hampshire","3101","Eastern","42.988483","-71.462111"
"(603) 685-","Landline","Rockingham","Salem","NH","New Hampshire","3079","Eastern","42.872045","-71.196195"
"(603) 444-","Landline","Grafton","Littleton","NH","New Hampshire","3561","Eastern","44.335289","-71.877638"
"(603) 426-","Cell Number","Rockingham","Derry","NH","New Hampshire","3038","Eastern","42.950825","-71.197169"
"(603) 275-","Cell Number","Rockingham","Derry","NH","New Hampshire","3038","Eastern","42.950825","-71.197169"
"(603) 690-","Landline","Sullivan","Claremont","NH","New Hampshire","3743","Eastern","43.415993","-72.209819"
"(603) 674-","Cell Number","Hillsborough","Manchester","NH","New Hampshire","3101","Eastern","42.988483","-71.462111"
"(603) 278-","Landline","Coos","Jefferson","NH","New Hampshire","3583","Eastern","44.695648","-71.387387"
"(603) 319-","Landline","Rockingham","Portsmouth","NH","New Hampshire","3804","Eastern","43.005895","-71.013202"
"(603) 925-","Landline","Hillsborough","Peterborough","NH","New Hampshire","3458","Eastern","42.956433","-71.9372"
"(603) 677-","Landline","Belknap","Meredith","NH","New Hampshire","3253","Eastern","43.592239","-71.517479"
"(603) 624-","Landline","Hillsborough","Manchester","NH","New Hampshire","3101","Eastern","42.988483","-71.462111"
"(603) 643-","Landline","Grafton","Hanover","NH","New Hampshire","3755","Eastern","43.861077","-72.120314"
"(603) 462-","Landline","Rockingham","Deerfield","NH","New Hampshire","3037","Eastern","42.987495","-71.252719"
"(603) 767-","Cell Number","Strafford","Dover","NH","New Hampshire","3822","Eastern","43.326734","-71.028427"
"(603) 821-","Landline","Hillsborough","Nashua","NH","New Hampshire","3062","Eastern","42.860117","-71.49976"
"(603) 533-","Cell Number","Hillsborough","Merrimack","NH","New Hampshire","3054","Eastern","42.924928","-71.667508"
"(603) 924-","Landline","Hillsborough","Peterborough","NH","New Hampshire","3458","Eastern","42.956433","-71.9372"
"(603) 653-","Landline","Grafton","Hanover","NH","New Hampshire","3755","Eastern","43.861077","-72.120314"
"(603) 559-","Landline","Rockingham","Portsmouth","NH","New Hampshire","3804","Eastern","43.005895","-71.013202"
"(603) 366-","Landline","Belknap","Laconia","NH","New Hampshire","3247","Eastern","43.588972","-71.445452"
"(603) 466-","Landline","Coos","Gorham","NH","New Hampshire","3581","Eastern","44.404848","-71.154758"
"(603) 440-","Landline","Hillsborough","Merrimack","NH","New Hampshire","3054","Eastern","42.924928","-71.667508"
"(603) 626-","Landline","Hillsborough","Manchester","NH","New Hampshire","3101","Eastern","42.988483","-71.462111"
"(603) 688-","Landline","Sullivan","Claremont","NH","New Hampshire","3743","Eastern","43.415993","-72.209819"
"(603) 691-","Landline","Carroll","Conway","NH","New Hampshire","3818","Eastern","43.78892","-71.10261"
"(603) 606-","Landline","Hillsborough","Manchester","NH","New Hampshire","3101","Eastern","42.988483","-71.462111"
"(603) 393-","Cell Number","Belknap","Laconia","NH","New Hampshire","3247","Eastern","43.588972","-71.445452"
"(603) 378-","Landline","Rockingham","Plaistow","NH","New Hampshire","3865","Eastern","42.937838","-70.926206"
"(603) 731-","Cell Number","Merrimack","Concord","NH","New Hampshire","3305","Eastern","43.2134","-71.517151"
"(603) 699-","Landline","Strafford","Milton Mills","NH","New Hampshire","3852","Eastern","43.326734","-71.028427"
"(603) 992-","Landline","Grafton","Grafton","NH","New Hampshire","3240","Eastern","43.967542","-71.840883"
"(603) 427-","Landline","Rockingham","Portsmouth","NH","New Hampshire","3804","Eastern","43.005895","-71.013202"
"(603) 449-","Landline","Coos","Milan","NH","New Hampshire","3588","Eastern","44.56532","-71.218672"
"(603) 535-","Landline","Grafton","Plymouth","NH","New Hampshire","3264","Eastern","43.710919","-71.694017"
"(603) 313-","Cell Number","Cheshire","Keene","NH","New Hampshire","3431","Eastern","42.903656","-72.248052"
"(603) 461-","Cell Number","Hillsborough","Merrimack","NH","New Hampshire","3054","Eastern","42.924928","-71.667508"
"(603) 285-","Landline","Strafford","Dover","NH","New Hampshire","3822","Eastern","43.326734","-71.028427"
"(603) 547-","Landline","Hillsborough","Greenfield","NH","New Hampshire","3047","Eastern","42.929346","-71.859087"
"(603) 308-","Landline","Grafton","Warren","NH","New Hampshire","3279","Eastern","43.967542","-71.840883"
"(603) 544-","Landline","Carroll","Center Tuftonboro","NH","New Hampshire","3816","Eastern","43.660752","-71.274458"
"(603) 270-","Landline","Hillsborough","Manchester","NH","New Hampshire","3101","Eastern","42.988483","-71.462111"
"(603) 815-","Unknown","Strafford","Durham","NH","New Hampshire","3824","Eastern","43.165772","-70.962843"
"(603) 625-","Landline","Hillsborough","Manchester","NH","New Hampshire","3101","Eastern","42.988483","-71.462111"
"(603) 580-","Landline","Rockingham","Exeter","NH","New Hampshire","3833","Eastern","42.951274","-70.922262"
"(603) 893-","Landline","Rockingham","Salem","NH","New Hampshire","3079","Eastern","42.872045","-71.196195"
"(603) 845-","Landline","Rockingham","Derry","NH","New Hampshire","3038","Eastern","42.950825","-71.197169"
"(603) 240-","Cell Number","Hillsborough","Manchester","NH","New Hampshire","3101","Eastern","42.988483","-71.462111"
"(603) 949-","Landline","Merrimack","Pittsfield","NH","New Hampshire","3263","Eastern","43.297834","-71.343707"
"(603) 247-","Cell Number","Rockingham","Derry","NH","New Hampshire","3038","Eastern","42.950825","-71.197169"
"(603) 265-","Cell Number","Hillsborough","New Boston","NH","New Hampshire","3070","Eastern","42.903497","-71.775889"
"(603) 871-","Landline","Carroll","Sanbornville","NH","New Hampshire","3872","Eastern","43.570694","-71.079427"
"(603) 782-","Landline","Hillsborough","Manchester","NH","New Hampshire","3101","Eastern","42.988483","-71.462111"
"(603) 904-","Landline","Cheshire","Walpole","NH","New Hampshire","3608","Eastern","43.072239","-72.390121"
"(603) 250-","Landline","Belknap","Meredith","NH","New Hampshire","3253","Eastern","43.592239","-71.517479"
"(603) 256-","Landline","Cheshire","West Chesterfield","NH","New Hampshire","3466","Eastern","42.858419","-72.432202"
"(603) 662-","Cell Number","Carroll","Conway","NH","New Hampshire","3818","Eastern","43.78892","-71.10261"
"(603) 299-","Landline","Strafford","Dover","NH","New Hampshire","3822","Eastern","43.326734","-71.028427"
"(603) 775-","Landline","Rockingham","Exeter","NH","New Hampshire","3833","Eastern","42.951274","-70.922262"
"(603) 236-","Landline","Carroll","Wonalancet","NH","New Hampshire","3897","Eastern","43.883871","-71.257726"
"(603) 208-","Cell Number","Grafton","Lyme","NH","New Hampshire","3768","Eastern","43.801656","-72.130495"
"(603) 619-","Landline","Grafton","Hanover","NH","New Hampshire","3755","Eastern","43.861077","-72.120314"
"(603) 354-","Landline","Cheshire","Keene","NH","New Hampshire","3431","Eastern","42.903656","-72.248052"
"(603) 831-","Cell Number","Hillsborough","Greenfield","NH","New Hampshire","3047","Eastern","42.929346","-71.859087"
"(603) 623-","Landline","Hillsborough","Manchester","NH","New Hampshire","3101","Eastern","42.988483","-71.462111"
"(603) 773-","Landline","Rockingham","Exeter","NH","New Hampshire","3833","Eastern","42.951274","-70.922262"
"(603) 710-","Landline","Coos","Errol","NH","New Hampshire","3579","Eastern","44.695648","-71.387387"
"(603) 387-","Cell Number","Belknap","Laconia","NH","New Hampshire","3247","Eastern","43.588972","-71.445452"
"(603) 258-","Landline","Hillsborough","Peterborough","NH","New Hampshire","3458","Eastern","42.956433","-71.9372"
"(603) 431-","Landline","Rockingham","Portsmouth","NH","New Hampshire","3804","Eastern","43.005895","-71.013202"
"(603) 272-","Landline","Grafton","Woodsville","NH","New Hampshire","3785","Eastern","43.948644","-72.080708"
"(603) 384-","Landline","Hillsborough","Manchester","NH","New Hampshire","3101","Eastern","42.988483","-71.462111"
"(603) 244-","Landline","Hillsborough","Manchester","NH","New Hampshire","3101","Eastern","42.988483","-71.462111"
"(603) 273-","Landline","Belknap","Laconia","NH","New Hampshire","3247","Eastern","43.588972","-71.445452"
"(603) 744-","Landline","Grafton","Bristol","NH","New Hampshire","3222","Eastern","43.70781","-71.72158"
"(603) 696-","Landline","Rockingham","Northwood","NH","New Hampshire","3261","Eastern","43.208676","-71.202568"
"(603) 465-","Landline","Hillsborough","Hollis","NH","New Hampshire","3049","Eastern","42.859545","-71.581313"
"(603) 635-","Landline","Hillsborough","Pelham","NH","New Hampshire","3076","Eastern","42.740651","-71.318715"
"(603) 261-","Cell Number","Hillsborough","Merrimack","NH","New Hampshire","3054","Eastern","42.924928","-71.667508"
"(603) 306-","Unknown","Grafton","Lebanon","NH","New Hampshire","3766","Eastern","43.637148","-72.23546"
"(603) 361-","Landline","Hillsborough","Manchester","NH","New Hampshire","3101","Eastern","42.988483","-71.462111"
"(603) 534-","Cell Number","Strafford","Dover","NH","New Hampshire","3822","Eastern","43.326734","-71.028427"
"(603) 621-","Landline","Hillsborough","Manchester","NH","New Hampshire","3101","Eastern","42.988483","-71.462111"
"(603) 548-","Cell Number","Rockingham","Derry","NH","New Hampshire","3038","Eastern","42.950825","-71.197169"
"(603) 609-","Landline","Strafford","Dover","NH","New Hampshire","3822","Eastern","43.326734","-71.028427"
"(603) 933-","Unknown","Hillsborough","Greenfield","NH","New Hampshire","3047","Eastern","42.929346","-71.859087"
"(603) 496-","Cell Number","Merrimack","Concord","NH","New Hampshire","3305","Eastern","43.2134","-71.517151"
"(603) 324-","Landline","Hillsborough","Nashua","NH","New Hampshire","3062","Eastern","42.860117","-71.49976"
"(603) 763-","Landline","Sullivan","Sunapee","NH","New Hampshire","3782","Eastern","43.426838","-72.15471"
"(603) 843-","Landline","Sullivan","Newport","NH","New Hampshire","3773","Eastern","43.390485","-72.199659"
"(603) 279-","Landline","Belknap","Meredith","NH","New Hampshire","3253","Eastern","43.592239","-71.517479"
"(603) 648-","Landline","Merrimack","Franklin","NH","New Hampshire","3235","Eastern","43.374297","-71.680021"
"(603) 781-","Cell Number","Strafford","Dover","NH","New Hampshire","3822","Eastern","43.326734","-71.028427"
"(603) 862-","Landline","Strafford","Durham","NH","New Hampshire","3824","Eastern","43.165772","-70.962843"
"(603) 737-","Landline","Belknap","Laconia","NH","New Hampshire","3247","Eastern","43.588972","-71.445452"
"(603) 597-","Landline","Grafton","Lyme","NH","New Hampshire","3768","Eastern","43.801656","-72.130495"
"(603) 474-","Landline","Rockingham","Seabrook","NH","New Hampshire","3874","Eastern","42.964415","-70.819897"
"(603) 969-","Cell Number","Rockingham","Portsmouth","NH","New Hampshire","3804","Eastern","43.005895","-71.013202"
"(603) 225-","Landline","Merrimack","Concord","NH","New Hampshire","3305","Eastern","43.2134","-71.517151"
"(603) 245-","Landline","Rockingham","Portsmouth","NH","New Hampshire","3804","Eastern","43.005895","-71.013202"
"(603) 596-","Cell Number","Hillsborough","Nashua","NH","New Hampshire","3062","Eastern","42.860117","-71.49976"
"(603) 443-","Landline","Grafton","Lebanon","NH","New Hampshire","3766","Eastern","43.637148","-72.23546"
"(603) 545-","Landline","Merrimack","Concord","NH","New Hampshire","3305","Eastern","43.2134","-71.517151"
"(603) 669-","Landline","Hillsborough","Manchester","NH","New Hampshire","3101","Eastern","42.988483","-71.462111"
"(603) 205-","Cell Number","Rockingham","Portsmouth","NH","New Hampshire","3804","Eastern","43.005895","-71.013202"
"(603) 760-","Landline","Rockingham","Seabrook","NH","New Hampshire","3874","Eastern","42.964415","-70.819897"
"(603) 766-","Landline","Rockingham","Portsmouth","NH","New Hampshire","3804","Eastern","43.005895","-71.013202"
"(603) 776-","Landline","Strafford","New Durham","NH","New Hampshire","3855","Eastern","43.459503","-71.119055"
"(603) 671-","Landline","Merrimack","Franklin","NH","New Hampshire","3235","Eastern","43.374297","-71.680021"
"(603) 998-","Cell Number","Belknap","Laconia","NH","New Hampshire","3247","Eastern","43.588972","-71.445452"
"(603) 304-","Cell Number","Grafton","Enfield","NH","New Hampshire","3748","Eastern","43.630906","-72.116603"
"(603) 908-","Landline","Cheshire","Alstead","NH","New Hampshire","3602","Eastern","43.134412","-72.310623"
"(603) 372-","Landline","Sullivan","Claremont","NH","New Hampshire","3743","Eastern","43.415993","-72.209819"
"(603) 818-","Cell Number","Rockingham","Derry","NH","New Hampshire","3038","Eastern","42.950825","-71.197169"
"(603) 698-","Landline","Carroll","Wolfeboro","NH","New Hampshire","3894","Eastern","43.667102","-71.183597"
"(603) 515-","Landline","Carroll","Wolfeboro","NH","New Hampshire","3894","Eastern","43.667102","-71.183597"
"(603) 973-","Cell Number","Strafford","Rochester","NH","New Hampshire","3867","Eastern","43.326831","-70.993148"
"(603) 385-","Cell Number","Hillsborough","Manchester","NH","New Hampshire","3101","Eastern","42.988483","-71.462111"
"(603) 895-","Landline","Rockingham","Raymond","NH","New Hampshire","3077","Eastern","43.05932","-71.204521"
"(603) 856-","Landline","Merrimack","Concord","NH","New Hampshire","3305","Eastern","43.2134","-71.517151"
"(603) 991-","Cell Number","Grafton","Littleton","NH","New Hampshire","3561","Eastern","44.335289","-71.877638"
"(603) 518-","Landline","Hillsborough","Manchester","NH","New Hampshire","3101","Eastern","42.988483","-71.462111"
"(603) 307-","Landline","Cheshire","West Chesterfield","NH","New Hampshire","3466","Eastern","42.858419","-72.432202"
"(603) 912-","Landline","Rockingham","Salem","NH","New Hampshire","3079","Eastern","42.872045","-71.196195"
"(603) 750-","Landline","Strafford","Dover","NH","New Hampshire","3822","Eastern","43.326734","-71.028427"
"(603) 780-","Landline","Grafton","Canaan","NH","New Hampshire","3741","Eastern","43.63123","-72.057312"
"(603) 875-","Landline","Belknap","Alton","NH","New Hampshire","3809","Eastern","43.462586","-71.222455"
"(603) 456-","Landline","Merrimack","Warner","NH","New Hampshire","3278","Eastern","43.310858","-71.842299"
"(603) 842-","Landline","Strafford","Dover","NH","New Hampshire","3822","Eastern","43.326734","-71.028427"
"(603) 504-","Cell Number","Sullivan","Claremont","NH","New Hampshire","3743","Eastern","43.415993","-72.209819"
"(603) 890-","Landline","Rockingham","Salem","NH","New Hampshire","3079","Eastern","42.872045","-71.196195"
"(603) 865-","Landline","Sullivan","Newport","NH","New Hampshire","3773","Eastern","43.390485","-72.199659"
"(603) 264-","Cell Number","Hillsborough","Manchester","NH","New Hampshire","3101","Eastern","42.988483","-71.462111"
"(603) 614-","Landline","Cheshire","West Chesterfield","NH","New Hampshire","3466","Eastern","42.858419","-72.432202"
"(603) 389-","Landline","Strafford","Durham","NH","New Hampshire","3824","Eastern","43.165772","-70.962843"
"(603) 226-","Landline","Merrimack","Concord","NH","New Hampshire","3305","Eastern","43.2134","-71.517151"
"(603) 477-","Cell Number","Sullivan","Claremont","NH","New Hampshire","3743","Eastern","43.415993","-72.209819"
"(603) 342-","Landline","Coos","Berlin","NH","New Hampshire","3570","Eastern","44.512344","-71.194226"
"(603) 948-","Unknown","Strafford","Rochester","NH","New Hampshire","3867","Eastern","43.326831","-70.993148"
"(603) 668-","Landline","Hillsborough","Manchester","NH","New Hampshire","3101","Eastern","42.988483","-71.462111"
"(603) 759-","Cell Number","Hillsborough","Nashua","NH","New Hampshire","3062","Eastern","42.860117","-71.49976"
"(603) 826-","Landline","Sullivan","Charlestown","NH","New Hampshire","3603","Eastern","43.268117","-72.370222"
"(603) 903-","Landline","Cheshire","Keene","NH","New Hampshire","3431","Eastern","42.903656","-72.248052"
"(603) 930-","Cell Number","Hillsborough","Nashua","NH","New Hampshire","3062","Eastern","42.860117","-71.49976"
"(603) 376-","Cell Number","Strafford","Dover","NH","New Hampshire","3822","Eastern","43.326734","-71.028427"
"(603) 271-","Landline","Merrimack","Concord","NH","New Hampshire","3305","Eastern","43.2134","-71.517151"
"(603) 542-","Landline","Sullivan","Claremont","NH","New Hampshire","3743","Eastern","43.415993","-72.209819"
"(603) 863-","Landline","Sullivan","Newport","NH","New Hampshire","3773","Eastern","43.390485","-72.199659"
"(603) 825-","Landline","Belknap","Laconia","NH","New Hampshire","3247","Eastern","43.588972","-71.445452"
"(603) 295-","Landline","Strafford","Durham","NH","New Hampshire","3824","Eastern","43.165772","-70.962843"
"(603) 772-","Landline","Rockingham","Exeter","NH","New Hampshire","3833","Eastern","42.951274","-70.922262"
"(603) 762-","Cell Number","Cheshire","Keene","NH","New Hampshire","3431","Eastern","42.903656","-72.248052"
"(603) 377-","Cell Number","Hillsborough","Merrimack","NH","New Hampshire","3054","Eastern","42.924928","-71.667508"
"(603) 628-","Landline","Hillsborough","Manchester","NH","New Hampshire","3101","Eastern","42.988483","-71.462111"
"(603) 289-","Cell Number","Hillsborough","Manchester","NH","New Hampshire","3101","Eastern","42.988483","-71.462111"
"(603) 239-","Landline","Cheshire","Winchester","NH","New Hampshire","3470","Eastern","42.895797","-72.274928"
"(603) 684-","Landline","Coos","Lancaster","NH","New Hampshire","3584","Eastern","44.476575","-71.561225"
"(603) 532-","Landline","Cheshire","Jaffrey","NH","New Hampshire","3452","Eastern","42.821969","-72.082559"
"(603) 325-","Landline","Hillsborough","Manchester","NH","New Hampshire","3101","Eastern","42.988483","-71.462111"
"(603) 267-","Landline","Belknap","Belmont","NH","New Hampshire","3220","Eastern","43.455551","-71.40709"
"(603) 953-","Landline","Strafford","Dover","NH","New Hampshire","3822","Eastern","43.326734","-71.028427"
"(603) 970-","Unknown","Strafford","Dover","NH","New Hampshire","3822","Eastern","43.326734","-71.028427"
"(603) 459-","Landline","Hillsborough","Nashua","NH","New Hampshire","3062","Eastern","42.860117","-71.49976"
"(603) 418-","Landline","Rockingham","Exeter","NH","New Hampshire","3833","Eastern","42.951274","-70.922262"
"(603) 300-","Cell Number","Rockingham","Chester","NH","New Hampshire","3036","Eastern","42.961606","-71.251021"
"(603) 525-","Landline","Hillsborough","Hancock","NH","New Hampshire","3449","Eastern","42.93924","-71.983797"
"(603) 351-","Landline","Hillsborough","Manchester","NH","New Hampshire","3101","Eastern","42.988483","-71.462111"
"(603) 551-","Landline","Hillsborough","Manchester","NH","New Hampshire","3101","Eastern","42.988483","-71.462111"
"(603) 837-","Landline","Coos","Whitefield","NH","New Hampshire","3598","Eastern","44.363681","-71.610189"
"(603) 329-","Landline","Rockingham","Hampstead","NH","New Hampshire","3841","Eastern","42.877438","-71.139098"
"(603) 769-","Landline","Hillsborough","Manchester","NH","New Hampshire","3101","Eastern","42.988483","-71.462111"
"(603) 693-","Landline","Rockingham","Epping","NH","New Hampshire","3042","Eastern","43.047595","-71.084411"
"(603) 718-","Unknown","Hillsborough","Nashua","NH","New Hampshire","3062","Eastern","42.860117","-71.49976"
"(603) 390-","Landline","Coos","Jefferson","NH","New Hampshire","3583","Eastern","44.695648","-71.387387"
"(603) 491-","Cell Number","Merrimack","Concord","NH","New Hampshire","3305","Eastern","43.2134","-71.517151"
"(603) 282-","Landline","Grafton","Canaan","NH","New Hampshire","3741","Eastern","43.63123","-72.057312"
"(603) 866-","Cell Number","Strafford","Dover","NH","New Hampshire","3822","Eastern","43.326734","-71.028427"
"(603) 829-","Landline","Sullivan","Sunapee","NH","New Hampshire","3782","Eastern","43.426838","-72.15471"
"(603) 640-","Landline","Grafton","Hanover","NH","New Hampshire","3755","Eastern","43.861077","-72.120314"
"(603) 522-","Landline","Carroll","Sanbornville","NH","New Hampshire","3872","Eastern","43.570694","-71.079427"
"(603) 678-","Landline","Grafton","Lebanon","NH","New Hampshire","3766","Eastern","43.637148","-72.23546"
"(603) 283-","Landline","Cheshire","Keene","NH","New Hampshire","3431","Eastern","42.903656","-72.248052"
"(603) 235-","Cell Number","Rockingham","Derry","NH","New Hampshire","3038","Eastern","42.950825","-71.197169"
"(603) 785-","Cell Number","Hillsborough","Manchester","NH","New Hampshire","3101","Eastern","42.988483","-71.462111"
"(603) 316-","Landline","Strafford","Durham","NH","New Hampshire","3824","Eastern","43.165772","-70.962843"
"(603) 360-","Unknown","Grafton","Orford","NH","New Hampshire","3777","Eastern","43.927348","-72.10987"
"(603) 237-","Landline","Coos","Colebrook","NH","New Hampshire","3576","Eastern","44.902731","-71.500809"
"(603) 233-","Cell Number","Hillsborough","Nashua","NH","New Hampshire","3062","Eastern","42.860117","-71.49976"
"(603) 889-","Landline","Hillsborough","Nashua","NH","New Hampshire","3062","Eastern","42.860117","-71.49976"
"(603) 432-","Landline","Rockingham","Derry","NH","New Hampshire","3038","Eastern","42.950825","-71.197169"
"(603) 830-","Unknown","Carroll","Wolfeboro","NH","New Hampshire","3894","Eastern","43.667102","-71.183597"
"(603) 310-","Landline","Hillsborough","Bedford","NH","New Hampshire","3110","Eastern","42.93743","-71.535515"
"(603) 375-","Landline","Merrimack","Concord","NH","New Hampshire","3305","Eastern","43.2134","-71.517151"
"(603) 434-","Landline","Rockingham","Derry","NH","New Hampshire","3038","Eastern","42.950825","-71.197169"
"(603) 855-","Unknown","Belknap","Alton","NH","New Hampshire","3809","Eastern","43.462586","-71.222455"
"(603) 778-","Landline","Rockingham","Exeter","NH","New Hampshire","3833","Eastern","42.951274","-70.922262"
"(603) 234-","Cell Number","Rockingham","Derry","NH","New Hampshire","3038","Eastern","42.950825","-71.197169"
"(603) 868-","Landline","Strafford","Durham","NH","New Hampshire","3824","Eastern","43.165772","-70.962843"
"(603) 720-","Landline","Cheshire","Rindge","NH","New Hampshire","3461","Eastern","42.76509","-72.00912"
"(603) 791-","Landline","Hillsborough","Nashua","NH","New Hampshire","3062","Eastern","42.860117","-71.49976"
"(603) 567-","Landline","Hillsborough","Peterborough","NH","New Hampshire","3458","Eastern","42.956433","-71.9372"
"(603) 817-","Cell Number","Strafford","Dover","NH","New Hampshire","3822","Eastern","43.326734","-71.028427"
"(603) 715-","Landline","Merrimack","Concord","NH","New Hampshire","3305","Eastern","43.2134","-71.517151"
"(603) 841-","Landline","Strafford","Somersworth","NH","New Hampshire","3878","Eastern","43.229489","-70.958264"
"(603) 652-","Landline","Strafford","Farmington","NH","New Hampshire","3835","Eastern","43.306172","-71.003435"
"(603) 754-","Landline","Coos","Lancaster","NH","New Hampshire","3584","Eastern","44.476575","-71.561225"
"(603) 357-","Landline","Cheshire","Keene","NH","New Hampshire","3431","Eastern","42.903656","-72.248052"
"(603) 721-","Cell Number","Hillsborough","Milford","NH","New Hampshire","3055","Eastern","42.848787","-71.743882"
"(603) 881-","Landline","Hillsborough","Nashua","NH","New Hampshire","3062","Eastern","42.860117","-71.49976"
"(603) 593-","Landline","Cheshire","Jaffrey","NH","New Hampshire","3452","Eastern","42.821969","-72.082559"
"(603) 410-","Landline","Hillsborough","Manchester","NH","New Hampshire","3101","Eastern","42.988483","-71.462111"
"(603) 339-","Cell Number","Rockingham","Derry","NH","New Hampshire","3038","Eastern","42.950825","-71.197169"
"(603) 437-","Landline","Rockingham","Derry","NH","New Hampshire","3038","Eastern","42.950825","-71.197169"
"(603) 852-","Cell Number","Cheshire","Keene","NH","New Hampshire","3431","Eastern","42.903656","-72.248052"
"(603) 468-","Landline","Rockingham","Seabrook","NH","New Hampshire","3874","Eastern","42.964415","-70.819897"
"(603) 786-","Landline","Grafton","Wentworth","NH","New Hampshire","3282","Eastern","43.967542","-71.840883"
"(603) 435-","Landline","Merrimack","Pittsfield","NH","New Hampshire","3263","Eastern","43.297834","-71.343707"
"(603) 526-","Landline","Merrimack","New London","NH","New Hampshire","3257","Eastern","43.301663","-71.733643"
"(603) 854-","Cell Number","Hillsborough","Manchester","NH","New Hampshire","3101","Eastern","42.988483","-71.462111"
"(603) 632-","Landline","Grafton","Enfield","NH","New Hampshire","3748","Eastern","43.630906","-72.116603"
"(603) 323-","Landline","Carroll","Tamworth","NH","New Hampshire","3886","Eastern","43.647527","-71.277779"
"(603) 765-","Cell Number","Hillsborough","Nashua","NH","New Hampshire","3062","Eastern","42.860117","-71.49976"
"(603) 627-","Landline","Hillsborough","Manchester","NH","New Hampshire","3101","Eastern","42.988483","-71.462111"
"(603) 682-","Cell Number","Hillsborough","Manchester","NH","New Hampshire","3101","Eastern","42.988483","-71.462111"
"(603) 741-","Landline","Hillsborough","New Boston","NH","New Hampshire","3070","Eastern","42.903497","-71.775889"
"(603) 549-","Cell Number","Rockingham","Derry","NH","New Hampshire","3038","Eastern","42.950825","-71.197169"
"(603) 751-","Landline","Hillsborough","Nashua","NH","New Hampshire","3062","Eastern","42.860117","-71.49976"
"(603) 359-","Cell Number","Grafton","Lebanon","NH","New Hampshire","3766","Eastern","43.637148","-72.23546"
"(603) 537-","Landline","Rockingham","Derry","NH","New Hampshire","3038","Eastern","42.950825","-71.197169"
"(603) 807-","Landline","Grafton","Lisbon","NH","New Hampshire","3585","Eastern","44.245004","-71.888882"
"(603) 591-","Cell Number","Hillsborough","Manchester","NH","New Hampshire","3101","Eastern","42.988483","-71.462111"
"(603) 396-","Cell Number","Hillsborough","Merrimack","NH","New Hampshire","3054","Eastern","42.924928","-71.667508"
"(603) 305-","Cell Number","Hillsborough","Bedford","NH","New Hampshire","3110","Eastern","42.93743","-71.535515"
"(603) 222-","Landline","Hillsborough","Manchester","NH","New Hampshire","3101","Eastern","42.988483","-71.462111"
"(603) 768-","Landline","Grafton","Grafton","NH","New Hampshire","3240","Eastern","43.967542","-71.840883"
"(603) 370-","Cell Number","Rockingham","Candia","NH","New Hampshire","3034","Eastern","43.059283","-71.305437"
"(603) 634-","Landline","Hillsborough","Manchester","NH","New Hampshire","3101","Eastern","42.988483","-71.462111"
"(603) 516-","Landline","Strafford","Dover","NH","New Hampshire","3822","Eastern","43.326734","-71.028427"
"(603) 853-","Landline","Grafton","Woodsville","NH","New Hampshire","3785","Eastern","43.948644","-72.080708"
"(603) 454-","Cell Number","Sullivan","Sunapee","NH","New Hampshire","3782","Eastern","43.426838","-72.15471"
"(603) 942-","Landline","Rockingham","Northwood","NH","New Hampshire","3261","Eastern","43.208676","-71.202568"
"(603) 939-","Landline","Carroll","Center Conway","NH","New Hampshire","3813","Eastern","43.797391","-71.145357"
"(603) 799-","Cell Number","Hillsborough","Manchester","NH","New Hampshire","3101","Eastern","42.988483","-71.462111"
"(603) 546-","Landline","Hillsborough","Nashua","NH","New Hampshire","3062","Eastern","42.860117","-71.49976"
"(603) 859-","Landline","Strafford","New Durham","NH","New Hampshire","3855","Eastern","43.459503","-71.119055"
"(603) 557-","Cell Number","Hillsborough","Nashua","NH","New Hampshire","3062","Eastern","42.860117","-71.49976"
"(603) 369-","Landline","Merrimack","Concord","NH","New Hampshire","3305","Eastern","43.2134","-71.517151"
"(603) 392-","Unknown","Cheshire","Winchester","NH","New Hampshire","3470","Eastern","42.895797","-72.274928"
"(603) 928-","Landline","Merrimack","Suncook","NH","New Hampshire","3275","Eastern","43.286382","-71.599047"
"(603) 756-","Landline","Cheshire","North Walpole","NH","New Hampshire","3609","Eastern","43.138018","-72.407236"
"(603) 287-","Landline","Sullivan","Claremont","NH","New Hampshire","3743","Eastern","43.415993","-72.209819"
"(603) 873-","Landline","Sullivan","Sunapee","NH","New Hampshire","3782","Eastern","43.426838","-72.15471"
"(603) 716-","Unknown","Hillsborough","Manchester","NH","New Hampshire","3101","Eastern","42.988483","-71.462111"
"(603) 816-","Landline","Hillsborough","Nashua","NH","New Hampshire","3062","Eastern","42.860117","-71.49976"
"(603) 730-","Landline","Carroll","North Conway","NH","New Hampshire","3860","Eastern","43.784643","-71.10263"
"(603) 748-","Cell Number","Merrimack","Warner","NH","New Hampshire","3278","Eastern","43.310858","-71.842299"
"(603) 561-","Cell Number","Hillsborough","Nashua","NH","New Hampshire","3062","Eastern","42.860117","-71.49976"
"(603) 594-","Landline","Hillsborough","Nashua","NH","New Hampshire","3062","Eastern","42.860117","-71.49976"
"(603) 573-","Landline","Hillsborough","Manchester","NH","New Hampshire","3101","Eastern","42.988483","-71.462111"
"(603) 646-","Landline","Grafton","Hanover","NH","New Hampshire","3755","Eastern","43.861077","-72.120314"
"(603) 709-","Landline","Sullivan","Plainfield","NH","New Hampshire","3781","Eastern","43.432999","-72.282596"
"(603) 488-","Landline","Hillsborough","Manchester","NH","New Hampshire","3101","Eastern","42.988483","-71.462111"
"(603) 585-","Landline","Cheshire","Fitzwilliam","NH","New Hampshire","3447","Eastern","42.881769","-72.248026"
"(603) 506-","Landline","Grafton","Grafton","NH","New Hampshire","3240","Eastern","43.967542","-71.840883"
"(603) 513-","Landline","Merrimack","Concord","NH","New Hampshire","3305","Eastern","43.2134","-71.517151"
"(603) 672-","Landline","Hillsborough","Milford","NH","New Hampshire","3055","Eastern","42.848787","-71.743882"
"(603) 787-","Landline","Grafton","Woodsville","NH","New Hampshire","3785","Eastern","43.948644","-72.080708"
"(603) 666-","Landline","Hillsborough","Manchester","NH","New Hampshire","3101","Eastern","42.988483","-71.462111"
"(603) 692-","Landline","Strafford","Somersworth","NH","New Hampshire","3878","Eastern","43.229489","-70.958264"
"(603) 394-","Landline","Rockingham","Seabrook","NH","New Hampshire","3874","Eastern","42.964415","-70.819897"
"(603) 589-","Landline","Hillsborough","Nashua","NH","New Hampshire","3062","Eastern","42.860117","-71.49976"
"(603) 592-","Landline","Cheshire","Chesterfield","NH","New Hampshire","3443","Eastern","42.883948","-72.454813"
"(603) 484-","Landline","Hillsborough","Nashua","NH","New Hampshire","3062","Eastern","42.860117","-71.49976"
"(603) 870-","Landline","Rockingham","Salem","NH","New Hampshire","3079","Eastern","42.872045","-71.196195"
"(603) 724-","Landline","Hillsborough","Manchester","NH","New Hampshire","3101","Eastern","42.988483","-71.462111"
"(603) 277-","Unknown","Grafton","Hanover","NH","New Hampshire","3755","Eastern","43.861077","-72.120314"
"(603) 906-","Unknown","Strafford","Rochester","NH","New Hampshire","3867","Eastern","43.326831","-70.993148"
"(603) 909-","Landline","Sullivan","Charlestown","NH","New Hampshire","3603","Eastern","43.268117","-72.370222"
"(603) 472-","Landline","Hillsborough","Bedford","NH","New Hampshire","3110","Eastern","42.93743","-71.535515"
"(603) 391-","Landline","Hillsborough","Manchester","NH","New Hampshire","3101","Eastern","42.988483","-71.462111"
"(603) 581-","Landline","Belknap","Laconia","NH","New Hampshire","3247","Eastern","43.588972","-71.445452"
"(603) 509-","Landline","Strafford","Dover","NH","New Hampshire","3822","Eastern","43.326734","-71.028427"
"(603) 740-","Landline","Strafford","Dover","NH","New Hampshire","3822","Eastern","43.326734","-71.028427"
"(603) 883-","Landline","Hillsborough","Nashua","NH","New Hampshire","3062","Eastern","42.860117","-71.49976"
"(603) 204-","Cell Number","Hillsborough","Nashua","NH","New Hampshire","3062","Eastern","42.860117","-71.49976"
"(603) 382-","Landline","Rockingham","Plaistow","NH","New Hampshire","3865","Eastern","42.937838","-70.926206"
"(603) 615-","Cell Number","Hillsborough","Manchester","NH","New Hampshire","3101","Eastern","42.988483","-71.462111"
"(603) 227-","Landline","Merrimack","Concord","NH","New Hampshire","3305","Eastern","43.2134","-71.517151"
"(603) 505-","Cell Number","Rockingham","Derry","NH","New Hampshire","3038","Eastern","42.950825","-71.197169"
"(603) 703-","Landline","Hillsborough","Manchester","NH","New Hampshire","3101","Eastern","42.988483","-71.462111"
"(603) 482-","Landline","Coos","Errol","NH","New Hampshire","3579","Eastern","44.695648","-71.387387"
"(603) 554-","Cell Number","Hillsborough","Milford","NH","New Hampshire","3055","Eastern","42.848787","-71.743882"
"(603) 899-","Landline","Cheshire","Rindge","NH","New Hampshire","3461","Eastern","42.76509","-72.00912"
"(603) 422-","Landline","Rockingham","Portsmouth","NH","New Hampshire","3804","Eastern","43.005895","-71.013202"
"(603) 836-","Landline","Hillsborough","Manchester","NH","New Hampshire","3101","Eastern","42.988483","-71.462111"
"(603) 657-","Landline","Hillsborough","Manchester","NH","New Hampshire","3101","Eastern","42.988483","-71.462111"
"(603) 595-","Landline","Hillsborough","Nashua","NH","New Hampshire","3062","Eastern","42.860117","-71.49976"
"(603) 943-","Cell Number","Hillsborough","Nashua","NH","New Hampshire","3062","Eastern","42.860117","-71.49976"
"(603) 676-","Landline","Grafton","Hanover","NH","New Hampshire","3755","Eastern","43.861077","-72.120314"
"(603) 707-","Cell Number","Belknap","Meredith","NH","New Hampshire","3253","Eastern","43.592239","-71.517479"
"(603) 851-","Cell Number","Hillsborough","Manchester","NH","New Hampshire","3101","Eastern","42.988483","-71.462111"
"(603) 941-","Landline","Carroll","Wolfeboro","NH","New Hampshire","3894","Eastern","43.667102","-71.183597"
"(603) 840-","Unknown","Merrimack","Epsom","NH","New Hampshire","3234","Eastern","43.340736","-71.669712"
"(603) 921-","Unknown","Hillsborough","Nashua","NH","New Hampshire","3062","Eastern","42.860117","-71.49976"
"(603) 274-","Landline","Rockingham","East Kingston","NH","New Hampshire","3827","Eastern","42.912071","-71.054245"
"(603) 314-","Landline","Hillsborough","Manchester","NH","New Hampshire","3101","Eastern","42.988483","-71.462111"
"(603) 439-","Landline","Cheshire","Keene","NH","New Hampshire","3431","Eastern","42.903656","-72.248052"
"(603) 771-","Cell Number","Hillsborough","Manchester","NH","New Hampshire","3101","Eastern","42.988483","-71.462111"
"(603) 858-","Cell Number","Hillsborough","Manchester","NH","New Hampshire","3101","Eastern","42.988483","-71.462111"
"(603) 560-","Cell Number","Rockingham","Salem","NH","New Hampshire","3079","Eastern","42.872045","-71.196195"
"(603) 797-","Landline","Rockingham","Plaistow","NH","New Hampshire","3865","Eastern","42.937838","-70.926206"
"(603) 986-","Cell Number","Carroll","North Conway","NH","New Hampshire","3860","Eastern","43.784643","-71.10263"
"(603) 584-","Landline","Hillsborough","Manchester","NH","New Hampshire","3101","Eastern","42.988483","-71.462111"
"(603) 937-","Unknown","Belknap","Meredith","NH","New Hampshire","3253","Eastern","43.592239","-71.517479"
"(603) 288-","Landline","Grafton","Woodsville","NH","New Hampshire","3785","Eastern","43.948644","-72.080708"
"(603) 639-","Cell Number","Hillsborough","Manchester","NH","New Hampshire","3101","Eastern","42.988483","-71.462111"
"(603) 612-","Landline","Rockingham","Plaistow","NH","New Hampshire","3865","Eastern","42.937838","-70.926206"
"(603) 395-","Landline","Rockingham","Exeter","NH","New Hampshire","3833","Eastern","42.951274","-70.922262"
"(603) 697-","Landline","Carroll","Bartlett","NH","New Hampshire","3812","Eastern","43.883871","-71.257726"
"(603) 216-","Landline","Hillsborough","Manchester","NH","New Hampshire","3101","Eastern","42.988483","-71.462111"
"(603) 269-","Landline","Grafton","Rumney","NH","New Hampshire","3266","Eastern","43.752475","-71.788434"
"(603) 654-","Landline","Hillsborough","Wilton","NH","New Hampshire","3086","Eastern","42.894022","-71.730154"
"(603) 642-","Landline","Rockingham","Kingston","NH","New Hampshire","3848","Eastern","42.909731","-71.102933"
"(603) 689-","Landline","Hillsborough","Nashua","NH","New Hampshire","3062","Eastern","42.860117","-71.49976"
"(603) 733-","Landline","Carroll","North Conway","NH","New Hampshire","3860","Eastern","43.784643","-71.10263"
"(603) 960-","Unknown","Grafton","Campton","NH","New Hampshire","3223","Eastern","43.841799","-71.665223"
"(603) 531-","Cell Number","Rockingham","Portsmouth","NH","New Hampshire","3804","Eastern","43.005895","-71.013202"
"(603) 683-","Landline","Hillsborough","Merrimack","NH","New Hampshire","3054","Eastern","42.924928","-71.667508"
"(603) 879-","Landline","Hillsborough","Nashua","NH","New Hampshire","3062","Eastern","42.860117","-71.49976"
"(603) 954-","Landline","Carroll","North Sandwich","NH","New Hampshire","3259","Eastern","43.85971","-71.37719"
"(603) 520-","Cell Number","Belknap","Laconia","NH","New Hampshire","3247","Eastern","43.588972","-71.445452"
"(603) 667-","Landline","Grafton","Lebanon","NH","New Hampshire","3766","Eastern","43.637148","-72.23546"
"(603) 380-","Cell Number","Rockingham","Portsmouth","NH","New Hampshire","3804","Eastern","43.005895","-71.013202"
"(603) 481-","Cell Number","Hillsborough","Manchester","NH","New Hampshire","3101","Eastern","42.988483","-71.462111"
"(603) 747-","Landline","Grafton","Woodsville","NH","New Hampshire","3785","Eastern","43.948644","-72.080708"
"(603) 397-","Landline","Strafford","Durham","NH","New Hampshire","3824","Eastern","43.165772","-70.962843"
"(603) 442-","Landline","Grafton","Lebanon","NH","New Hampshire","3766","Eastern","43.637148","-72.23546"
"(603) 487-","Landline","Hillsborough","New Boston","NH","New Hampshire","3070","Eastern","42.903497","-71.775889"
"(603) 835-","Landline","Cheshire","Alstead","NH","New Hampshire","3602","Eastern","43.134412","-72.310623"
"(603) 951-","Landline","Coos","Milan","NH","New Hampshire","3588","Eastern","44.56532","-71.218672"
"(603) 876-","Landline","Cheshire","Marlborough","NH","New Hampshire","3455","Eastern","42.88825","-72.279638"
"(603) 801-","Cell Number","Hillsborough","Milford","NH","New Hampshire","3055","Eastern","42.848787","-71.743882"
"(603) 340-","Cell Number","Merrimack","Suncook","NH","New Hampshire","3275","Eastern","43.286382","-71.599047"
"(603) 794-","Landline","Grafton","Plymouth","NH","New Hampshire","3264","Eastern","43.710919","-71.694017"
"(603) 964-","Landline","Rockingham","Rye","NH","New Hampshire","3870","Eastern","43.010939","-70.764813"
"(603) 362-","Landline","Rockingham","Hampstead","NH","New Hampshire","3841","Eastern","42.877438","-71.139098"
"(603) 620-","Cell Number","Hillsborough","Merrimack","NH","New Hampshire","3054","Eastern","42.924928","-71.667508"
"(603) 352-","Landline","Cheshire","Keene","NH","New Hampshire","3431","Eastern","42.903656","-72.248052"
"(603) 508-","Cell Number","Hillsborough","Pelham","NH","New Hampshire","3076","Eastern","42.740651","-71.318715"
"(603) 809-","Unknown","Hillsborough","Nashua","NH","New Hampshire","3062","Eastern","42.860117","-71.49976"
"(603) 290-","Cell Number","Merrimack","Concord","NH","New Hampshire","3305","Eastern","43.2134","-71.517151"
"(603) 552-","Landline","Hillsborough","Manchester","NH","New Hampshire","3101","Eastern","42.988483","-71.462111"
"(603) 926-","Landline","Rockingham","Hampton","NH","New Hampshire","3842","Eastern","42.917389","-70.95095"
"(603) 512-","Cell Number","Hillsborough","Manchester","NH","New Hampshire","3101","Eastern","42.988483","-71.462111"
"(603) 631-","Cell Number","Coos","Lancaster","NH","New Hampshire","3584","Eastern","44.476575","-71.561225"
"(603) 995-","Cell Number","Merrimack","Henniker","NH","New Hampshire","3242","Eastern","43.180148","-71.81959"
"(603) 566-","Cell Number","Hillsborough","Nashua","NH","New Hampshire","3062","Eastern","42.860117","-71.49976"
"(603) 757-","Landline","Cheshire","Keene","NH","New Hampshire","3431","Eastern","42.903656","-72.248052"
"(603) 228-","Landline","Merrimack","Concord","NH","New Hampshire","3305","Eastern","43.2134","-71.517151"
"(603) 833-","Cell Number","Strafford","Rochester","NH","New Hampshire","3867","Eastern","43.326831","-70.993148"
"(603) 820-","Unknown","Hillsborough","Merrimack","NH","New Hampshire","3054","Eastern","42.924928","-71.667508"
"(603) 882-","Landline","Hillsborough","Nashua","NH","New Hampshire","3062","Eastern","42.860117","-71.49976"
"(603) 529-","Landline","Hillsborough","Weare","NH","New Hampshire","3281","Eastern","43.084176","-71.762578"
"(603) 712-","Landline","Grafton","Woodsville","NH","New Hampshire","3785","Eastern","43.948644","-72.080708"
"(603) 399-","Landline","Cheshire","Westmoreland","NH","New Hampshire","3467","Eastern","42.973867","-72.44256"
"(603) 257-","Landline","Rockingham","Plaistow","NH","New Hampshire","3865","Eastern","42.937838","-70.926206"
"(603) 645-","Landline","Hillsborough","Manchester","NH","New Hampshire","3101","Eastern","42.988483","-71.462111"
"(603) 219-","Cell Number","Merrimack","Concord","NH","New Hampshire","3305","Eastern","43.2134","-71.517151"
"(603) 867-","Cell Number","Hillsborough","Manchester","NH","New Hampshire","3101","Eastern","42.988483","-71.462111"
"(603) 746-","Landline","Merrimack","Contoocook","NH","New Hampshire","3229","Eastern","43.301308","-71.812943"
"(603) 824-","Landline","Hillsborough","Nashua","NH","New Hampshire","3062","Eastern","42.860117","-71.49976"
"(603) 742-","Landline","Strafford","Dover","NH","New Hampshire","3822","Eastern","43.326734","-71.028427"
"(603) 356-","Landline","Carroll","North Conway","NH","New Hampshire","3860","Eastern","43.784643","-71.10263"
"(603) 347-","Landline","Rockingham","Kingston","NH","New Hampshire","3848","Eastern","42.909731","-71.102933"
"(603) 932-","Unknown","Hillsborough","Manchester","NH","New Hampshire","3101","Eastern","42.988483","-71.462111"
"(603) 847-","Landline","Cheshire","Sullivan","NH","New Hampshire","3445","Eastern","42.998225","-72.201903"
"(603) 795-","Landline","Grafton","Lyme","NH","New Hampshire","3768","Eastern","43.801656","-72.130495"
"(603) 910-","Landline","Rockingham","Hampton","NH","New Hampshire","3842","Eastern","42.917389","-70.95095"
"(603) 974-","Landline","Rockingham","Plaistow","NH","New Hampshire","3865","Eastern","42.937838","-70.926206"
"(603) 997-","Cell Number","Rockingham","Hampton","NH","New Hampshire","3842","Eastern","42.917389","-70.95095"
"(603) 460-","Landline","Hillsborough","Manchester","NH","New Hampshire","3101","Eastern","42.988483","-71.462111"
"(603) 827-","Landline","Cheshire","Harrisville","NH","New Hampshire","3450","Eastern","42.884548","-72.102634"
"(603) 326-","Landline","Coos","Berlin","NH","New Hampshire","3570","Eastern","44.512344","-71.194226"
"(603) 729-","Landline","Belknap","Tilton","NH","New Hampshire","3276","Eastern","43.536056","-71.49166"
"(603) 918-","Cell Number","Rockingham","Hampton","NH","New Hampshire","3842","Eastern","42.917389","-70.95095"
"(603) 874-","Landline","Grafton","Lisbon","NH","New Hampshire","3585","Eastern","44.245004","-71.888882"
"(603) 433-","Landline","Rockingham","Portsmouth","NH","New Hampshire","3804","Eastern","43.005895","-71.013202"
"(603) 448-","Landline","Grafton","Lebanon","NH","New Hampshire","3766","Eastern","43.637148","-72.23546"
"(603) 898-","Landline","Rockingham","Salem","NH","New Hampshire","3079","Eastern","42.872045","-71.196195"
"(603) 679-","Landline","Rockingham","Epping","NH","New Hampshire","3042","Eastern","43.047595","-71.084411"
"(603) 944-","Cell Number","Rockingham","East Kingston","NH","New Hampshire","3827","Eastern","42.912071","-71.054245"
"(603) 523-","Landline","Grafton","Canaan","NH","New Hampshire","3741","Eastern","43.63123","-72.057312"
"(603) 446-","Landline","Cheshire","Marlow","NH","New Hampshire","3456","Eastern","43.119294","-72.202564"
"(603) 705-","Unknown","Merrimack","Salisbury","NH","New Hampshire","3268","Eastern","43.361756","-71.558817"
"(603) 708-","Landline","Merrimack","Canterbury","NH","New Hampshire","3224","Eastern","43.378281","-71.604226"
"(603) 755-","Landline","Strafford","Farmington","NH","New Hampshire","3835","Eastern","43.306172","-71.003435"
"(603) 723-","Cell Number","Coos","Berlin","NH","New Hampshire","3570","Eastern","44.512344","-71.194226"
"(603) 315-","Cell Number","Hillsborough","Manchester","NH","New Hampshire","3101","Eastern","42.988483","-71.462111"
"(603) 637-","Landline","Hillsborough","Bedford","NH","New Hampshire","3110","Eastern","42.93743","-71.535515"
"(603) 365-","Cell Number","Hillsborough","Merrimack","NH","New Hampshire","3054","Eastern","42.924928","-71.667508"
"(603) 210-","Landline","Hillsborough","Manchester","NH","New Hampshire","3101","Eastern","42.988483","-71.462111"
"(603) 988-","Landline","Rockingham","Portsmouth","NH","New Hampshire","3804","Eastern","43.005895","-71.013202"
"(603) 732-","Landline","Hillsborough","Nashua","NH","New Hampshire","3062","Eastern","42.860117","-71.49976"
"(603) 658-","Landline","Rockingham","Exeter","NH","New Hampshire","3833","Eastern","42.951274","-70.922262"
"(603) 371-","Landline","Hillsborough","Peterborough","NH","New Hampshire","3458","Eastern","42.956433","-71.9372"
"(603) 232-","Landline","Hillsborough","Manchester","NH","New Hampshire","3101","Eastern","42.988483","-71.462111"
"(603) 569-","Landline","Carroll","Wolfeboro","NH","New Hampshire","3894","Eastern","43.667102","-71.183597"
"(603) 401-","Cell Number","Rockingham","Hampton","NH","New Hampshire","3842","Eastern","42.917389","-70.95095"
"(603) 663-","Landline","Hillsborough","Manchester","NH","New Hampshire","3101","Eastern","42.988483","-71.462111"
"(603) 367-","Landline","Carroll","Madison","NH","New Hampshire","3849","Eastern","43.902311","-71.124612"
"(603) 894-","Landline","Rockingham","Salem","NH","New Hampshire","3079","Eastern","42.872045","-71.196195"
"(603) 617-","Landline","Strafford","Dover","NH","New Hampshire","3822","Eastern","43.326734","-71.028427"
"(603) 485-","Landline","Merrimack","Suncook","NH","New Hampshire","3275","Eastern","43.286382","-71.599047"
"(603) 209-","Cell Number","Cheshire","Keene","NH","New Hampshire","3431","Eastern","42.903656","-72.248052"
"(603) 475-","Cell Number","Rockingham","Salem","NH","New Hampshire","3079","Eastern","42.872045","-71.196195"
"(603) 284-","Landline","Carroll","North Sandwich","NH","New Hampshire","3259","Eastern","43.85971","-71.37719"
"(603) 320-","Cell Number","Hillsborough","Nashua","NH","New Hampshire","3062","Eastern","42.860117","-71.49976"
"(603) 212-","Landline","Rockingham","Salem","NH","New Hampshire","3079","Eastern","42.872045","-71.196195"
"(603) 996-","Cell Number","Grafton","Plymouth","NH","New Hampshire","3264","Eastern","43.710919","-71.694017"
"(603) 441-","Landline","Cheshire","Winchester","NH","New Hampshire","3470","Eastern","42.895797","-72.274928"
"(603) 453-","Landline","Grafton","Littleton","NH","New Hampshire","3561","Eastern","44.335289","-71.877638"
"(603) 353-","Landline","Grafton","Lyme","NH","New Hampshire","3768","Eastern","43.801656","-72.130495"
"(603) 309-","Landline","Merrimack","Franklin","NH","New Hampshire","3235","Eastern","43.374297","-71.680021"
"(603) 587-","Landline","Hillsborough","Manchester","NH","New Hampshire","3101","Eastern","42.988483","-71.462111"
"(603) 687-","Landline","Carroll","Jackson","NH","New Hampshire","3846","Eastern","43.883871","-71.257726"
"(603) 430-","Landline","Rockingham","Portsmouth","NH","New Hampshire","3804","Eastern","43.005895","-71.013202"
"(603) 583-","Landline","Rockingham","Exeter","NH","New Hampshire","3833","Eastern","42.951274","-70.922262"
"(603) 989-","Landline","Grafton","Woodsville","NH","New Hampshire","3785","Eastern","43.948644","-72.080708"
"(603) 455-","Cell Number","Belknap","Laconia","NH","New Hampshire","3247","Eastern","43.588972","-71.445452"
"(603) 490-","Cell Number","Rockingham","Derry","NH","New Hampshire","3038","Eastern","42.950825","-71.197169"
"(603) 373-","Landline","Rockingham","Portsmouth","NH","New Hampshire","3804","Eastern","43.005895","-71.013202"
"(603) 588-","Landline","Hillsborough","Antrim","NH","New Hampshire","3440","Eastern","43.044535","-71.971353"
"(603) 812-","Landline","Rockingham","Portsmouth","NH","New Hampshire","3804","Eastern","43.005895","-71.013202"
"(603) 638-","Landline","Grafton","Monroe","NH","New Hampshire","3771","Eastern","44.268612","-72.015317"
"(603) 701-","Unknown","Strafford","Rochester","NH","New Hampshire","3867","Eastern","43.326831","-70.993148"
"(603) 281-","Cell Number","Hillsborough","Nashua","NH","New Hampshire","3062","Eastern","42.860117","-71.49976"
"(603) 659-","Landline","Rockingham","Newmarket","NH","New Hampshire","3857","Eastern","42.979021","-70.891642"
"(603) 828-","Cell Number","Rockingham","Portsmouth","NH","New Hampshire","3804","Eastern","43.005895","-71.013202"
"(603) 743-","Landline","Strafford","Dover","NH","New Hampshire","3822","Eastern","43.326734","-71.028427"
"(603) 470-","Cell Number","Merrimack","Concord","NH","New Hampshire","3305","Eastern","43.2134","-71.517151"
"(603) 318-","Landline","Hillsborough","Nashua","NH","New Hampshire","3062","Eastern","42.860117","-71.49976"
"(603) 386-","Landline","Hillsborough","Nashua","NH","New Hampshire","3062","Eastern","42.860117","-71.49976"
"(603) 346-","Landline","Grafton","Plymouth","NH","New Hampshire","3264","Eastern","43.710919","-71.694017"
"(603) 749-","Landline","Strafford","Dover","NH","New Hampshire","3822","Eastern","43.326734","-71.028427"
"(603) 726-","Landline","Grafton","Plymouth","NH","New Hampshire","3264","Eastern","43.710919","-71.694017"
"(603) 447-","Landline","Carroll","Conway","NH","New Hampshire","3818","Eastern","43.78892","-71.10261"
"(603) 758-","Landline","Rockingham","Hampton","NH","New Hampshire","3842","Eastern","42.917389","-70.95095"
"(603) 291-","Unknown","Hillsborough","Greenville","NH","New Hampshire","3048","Eastern","42.875116","-71.717548"
"(603) 789-","Landline","Grafton","Grafton","NH","New Hampshire","3240","Eastern","43.967542","-71.840883"
"(603) 673-","Landline","Hillsborough","Milford","NH","New Hampshire","3055","Eastern","42.848787","-71.743882"
"(603) 268-","Landline","Merrimack","Suncook","NH","New Hampshire","3275","Eastern","43.286382","-71.599047"
"(603) 414-","Cell Number","Sullivan","Sunapee","NH","New Hampshire","3782","Eastern","43.426838","-72.15471"
"(603) 633-","Landline","Hillsborough","Manchester","NH","New Hampshire","3101","Eastern","42.988483","-71.462111"
"(603) 702-","Cell Number","Rockingham","Kingston","NH","New Hampshire","3848","Eastern","42.909731","-71.102933"
"(603) 784-","Landline","Hillsborough","Peterborough","NH","New Hampshire","3458","Eastern","42.956433","-71.9372"
"(603) 735-","Landline","Merrimack","Andover","NH","New Hampshire","3216","Eastern","43.447006","-71.684093"
"(603) 945-","Unknown","Hillsborough","Manchester","NH","New Hampshire","3101","Eastern","42.988483","-71.462111"
"(603) 221-","Cell Number","Hillsborough","Nashua","NH","New Hampshire","3062","Eastern","42.860117","-71.49976"
"(603) 383-","Landline","Carroll","Jackson","NH","New Hampshire","3846","Eastern","43.883871","-71.257726"
"(603) 463-","Landline","Rockingham","Deerfield","NH","New Hampshire","3037","Eastern","42.987495","-71.252719"
"(603) 978-","Cell Number","Strafford","Dover","NH","New Hampshire","3822","Eastern","43.326734","-71.028427"
"(603) 493-","Cell Number","Hillsborough","Merrimack","NH","New Hampshire","3054","Eastern","42.924928","-71.667508"
"(603) 364-","Landline","Belknap","Gilmanton","NH","New Hampshire","3237","Eastern","43.414064","-71.384213"
"(603) 660-","Cell Number","Hillsborough","Goffstown","NH","New Hampshire","3045","Eastern","42.94671","-71.687633"
"(603) 528-","Landline","Belknap","Laconia","NH","New Hampshire","3247","Eastern","43.588972","-71.445452"
"(603) 374-","Landline","Carroll","Bartlett","NH","New Hampshire","3812","Eastern","43.883871","-71.257726"
"(603) 251-","Landline","Rockingham","Salem","NH","New Hampshire","3079","Eastern","42.872045","-71.196195"
"(603) 887-","Landline","Rockingham","Chester","NH","New Hampshire","3036","Eastern","42.961606","-71.251021"
"(603) 934-","Landline","Merrimack","Franklin","NH","New Hampshire","3235","Eastern","43.374297","-71.680021"
"(603) 783-","Landline","Merrimack","Canterbury","NH","New Hampshire","3224","Eastern","43.378281","-71.604226"
"(603) 798-","Landline","Merrimack","Salisbury","NH","New Hampshire","3268","Eastern","43.361756","-71.558817"
"(603) 907-","Landline","Rockingham","Hampstead","NH","New Hampshire","3841","Eastern","42.877438","-71.139098"
"(603) 206-","Landline","Hillsborough","Manchester","NH","New Hampshire","3101","Eastern","42.988483","-71.462111"
"(603) 892-","Cell Number","Merrimack","Concord","NH","New Hampshire","3305","Eastern","43.2134","-71.517151"
"(603) 337-","Landline","Strafford","Rochester","NH","New Hampshire","3867","Eastern","43.326831","-70.993148"
"(603) 335-","Landline","Strafford","Rochester","NH","New Hampshire","3867","Eastern","43.326831","-70.993148"
"(603) 254-","Cell Number","Grafton","Plymouth","NH","New Hampshire","3264","Eastern","43.710919","-71.694017"
"(603) 495-","Landline","Sullivan","Washington","NH","New Hampshire","3280","Eastern","43.17229","-72.100689"
"(603) 922-","Landline","Coos","North Stratford","NH","New Hampshire","3590","Eastern","44.695648","-71.387387"
"(603) 241-","Cell Number","Hillsborough","Manchester","NH","New Hampshire","3101","Eastern","42.988483","-71.462111"
"(603) 363-","Landline","Cheshire","Chesterfield","NH","New Hampshire","3443","Eastern","42.883948","-72.454813"
"(603) 886-","Landline","Hillsborough","Nashua","NH","New Hampshire","3062","Eastern","42.860117","-71.49976"
"(603) 641-","Landline","Hillsborough","Manchester","NH","New Hampshire","3101","Eastern","42.988483","-71.462111"
"(603) 722-","Unknown","Hillsborough","Manchester","NH","New Hampshire","3101","Eastern","42.988483","-71.462111"
"(603) 492-","Cell Number","Hillsborough","Manchester","NH","New Hampshire","3101","Eastern","42.988483","-71.462111"
"(603) 861-","Landline","Carroll","Tamworth","NH","New Hampshire","3886","Eastern","43.647527","-71.277779"
"(603) 438-","Cell Number","Hillsborough","Nashua","NH","New Hampshire","3062","Eastern","42.860117","-71.49976"
"(603) 599-","Cell Number","Hillsborough","Nashua","NH","New Hampshire","3062","Eastern","42.860117","-71.49976"
"(603) 977-","Unknown","Merrimack","Andover","NH","New Hampshire","3216","Eastern","43.447006","-71.684093"
"(603) 248-","Cell Number","Strafford","Dover","NH","New Hampshire","3822","Eastern","43.326734","-71.028427"
"(603) 885-","Landline","Hillsborough","Nashua","NH","New Hampshire","3062","Eastern","42.860117","-71.49976"
"(603) 296-","Landline","Hillsborough","Manchester","NH","New Hampshire","3101","Eastern","42.988483","-71.462111"
"(603) 524-","Landline","Belknap","Laconia","NH","New Hampshire","3247","Eastern","43.588972","-71.445452"
"(603) 622-","Landline","Hillsborough","Manchester","NH","New Hampshire","3101","Eastern","42.988483","-71.462111"
"(603) 358-","Landline","Cheshire","Keene","NH","New Hampshire","3431","Eastern","42.903656","-72.248052"
"(603) 971-","Landline","Cheshire","Rindge","NH","New Hampshire","3461","Eastern","42.76509","-72.00912"
"(603) 819-","Landline","Rockingham","Plaistow","NH","New Hampshire","3865","Eastern","42.937838","-70.926206"
"(603) 577-","Landline","Hillsborough","Nashua","NH","New Hampshire","3062","Eastern","42.860117","-71.49976"
"(603) 457-","Landline","Rockingham","Portsmouth","NH","New Hampshire","3804","Eastern","43.005895","-71.013202"
"(603) 665-","Landline","Hillsborough","Manchester","NH","New Hampshire","3101","Eastern","42.988483","-71.462111"
"(603) 564-","Cell Number","Hillsborough","Manchester","NH","New Hampshire","3101","Eastern","42.988483","-71.462111"
"(603) 952-","Landline","Rockingham","Salem","NH","New Hampshire","3079","Eastern","42.872045","-71.196195"
"(603) 334-","Landline","Rockingham","Portsmouth","NH","New Hampshire","3804","Eastern","43.005895","-71.013202"
"(603) 253-","Landline","Belknap","Meredith","NH","New Hampshire","3253","Eastern","43.592239","-71.517479"
"(603) 517-","Cell Number","Hillsborough","Merrimack","NH","New Hampshire","3054","Eastern","42.924928","-71.667508"
"(603) 636-","Landline","Coos","Groveton","NH","New Hampshire","3582","Eastern","44.75096","-71.422453"
"(603) 229-","Landline","Merrimack","Concord","NH","New Hampshire","3305","Eastern","43.2134","-71.517151"
"(603) 725-","Landline","Carroll","Tamworth","NH","New Hampshire","3886","Eastern","43.647527","-71.277779"
"(603) 579-","Landline","Hillsborough","Nashua","NH","New Hampshire","3062","Eastern","42.860117","-71.49976"
"(603) 834-","Landline","Strafford","Dover","NH","New Hampshire","3822","Eastern","43.326734","-71.028427"
"(603) 719-","Landline","Cheshire","Keene","NH","New Hampshire","3431","Eastern","42.903656","-72.248052"
"(603) 935-","Unknown","Hillsborough","Manchester","NH","New Hampshire","3101","Eastern","42.988483","-71.462111"
"(603) 644-","Landline","Hillsborough","Manchester","NH","New Hampshire","3101","Eastern","42.988483","-71.462111"
"(603) 884-","Landline","Hillsborough","Nashua","NH","New Hampshire","3062","Eastern","42.860117","-71.49976"
"(603) 541-","Landline","Hillsborough","Manchester","NH","New Hampshire","3101","Eastern","42.988483","-71.462111"
"(603) 897-","Landline","Hillsborough","Nashua","NH","New Hampshire","3062","Eastern","42.860117","-71.49976"
"(603) 293-","Landline","Belknap","Laconia","NH","New Hampshire","3247","Eastern","43.588972","-71.445452"
"(603) 331-","Landline","Coos","Colebrook","NH","New Hampshire","3576","Eastern","44.902731","-71.500809"
"(603) 321-","Cell Number","Hillsborough","Nashua","NH","New Hampshire","3062","Eastern","42.860117","-71.49976"
"(603) 965-","Landline","Rockingham","Derry","NH","New Hampshire","3038","Eastern","42.950825","-71.197169"
"(603) 420-","Landline","Hillsborough","Nashua","NH","New Hampshire","3062","Eastern","42.860117","-71.49976"
"(603) 246-","Landline","Coos","Colebrook","NH","New Hampshire","3576","Eastern","44.902731","-71.500809"
"(603) 483-","Landline","Rockingham","Candia","NH","New Hampshire","3034","Eastern","43.059283","-71.305437"
"(603) 521-","Landline","Hillsborough","Nashua","NH","New Hampshire","3062","Eastern","42.860117","-71.49976"
"(603) 343-","Landline","Strafford","Dover","NH","New Hampshire","3822","Eastern","43.326734","-71.028427"
"(603) 779-","Landline","Grafton","Plymouth","NH","New Hampshire","3264","Eastern","43.710919","-71.694017"
"(603) 262-","Landline","Hillsborough","Merrimack","NH","New Hampshire","3054","Eastern","42.924928","-71.667508"
"(603) 218-","Landline","Hillsborough","Manchester","NH","New Hampshire","3101","Eastern","42.988483","-71.462111"
"(603) 675-","Landline","Sullivan","Cornish","NH","New Hampshire","3745","Eastern","43.462156","-72.337149"
"(603) 255-","Landline","Coos","Colebrook","NH","New Hampshire","3576","Eastern","44.902731","-71.500809"
"(603) 467-","Cell Number","Hillsborough","Manchester","NH","New Hampshire","3101","Eastern","42.988483","-71.462111"
"(603) 344-","Cell Number","Merrimack","Suncook","NH","New Hampshire","3275","Eastern","43.286382","-71.599047"
"(603) 938-","Landline","Merrimack","Warner","NH","New Hampshire","3278","Eastern","43.310858","-71.842299"
"(603) 848-","Cell Number","Merrimack","Concord","NH","New Hampshire","3305","Eastern","43.2134","-71.517151"
"(603) 860-","Cell Number","Hillsborough","Manchester","NH","New Hampshire","3101","Eastern","42.988483","-71.462111"
"(603) 263-","Landline","Hillsborough","Manchester","NH","New Hampshire","3101","Eastern","42.988483","-71.462111"
"(603) 538-","Landline","Coos","Pittsburg","NH","New Hampshire","3592","Eastern","44.695648","-71.387387"
"(603) 649-","Landline","Coos","Berlin","NH","New Hampshire","3570","Eastern","44.512344","-71.194226"
"(603) 214-","Landline","Coos","Errol","NH","New Hampshire","3579","Eastern","44.695648","-71.387387"
"(603) 330-","Landline","Strafford","Rochester","NH","New Hampshire","3867","Eastern","43.326831","-70.993148"
"(603) 553-","Cell Number","Rockingham","Derry","NH","New Hampshire","3038","Eastern","42.950825","-71.197169"
"(603) 327-","Landline","Rockingham","Salem","NH","New Hampshire","3079","Eastern","42.872045","-71.196195"
"(603) 223-","Landline","Merrimack","Concord","NH","New Hampshire","3305","Eastern","43.2134","-71.517151"
"(603) 336-","Landline","Cheshire","Hinsdale","NH","New Hampshire","3451","Eastern","42.894151","-72.280099"
"(603) 578-","Landline","Hillsborough","Nashua","NH","New Hampshire","3062","Eastern","42.860117","-71.49976"
"(603) 568-","Cell Number","Merrimack","Concord","NH","New Hampshire","3305","Eastern","43.2134","-71.517151"
"(603) 822-","Landline","Strafford","Rochester","NH","New Hampshire","3867","Eastern","43.326831","-70.993148"
"(603) 764-","Landline","Grafton","Warren","NH","New Hampshire","3279","Eastern","43.967542","-71.840883"
"(603) 966-","Cell Number","Hillsborough","Nashua","NH","New Hampshire","3062","Eastern","42.860117","-71.49976"
"(603) 338-","Landline","Cheshire","Keene","NH","New Hampshire","3431","Eastern","42.903656","-72.248052"
"(603) 616-","Cell Number","Grafton","Littleton","NH","New Hampshire","3561","Eastern","44.335289","-71.877638"
"(603) 777-","Landline","Rockingham","Exeter","NH","New Hampshire","3833","Eastern","42.951274","-70.922262"
"(603) 905-","Unknown","Strafford","Barrington","NH","New Hampshire","3825","Eastern","43.29779","-71.097423"
"(603) 586-","Landline","Coos","Jefferson","NH","New Hampshire","3583","Eastern","44.695648","-71.387387"
"(603) 436-","Landline","Rockingham","Portsmouth","NH","New Hampshire","3804","Eastern","43.005895","-71.013202"
"(603) 540-","Cell Number","Hillsborough","Goffstown","NH","New Hampshire","3045","Eastern","42.94671","-71.687633"
"(603) 806-","Landline","Rockingham","Deerfield","NH","New Hampshire","3037","Eastern","42.987495","-71.252719"
"(603) 514-","Landline","Coos","Lancaster","NH","New Hampshire","3584","Eastern","44.476575","-71.561225"
"(603) 563-","Landline","Cheshire","Harrisville","NH","New Hampshire","3450","Eastern","42.884548","-72.102634"
"(603) 661-","Cell Number","Hillsborough","Manchester","NH","New Hampshire","3101","Eastern","42.988483","-71.462111"
"(603) 877-","Unknown","Merrimack","New London","NH","New Hampshire","3257","Eastern","43.301663","-71.733643"
"(603) 805-","Landline","Rockingham","East Kingston","NH","New Hampshire","3827","Eastern","42.912071","-71.054245"
"(603) 292-","Landline","Rockingham","Newmarket","NH","New Hampshire","3857","Eastern","42.979021","-70.891642"
"(603) 670-","Landline","Hillsborough","Merrimack","NH","New Hampshire","3054","Eastern","42.924928","-71.667508"
"(603) 428-","Landline","Merrimack","Henniker","NH","New Hampshire","3242","Eastern","43.180148","-71.81959"
"(603) 736-","Landline","Rockingham","Northwood","NH","New Hampshire","3261","Eastern","43.208676","-71.202568"
"(603) 266-","Landline","Belknap","Tilton","NH","New Hampshire","3276","Eastern","43.536056","-71.49166"
"(603) 527-","Landline","Belknap","Laconia","NH","New Hampshire","3247","Eastern","43.588972","-71.445452"
"(603) 891-","Landline","Hillsborough","Nashua","NH","New Hampshire","3062","Eastern","42.860117","-71.49976"
"(603) 530-","Cell Number","Grafton","Bristol","NH","New Hampshire","3222","Eastern","43.70781","-71.72158"
"(603) 473-","Landline","Strafford","Milton Mills","NH","New Hampshire","3852","Eastern","43.326734","-71.028427"
"(603) 303-","Cell Number","Hillsborough","Manchester","NH","New Hampshire","3101","Eastern","42.988483","-71.462111"
"(603) 647-","Landline","Hillsborough","Manchester","NH","New Hampshire","3101","Eastern","42.988483","-71.462111"
"(603) 792-","Landline","Hillsborough","Manchester","NH","New Hampshire","3101","Eastern","42.988483","-71.462111"
