"Prefix","Usage","County","City","ShortState","LongState","Zip","Timezone","Latitude","Longitude"
"(575) 762-","Unknown","Curry","Clovis","NM","New Mexico","88101","Mountain","34.497241","-103.294978"
"(505) 247-","Landline","Bernalillo","Albuquerque","NM","New Mexico","87121","Mountain","35.059663","-106.805535"
"(505) 241-","Landline","Bernalillo","Albuquerque","NM","New Mexico","87121","Mountain","35.059663","-106.805535"
"(575) 624-","Unknown","Chaves","Roswell","NM","New Mexico","88201","Mountain","33.346666","-104.593687"
"(505) 765-","Landline","Bernalillo","Albuquerque","NM","New Mexico","87121","Mountain","35.059663","-106.805535"
"(505) 860-","Cell Number","San Juan","Farmington","NM","New Mexico","87402","Mountain","36.775852","-108.101176"
"(575) 451-","Unknown","Union","Grenville","NM","New Mexico","88424","Mountain","36.369783","-103.505541"
"(505) 709-","Cell Number","Los Alamos","Los Alamos","NM","New Mexico","87545","Mountain","35.863858","-106.295255"
"(575) 586-","Unknown","Taos","Questa","NM","New Mexico","87556","Mountain","36.758733","-105.59761"
"(505) 467-","Landline","Santa Fe","Santa Fe","NM","New Mexico","87506","Mountain","35.606283","-106.075722"
"(505) 658-","Cell Number","Cibola","Grants","NM","New Mexico","87020","Mountain","35.09985","-107.850191"
"(575) 849-","Unknown","Lincoln","Corona","NM","New Mexico","88318","Mountain","34.249031","-105.596655"
"(505) 780-","Cell Number","Santa Fe","Santa Fe","NM","New Mexico","87506","Mountain","35.606283","-106.075722"
"(575) 894-","Unknown","Sierra","Truth Or Consequences","NM","New Mexico","87901","Mountain","33.160602","-107.266914"
"(505) 462-","Landline","Bernalillo","Albuquerque","NM","New Mexico","87121","Mountain","35.059663","-106.805535"
"(505) 898-","Landline","Bernalillo","Albuquerque","NM","New Mexico","87121","Mountain","35.059663","-106.805535"
"(575) 562-","Unknown","Roosevelt","Portales","NM","New Mexico","88130","Mountain","34.076964","-103.352595"
"(575) 936-","Unknown","Luna","Deming","NM","New Mexico","88031","Mountain","32.239815","-107.74042"
"(575) 535-","Unknown","Grant","Buckhorn","NM","New Mexico","88025","Mountain","33.06335","-108.695588"
"(575) 826-","Unknown","Eddy","Carlsbad","NM","New Mexico","88220","Mountain","32.416897","-104.46539"
"(505) 250-","Cell Number","Bernalillo","Albuquerque","NM","New Mexico","87121","Mountain","35.059663","-106.805535"
"(505) 283-","Unknown","Bernalillo","Albuquerque","NM","New Mexico","87121","Mountain","35.059663","-106.805535"
"(505) 214-","Landline","Bernalillo","Albuquerque","NM","New Mexico","87121","Mountain","35.059663","-106.805535"
"(505) 328-","Cell Number","Bernalillo","Albuquerque","NM","New Mexico","87121","Mountain","35.059663","-106.805535"
"(505) 294-","Landline","Bernalillo","Albuquerque","NM","New Mexico","87121","Mountain","35.059663","-106.805535"
"(505) 705-","Cell Number","Torrance","Moriarty","NM","New Mexico","87035","Mountain","34.94103","-106.055796"
"(505) 939-","Cell Number","Bernalillo","Albuquerque","NM","New Mexico","87121","Mountain","35.059663","-106.805535"
"(505) 204-","Cell Number","Santa Fe","Santa Fe","NM","New Mexico","87506","Mountain","35.606283","-106.075722"
"(575) 613-","Unknown","Taos","Taos","NM","New Mexico","87571","Mountain","36.429239","-105.554532"
"(505) 750-","Unknown","Bernalillo","Albuquerque","NM","New Mexico","87121","Mountain","35.059663","-106.805535"
"(575) 742-","Unknown","Curry","Clovis","NM","New Mexico","88101","Mountain","34.497241","-103.294978"
"(575) 434-","Unknown","Otero","Alamogordo","NM","New Mexico","88310","Mountain","32.870046","-105.948967"
"(505) 489-","Cell Number","Bernalillo","Albuquerque","NM","New Mexico","87121","Mountain","35.059663","-106.805535"
"(505) 968-","Cell Number","Bernalillo","Albuquerque","NM","New Mexico","87121","Mountain","35.059663","-106.805535"
"(505) 226-","Landline","Roosevelt","Los Alamos","NM","New Mexico","87545","Mountain","35.863858","-106.295255"
"(575) 395-","Unknown","Lea","Jal","NM","New Mexico","88252","Mountain","32.094646","-103.193924"
"(575) 749-","Unknown","Curry","Clovis","NM","New Mexico","88101","Mountain","34.497241","-103.294978"
"(505) 790-","Cell Number","Bernalillo","Albuquerque","NM","New Mexico","87121","Mountain","35.059663","-106.805535"
"(575) 202-","Unknown","Dona Ana","Las Cruces","NM","New Mexico","88005","Mountain","32.167296","-106.897176"
"(505) 925-","Landline","Bernalillo","Albuquerque","NM","New Mexico","87121","Mountain","35.059663","-106.805535"
"(505) 427-","Landline","Guadalupe","Farmington","NM","New Mexico","87402","Mountain","36.775852","-108.101176"
"(575) 354-","Unknown","Lincoln","Lincoln","NM","New Mexico","88338","Mountain","33.739651","-105.629382"
"(575) 987-","Unknown","Otero","Sacramento","NM","New Mexico","88347","Mountain","32.78753","-105.544431"
"(505) 839-","Landline","Bernalillo","Albuquerque","NM","New Mexico","87121","Mountain","35.059663","-106.805535"
"(505) 920-","Cell Number","Santa Fe","Santa Fe","NM","New Mexico","87506","Mountain","35.606283","-106.075722"
"(505) 224-","Landline","Bernalillo","Albuquerque","NM","New Mexico","87121","Mountain","35.059663","-106.805535"
"(575) 887-","Unknown","Eddy","Carlsbad","NM","New Mexico","88220","Mountain","32.416897","-104.46539"
"(505) 848-","Landline","Bernalillo","Albuquerque","NM","New Mexico","87121","Mountain","35.059663","-106.805535"
"(575) 236-","Unknown","Eddy","Carlsbad","NM","New Mexico","88220","Mountain","32.416897","-104.46539"
"(575) 817-","Unknown","Eddy","Carlsbad","NM","New Mexico","88220","Mountain","32.416897","-104.46539"
"(505) 429-","Cell Number","San Miguel","Las Vegas","NM","New Mexico","87701","Mountain","35.551539","-104.985643"
"(505) 967-","Unknown","Bernalillo","Albuquerque","NM","New Mexico","87121","Mountain","35.059663","-106.805535"
"(505) 806-","Unknown","Mckinley","Ramah","NM","New Mexico","87321","Mountain","35.128655","-108.502673"
"(575) 607-","Unknown","Roosevelt","Portales","NM","New Mexico","88130","Mountain","34.076964","-103.352595"
"(575) 399-","Unknown","Lea","Hobbs","NM","New Mexico","88242","Mountain","32.496641","-103.169754"
"(575) 653-","Unknown","Lincoln","San Patricio","NM","New Mexico","88348","Mountain","33.739651","-105.629382"
"(575) 446-","Unknown","Otero","Alamogordo","NM","New Mexico","88310","Mountain","32.870046","-105.948967"
"(505) 261-","Cell Number","Bernalillo","Albuquerque","NM","New Mexico","87121","Mountain","35.059663","-106.805535"
"(575) 588-","Unknown","Rio Arriba","Los Ojos","NM","New Mexico","87551","Mountain","36.728938","-106.515714"
"(575) 457-","Unknown","Eddy","Artesia","NM","New Mexico","88211","Mountain","32.753571","-104.328113"
"(505) 260-","Landline","Bernalillo","Albuquerque","NM","New Mexico","87121","Mountain","35.059663","-106.805535"
"(505) 664-","Landline","Los Alamos","Los Alamos","NM","New Mexico","87545","Mountain","35.863858","-106.295255"
"(575) 382-","Unknown","Dona Ana","Las Cruces","NM","New Mexico","88005","Mountain","32.167296","-106.897176"
"(505) 232-","Landline","Bernalillo","Albuquerque","NM","New Mexico","87121","Mountain","35.059663","-106.805535"
"(505) 407-","Landline","Bernalillo","Cedar Crest","NM","New Mexico","87008","Mountain","35.124363","-106.375103"
"(505) 837-","Landline","Bernalillo","Albuquerque","NM","New Mexico","87121","Mountain","35.059663","-106.805535"
"(505) 468-","Landline","Bernalillo","Albuquerque","NM","New Mexico","87121","Mountain","35.059663","-106.805535"
"(575) 618-","Unknown","Dona Ana","Anthony","NM","New Mexico","88021","Mountain","32.068186","-106.570475"
"(575) 372-","Unknown","Curry","Melrose","NM","New Mexico","88124","Mountain","34.50512","-103.564506"
"(505) 331-","Cell Number","Bernalillo","Albuquerque","NM","New Mexico","87121","Mountain","35.059663","-106.805535"
"(575) 694-","Unknown","Luna","Deming","NM","New Mexico","88031","Mountain","32.239815","-107.74042"
"(505) 350-","Cell Number","Bernalillo","Albuquerque","NM","New Mexico","87121","Mountain","35.059663","-106.805535"
"(575) 373-","Unknown","Dona Ana","Las Cruces","NM","New Mexico","88005","Mountain","32.167296","-106.897176"
"(505) 690-","Cell Number","Santa Fe","Santa Fe","NM","New Mexico","87506","Mountain","35.606283","-106.075722"
"(505) 510-","Unknown","Torrance","Estancia","NM","New Mexico","87016","Mountain","34.752146","-106.16066"
"(505) 971-","Cell Number","Bernalillo","Albuquerque","NM","New Mexico","87121","Mountain","35.059663","-106.805535"
"(575) 520-","Unknown","Dona Ana","Las Cruces","NM","New Mexico","88005","Mountain","32.167296","-106.897176"
"(505) 853-","Landline","Bernalillo","Albuquerque","NM","New Mexico","87121","Mountain","35.059663","-106.805535"
"(575) 359-","Unknown","Roosevelt","Portales","NM","New Mexico","88130","Mountain","34.076964","-103.352595"
"(505) 466-","Landline","Santa Fe","Santa Fe","NM","New Mexico","87506","Mountain","35.606283","-106.075722"
"(575) 597-","Unknown","Grant","Silver City","NM","New Mexico","88062","Mountain","32.728228","-108.137931"
"(575) 631-","Unknown","Lea","Hobbs","NM","New Mexico","88242","Mountain","32.496641","-103.169754"
"(505) 614-","Landline","Rio Arriba","Espanola","NM","New Mexico","87533","Mountain","35.986585","-106.065392"
"(505) 316-","Cell Number","Santa Fe","Santa Fe","NM","New Mexico","87506","Mountain","35.606283","-106.075722"
"(575) 774-","Unknown","Rio Arriba","Lindrith","NM","New Mexico","87029","Mountain","36.324857","-107.049527"
"(505) 235-","Cell Number","Bernalillo","Albuquerque","NM","New Mexico","87121","Mountain","35.059663","-106.805535"
"(575) 956-","Unknown","Grant","Silver City","NM","New Mexico","88062","Mountain","32.728228","-108.137931"
"(575) 784-","Unknown","Curry","Clovis","NM","New Mexico","88101","Mountain","34.497241","-103.294978"
"(505) 554-","Unknown","Bernalillo","Albuquerque","NM","New Mexico","87121","Mountain","35.059663","-106.805535"
"(505) 955-","Landline","Santa Fe","Santa Fe","NM","New Mexico","87506","Mountain","35.606283","-106.075722"
"(505) 863-","Landline","Mckinley","Gallup","NM","New Mexico","87305","Mountain","35.449852","-108.770522"
"(505) 822-","Landline","Bernalillo","Albuquerque","NM","New Mexico","87121","Mountain","35.059663","-106.805535"
"(575) 464-","Unknown","Otero","Mescalero","NM","New Mexico","88340","Mountain","33.154212","-105.803067"
"(505) 775-","Landline","Mckinley","Ramah","NM","New Mexico","87321","Mountain","35.128655","-108.502673"
"(575) 531-","Unknown","Luna","Deming","NM","New Mexico","88031","Mountain","32.239815","-107.74042"
"(575) 289-","Unknown","Sandoval","Counselor","NM","New Mexico","87018","Mountain","35.71742","-106.935844"
"(505) 846-","Landline","Bernalillo","Albuquerque","NM","New Mexico","87121","Mountain","35.059663","-106.805535"
"(505) 279-","Landline","Quay","Farmington","NM","New Mexico","87402","Mountain","36.775852","-108.101176"
"(505) 771-","Landline","Sandoval","Bernalillo","NM","New Mexico","87004","Mountain","35.629445","-106.742896"
"(505) 828-","Landline","Bernalillo","Albuquerque","NM","New Mexico","87121","Mountain","35.059663","-106.805535"
"(505) 944-","Landline","Bernalillo","Albuquerque","NM","New Mexico","87121","Mountain","35.059663","-106.805535"
"(505) 867-","Landline","Sandoval","Bernalillo","NM","New Mexico","87004","Mountain","35.629445","-106.742896"
"(505) 320-","Cell Number","San Juan","Farmington","NM","New Mexico","87402","Mountain","36.775852","-108.101176"
"(505) 275-","Landline","Bernalillo","Albuquerque","NM","New Mexico","87121","Mountain","35.059663","-106.805535"
"(575) 961-","Unknown","Dona Ana","Las Cruces","NM","New Mexico","88005","Mountain","32.167296","-106.897176"
"(505) 841-","Landline","Bernalillo","Albuquerque","NM","New Mexico","87121","Mountain","35.059663","-106.805535"
"(575) 940-","Unknown","Lincoln","Capitan","NM","New Mexico","88316","Mountain","33.501389","-105.612793"
"(505) 501-","Cell Number","Santa Fe","Santa Fe","NM","New Mexico","87506","Mountain","35.606283","-106.075722"
"(575) 493-","Unknown","Hidalgo","Lordsburg","NM","New Mexico","88045","Mountain","32.315951","-108.723047"
"(575) 441-","Unknown","Lea","Hobbs","NM","New Mexico","88242","Mountain","32.496641","-103.169754"
"(505) 873-","Landline","Bernalillo","Albuquerque","NM","New Mexico","87121","Mountain","35.059663","-106.805535"
"(575) 825-","Unknown","Roosevelt","Portales","NM","New Mexico","88130","Mountain","34.076964","-103.352595"
"(505) 796-","Landline","Bernalillo","Albuquerque","NM","New Mexico","87121","Mountain","35.059663","-106.805535"
"(505) 978-","Cell Number","Bernalillo","Albuquerque","NM","New Mexico","87121","Mountain","35.059663","-106.805535"
"(505) 908-","Unknown","Bernalillo","Albuquerque","NM","New Mexico","87121","Mountain","35.059663","-106.805535"
"(505) 455-","Landline","Santa Fe","Santa Fe","NM","New Mexico","87506","Mountain","35.606283","-106.075722"
"(575) 322-","Unknown","Socorro","Socorro","NM","New Mexico","87801","Mountain","34.035975","-107.03802"
"(575) 219-","Unknown","Curry","Clovis","NM","New Mexico","88101","Mountain","34.497241","-103.294978"
"(505) 930-","Cell Number","Santa Fe","Santa Fe","NM","New Mexico","87506","Mountain","35.606283","-106.075722"
"(575) 512-","Unknown","Guadalupe","Santa Rosa","NM","New Mexico","88435","Mountain","34.852639","-104.589897"
"(505) 321-","Cell Number","Bernalillo","Albuquerque","NM","New Mexico","87121","Mountain","35.059663","-106.805535"
"(575) 513-","Unknown","Eddy","Artesia","NM","New Mexico","88211","Mountain","32.753571","-104.328113"
"(505) 266-","Landline","Bernalillo","Albuquerque","NM","New Mexico","87121","Mountain","35.059663","-106.805535"
"(505) 367-","Landline","Rio Arriba","Espanola","NM","New Mexico","87533","Mountain","35.986585","-106.065392"
"(505) 593-","Cell Number","Mckinley","Gallup","NM","New Mexico","87305","Mountain","35.449852","-108.770522"
"(505) 907-","Cell Number","Bernalillo","Albuquerque","NM","New Mexico","87121","Mountain","35.059663","-106.805535"
"(505) 871-","Unknown","Mckinley","Ramah","NM","New Mexico","87321","Mountain","35.128655","-108.502673"
"(505) 465-","Landline","Sandoval","Pena Blanca","NM","New Mexico","87041","Mountain","35.59796","-106.349162"
"(575) 739-","Unknown","Lea","Lovington","NM","New Mexico","88260","Mountain","32.679494","-103.24708"
"(575) 532-","Unknown","Dona Ana","Las Cruces","NM","New Mexico","88005","Mountain","32.167296","-106.897176"
"(575) 423-","Unknown","Lincoln","Carrizozo","NM","New Mexico","88301","Mountain","33.641799","-105.875816"
"(505) 259-","Cell Number","Bernalillo","Albuquerque","NM","New Mexico","87121","Mountain","35.059663","-106.805535"
"(505) 381-","Cell Number","Bernalillo","Albuquerque","NM","New Mexico","87121","Mountain","35.059663","-106.805535"
"(505) 884-","Landline","Bernalillo","Albuquerque","NM","New Mexico","87121","Mountain","35.059663","-106.805535"
"(575) 528-","Unknown","Dona Ana","Las Cruces","NM","New Mexico","88005","Mountain","32.167296","-106.897176"
"(505) 670-","Cell Number","Santa Fe","Santa Fe","NM","New Mexico","87506","Mountain","35.606283","-106.075722"
"(575) 547-","Unknown","Catron","Reserve","NM","New Mexico","87830","Mountain","33.681174","-108.859382"
"(575) 812-","Unknown","Otero","Alamogordo","NM","New Mexico","88310","Mountain","32.870046","-105.948967"
"(505) 314-","Landline","Bernalillo","Albuquerque","NM","New Mexico","87121","Mountain","35.059663","-106.805535"
"(505) 698-","Cell Number","Bernalillo","Albuquerque","NM","New Mexico","87121","Mountain","35.059663","-106.805535"
"(505) 726-","Landline","Mckinley","Gallup","NM","New Mexico","87305","Mountain","35.449852","-108.770522"
"(505) 657-","Unknown","Santa Fe","Glorieta","NM","New Mexico","87535","Mountain","35.77837","-105.856714"
"(505) 767-","Landline","Bernalillo","Albuquerque","NM","New Mexico","87121","Mountain","35.059663","-106.805535"
"(505) 604-","Cell Number","Bernalillo","Albuquerque","NM","New Mexico","87121","Mountain","35.059663","-106.805535"
"(575) 805-","Unknown","Dona Ana","Las Cruces","NM","New Mexico","88005","Mountain","32.167296","-106.897176"
"(505) 820-","Landline","Santa Fe","Santa Fe","NM","New Mexico","87506","Mountain","35.606283","-106.075722"
"(505) 352-","Landline","Bernalillo","Albuquerque","NM","New Mexico","87121","Mountain","35.059663","-106.805535"
"(505) 553-","Landline","Bernalillo","Albuquerque","NM","New Mexico","87121","Mountain","35.059663","-106.805535"
"(575) 230-","Unknown","Chaves","Roswell","NM","New Mexico","88201","Mountain","33.346666","-104.593687"
"(505) 251-","Cell Number","Bernalillo","Albuquerque","NM","New Mexico","87121","Mountain","35.059663","-106.805535"
"(505) 872-","Landline","Bernalillo","Albuquerque","NM","New Mexico","87121","Mountain","35.059663","-106.805535"
"(505) 954-","Landline","Santa Fe","Santa Fe","NM","New Mexico","87506","Mountain","35.606283","-106.075722"
"(505) 818-","Cell Number","Bernalillo","Albuquerque","NM","New Mexico","87121","Mountain","35.059663","-106.805535"
"(505) 875-","Landline","Bernalillo","Albuquerque","NM","New Mexico","87121","Mountain","35.059663","-106.805535"
"(575) 654-","Unknown","Grant","Silver City","NM","New Mexico","88062","Mountain","32.728228","-108.137931"
"(505) 977-","Cell Number","Bernalillo","Albuquerque","NM","New Mexico","87121","Mountain","35.059663","-106.805535"
"(505) 782-","Landline","Mckinley","Ramah","NM","New Mexico","87321","Mountain","35.128655","-108.502673"
"(505) 722-","Landline","Mckinley","Gallup","NM","New Mexico","87305","Mountain","35.449852","-108.770522"
"(575) 756-","Unknown","Rio Arriba","Chama","NM","New Mexico","87520","Mountain","36.756297","-106.631567"
"(505) 923-","Landline","Bernalillo","Albuquerque","NM","New Mexico","87121","Mountain","35.059663","-106.805535"
"(505) 507-","Cell Number","Bernalillo","Albuquerque","NM","New Mexico","87121","Mountain","35.059663","-106.805535"
"(575) 303-","Unknown","Colfax","Raton","NM","New Mexico","87740","Mountain","36.662666","-104.815043"
"(505) 469-","Cell Number","Santa Fe","Santa Fe","NM","New Mexico","87506","Mountain","35.606283","-106.075722"
"(575) 744-","Unknown","Sierra","Truth Or Consequences","NM","New Mexico","87901","Mountain","33.160602","-107.266914"
"(505) 716-","Landline","San Juan","Farmington","NM","New Mexico","87402","Mountain","36.775852","-108.101176"
"(505) 634-","Landline","San Juan","Bloomfield","NM","New Mexico","87413","Mountain","36.613621","-108.016239"
"(505) 609-","Unknown","San Juan","Farmington","NM","New Mexico","87402","Mountain","36.775852","-108.101176"
"(575) 479-","Unknown","Otero","Holloman Air Force Base","NM","New Mexico","88330","Mountain","32.863459","-106.000393"
"(575) 904-","Unknown","Curry","Clovis","NM","New Mexico","88101","Mountain","34.497241","-103.294978"
"(505) 701-","Cell Number","San Juan","Farmington","NM","New Mexico","87402","Mountain","36.775852","-108.101176"
"(505) 990-","Unknown","Bernalillo","Albuquerque","NM","New Mexico","87121","Mountain","35.059663","-106.805535"
"(575) 650-","Unknown","Dona Ana","Las Cruces","NM","New Mexico","88005","Mountain","32.167296","-106.897176"
"(505) 237-","Landline","Bernalillo","Albuquerque","NM","New Mexico","87121","Mountain","35.059663","-106.805535"
"(505) 234-","Landline","Eddy","Albuquerque","NM","New Mexico","87121","Mountain","35.059663","-106.805535"
"(575) 799-","Unknown","Curry","Clovis","NM","New Mexico","88101","Mountain","34.497241","-103.294978"
"(575) 627-","Unknown","Chaves","Roswell","NM","New Mexico","88201","Mountain","33.346666","-104.593687"
"(575) 587-","Unknown","Taos","Penasco","NM","New Mexico","87553","Mountain","36.176327","-105.710451"
"(505) 343-","Landline","Bernalillo","Albuquerque","NM","New Mexico","87121","Mountain","35.059663","-106.805535"
"(505) 831-","Landline","Bernalillo","Albuquerque","NM","New Mexico","87121","Mountain","35.059663","-106.805535"
"(575) 779-","Unknown","Taos","Taos","NM","New Mexico","87571","Mountain","36.429239","-105.554532"
"(575) 616-","Unknown","Eddy","Artesia","NM","New Mexico","88211","Mountain","32.753571","-104.328113"
"(575) 239-","Unknown","Grant","Silver City","NM","New Mexico","88062","Mountain","32.728228","-108.137931"
"(575) 378-","Unknown","Lincoln","Ruidoso Downs","NM","New Mexico","88346","Mountain","33.353183","-105.620581"
"(575) 791-","Unknown","Curry","Clovis","NM","New Mexico","88101","Mountain","34.497241","-103.294978"
"(505) 282-","Landline","Bernalillo","Albuquerque","NM","New Mexico","87121","Mountain","35.059663","-106.805535"
"(505) 787-","Unknown","San Juan","Farmington","NM","New Mexico","87402","Mountain","36.775852","-108.101176"
"(505) 718-","Cell Number","San Miguel","Las Vegas","NM","New Mexico","87701","Mountain","35.551539","-104.985643"
"(505) 951-","Cell Number","Bernalillo","Albuquerque","NM","New Mexico","87121","Mountain","35.059663","-106.805535"
"(505) 814-","Unknown","Bernalillo","Albuquerque","NM","New Mexico","87121","Mountain","35.059663","-106.805535"
"(505) 371-","Landline","Mckinley","Gallup","NM","New Mexico","87305","Mountain","35.449852","-108.770522"
"(575) 840-","Unknown","Chaves","Roswell","NM","New Mexico","88201","Mountain","33.346666","-104.593687"
"(505) 274-","Landline","Roosevelt","Albuquerque","NM","New Mexico","87121","Mountain","35.059663","-106.805535"
"(575) 637-","Unknown","Chaves","Roswell","NM","New Mexico","88201","Mountain","33.346666","-104.593687"
"(575) 398-","Unknown","Lea","Tatum","NM","New Mexico","88267","Mountain","33.252178","-103.317675"
"(505) 995-","Landline","Santa Fe","Santa Fe","NM","New Mexico","87506","Mountain","35.606283","-106.075722"
"(575) 209-","Unknown","Rio Arriba","Chama","NM","New Mexico","87520","Mountain","36.756297","-106.631567"
"(505) 377-","Landline","Colfax","Albuquerque","NM","New Mexico","87121","Mountain","35.059663","-106.805535"
"(505) 891-","Landline","Bernalillo","Albuquerque","NM","New Mexico","87121","Mountain","35.059663","-106.805535"
"(505) 747-","Landline","Rio Arriba","Espanola","NM","New Mexico","87533","Mountain","35.986585","-106.065392"
"(505) 566-","Landline","San Juan","Farmington","NM","New Mexico","87402","Mountain","36.775852","-108.101176"
"(575) 622-","Unknown","Chaves","Roswell","NM","New Mexico","88201","Mountain","33.346666","-104.593687"
"(505) 414-","Unknown","Bernalillo","Albuquerque","NM","New Mexico","87121","Mountain","35.059663","-106.805535"
"(505) 286-","Landline","Bernalillo","Tijeras","NM","New Mexico","87059","Mountain","35.035534","-106.275342"
"(575) 640-","Unknown","Dona Ana","Las Cruces","NM","New Mexico","88005","Mountain","32.167296","-106.897176"
"(505) 366-","Landline","Bernalillo","Albuquerque","NM","New Mexico","87121","Mountain","35.059663","-106.805535"
"(505) 315-","Cell Number","Bernalillo","Albuquerque","NM","New Mexico","87121","Mountain","35.059663","-106.805535"
"(575) 332-","Unknown","Dona Ana","Santa Teresa","NM","New Mexico","88008","Mountain","31.87054","-106.626892"
"(505) 836-","Landline","Bernalillo","Albuquerque","NM","New Mexico","87121","Mountain","35.059663","-106.805535"
"(505) 329-","Cell Number","Bernalillo","Albuquerque","NM","New Mexico","87121","Mountain","35.059663","-106.805535"
"(505) 577-","Cell Number","Santa Fe","Santa Fe","NM","New Mexico","87506","Mountain","35.606283","-106.075722"
"(575) 394-","Unknown","Lea","Monument","NM","New Mexico","88265","Mountain","32.654163","-103.268907"
"(575) 686-","Unknown","Lincoln","Capitan","NM","New Mexico","88316","Mountain","33.501389","-105.612793"
"(575) 355-","Unknown","De Baca","Fort Sumner","NM","New Mexico","88119","Mountain","34.531467","-104.174298"
"(575) 263-","Unknown","Lea","Hobbs","NM","New Mexico","88242","Mountain","32.496641","-103.169754"
"(505) 761-","Landline","Bernalillo","Albuquerque","NM","New Mexico","87121","Mountain","35.059663","-106.805535"
"(575) 602-","Unknown","Lea","Hobbs","NM","New Mexico","88242","Mountain","32.496641","-103.169754"
"(575) 491-","Unknown","Otero","Alamogordo","NM","New Mexico","88310","Mountain","32.870046","-105.948967"
"(505) 476-","Landline","Santa Fe","Santa Fe","NM","New Mexico","87506","Mountain","35.606283","-106.075722"
"(575) 576-","Unknown","Quay","San Jon","NM","New Mexico","88434","Mountain","35.123423","-103.271136"
"(505) 897-","Landline","Bernalillo","Albuquerque","NM","New Mexico","87121","Mountain","35.059663","-106.805535"
"(575) 541-","Unknown","Dona Ana","Las Cruces","NM","New Mexico","88005","Mountain","32.167296","-106.897176"
"(575) 208-","Unknown","Chaves","Roswell","NM","New Mexico","88201","Mountain","33.346666","-104.593687"
"(505) 733-","Landline","Mckinley","Tohatchi","NM","New Mexico","87325","Mountain","35.884668","-108.880374"
"(505) 384-","Landline","Torrance","Estancia","NM","New Mexico","87016","Mountain","34.752146","-106.16066"
"(575) 646-","Unknown","Dona Ana","Las Cruces","NM","New Mexico","88005","Mountain","32.167296","-106.897176"
"(575) 274-","Unknown","Roosevelt","Elida","NM","New Mexico","88116","Mountain","33.985296","-103.494855"
"(575) 414-","Unknown","Eddy","Loving","NM","New Mexico","88256","Mountain","32.272039","-104.147248"
"(575) 420-","Unknown","Chaves","Roswell","NM","New Mexico","88201","Mountain","33.346666","-104.593687"
"(505) 368-","Landline","San Juan","Shiprock","NM","New Mexico","87420","Mountain","36.417185","-108.860539"
"(575) 297-","Unknown","Sierra","Truth Or Consequences","NM","New Mexico","87901","Mountain","33.160602","-107.266914"
"(505) 919-","Landline","Santa Fe","Santa Fe","NM","New Mexico","87506","Mountain","35.606283","-106.075722"
"(505) 798-","Landline","Bernalillo","Albuquerque","NM","New Mexico","87121","Mountain","35.059663","-106.805535"
"(505) 926-","Cell Number","San Juan","Cedar Crest","NM","New Mexico","87008","Mountain","35.124363","-106.375103"
"(505) 975-","Cell Number","Bernalillo","Albuquerque","NM","New Mexico","87121","Mountain","35.059663","-106.805535"
"(505) 606-","Landline","Los Alamos","Los Alamos","NM","New Mexico","87545","Mountain","35.863858","-106.295255"
"(575) 217-","Unknown","Colfax","Raton","NM","New Mexico","87740","Mountain","36.662666","-104.815043"
"(505) 201-","Landline","Dona Ana","Santa Fe","NM","New Mexico","87506","Mountain","35.606283","-106.075722"
"(575) 963-","Unknown","Otero","Pinon","NM","New Mexico","88344","Mountain","32.609109","-105.437481"
"(505) 428-","Landline","Santa Fe","Santa Fe","NM","New Mexico","87506","Mountain","35.606283","-106.075722"
"(575) 477-","Unknown","Roosevelt","Rogers","NM","New Mexico","88132","Mountain","33.921623","-103.189798"
"(575) 719-","Unknown","Otero","Tularosa","NM","New Mexico","88352","Mountain","33.172467","-105.960356"
"(505) 258-","Landline","Lincoln","Farmington","NM","New Mexico","87402","Mountain","36.775852","-108.101176"
"(505) 225-","Landline","Eddy","Albuquerque","NM","New Mexico","87121","Mountain","35.059663","-106.805535"
"(505) 883-","Landline","Bernalillo","Albuquerque","NM","New Mexico","87121","Mountain","35.059663","-106.805535"
"(575) 233-","Unknown","Dona Ana","La Mesa","NM","New Mexico","88044","Mountain","32.143754","-106.691214"
"(505) 488-","Landline","Mckinley","Gallup","NM","New Mexico","87305","Mountain","35.449852","-108.770522"
"(505) 918-","Unknown","Bernalillo","Albuquerque","NM","New Mexico","87121","Mountain","35.059663","-106.805535"
"(575) 776-","Unknown","Taos","El Prado","NM","New Mexico","87529","Mountain","36.349198","-105.624393"
"(505) 878-","Landline","Bernalillo","Albuquerque","NM","New Mexico","87121","Mountain","35.059663","-106.805535"
"(505) 406-","Cell Number","San Juan","Shiprock","NM","New Mexico","87420","Mountain","36.417185","-108.860539"
"(505) 610-","Cell Number","Bernalillo","Albuquerque","NM","New Mexico","87121","Mountain","35.059663","-106.805535"
"(575) 571-","Unknown","Dona Ana","Las Cruces","NM","New Mexico","88005","Mountain","32.167296","-106.897176"
"(505) 327-","Landline","San Juan","Farmington","NM","New Mexico","87402","Mountain","36.775852","-108.101176"
"(505) 372-","Landline","Quay","Waterflow","NM","New Mexico","87421","Mountain","36.750745","-108.203152"
"(505) 333-","Landline","San Juan","Aztec","NM","New Mexico","87410","Mountain","36.842198","-107.818288"
"(505) 667-","Landline","Los Alamos","Los Alamos","NM","New Mexico","87545","Mountain","35.863858","-106.295255"
"(505) 861-","Landline","Valencia","Belen","NM","New Mexico","87002","Mountain","34.651051","-106.695247"
"(505) 340-","Unknown","Bernalillo","Albuquerque","NM","New Mexico","87121","Mountain","35.059663","-106.805535"
"(575) 915-","Unknown","Dona Ana","Las Cruces","NM","New Mexico","88005","Mountain","32.167296","-106.897176"
"(505) 807-","Unknown","Valencia","Los Lunas","NM","New Mexico","87031","Mountain","34.76577","-106.712287"
"(505) 306-","Cell Number","Bernalillo","Albuquerque","NM","New Mexico","87121","Mountain","35.059663","-106.805535"
"(575) 523-","Unknown","Dona Ana","Las Cruces","NM","New Mexico","88005","Mountain","32.167296","-106.897176"
"(575) 682-","Unknown","Otero","Cloudcroft","NM","New Mexico","88317","Mountain","32.889717","-105.674395"
"(575) 652-","Unknown","Dona Ana","Las Cruces","NM","New Mexico","88005","Mountain","32.167296","-106.897176"
"(575) 353-","Unknown","Dona Ana","Las Cruces","NM","New Mexico","88005","Mountain","32.167296","-106.897176"
"(505) 471-","Landline","Santa Fe","Santa Fe","NM","New Mexico","87506","Mountain","35.606283","-106.075722"
"(575) 678-","Unknown","Dona Ana","Las Cruces","NM","New Mexico","88005","Mountain","32.167296","-106.897176"
"(505) 877-","Landline","Bernalillo","Albuquerque","NM","New Mexico","87121","Mountain","35.059663","-106.805535"
"(505) 540-","Cell Number","Bernalillo","Albuquerque","NM","New Mexico","87121","Mountain","35.059663","-106.805535"
"(575) 578-","Unknown","Chaves","Roswell","NM","New Mexico","88201","Mountain","33.346666","-104.593687"
"(575) 527-","Unknown","Dona Ana","Las Cruces","NM","New Mexico","88005","Mountain","32.167296","-106.897176"
"(575) 200-","Unknown","Eddy","Carlsbad","NM","New Mexico","88220","Mountain","32.416897","-104.46539"
"(505) 949-","Cell Number","Bernalillo","Albuquerque","NM","New Mexico","87121","Mountain","35.059663","-106.805535"
"(575) 734-","Unknown","Chaves","Dexter","NM","New Mexico","88230","Mountain","33.238749","-104.397276"
"(575) 227-","Unknown","Otero","Alamogordo","NM","New Mexico","88310","Mountain","32.870046","-105.948967"
"(505) 514-","Landline","Bernalillo","Albuquerque","NM","New Mexico","87121","Mountain","35.059663","-106.805535"
"(505) 833-","Landline","Bernalillo","Albuquerque","NM","New Mexico","87121","Mountain","35.059663","-106.805535"
"(575) 418-","Unknown","Socorro","Socorro","NM","New Mexico","87801","Mountain","34.035975","-107.03802"
"(575) 238-","Unknown","Taos","Taos","NM","New Mexico","87571","Mountain","36.429239","-105.554532"
"(505) 804-","Cell Number","Bernalillo","Albuquerque","NM","New Mexico","87121","Mountain","35.059663","-106.805535"
"(505) 717-","Unknown","Bernalillo","Albuquerque","NM","New Mexico","87121","Mountain","35.059663","-106.805535"
"(575) 229-","Unknown","Curry","Texico","NM","New Mexico","88135","Mountain","34.518407","-103.128609"
"(575) 909-","Unknown","Eddy","Artesia","NM","New Mexico","88211","Mountain","32.753571","-104.328113"
"(505) 326-","Landline","San Juan","Farmington","NM","New Mexico","87402","Mountain","36.775852","-108.101176"
"(505) 298-","Landline","Bernalillo","Albuquerque","NM","New Mexico","87121","Mountain","35.059663","-106.805535"
"(505) 757-","Landline","San Miguel","Pecos","NM","New Mexico","87552","Mountain","35.571588","-105.687047"
"(575) 436-","Unknown","Hidalgo","Animas","NM","New Mexico","88020","Mountain","32.053042","-108.906944"
"(505) 989-","Landline","Santa Fe","Santa Fe","NM","New Mexico","87506","Mountain","35.606283","-106.075722"
"(505) 565-","Landline","Valencia","Los Lunas","NM","New Mexico","87031","Mountain","34.76577","-106.712287"
"(575) 813-","Unknown","Lincoln","Ruidoso Downs","NM","New Mexico","88346","Mountain","33.353183","-105.620581"
"(505) 793-","Cell Number","San Juan","Farmington","NM","New Mexico","87402","Mountain","36.775852","-108.101176"
"(575) 574-","Unknown","Grant","Silver City","NM","New Mexico","88062","Mountain","32.728228","-108.137931"
"(505) 966-","Landline","Valencia","Belen","NM","New Mexico","87002","Mountain","34.651051","-106.695247"
"(505) 615-","Cell Number","Bernalillo","Albuquerque","NM","New Mexico","87121","Mountain","35.059663","-106.805535"
"(575) 590-","Unknown","Grant","Silver City","NM","New Mexico","88062","Mountain","32.728228","-108.137931"
"(575) 623-","Unknown","Chaves","Roswell","NM","New Mexico","88201","Mountain","33.346666","-104.593687"
"(505) 931-","Cell Number","Bernalillo","Albuquerque","NM","New Mexico","87121","Mountain","35.059663","-106.805535"
"(575) 676-","Unknown","Lea","Maljamar","NM","New Mexico","88264","Mountain","32.785417","-103.433804"
"(575) 585-","Unknown","Otero","Tularosa","NM","New Mexico","88352","Mountain","33.172467","-105.960356"
"(505) 735-","Landline","Mckinley","Tohatchi","NM","New Mexico","87325","Mountain","35.884668","-108.880374"
"(505) 903-","Unknown","Bernalillo","Albuquerque","NM","New Mexico","87121","Mountain","35.059663","-106.805535"
"(505) 270-","Cell Number","Bernalillo","Albuquerque","NM","New Mexico","87121","Mountain","35.059663","-106.805535"
"(505) 338-","Landline","Bernalillo","Albuquerque","NM","New Mexico","87121","Mountain","35.059663","-106.805535"
"(575) 671-","Unknown","Lincoln","Ruidoso","NM","New Mexico","88355","Mountain","33.330502","-105.693322"
"(505) 715-","Landline","Bernalillo","Albuquerque","NM","New Mexico","87121","Mountain","35.059663","-106.805535"
"(505) 271-","Landline","Bernalillo","Albuquerque","NM","New Mexico","87121","Mountain","35.059663","-106.805535"
"(575) 365-","Unknown","Chaves","Lake Arthur","NM","New Mexico","88253","Mountain","33.026322","-104.491621"
"(575) 201-","Unknown","Dona Ana","Anthony","NM","New Mexico","88021","Mountain","32.068186","-106.570475"
"(505) 857-","Landline","Bernalillo","Albuquerque","NM","New Mexico","87121","Mountain","35.059663","-106.805535"
"(575) 377-","Unknown","Colfax","Eagle Nest","NM","New Mexico","87718","Mountain","36.547612","-105.283276"
"(505) 217-","Landline","Bernalillo","Albuquerque","NM","New Mexico","87121","Mountain","35.059663","-106.805535"
"(575) 318-","Unknown","Lea","Hobbs","NM","New Mexico","88242","Mountain","32.496641","-103.169754"
"(575) 279-","Unknown","Quay","House","NM","New Mexico","88121","Mountain","34.753722","-103.970607"
"(575) 308-","Unknown","Eddy","Artesia","NM","New Mexico","88211","Mountain","32.753571","-104.328113"
"(505) 336-","Landline","Lincoln","Pena Blanca","NM","New Mexico","87041","Mountain","35.59796","-106.349162"
"(575) 234-","Unknown","Eddy","Carlsbad","NM","New Mexico","88220","Mountain","32.416897","-104.46539"
"(505) 256-","Landline","Bernalillo","Albuquerque","NM","New Mexico","87121","Mountain","35.059663","-106.805535"
"(505) 730-","Cell Number","Bernalillo","Albuquerque","NM","New Mexico","87121","Mountain","35.059663","-106.805535"
"(505) 732-","Landline","Mckinley","Tohatchi","NM","New Mexico","87325","Mountain","35.884668","-108.880374"
"(505) 889-","Landline","Bernalillo","Albuquerque","NM","New Mexico","87121","Mountain","35.059663","-106.805535"
"(505) 242-","Landline","Bernalillo","Albuquerque","NM","New Mexico","87121","Mountain","35.059663","-106.805535"
"(505) 855-","Landline","Bernalillo","Albuquerque","NM","New Mexico","87121","Mountain","35.059663","-106.805535"
"(575) 714-","Unknown","Curry","Clovis","NM","New Mexico","88101","Mountain","34.497241","-103.294978"
"(505) 913-","Cell Number","Santa Fe","Santa Fe","NM","New Mexico","87506","Mountain","35.606283","-106.075722"
"(505) 797-","Landline","Bernalillo","Albuquerque","NM","New Mexico","87121","Mountain","35.059663","-106.805535"
"(505) 552-","Landline","Cibola","Cubero","NM","New Mexico","87014","Mountain","34.962954","-108.056457"
"(575) 203-","Unknown","Dona Ana","Santa Teresa","NM","New Mexico","88008","Mountain","31.87054","-106.626892"
"(505) 358-","Landline","Grant","Albuquerque","NM","New Mexico","87121","Mountain","35.059663","-106.805535"
"(575) 993-","Unknown","Dona Ana","Las Cruces","NM","New Mexico","88005","Mountain","32.167296","-106.897176"
"(505) 400-","Landline","Bernalillo","Albuquerque","NM","New Mexico","87121","Mountain","35.059663","-106.805535"
"(575) 519-","Unknown","Grant","Silver City","NM","New Mexico","88062","Mountain","32.728228","-108.137931"
"(575) 829-","Unknown","Sandoval","Jemez Springs","NM","New Mexico","87025","Mountain","35.786457","-106.648083"
"(505) 890-","Landline","Bernalillo","Albuquerque","NM","New Mexico","87121","Mountain","35.059663","-106.805535"
"(575) 257-","Unknown","Lincoln","Ruidoso","NM","New Mexico","88355","Mountain","33.330502","-105.693322"
"(505) 727-","Landline","Bernalillo","Albuquerque","NM","New Mexico","87121","Mountain","35.059663","-106.805535"
"(575) 769-","Unknown","Curry","Clovis","NM","New Mexico","88101","Mountain","34.497241","-103.294978"
"(505) 661-","Landline","Los Alamos","Los Alamos","NM","New Mexico","87545","Mountain","35.863858","-106.295255"
"(505) 344-","Landline","Bernalillo","Albuquerque","NM","New Mexico","87121","Mountain","35.059663","-106.805535"
"(505) 330-","Cell Number","San Juan","Farmington","NM","New Mexico","87402","Mountain","36.775852","-108.101176"
"(505) 986-","Landline","Santa Fe","Santa Fe","NM","New Mexico","87506","Mountain","35.606283","-106.075722"
"(575) 375-","Unknown","Colfax","Maxwell","NM","New Mexico","87728","Mountain","36.539682","-104.559057"
"(505) 563-","Landline","Bernalillo","Albuquerque","NM","New Mexico","87121","Mountain","35.059663","-106.805535"
"(575) 526-","Unknown","Dona Ana","Las Cruces","NM","New Mexico","88005","Mountain","32.167296","-106.897176"
"(505) 222-","Landline","Bernalillo","Albuquerque","NM","New Mexico","87121","Mountain","35.059663","-106.805535"
"(575) 808-","Unknown","Lincoln","Ruidoso","NM","New Mexico","88355","Mountain","33.330502","-105.693322"
"(575) 763-","Unknown","Curry","Clovis","NM","New Mexico","88101","Mountain","34.497241","-103.294978"
"(575) 941-","Unknown","Eddy","Carlsbad","NM","New Mexico","88220","Mountain","32.416897","-104.46539"
"(505) 994-","Landline","Bernalillo","Albuquerque","NM","New Mexico","87121","Mountain","35.059663","-106.805535"
"(575) 472-","Unknown","Guadalupe","Santa Rosa","NM","New Mexico","88435","Mountain","34.852639","-104.589897"
"(505) 280-","Cell Number","Bernalillo","Albuquerque","NM","New Mexico","87121","Mountain","35.059663","-106.805535"
"(505) 417-","Landline","Bernalillo","Albuquerque","NM","New Mexico","87121","Mountain","35.059663","-106.805535"
"(575) 439-","Unknown","Otero","Alamogordo","NM","New Mexico","88310","Mountain","32.870046","-105.948967"
"(575) 759-","Unknown","Rio Arriba","Chama","NM","New Mexico","87520","Mountain","36.756297","-106.631567"
"(505) 697-","Unknown","Bernalillo","Albuquerque","NM","New Mexico","87121","Mountain","35.059663","-106.805535"
"(575) 549-","Unknown","Luna","Deming","NM","New Mexico","88031","Mountain","32.239815","-107.74042"
"(505) 423-","Landline","Lincoln","Espanola","NM","New Mexico","87533","Mountain","35.986585","-106.065392"
"(505) 764-","Landline","Bernalillo","Albuquerque","NM","New Mexico","87121","Mountain","35.059663","-106.805535"
"(575) 443-","Unknown","Otero","Alamogordo","NM","New Mexico","88310","Mountain","32.870046","-105.948967"
"(575) 447-","Unknown","Colfax","Raton","NM","New Mexico","87740","Mountain","36.662666","-104.815043"
"(505) 425-","Landline","San Miguel","Las Vegas","NM","New Mexico","87701","Mountain","35.551539","-104.985643"
"(505) 699-","Cell Number","Santa Fe","Santa Fe","NM","New Mexico","87506","Mountain","35.606283","-106.075722"
"(505) 888-","Landline","Bernalillo","Albuquerque","NM","New Mexico","87121","Mountain","35.059663","-106.805535"
"(505) 777-","Landline","Mckinley","Tohatchi","NM","New Mexico","87325","Mountain","35.884668","-108.880374"
"(575) 538-","Unknown","Grant","Silver City","NM","New Mexico","88062","Mountain","32.728228","-108.137931"
"(505) 359-","Landline","Roosevelt","Albuquerque","NM","New Mexico","87121","Mountain","35.059663","-106.805535"
"(505) 886-","Unknown","Torrance","Moriarty","NM","New Mexico","87035","Mountain","34.94103","-106.055796"
"(575) 522-","Unknown","Dona Ana","Las Cruces","NM","New Mexico","88005","Mountain","32.167296","-106.897176"
"(505) 449-","Landline","Bernalillo","Albuquerque","NM","New Mexico","87121","Mountain","35.059663","-106.805535"
"(575) 997-","Unknown","Dona Ana","Santa Teresa","NM","New Mexico","88008","Mountain","31.87054","-106.626892"
"(505) 277-","Landline","Bernalillo","Albuquerque","NM","New Mexico","87121","Mountain","35.059663","-106.805535"
"(575) 942-","Unknown","Lea","Hobbs","NM","New Mexico","88242","Mountain","32.496641","-103.169754"
"(575) 737-","Unknown","Taos","Taos","NM","New Mexico","87571","Mountain","36.429239","-105.554532"
"(505) 933-","Cell Number","Bernalillo","Albuquerque","NM","New Mexico","87121","Mountain","35.059663","-106.805535"
"(505) 979-","Cell Number","Mckinley","Gallup","NM","New Mexico","87305","Mountain","35.449852","-108.770522"
"(505) 450-","Cell Number","Bernalillo","Albuquerque","NM","New Mexico","87121","Mountain","35.059663","-106.805535"
"(505) 845-","Landline","Bernalillo","Albuquerque","NM","New Mexico","87121","Mountain","35.059663","-106.805535"
"(575) 494-","Unknown","Luna","Deming","NM","New Mexico","88031","Mountain","32.239815","-107.74042"
"(505) 983-","Landline","Santa Fe","Santa Fe","NM","New Mexico","87506","Mountain","35.606283","-106.075722"
"(505) 248-","Landline","Bernalillo","Albuquerque","NM","New Mexico","87121","Mountain","35.059663","-106.805535"
"(575) 374-","Unknown","Union","Clayton","NM","New Mexico","88415","Mountain","36.451155","-103.162935"
"(575) 729-","Unknown","Lincoln","Ruidoso","NM","New Mexico","88355","Mountain","33.330502","-105.693322"
"(505) 803-","Cell Number","Bernalillo","Albuquerque","NM","New Mexico","87121","Mountain","35.059663","-106.805535"
"(575) 802-","Unknown","Otero","Mescalero","NM","New Mexico","88340","Mountain","33.154212","-105.803067"
"(505) 892-","Landline","Bernalillo","Albuquerque","NM","New Mexico","87121","Mountain","35.059663","-106.805535"
"(505) 948-","Unknown","Bernalillo","Albuquerque","NM","New Mexico","87121","Mountain","35.059663","-106.805535"
"(505) 559-","Landline","Bernalillo","Albuquerque","NM","New Mexico","87121","Mountain","35.059663","-106.805535"
"(575) 534-","Unknown","Grant","Silver City","NM","New Mexico","88062","Mountain","32.728228","-108.137931"
"(505) 227-","Unknown","Bernalillo","Albuquerque","NM","New Mexico","87121","Mountain","35.059663","-106.805535"
"(575) 741-","Unknown","Taos","Taos","NM","New Mexico","87571","Mountain","36.429239","-105.554532"
"(575) 758-","Unknown","Taos","Taos","NM","New Mexico","87571","Mountain","36.429239","-105.554532"
"(505) 924-","Landline","Bernalillo","Albuquerque","NM","New Mexico","87121","Mountain","35.059663","-106.805535"
"(505) 438-","Landline","Santa Fe","Santa Fe","NM","New Mexico","87506","Mountain","35.606283","-106.075722"
"(575) 674-","Unknown","Dona Ana","Las Cruces","NM","New Mexico","88005","Mountain","32.167296","-106.897176"
"(575) 403-","Unknown","Quay","Tucumcari","NM","New Mexico","88401","Mountain","35.114202","-103.615509"
"(575) 482-","Unknown","Curry","Texico","NM","New Mexico","88135","Mountain","34.518407","-103.128609"
"(505) 216-","Landline","Santa Fe","Santa Fe","NM","New Mexico","87506","Mountain","35.606283","-106.075722"
"(575) 427-","Unknown","Guadalupe","La Loma","NM","New Mexico","87724","Mountain","34.781908","-104.718891"
"(505) 906-","Unknown","Mckinley","Gallup","NM","New Mexico","87305","Mountain","35.449852","-108.770522"
"(575) 357-","Unknown","Curry","Broadview","NM","New Mexico","88112","Mountain","34.80789","-103.128229"
"(505) 946-","Landline","Santa Fe","Santa Fe","NM","New Mexico","87506","Mountain","35.606283","-106.075722"
"(505) 832-","Landline","Torrance","Moriarty","NM","New Mexico","87035","Mountain","34.94103","-106.055796"
"(575) 746-","Unknown","Eddy","Artesia","NM","New Mexico","88211","Mountain","32.753571","-104.328113"
"(505) 223-","Landline","Bernalillo","Tijeras","NM","New Mexico","87059","Mountain","35.035534","-106.275342"
"(575) 430-","Unknown","Otero","Alamogordo","NM","New Mexico","88310","Mountain","32.870046","-105.948967"
"(575) 572-","Unknown","Otero","Alamogordo","NM","New Mexico","88310","Mountain","32.870046","-105.948967"
"(505) 723-","Landline","San Juan","Shiprock","NM","New Mexico","87420","Mountain","36.417185","-108.860539"
"(505) 202-","Landline","Dona Ana","Gallup","NM","New Mexico","87305","Mountain","35.449852","-108.770522"
"(575) 405-","Unknown","Dona Ana","Las Cruces","NM","New Mexico","88005","Mountain","32.167296","-106.897176"
"(505) 710-","Cell Number","Bernalillo","Albuquerque","NM","New Mexico","87121","Mountain","35.059663","-106.805535"
"(505) 794-","Landline","Bernalillo","Albuquerque","NM","New Mexico","87121","Mountain","35.059663","-106.805535"
"(575) 770-","Unknown","Taos","Taos","NM","New Mexico","87571","Mountain","36.429239","-105.554532"
"(575) 364-","Unknown","Chaves","Lake Arthur","NM","New Mexico","88253","Mountain","33.026322","-104.491621"
"(575) 396-","Unknown","Lea","Lovington","NM","New Mexico","88260","Mountain","32.679494","-103.24708"
"(575) 551-","Unknown","Otero","Alamogordo","NM","New Mexico","88310","Mountain","32.870046","-105.948967"
"(505) 379-","Cell Number","Bernalillo","Albuquerque","NM","New Mexico","87121","Mountain","35.059663","-106.805535"
"(575) 456-","Unknown","Curry","Broadview","NM","New Mexico","88112","Mountain","34.80789","-103.128229"
"(505) 348-","Landline","Bernalillo","Albuquerque","NM","New Mexico","87121","Mountain","35.059663","-106.805535"
"(575) 628-","Unknown","Eddy","Carlsbad","NM","New Mexico","88220","Mountain","32.416897","-104.46539"
"(505) 265-","Landline","Bernalillo","Albuquerque","NM","New Mexico","87121","Mountain","35.059663","-106.805535"
"(505) 960-","Unknown","San Juan","Farmington","NM","New Mexico","87402","Mountain","36.775852","-108.101176"
"(505) 383-","Unknown","Bernalillo","Albuquerque","NM","New Mexico","87121","Mountain","35.059663","-106.805535"
"(505) 246-","Landline","Bernalillo","Albuquerque","NM","New Mexico","87121","Mountain","35.059663","-106.805535"
"(505) 399-","Cell Number","Lea","Gallup","NM","New Mexico","87305","Mountain","35.449852","-108.770522"
"(575) 895-","Unknown","Sierra","Hillsboro","NM","New Mexico","88042","Mountain","32.92029","-107.569856"
"(575) 687-","Unknown","Otero","Mayhill","NM","New Mexico","88339","Mountain","32.989936","-105.598225"
"(575) 673-","Unknown","Harding","Solano","NM","New Mexico","87746","Mountain","35.804116","-103.902091"
"(575) 680-","Unknown","Dona Ana","Las Cruces","NM","New Mexico","88005","Mountain","32.167296","-106.897176"
"(505) 927-","Cell Number","Rio Arriba","Espanola","NM","New Mexico","87533","Mountain","35.986585","-106.065392"
"(505) 929-","Cell Number","Rio Arriba","Espanola","NM","New Mexico","87533","Mountain","35.986585","-106.065392"
"(575) 964-","Unknown","Lea","Hobbs","NM","New Mexico","88242","Mountain","32.496641","-103.169754"
"(575) 336-","Unknown","Lincoln","Ruidoso","NM","New Mexico","88355","Mountain","33.330502","-105.693322"
"(505) 299-","Landline","Bernalillo","Albuquerque","NM","New Mexico","87121","Mountain","35.059663","-106.805535"
"(575) 874-","Unknown","Dona Ana","Santa Teresa","NM","New Mexico","88008","Mountain","31.87054","-106.626892"
"(575) 543-","Unknown","Luna","Deming","NM","New Mexico","88031","Mountain","32.239815","-107.74042"
"(505) 629-","Landline","Santa Fe","Santa Fe","NM","New Mexico","87506","Mountain","35.606283","-106.075722"
"(505) 530-","Cell Number","Bernalillo","Albuquerque","NM","New Mexico","87121","Mountain","35.059663","-106.805535"
"(505) 341-","Landline","Bernalillo","Albuquerque","NM","New Mexico","87121","Mountain","35.059663","-106.805535"
"(505) 480-","Cell Number","Bernalillo","Albuquerque","NM","New Mexico","87121","Mountain","35.059663","-106.805535"
"(505) 980-","Cell Number","Bernalillo","Albuquerque","NM","New Mexico","87121","Mountain","35.059663","-106.805535"
"(575) 595-","Unknown","Colfax","Eagle Nest","NM","New Mexico","87718","Mountain","36.547612","-105.283276"
"(575) 626-","Unknown","Chaves","Roswell","NM","New Mexico","88201","Mountain","33.346666","-104.593687"
"(505) 947-","Cell Number","San Juan","Farmington","NM","New Mexico","87402","Mountain","36.775852","-108.101176"
"(505) 720-","Cell Number","Bernalillo","Albuquerque","NM","New Mexico","87121","Mountain","35.059663","-106.805535"
"(575) 914-","Unknown","Chaves","Roswell","NM","New Mexico","88201","Mountain","33.346666","-104.593687"
"(575) 584-","Unknown","Torrance","Encino","NM","New Mexico","88321","Mountain","34.650925","-105.880597"
"(575) 224-","Unknown","Sandoval","Jemez Springs","NM","New Mexico","87025","Mountain","35.786457","-106.648083"
"(505) 205-","Cell Number","Bernalillo","Albuquerque","NM","New Mexico","87121","Mountain","35.059663","-106.805535"
"(505) 508-","Unknown","Bernalillo","Albuquerque","NM","New Mexico","87121","Mountain","35.059663","-106.805535"
"(505) 264-","Cell Number","Bernalillo","Albuquerque","NM","New Mexico","87121","Mountain","35.059663","-106.805535"
"(505) 702-","Unknown","Bernalillo","Albuquerque","NM","New Mexico","87121","Mountain","35.059663","-106.805535"
"(505) 332-","Landline","Bernalillo","Albuquerque","NM","New Mexico","87121","Mountain","35.059663","-106.805535"
"(575) 668-","Unknown","Mora","Wagon Mound","NM","New Mexico","87752","Mountain","36.005998","-104.707404"
"(575) 309-","Unknown","Curry","Clovis","NM","New Mexico","88101","Mountain","34.497241","-103.294978"
"(505) 460-","Cell Number","Bernalillo","Albuquerque","NM","New Mexico","87121","Mountain","35.059663","-106.805535"
"(505) 972-","Unknown","Cibola","Grants","NM","New Mexico","87020","Mountain","35.09985","-107.850191"
"(505) 402-","Cell Number","San Juan","Farmington","NM","New Mexico","87402","Mountain","36.775852","-108.101176"
"(505) 938-","Landline","Bernalillo","Albuquerque","NM","New Mexico","87121","Mountain","35.059663","-106.805535"
"(505) 823-","Landline","Bernalillo","Albuquerque","NM","New Mexico","87121","Mountain","35.059663","-106.805535"
"(575) 835-","Unknown","Socorro","Socorro","NM","New Mexico","87801","Mountain","34.035975","-107.03802"
"(575) 781-","Unknown","Guadalupe","Santa Rosa","NM","New Mexico","88435","Mountain","34.852639","-104.589897"
"(505) 881-","Landline","Bernalillo","Albuquerque","NM","New Mexico","87121","Mountain","35.059663","-106.805535"
"(505) 268-","Landline","Bernalillo","Albuquerque","NM","New Mexico","87121","Mountain","35.059663","-106.805535"
"(505) 879-","Cell Number","Mckinley","Gallup","NM","New Mexico","87305","Mountain","35.449852","-108.770522"
"(505) 663-","Landline","Los Alamos","Los Alamos","NM","New Mexico","87545","Mountain","35.863858","-106.295255"
"(505) 681-","Cell Number","Bernalillo","Albuquerque","NM","New Mexico","87121","Mountain","35.059663","-106.805535"
"(505) 830-","Landline","Bernalillo","Albuquerque","NM","New Mexico","87121","Mountain","35.059663","-106.805535"
"(505) 529-","Cell Number","Bernalillo","Albuquerque","NM","New Mexico","87121","Mountain","35.059663","-106.805535"
"(505) 866-","Landline","Valencia","Los Lunas","NM","New Mexico","87031","Mountain","34.76577","-106.712287"
"(505) 792-","Landline","Bernalillo","Albuquerque","NM","New Mexico","87121","Mountain","35.059663","-106.805535"
"(505) 573-","Cell Number","Bernalillo","Albuquerque","NM","New Mexico","87121","Mountain","35.059663","-106.805535"
"(575) 641-","Unknown","San Miguel","Trementina","NM","New Mexico","88439","Mountain","35.456288","-104.679611"
"(575) 751-","Unknown","Taos","Taos","NM","New Mexico","87571","Mountain","36.429239","-105.554532"
"(575) 509-","Unknown","Lincoln","Lincoln","NM","New Mexico","88338","Mountain","33.739651","-105.629382"
"(575) 649-","Unknown","Dona Ana","Las Cruces","NM","New Mexico","88005","Mountain","32.167296","-106.897176"
"(505) 916-","Unknown","Valencia","Los Lunas","NM","New Mexico","87031","Mountain","34.76577","-106.712287"
"(575) 557-","Unknown","Hidalgo","Animas","NM","New Mexico","88020","Mountain","32.053042","-108.906944"
"(575) 388-","Unknown","Grant","Silver City","NM","New Mexico","88062","Mountain","32.728228","-108.137931"
"(505) 262-","Landline","Bernalillo","Albuquerque","NM","New Mexico","87121","Mountain","35.059663","-106.805535"
"(505) 850-","Landline","Bernalillo","Albuquerque","NM","New Mexico","87121","Mountain","35.059663","-106.805535"
"(575) 235-","Unknown","Rio Arriba","Chama","NM","New Mexico","87520","Mountain","36.756297","-106.631567"
"(505) 269-","Cell Number","Bernalillo","Albuquerque","NM","New Mexico","87121","Mountain","35.059663","-106.805535"
"(575) 302-","Unknown","Eddy","Carlsbad","NM","New Mexico","88220","Mountain","32.416897","-104.46539"
"(575) 644-","Unknown","Dona Ana","Las Cruces","NM","New Mexico","88005","Mountain","32.167296","-106.897176"
"(575) 619-","Unknown","Dona Ana","Santa Teresa","NM","New Mexico","88008","Mountain","31.87054","-106.626892"
"(505) 369-","Cell Number","Lea","Albuquerque","NM","New Mexico","87121","Mountain","35.059663","-106.805535"
"(505) 974-","Unknown","Bernalillo","Albuquerque","NM","New Mexico","87121","Mountain","35.059663","-106.805535"
"(505) 998-","Landline","Bernalillo","Albuquerque","NM","New Mexico","87121","Mountain","35.059663","-106.805535"
"(575) 545-","Unknown","Luna","Deming","NM","New Mexico","88031","Mountain","32.239815","-107.74042"
"(505) 652-","Unknown","San Miguel","Las Vegas","NM","New Mexico","87701","Mountain","35.551539","-104.985643"
"(575) 204-","Unknown","Curry","Clovis","NM","New Mexico","88101","Mountain","34.497241","-103.294978"
"(505) 778-","Landline","Mckinley","Ramah","NM","New Mexico","87321","Mountain","35.128655","-108.502673"
"(505) 263-","Cell Number","Bernalillo","Albuquerque","NM","New Mexico","87121","Mountain","35.059663","-106.805535"
"(505) 712-","Cell Number","Bernalillo","Albuquerque","NM","New Mexico","87121","Mountain","35.059663","-106.805535"
"(505) 431-","Unknown","Sandoval","Bernalillo","NM","New Mexico","87004","Mountain","35.629445","-106.742896"
"(575) 358-","Unknown","Grant","Buckhorn","NM","New Mexico","88025","Mountain","33.06335","-108.695588"
"(505) 696-","Landline","San Juan","Shiprock","NM","New Mexico","87420","Mountain","36.417185","-108.860539"
"(575) 743-","Unknown","Sierra","Truth Or Consequences","NM","New Mexico","87901","Mountain","33.160602","-107.266914"
"(505) 768-","Landline","Bernalillo","Albuquerque","NM","New Mexico","87121","Mountain","35.059663","-106.805535"
"(505) 346-","Landline","Bernalillo","Albuquerque","NM","New Mexico","87121","Mountain","35.059663","-106.805535"
"(575) 537-","Unknown","Grant","Bayard","NM","New Mexico","88023","Mountain","32.819788","-107.969586"
"(505) 236-","Landline","Eddy","Gallup","NM","New Mexico","87305","Mountain","35.449852","-108.770522"
"(575) 300-","Unknown","Dona Ana","La Mesa","NM","New Mexico","88044","Mountain","32.143754","-106.691214"
"(575) 207-","Unknown","Union","Clayton","NM","New Mexico","88415","Mountain","36.451155","-103.162935"
"(505) 288-","Cell Number","Bernalillo","Albuquerque","NM","New Mexico","87121","Mountain","35.059663","-106.805535"
"(505) 617-","Cell Number","San Miguel","Las Vegas","NM","New Mexico","87701","Mountain","35.551539","-104.985643"
"(575) 495-","Unknown","Otero","Alamogordo","NM","New Mexico","88310","Mountain","32.870046","-105.948967"
"(575) 838-","Unknown","Socorro","Socorro","NM","New Mexico","87801","Mountain","34.035975","-107.03802"
"(575) 639-","Unknown","Dona Ana","Las Cruces","NM","New Mexico","88005","Mountain","32.167296","-106.897176"
"(575) 475-","Unknown","Otero","Holloman Air Force Base","NM","New Mexico","88330","Mountain","32.863459","-106.000393"
"(505) 632-","Landline","San Juan","Bloomfield","NM","New Mexico","87413","Mountain","36.613621","-108.016239"
"(505) 453-","Cell Number","Bernalillo","Albuquerque","NM","New Mexico","87121","Mountain","35.059663","-106.805535"
"(505) 345-","Landline","Bernalillo","Albuquerque","NM","New Mexico","87121","Mountain","35.059663","-106.805535"
"(505) 847-","Landline","Torrance","Mountainair","NM","New Mexico","87036","Mountain","34.617468","-106.277208"
"(505) 569-","Unknown","Valencia","Belen","NM","New Mexico","87002","Mountain","34.651051","-106.695247"
"(575) 485-","Unknown","Harding","Solano","NM","New Mexico","87746","Mountain","35.804116","-103.902091"
"(575) 921-","Unknown","Otero","Holloman Air Force Base","NM","New Mexico","88330","Mountain","32.863459","-106.000393"
"(505) 474-","Landline","Santa Fe","Santa Fe","NM","New Mexico","87506","Mountain","35.606283","-106.075722"
"(575) 356-","Unknown","Roosevelt","Portales","NM","New Mexico","88130","Mountain","34.076964","-103.352595"
"(505) 564-","Landline","San Juan","Farmington","NM","New Mexico","87402","Mountain","36.775852","-108.101176"
"(505) 291-","Landline","Bernalillo","Albuquerque","NM","New Mexico","87121","Mountain","35.059663","-106.805535"
"(575) 305-","Unknown","Dona Ana","Santa Teresa","NM","New Mexico","88008","Mountain","31.87054","-106.626892"
"(505) 287-","Landline","Cibola","Grants","NM","New Mexico","87020","Mountain","35.09985","-107.850191"
"(575) 548-","Unknown","Hidalgo","Animas","NM","New Mexico","88020","Mountain","32.053042","-108.906944"
"(575) 387-","Unknown","Mora","Mora","NM","New Mexico","87732","Mountain","36.008302","-105.023886"
"(505) 801-","Cell Number","San Juan","Farmington","NM","New Mexico","87402","Mountain","36.775852","-108.101176"
"(575) 461-","Unknown","Quay","Tucumcari","NM","New Mexico","88401","Mountain","35.114202","-103.615509"
"(575) 347-","Unknown","Chaves","Roswell","NM","New Mexico","88201","Mountain","33.346666","-104.593687"
"(505) 821-","Landline","Bernalillo","Albuquerque","NM","New Mexico","87121","Mountain","35.059663","-106.805535"
"(505) 244-","Landline","Bernalillo","Albuquerque","NM","New Mexico","87121","Mountain","35.059663","-106.805535"
"(505) 591-","Unknown","Mckinley","Ramah","NM","New Mexico","87321","Mountain","35.128655","-108.502673"
"(575) 937-","Unknown","Lincoln","Ruidoso","NM","New Mexico","88355","Mountain","33.330502","-105.693322"
"(505) 560-","Unknown","Cibola","Fence Lake","NM","New Mexico","87315","Mountain","34.962954","-108.056457"
"(575) 391-","Unknown","Lea","Hobbs","NM","New Mexico","88242","Mountain","32.496641","-103.169754"
"(505) 212-","Landline","Bernalillo","Albuquerque","NM","New Mexico","87121","Mountain","35.059663","-106.805535"
"(505) 393-","Landline","Lea","Los Alamos","NM","New Mexico","87545","Mountain","35.863858","-106.295255"
"(505) 426-","Landline","San Miguel","Las Vegas","NM","New Mexico","87701","Mountain","35.551539","-104.985643"
"(575) 521-","Unknown","Dona Ana","Las Cruces","NM","New Mexico","88005","Mountain","32.167296","-106.897176"
"(505) 728-","Landline","Chaves","Gallup","NM","New Mexico","87305","Mountain","35.449852","-108.770522"
"(505) 385-","Cell Number","Bernalillo","Albuquerque","NM","New Mexico","87121","Mountain","35.059663","-106.805535"
"(575) 785-","Unknown","Eddy","Loving","NM","New Mexico","88256","Mountain","32.272039","-104.147248"
"(575) 691-","Unknown","Lea","Hobbs","NM","New Mexico","88242","Mountain","32.496641","-103.169754"
"(505) 598-","Landline","San Juan","Kirtland","NM","New Mexico","87417","Mountain","36.742972","-108.318698"
"(575) 330-","Unknown","Eddy","Artesia","NM","New Mexico","88211","Mountain","32.753571","-104.328113"
"(505) 419-","Cell Number","San Juan","Aztec","NM","New Mexico","87410","Mountain","36.842198","-107.818288"
"(505) 276-","Landline","Roosevelt","Las Vegas","NM","New Mexico","87701","Mountain","35.551539","-104.985643"
"(575) 973-","Unknown","Lincoln","Ruidoso","NM","New Mexico","88355","Mountain","33.330502","-105.693322"
"(575) 752-","Unknown","Chaves","Hagerman","NM","New Mexico","88232","Mountain","33.101546","-104.356588"
"(575) 601-","Unknown","Otero","Cloudcroft","NM","New Mexico","88317","Mountain","32.889717","-105.674395"
"(505) 409-","Cell Number","Mckinley","Gallup","NM","New Mexico","87305","Mountain","35.449852","-108.770522"
"(575) 745-","Unknown","Eddy","Loving","NM","New Mexico","88256","Mountain","32.272039","-104.147248"
"(575) 985-","Unknown","Curry","Clovis","NM","New Mexico","88101","Mountain","34.497241","-103.294978"
"(575) 343-","Unknown","Dona Ana","Hatch","NM","New Mexico","87937","Mountain","32.661331","-107.123524"
"(575) 278-","Unknown","Union","Des Moines","NM","New Mexico","88418","Mountain","36.369783","-103.505541"
"(575) 484-","Unknown","Eddy","Artesia","NM","New Mexico","88211","Mountain","32.753571","-104.328113"
"(575) 777-","Unknown","Curry","Clovis","NM","New Mexico","88101","Mountain","34.497241","-103.294978"
"(505) 893-","Landline","Bernalillo","Albuquerque","NM","New Mexico","87121","Mountain","35.059663","-106.805535"
"(575) 935-","Unknown","Curry","Clovis","NM","New Mexico","88101","Mountain","34.497241","-103.294978"
"(575) 525-","Unknown","Dona Ana","Las Cruces","NM","New Mexico","88005","Mountain","32.167296","-106.897176"
"(575) 542-","Unknown","Hidalgo","Lordsburg","NM","New Mexico","88045","Mountain","32.315951","-108.723047"
"(505) 962-","Landline","Bernalillo","Albuquerque","NM","New Mexico","87121","Mountain","35.059663","-106.805535"
"(505) 721-","Cell Number","Mckinley","Gallup","NM","New Mexico","87305","Mountain","35.449852","-108.770522"
"(505) 608-","Cell Number","San Juan","Farmington","NM","New Mexico","87402","Mountain","36.775852","-108.101176"
"(575) 258-","Unknown","Lincoln","Ruidoso","NM","New Mexico","88355","Mountain","33.330502","-105.693322"
"(505) 992-","Landline","Santa Fe","Santa Fe","NM","New Mexico","87506","Mountain","35.606283","-106.075722"
"(505) 203-","Cell Number","Bernalillo","Albuquerque","NM","New Mexico","87121","Mountain","35.059663","-106.805535"
"(575) 496-","Unknown","Dona Ana","Las Cruces","NM","New Mexico","88005","Mountain","32.167296","-106.897176"
"(505) 870-","Cell Number","Mckinley","Gallup","NM","New Mexico","87305","Mountain","35.449852","-108.770522"
"(505) 789-","Landline","Mckinley","Tohatchi","NM","New Mexico","87325","Mountain","35.884668","-108.880374"
"(505) 506-","Unknown","Bernalillo","Albuquerque","NM","New Mexico","87121","Mountain","35.059663","-106.805535"
"(505) 819-","Landline","Santa Fe","Santa Fe","NM","New Mexico","87506","Mountain","35.606283","-106.075722"
"(505) 504-","Unknown","Bernalillo","Albuquerque","NM","New Mexico","87121","Mountain","35.059663","-106.805535"
"(505) 238-","Cell Number","Bernalillo","Albuquerque","NM","New Mexico","87121","Mountain","35.059663","-106.805535"
"(505) 688-","Cell Number","Bernalillo","Albuquerque","NM","New Mexico","87121","Mountain","35.059663","-106.805535"
"(575) 708-","Unknown","Quay","Tucumcari","NM","New Mexico","88401","Mountain","35.114202","-103.615509"
"(575) 589-","Unknown","Dona Ana","Santa Teresa","NM","New Mexico","88008","Mountain","31.87054","-106.626892"
"(505) 220-","Cell Number","Bernalillo","Albuquerque","NM","New Mexico","87121","Mountain","35.059663","-106.805535"
"(575) 497-","Unknown","Sierra","Truth Or Consequences","NM","New Mexico","87901","Mountain","33.160602","-107.266914"
"(505) 281-","Landline","Bernalillo","Tijeras","NM","New Mexico","87059","Mountain","35.035534","-106.275342"
"(505) 229-","Cell Number","Bernalillo","Albuquerque","NM","New Mexico","87121","Mountain","35.059663","-106.805535"
"(505) 603-","Cell Number","Santa Fe","Santa Fe","NM","New Mexico","87506","Mountain","35.606283","-106.075722"
"(505) 996-","Cell Number","Los Alamos","Los Alamos","NM","New Mexico","87545","Mountain","35.863858","-106.295255"
"(505) 982-","Landline","Santa Fe","Santa Fe","NM","New Mexico","87506","Mountain","35.606283","-106.075722"
"(505) 635-","Landline","Dona Ana","Farmington","NM","New Mexico","87402","Mountain","36.775852","-108.101176"
"(505) 844-","Landline","Bernalillo","Albuquerque","NM","New Mexico","87121","Mountain","35.059663","-106.805535"
"(505) 404-","Landline","Bernalillo","Albuquerque","NM","New Mexico","87121","Mountain","35.059663","-106.805535"
"(505) 245-","Landline","Bernalillo","Albuquerque","NM","New Mexico","87121","Mountain","35.059663","-106.805535"
"(575) 952-","Unknown","Sierra","Truth Or Consequences","NM","New Mexico","87901","Mountain","33.160602","-107.266914"
"(505) 215-","Cell Number","San Juan","Farmington","NM","New Mexico","87402","Mountain","36.775852","-108.101176"
"(575) 738-","Unknown","Lea","Hobbs","NM","New Mexico","88242","Mountain","32.496641","-103.169754"
"(505) 440-","Cell Number","Bernalillo","Albuquerque","NM","New Mexico","87121","Mountain","35.059663","-106.805535"
"(505) 896-","Landline","Bernalillo","Albuquerque","NM","New Mexico","87121","Mountain","35.059663","-106.805535"
"(505) 783-","Landline","Mckinley","Ramah","NM","New Mexico","87321","Mountain","35.128655","-108.502673"
"(505) 342-","Landline","Bernalillo","Albuquerque","NM","New Mexico","87121","Mountain","35.059663","-106.805535"
"(575) 815-","Unknown","Quay","Tucumcari","NM","New Mexico","88401","Mountain","35.114202","-103.615509"
"(575) 910-","Unknown","Chaves","Roswell","NM","New Mexico","88201","Mountain","33.346666","-104.593687"
"(575) 885-","Unknown","Eddy","Carlsbad","NM","New Mexico","88220","Mountain","32.416897","-104.46539"
"(505) 353-","Landline","Bernalillo","Albuquerque","NM","New Mexico","87121","Mountain","35.059663","-106.805535"
"(505) 991-","Cell Number","Bernalillo","Albuquerque","NM","New Mexico","87121","Mountain","35.059663","-106.805535"
"(505) 228-","Cell Number","Bernalillo","Albuquerque","NM","New Mexico","87121","Mountain","35.059663","-106.805535"
"(575) 370-","Unknown","Lea","Hobbs","NM","New Mexico","88242","Mountain","32.496641","-103.169754"
"(575) 748-","Unknown","Eddy","Artesia","NM","New Mexico","88211","Mountain","32.753571","-104.328113"
"(505) 324-","Landline","San Juan","Farmington","NM","New Mexico","87402","Mountain","36.775852","-108.101176"
"(575) 253-","Unknown","Curry","Melrose","NM","New Mexico","88124","Mountain","34.50512","-103.564506"
"(505) 312-","Cell Number","Dona Ana","Albuquerque","NM","New Mexico","87121","Mountain","35.059663","-106.805535"
"(575) 932-","Unknown","Dona Ana","Las Cruces","NM","New Mexico","88005","Mountain","32.167296","-106.897176"
"(575) 445-","Unknown","Colfax","Raton","NM","New Mexico","87740","Mountain","36.662666","-104.815043"
"(575) 684-","Unknown","Rio Arriba","El Rito","NM","New Mexico","87530","Mountain","36.283096","-106.198853"
"(505) 231-","Cell Number","Santa Fe","Santa Fe","NM","New Mexico","87506","Mountain","35.606283","-106.075722"
"(505) 230-","Cell Number","Santa Fe","Santa Fe","NM","New Mexico","87506","Mountain","35.606283","-106.075722"
"(575) 312-","Unknown","Dona Ana","Las Cruces","NM","New Mexico","88005","Mountain","32.167296","-106.897176"
"(575) 408-","Unknown","Lea","Hobbs","NM","New Mexico","88242","Mountain","32.496641","-103.169754"
"(505) 785-","Landline","Eddy","Continental Divide","NM","New Mexico","87312","Mountain","35.480924","-108.176693"
"(575) 605-","Unknown","Lea","Hobbs","NM","New Mexico","88242","Mountain","32.496641","-103.169754"
"(575) 725-","Unknown","Eddy","Carlsbad","NM","New Mexico","88220","Mountain","32.416897","-104.46539"
"(505) 842-","Landline","Bernalillo","Albuquerque","NM","New Mexico","87121","Mountain","35.059663","-106.805535"
"(505) 296-","Landline","Bernalillo","Albuquerque","NM","New Mexico","87121","Mountain","35.059663","-106.805535"
"(575) 499-","Unknown","Eddy","Carlsbad","NM","New Mexico","88220","Mountain","32.416897","-104.46539"
"(575) 642-","Unknown","Dona Ana","Las Cruces","NM","New Mexico","88005","Mountain","32.167296","-106.897176"
"(505) 620-","Cell Number","Bernalillo","Albuquerque","NM","New Mexico","87121","Mountain","35.059663","-106.805535"
"(575) 556-","Unknown","Dona Ana","Las Cruces","NM","New Mexico","88005","Mountain","32.167296","-106.897176"
"(575) 633-","Unknown","Quay","Nara Visa","NM","New Mexico","88430","Mountain","35.635105","-103.223523"
"(505) 292-","Landline","Bernalillo","Albuquerque","NM","New Mexico","87121","Mountain","35.059663","-106.805535"
"(505) 473-","Landline","Santa Fe","Santa Fe","NM","New Mexico","87506","Mountain","35.606283","-106.075722"
"(505) 594-","Unknown","Mckinley","Ramah","NM","New Mexico","87321","Mountain","35.128655","-108.502673"
"(505) 561-","Cell Number","Bernalillo","Albuquerque","NM","New Mexico","87121","Mountain","35.059663","-106.805535"
"(505) 380-","Cell Number","Bernalillo","Albuquerque","NM","New Mexico","87121","Mountain","35.059663","-106.805535"
"(575) 773-","Unknown","Catron","Quemado","NM","New Mexico","87829","Mountain","33.764949","-108.558785"
"(505) 880-","Landline","Bernalillo","Albuquerque","NM","New Mexico","87121","Mountain","35.059663","-106.805535"
"(505) 362-","Cell Number","Bernalillo","Albuquerque","NM","New Mexico","87121","Mountain","35.059663","-106.805535"
"(505) 221-","Cell Number","Bernalillo","Albuquerque","NM","New Mexico","87121","Mountain","35.059663","-106.805535"
"(505) 293-","Landline","Bernalillo","Albuquerque","NM","New Mexico","87121","Mountain","35.059663","-106.805535"
"(505) 301-","Cell Number","Bernalillo","Albuquerque","NM","New Mexico","87121","Mountain","35.059663","-106.805535"
"(575) 337-","Unknown","Lea","Hobbs","NM","New Mexico","88242","Mountain","32.496641","-103.169754"
"(575) 369-","Unknown","Lea","Hobbs","NM","New Mexico","88242","Mountain","32.496641","-103.169754"
"(505) 454-","Landline","San Miguel","Las Vegas","NM","New Mexico","87701","Mountain","35.551539","-104.985643"
"(575) 810-","Unknown","Eddy","Artesia","NM","New Mexico","88211","Mountain","32.753571","-104.328113"
"(575) 267-","Unknown","Dona Ana","Hatch","NM","New Mexico","87937","Mountain","32.661331","-107.123524"
"(505) 659-","Unknown","Bernalillo","Albuquerque","NM","New Mexico","87121","Mountain","35.059663","-106.805535"
"(505) 567-","Unknown","Mckinley","Gallup","NM","New Mexico","87305","Mountain","35.449852","-108.770522"
"(575) 651-","Unknown","Lincoln","Ruidoso Downs","NM","New Mexico","88346","Mountain","33.353183","-105.620581"
"(505) 550-","Cell Number","Bernalillo","Albuquerque","NM","New Mexico","87121","Mountain","35.059663","-106.805535"
"(575) 683-","Unknown","Curry","Clovis","NM","New Mexico","88101","Mountain","34.497241","-103.294978"
"(505) 809-","Cell Number","San Juan","Shiprock","NM","New Mexico","87420","Mountain","36.417185","-108.860539"
"(505) 334-","Landline","San Juan","Aztec","NM","New Mexico","87410","Mountain","36.842198","-107.818288"
"(505) 695-","Cell Number","Los Alamos","Los Alamos","NM","New Mexico","87545","Mountain","35.863858","-106.295255"
"(575) 625-","Unknown","Chaves","Roswell","NM","New Mexico","88201","Mountain","33.346666","-104.593687"
"(505) 304-","Cell Number","Bernalillo","Albuquerque","NM","New Mexico","87121","Mountain","35.059663","-106.805535"
"(575) 444-","Unknown","Chaves","Roswell","NM","New Mexico","88201","Mountain","33.346666","-104.593687"
"(505) 843-","Landline","Bernalillo","Albuquerque","NM","New Mexico","87121","Mountain","35.059663","-106.805535"
"(575) 647-","Unknown","Dona Ana","Las Cruces","NM","New Mexico","88005","Mountain","32.167296","-106.897176"
"(575) 834-","Unknown","Sandoval","San Ysidro","NM","New Mexico","87053","Mountain","35.668248","-106.988531"
"(505) 922-","Landline","Bernalillo","Albuquerque","NM","New Mexico","87121","Mountain","35.059663","-106.805535"
"(575) 502-","Unknown","Dona Ana","Santa Teresa","NM","New Mexico","88008","Mountain","31.87054","-106.626892"
"(575) 704-","Unknown","Lea","Lovington","NM","New Mexico","88260","Mountain","32.679494","-103.24708"
"(505) 672-","Landline","Los Alamos","Los Alamos","NM","New Mexico","87545","Mountain","35.863858","-106.295255"
"(505) 349-","Landline","Bernalillo","Albuquerque","NM","New Mexico","87121","Mountain","35.059663","-106.805535"
"(505) 490-","Cell Number","Santa Fe","Santa Fe","NM","New Mexico","87506","Mountain","35.606283","-106.075722"
"(575) 478-","Unknown","Roosevelt","Portales","NM","New Mexico","88130","Mountain","34.076964","-103.352595"
"(575) 868-","Unknown","Guadalupe","Newkirk","NM","New Mexico","88431","Mountain","34.781908","-104.718891"
"(505) 665-","Landline","Los Alamos","Los Alamos","NM","New Mexico","87545","Mountain","35.863858","-106.295255"
"(505) 255-","Landline","Bernalillo","Albuquerque","NM","New Mexico","87121","Mountain","35.059663","-106.805535"
"(575) 442-","Unknown","Otero","Alamogordo","NM","New Mexico","88310","Mountain","32.870046","-105.948967"
"(505) 901-","Cell Number","Rio Arriba","Espanola","NM","New Mexico","87533","Mountain","35.986585","-106.065392"
"(575) 666-","Unknown","Mora","Wagon Mound","NM","New Mexico","87752","Mountain","36.005998","-104.707404"
"(505) 307-","Cell Number","Bernalillo","Albuquerque","NM","New Mexico","87121","Mountain","35.059663","-106.805535"
"(505) 252-","Cell Number","Bernalillo","Albuquerque","NM","New Mexico","87121","Mountain","35.059663","-106.805535"
"(575) 498-","Unknown","Lincoln","Ruidoso","NM","New Mexico","88355","Mountain","33.330502","-105.693322"
"(575) 677-","Unknown","Lea","Maljamar","NM","New Mexico","88264","Mountain","32.785417","-103.433804"
"(575) 635-","Unknown","Dona Ana","Las Cruces","NM","New Mexico","88005","Mountain","32.167296","-106.897176"
"(505) 724-","Landline","Bernalillo","Albuquerque","NM","New Mexico","87121","Mountain","35.059663","-106.805535"
"(505) 433-","Landline","Lea","Albuquerque","NM","New Mexico","87121","Mountain","35.059663","-106.805535"
"(575) 703-","Unknown","Eddy","Artesia","NM","New Mexico","88211","Mountain","32.753571","-104.328113"
"(505) 612-","Cell Number","San Juan","Shiprock","NM","New Mexico","87420","Mountain","36.417185","-108.860539"
"(575) 740-","Unknown","Sierra","Truth Or Consequences","NM","New Mexico","87901","Mountain","33.160602","-107.266914"
"(505) 859-","Cell Number","Valencia","Belen","NM","New Mexico","87002","Mountain","34.651051","-106.695247"
"(505) 917-","Unknown","Bernalillo","Albuquerque","NM","New Mexico","87121","Mountain","35.059663","-106.805535"
"(505) 452-","Landline","Bernalillo","Albuquerque","NM","New Mexico","87121","Mountain","35.059663","-106.805535"
"(575) 772-","Unknown","Catron","Pie Town","NM","New Mexico","87827","Mountain","33.890975","-108.379371"
"(505) 470-","Cell Number","Santa Fe","Santa Fe","NM","New Mexico","87506","Mountain","35.606283","-106.075722"
"(505) 272-","Landline","Bernalillo","Albuquerque","NM","New Mexico","87121","Mountain","35.059663","-106.805535"
"(505) 816-","Landline","Bernalillo","Albuquerque","NM","New Mexico","87121","Mountain","35.059663","-106.805535"
"(575) 760-","Unknown","Curry","Clovis","NM","New Mexico","88101","Mountain","34.497241","-103.294978"
"(505) 325-","Landline","San Juan","Farmington","NM","New Mexico","87402","Mountain","36.775852","-108.101176"
"(575) 533-","Unknown","Catron","Reserve","NM","New Mexico","87830","Mountain","33.681174","-108.859382"
"(505) 424-","Landline","Santa Fe","Santa Fe","NM","New Mexico","87506","Mountain","35.606283","-106.075722"
"(575) 544-","Unknown","Luna","Deming","NM","New Mexico","88031","Mountain","32.239815","-107.74042"
"(505) 827-","Landline","Santa Fe","Santa Fe","NM","New Mexico","87506","Mountain","35.606283","-106.075722"
"(575) 437-","Unknown","Otero","Alamogordo","NM","New Mexico","88310","Mountain","32.870046","-105.948967"
"(505) 463-","Cell Number","Bernalillo","Albuquerque","NM","New Mexico","87121","Mountain","35.059663","-106.805535"
"(505) 206-","Unknown","Bernalillo","Albuquerque","NM","New Mexico","87121","Mountain","35.059663","-106.805535"
"(505) 285-","Landline","Cibola","Grants","NM","New Mexico","87020","Mountain","35.09985","-107.850191"
"(505) 500-","Cell Number","Los Alamos","Los Alamos","NM","New Mexico","87545","Mountain","35.863858","-106.295255"
"(505) 766-","Landline","Bernalillo","Albuquerque","NM","New Mexico","87121","Mountain","35.059663","-106.805535"
"(575) 736-","Unknown","Eddy","Artesia","NM","New Mexico","88211","Mountain","32.753571","-104.328113"
"(575) 912-","Unknown","Grant","Bayard","NM","New Mexico","88023","Mountain","32.819788","-107.969586"
"(505) 999-","Unknown","Bernalillo","Albuquerque","NM","New Mexico","87121","Mountain","35.059663","-106.805535"
"(505) 459-","Cell Number","Bernalillo","Albuquerque","NM","New Mexico","87121","Mountain","35.059663","-106.805535"
"(505) 239-","Cell Number","Bernalillo","Albuquerque","NM","New Mexico","87121","Mountain","35.059663","-106.805535"
"(575) 218-","Unknown","Curry","Clovis","NM","New Mexico","88101","Mountain","34.497241","-103.294978"
"(575) 416-","Unknown","Chaves","Roswell","NM","New Mexico","88201","Mountain","33.346666","-104.593687"
"(505) 686-","Cell Number","San Juan","Farmington","NM","New Mexico","87402","Mountain","36.775852","-108.101176"
"(575) 648-","Unknown","Lincoln","Carrizozo","NM","New Mexico","88301","Mountain","33.641799","-105.875816"
"(505) 599-","Landline","San Juan","Farmington","NM","New Mexico","87402","Mountain","36.775852","-108.101176"
"(575) 582-","Unknown","Rio Arriba","El Rito","NM","New Mexico","87530","Mountain","36.283096","-106.198853"
"(505) 319-","Cell Number","Bernalillo","Albuquerque","NM","New Mexico","87121","Mountain","35.059663","-106.805535"
"(505) 592-","Unknown","San Juan","Farmington","NM","New Mexico","87402","Mountain","36.775852","-108.101176"
"(505) 692-","Cell Number","Rio Arriba","Espanola","NM","New Mexico","87533","Mountain","35.986585","-106.065392"
"(505) 243-","Landline","Bernalillo","Albuquerque","NM","New Mexico","87121","Mountain","35.059663","-106.805535"
"(575) 518-","Unknown","Socorro","Socorro","NM","New Mexico","87801","Mountain","34.035975","-107.03802"
"(575) 636-","Unknown","Dona Ana","Las Cruces","NM","New Mexico","88005","Mountain","32.167296","-106.897176"
"(505) 233-","Landline","Dona Ana","Grants","NM","New Mexico","87020","Mountain","35.09985","-107.850191"
"(575) 536-","Unknown","Grant","Mimbres","NM","New Mexico","88049","Mountain","32.908986","-108.033173"
"(575) 361-","Unknown","Eddy","Carlsbad","NM","New Mexico","88220","Mountain","32.416897","-104.46539"
"(505) 788-","Landline","Cibola","Fence Lake","NM","New Mexico","87315","Mountain","34.962954","-108.056457"
"(575) 638-","Unknown","Sandoval","Counselor","NM","New Mexico","87018","Mountain","35.71742","-106.935844"
"(575) 275-","Unknown","Luna","Deming","NM","New Mexico","88031","Mountain","32.239815","-107.74042"
"(505) 753-","Landline","Rio Arriba","Espanola","NM","New Mexico","87533","Mountain","35.986585","-106.065392"
"(505) 876-","Landline","Cibola","Grants","NM","New Mexico","87020","Mountain","35.09985","-107.850191"
"(575) 854-","Unknown","Socorro","Magdalena","NM","New Mexico","87825","Mountain","34.111424","-107.240895"
"(505) 382-","Landline","Dona Ana","Albuquerque","NM","New Mexico","87121","Mountain","35.059663","-106.805535"
"(575) 693-","Unknown","Curry","Clovis","NM","New Mexico","88101","Mountain","34.497241","-103.294978"
"(505) 856-","Landline","Bernalillo","Albuquerque","NM","New Mexico","87121","Mountain","35.059663","-106.805535"
"(505) 934-","Cell Number","Bernalillo","Albuquerque","NM","New Mexico","87121","Mountain","35.059663","-106.805535"
"(505) 905-","Unknown","Mckinley","Gallup","NM","New Mexico","87305","Mountain","35.449852","-108.770522"
"(505) 240-","Cell Number","Cibola","Grants","NM","New Mexico","87020","Mountain","35.09985","-107.850191"
"(505) 401-","Cell Number","Bernalillo","Albuquerque","NM","New Mexico","87121","Mountain","35.059663","-106.805535"
"(575) 517-","Unknown","Socorro","Socorro","NM","New Mexico","87801","Mountain","34.035975","-107.03802"
"(575) 645-","Unknown","Dona Ana","Las Cruces","NM","New Mexico","88005","Mountain","32.167296","-106.897176"
"(505) 410-","Cell Number","Bernalillo","Albuquerque","NM","New Mexico","87121","Mountain","35.059663","-106.805535"
"(505) 516-","Unknown","San Juan","Farmington","NM","New Mexico","87402","Mountain","36.775852","-108.101176"
"(505) 495-","Cell Number","Mckinley","Ramah","NM","New Mexico","87321","Mountain","35.128655","-108.502673"
"(575) 433-","Unknown","Lea","Hobbs","NM","New Mexico","88242","Mountain","32.496641","-103.169754"
"(505) 858-","Landline","Bernalillo","Albuquerque","NM","New Mexico","87121","Mountain","35.059663","-106.805535"
"(575) 630-","Unknown","Lincoln","Ruidoso","NM","New Mexico","88355","Mountain","33.330502","-105.693322"
"(575) 981-","Unknown","Eddy","Carlsbad","NM","New Mexico","88220","Mountain","32.416897","-104.46539"
"(505) 865-","Landline","Valencia","Los Lunas","NM","New Mexico","87031","Mountain","34.76577","-106.712287"
"(505) 249-","Cell Number","Bernalillo","Albuquerque","NM","New Mexico","87121","Mountain","35.059663","-106.805535"
"(575) 524-","Unknown","Dona Ana","Las Cruces","NM","New Mexico","88005","Mountain","32.167296","-106.897176"
"(505) 503-","Unknown","Bernalillo","Albuquerque","NM","New Mexico","87121","Mountain","35.059663","-106.805535"
"(575) 882-","Unknown","Dona Ana","Anthony","NM","New Mexico","88021","Mountain","32.068186","-106.570475"
"(575) 277-","Unknown","Eddy","Artesia","NM","New Mexico","88211","Mountain","32.753571","-104.328113"
"(575) 323-","Unknown","Dona Ana","Las Cruces","NM","New Mexico","88005","Mountain","32.167296","-106.897176"
"(575) 317-","Unknown","Chaves","Roswell","NM","New Mexico","88201","Mountain","33.346666","-104.593687"
"(505) 360-","Cell Number","San Juan","Farmington","NM","New Mexico","87402","Mountain","36.775852","-108.101176"
"(505) 662-","Landline","Los Alamos","Los Alamos","NM","New Mexico","87545","Mountain","35.863858","-106.295255"
"(505) 363-","Cell Number","Bernalillo","Albuquerque","NM","New Mexico","87121","Mountain","35.059663","-106.805535"
"(575) 707-","Unknown","Colfax","Raton","NM","New Mexico","87740","Mountain","36.662666","-104.815043"
"(505) 851-","Landline","Bernalillo","Albuquerque","NM","New Mexico","87121","Mountain","35.059663","-106.805535"
"(505) 515-","Unknown","Bernalillo","Albuquerque","NM","New Mexico","87121","Mountain","35.059663","-106.805535"
"(505) 869-","Landline","Valencia","Los Lunas","NM","New Mexico","87031","Mountain","34.76577","-106.712287"
"(505) 323-","Landline","Bernalillo","Albuquerque","NM","New Mexico","87121","Mountain","35.059663","-106.805535"
"(575) 393-","Unknown","Lea","Hobbs","NM","New Mexico","88242","Mountain","32.496641","-103.169754"
"(505) 864-","Landline","Valencia","Belen","NM","New Mexico","87002","Mountain","34.651051","-106.695247"
"(575) 397-","Unknown","Lea","Hobbs","NM","New Mexico","88242","Mountain","32.496641","-103.169754"
"(575) 415-","Unknown","Otero","Alamogordo","NM","New Mexico","88310","Mountain","32.870046","-105.948967"
"(575) 313-","Unknown","Grant","Silver City","NM","New Mexico","88062","Mountain","32.728228","-108.137931"
"(505) 435-","Unknown","Bernalillo","Albuquerque","NM","New Mexico","87121","Mountain","35.059663","-106.805535"
"(505) 660-","Cell Number","Santa Fe","Santa Fe","NM","New Mexico","87506","Mountain","35.606283","-106.075722"
"(505) 412-","Cell Number","Los Alamos","Los Alamos","NM","New Mexico","87545","Mountain","35.863858","-106.295255"
"(505) 862-","Landline","Mckinley","Gallup","NM","New Mexico","87305","Mountain","35.449852","-108.770522"
"(575) 421-","Unknown","San Miguel","Ribera","NM","New Mexico","87560","Mountain","35.456288","-104.679611"
"(505) 254-","Landline","Bernalillo","Albuquerque","NM","New Mexico","87121","Mountain","35.059663","-106.805535"
"(505) 284-","Landline","Bernalillo","Albuquerque","NM","New Mexico","87121","Mountain","35.059663","-106.805535"
"(575) 754-","Unknown","Taos","Questa","NM","New Mexico","87556","Mountain","36.758733","-105.59761"
"(575) 539-","Unknown","Catron","Glenwood","NM","New Mexico","88039","Mountain","33.325458","-108.871953"
"(575) 413-","Unknown","Sierra","Truth Or Consequences","NM","New Mexico","87901","Mountain","33.160602","-107.266914"
"(505) 988-","Landline","Santa Fe","Santa Fe","NM","New Mexico","87506","Mountain","35.606283","-106.075722"
"(505) 786-","Landline","Mckinley","Thoreau","NM","New Mexico","87323","Mountain","35.397643","-108.160405"
"(575) 376-","Unknown","Colfax","Cimarron","NM","New Mexico","87714","Mountain","36.504216","-104.905419"
"(575) 273-","Unknown","Roosevelt","Causey","NM","New Mexico","88113","Mountain","33.928379","-103.274249"
"(575) 679-","Unknown","Dona Ana","Las Cruces","NM","New Mexico","88005","Mountain","32.167296","-106.897176"
"(575) 568-","Unknown","Sandoval","Regina","NM","New Mexico","87046","Mountain","35.71742","-106.935844"
"(575) 226-","Unknown","Roosevelt","Portales","NM","New Mexico","88130","Mountain","34.076964","-103.352595"
"(505) 486-","Cell Number","San Juan","Farmington","NM","New Mexico","87402","Mountain","36.775852","-108.101176"
"(575) 392-","Unknown","Lea","Hobbs","NM","New Mexico","88242","Mountain","32.496641","-103.169754"
"(505) 899-","Landline","Bernalillo","Albuquerque","NM","New Mexico","87121","Mountain","35.059663","-106.805535"
"(505) 290-","Cell Number","Cibola","Grants","NM","New Mexico","87020","Mountain","35.09985","-107.850191"
"(575) 488-","Unknown","Otero","Tularosa","NM","New Mexico","88352","Mountain","33.172467","-105.960356"
"(575) 383-","Unknown","Colfax","Raton","NM","New Mexico","87740","Mountain","36.662666","-104.815043"
"(505) 213-","Landline","Bernalillo","Albuquerque","NM","New Mexico","87121","Mountain","35.059663","-106.805535"
"(505) 669-","Cell Number","Santa Fe","Santa Fe","NM","New Mexico","87506","Mountain","35.606283","-106.075722"
"(575) 492-","Unknown","Lea","Hobbs","NM","New Mexico","88242","Mountain","32.496641","-103.169754"
"(575) 268-","Unknown","Curry","Clovis","NM","New Mexico","88101","Mountain","34.497241","-103.294978"
"(575) 675-","Unknown","Roosevelt","Milnesand","NM","New Mexico","88125","Mountain","33.720554","-103.412259"
"(575) 706-","Unknown","Eddy","Carlsbad","NM","New Mexico","88220","Mountain","32.416897","-104.46539"
"(575) 487-","Unknown","Quay","Logan","NM","New Mexico","88426","Mountain","35.52453","-103.264281"
"(575) 643-","Unknown","Colfax","Raton","NM","New Mexico","87740","Mountain","36.662666","-104.815043"
"(575) 621-","Unknown","Dona Ana","Las Cruces","NM","New Mexico","88005","Mountain","32.167296","-106.897176"
"(505) 570-","Cell Number","Santa Fe","Santa Fe","NM","New Mexico","87506","Mountain","35.606283","-106.075722"
"(575) 386-","Unknown","Dona Ana","Las Cruces","NM","New Mexico","88005","Mountain","32.167296","-106.897176"
"(505) 713-","Cell Number","Mckinley","Gallup","NM","New Mexico","87305","Mountain","35.449852","-108.770522"
"(575) 390-","Unknown","Lea","Hobbs","NM","New Mexico","88242","Mountain","32.496641","-103.169754"
"(575) 546-","Unknown","Luna","Deming","NM","New Mexico","88031","Mountain","32.239815","-107.74042"
"(575) 212-","Unknown","Quay","Tucumcari","NM","New Mexico","88401","Mountain","35.114202","-103.615509"
"(575) 483-","Unknown","Colfax","Springer","NM","New Mexico","87747","Mountain","36.603697","-104.859182"
"(505) 984-","Landline","Santa Fe","Santa Fe","NM","New Mexico","87506","Mountain","35.606283","-106.075722"
"(505) 969-","Cell Number","Bernalillo","Albuquerque","NM","New Mexico","87121","Mountain","35.059663","-106.805535"
"(505) 310-","Cell Number","Santa Fe","Santa Fe","NM","New Mexico","87506","Mountain","35.606283","-106.075722"
"(575) 272-","Unknown","Socorro","Socorro","NM","New Mexico","87801","Mountain","34.035975","-107.03802"
"(575) 225-","Unknown","Lea","Jal","NM","New Mexico","88252","Mountain","32.094646","-103.193924"
"(575) 581-","Unknown","Rio Arriba","El Rito","NM","New Mexico","87530","Mountain","36.283096","-106.198853"
