"Prefix","Usage","County","City","ShortState","LongState","Zip","Timezone","Latitude","Longitude"
"(605) 688-","Landline","Brookings","Brookings","SD","South Dakota","57006","Central / Mountain","44.355091","-96.762102"
"(605) 247-","Landline","Mccook","Salem","SD","South Dakota","57058","Central / Mountain","43.639298","-97.343417"
"(605) 569-","Unknown","Butte","Belle Fourche","SD","South Dakota","57717","Central / Mountain","44.93037","-103.87313"
"(605) 990-","Landline","Davison","Mitchell","SD","South Dakota","57301","Central / Mountain","43.69591","-98.086401"
"(605) 942-","Landline","Aurora","Plankinton","SD","South Dakota","57368","Central / Mountain","43.746753","-98.518533"
"(605) 442-","Landline","Potter","Tolstoy","SD","South Dakota","57475","Central / Mountain","45.22375","-99.694578"
"(605) 843-","Landline","Haakon","Midland","SD","South Dakota","57552","Central / Mountain","44.370733","-101.527178"
"(605) 271-","Landline","Minnehaha","Sioux Falls","SD","South Dakota","57109","Central / Mountain","43.674582","-96.79134"
"(605) 685-","Landline","Bennett","Martin","SD","South Dakota","57551","Central / Mountain","43.172158","-101.734068"
"(605) 371-","Landline","Minnehaha","Sioux Falls","SD","South Dakota","57109","Central / Mountain","43.674582","-96.79134"
"(605) 949-","Cell Number","Grant","Milbank","SD","South Dakota","57252","Central / Mountain","45.171617","-96.629203"
"(605) 333-","Landline","Minnehaha","Sioux Falls","SD","South Dakota","57109","Central / Mountain","43.674582","-96.79134"
"(605) 964-","Landline","Dewey","Eagle Butte","SD","South Dakota","57625","Central / Mountain","45.001611","-101.232885"
"(605) 471-","Cell Number","Mccook","Salem","SD","South Dakota","57058","Central / Mountain","43.639298","-97.343417"
"(605) 437-","Landline","Campbell","Herreid","SD","South Dakota","57632","Central / Mountain","45.833733","-100.020048"
"(605) 717-","Landline","Lawrence","Spearfish","SD","South Dakota","57783","Central / Mountain","44.467137","-103.772331"
"(605) 629-","Landline","Brookings","White","SD","South Dakota","57276","Central / Mountain","44.405596","-96.599788"
"(605) 743-","Landline","Lincoln","Harrisburg","SD","South Dakota","57032","Central / Mountain","43.425258","-96.659737"
"(605) 457-","Landline","Pennington","Wall","SD","South Dakota","57790","Central / Mountain","44.013772","-102.238397"
"(605) 539-","Landline","Jerauld","Wessington Springs","SD","South Dakota","57382","Central / Mountain","44.066415","-98.675133"
"(605) 383-","Landline","Brown","Frederick","SD","South Dakota","57441","Central / Mountain","45.693116","-98.368918"
"(605) 773-","Landline","Hughes","Pierre","SD","South Dakota","57501","Central / Mountain","44.334073","-100.094195"
"(605) 757-","Landline","Minnehaha","Valley Springs","SD","South Dakota","57068","Central / Mountain","43.594402","-96.528511"
"(605) 540-","Unknown","Union","North Sioux City","SD","South Dakota","57049","Central / Mountain","42.587483","-96.585026"
"(605) 747-","Landline","Todd","Parmelee","SD","South Dakota","57566","Central / Mountain","43.194063","-100.713373"
"(605) 288-","Landline","Shannon","Batesland","SD","South Dakota","57716","Central / Mountain","43.352617","-102.5411"
"(605) 277-","Landline","Brown","Aberdeen","SD","South Dakota","57402","Central / Mountain","45.589567","-98.352014"
"(605) 200-","Cell Number","Ziebach","Dupree","SD","South Dakota","57623","Central / Mountain","45.050456","-101.607171"
"(605) 726-","Landline","Charles Mix","Dante","SD","South Dakota","57329","Central / Mountain","42.984707","-98.175204"
"(605) 838-","Unknown","Minnehaha","Sioux Falls","SD","South Dakota","57109","Central / Mountain","43.674582","-96.79134"
"(605) 363-","Landline","Minnehaha","Humboldt","SD","South Dakota","57035","Central / Mountain","43.637836","-96.816129"
"(605) 789-","Unknown","Minnehaha","Sioux Falls","SD","South Dakota","57109","Central / Mountain","43.674582","-96.79134"
"(605) 233-","Cell Number","Clark","Clark","SD","South Dakota","57225","Central / Mountain","44.891983","-97.832972"
"(605) 397-","Landline","Brown","Groton","SD","South Dakota","57445","Central / Mountain","45.589027","-98.245639"
"(605) 823-","Landline","Corson","Mc Laughlin","SD","South Dakota","57642","Central / Mountain","45.876336","-100.891469"
"(605) 610-","Landline","Minnehaha","Sioux Falls","SD","South Dakota","57109","Central / Mountain","43.674582","-96.79134"
"(605) 561-","Unknown","Meade","Sturgis","SD","South Dakota","57785","Central / Mountain","44.369172","-103.361658"
"(605) 695-","Cell Number","Brookings","Brookings","SD","South Dakota","57006","Central / Mountain","44.355091","-96.762102"
"(605) 796-","Landline","Sanborn","Woonsocket","SD","South Dakota","57385","Central / Mountain","44.04271","-98.231397"
"(605) 767-","Landline","Lincoln","Harrisburg","SD","South Dakota","57032","Central / Mountain","43.425258","-96.659737"
"(605) 690-","Cell Number","Brookings","Brookings","SD","South Dakota","57006","Central / Mountain","44.355091","-96.762102"
"(605) 492-","Landline","Day","Bristol","SD","South Dakota","57219","Central / Mountain","45.319218","-97.637812"
"(605) 265-","Cell Number","Day","Webster","SD","South Dakota","57274","Central / Mountain","45.31506","-97.525395"
"(605) 373-","Landline","Minnehaha","Sioux Falls","SD","South Dakota","57109","Central / Mountain","43.674582","-96.79134"
"(605) 494-","Unknown","Hughes","Pierre","SD","South Dakota","57501","Central / Mountain","44.334073","-100.094195"
"(605) 720-","Landline","Meade","Sturgis","SD","South Dakota","57785","Central / Mountain","44.369172","-103.361658"
"(605) 689-","Unknown","Yankton","Yankton","SD","South Dakota","57078","Central / Mountain","42.94396","-97.37689"
"(605) 699-","Unknown","Butte","Belle Fourche","SD","South Dakota","57717","Central / Mountain","44.93037","-103.87313"
"(605) 394-","Landline","Pennington","Rapid City","SD","South Dakota","57709","Central / Mountain","44.076106","-103.317149"
"(605) 226-","Landline","Brown","Aberdeen","SD","South Dakota","57402","Central / Mountain","45.589567","-98.352014"
"(605) 965-","Landline","Minnehaha","Sioux Falls","SD","South Dakota","57109","Central / Mountain","43.674582","-96.79134"
"(605) 749-","Landline","Custer","Custer","SD","South Dakota","57730","Central / Mountain","43.657304","-103.425807"
"(605) 372-","Landline","Lincoln","Lennox","SD","South Dakota","57039","Central / Mountain","43.298098","-96.856021"
"(605) 201-","Cell Number","Minnehaha","Sioux Falls","SD","South Dakota","57109","Central / Mountain","43.674582","-96.79134"
"(605) 445-","Landline","Grant","Milbank","SD","South Dakota","57252","Central / Mountain","45.171617","-96.629203"
"(605) 364-","Landline","Yankton","Lesterville","SD","South Dakota","57040","Central / Mountain","43.06062","-97.568901"
"(605) 554-","Unknown","Beadle","Huron","SD","South Dakota","57350","Central / Mountain","44.398874","-98.180113"
"(605) 339-","Landline","Minnehaha","Sioux Falls","SD","South Dakota","57109","Central / Mountain","43.674582","-96.79134"
"(605) 763-","Landline","Union","Beresford","SD","South Dakota","57004","Central / Mountain","42.842947","-96.681135"
"(605) 362-","Landline","Minnehaha","Sioux Falls","SD","South Dakota","57109","Central / Mountain","43.674582","-96.79134"
"(605) 864-","Cell Number","Moody","Flandreau","SD","South Dakota","57028","Central / Mountain","43.984004","-96.616189"
"(605) 398-","Landline","Roberts","Summit","SD","South Dakota","57266","Central / Mountain","45.30204","-97.036537"
"(605) 234-","Landline","Brule","Chamberlain","SD","South Dakota","57326","Central / Mountain","43.71725","-99.131736"
"(605) 988-","Landline","Minnehaha","Sioux Falls","SD","South Dakota","57109","Central / Mountain","43.674582","-96.79134"
"(605) 794-","Landline","Deuel","Toronto","SD","South Dakota","57268","Central / Mountain","44.567419","-96.59444"
"(605) 885-","Landline","Brown","Houghton","SD","South Dakota","57449","Central / Mountain","45.60711","-98.170069"
"(605) 390-","Cell Number","Pennington","Rapid City","SD","South Dakota","57709","Central / Mountain","44.076106","-103.317149"
"(605) 286-","Landline","Bon Homme","Avon","SD","South Dakota","57315","Central / Mountain","42.988284","-97.878579"
"(605) 636-","Landline","Lake","Madison","SD","South Dakota","57042","Central / Mountain","44.054223","-97.091339"
"(605) 987-","Landline","Lincoln","Canton","SD","South Dakota","57013","Central / Mountain","43.29831","-96.70718"
"(605) 783-","Landline","Hamlin","Hazel","SD","South Dakota","57242","Central / Mountain","44.759144","-97.381575"
"(605) 727-","Landline","Pennington","Rapid City","SD","South Dakota","57709","Central / Mountain","44.076106","-103.317149"
"(605) 886-","Landline","Codington","Watertown","SD","South Dakota","57201","Central / Mountain","44.955643","-97.177954"
"(605) 661-","Cell Number","Yankton","Yankton","SD","South Dakota","57078","Central / Mountain","42.94396","-97.37689"
"(605) 327-","Landline","Turner","Viborg","SD","South Dakota","57070","Central / Mountain","43.188383","-97.180373"
"(605) 388-","Landline","Pennington","Rapid City","SD","South Dakota","57709","Central / Mountain","44.076106","-103.317149"
"(605) 892-","Landline","Butte","Belle Fourche","SD","South Dakota","57717","Central / Mountain","44.93037","-103.87313"
"(605) 591-","Cell Number","Lawrence","Lead","SD","South Dakota","57754","Central / Mountain","44.444505","-103.752683"
"(605) 861-","Cell Number","Kingsbury","De Smet","SD","South Dakota","57231","Central / Mountain","44.369482","-97.542049"
"(605) 835-","Landline","Gregory","Gregory","SD","South Dakota","57533","Central / Mountain","43.213649","-99.36219"
"(605) 355-","Landline","Pennington","Rapid City","SD","South Dakota","57709","Central / Mountain","44.076106","-103.317149"
"(605) 696-","Landline","Brookings","Brookings","SD","South Dakota","57006","Central / Mountain","44.355091","-96.762102"
"(605) 532-","Landline","Clark","Clark","SD","South Dakota","57225","Central / Mountain","44.891983","-97.832972"
"(605) 978-","Landline","Minnehaha","Sioux Falls","SD","South Dakota","57109","Central / Mountain","43.674582","-96.79134"
"(605) 291-","Cell Number","Lake","Madison","SD","South Dakota","57042","Central / Mountain","44.054223","-97.091339"
"(605) 521-","Cell Number","Minnehaha","Sioux Falls","SD","South Dakota","57109","Central / Mountain","43.674582","-96.79134"
"(605) 941-","Cell Number","Minnehaha","Sioux Falls","SD","South Dakota","57109","Central / Mountain","43.674582","-96.79134"
"(605) 996-","Landline","Davison","Mitchell","SD","South Dakota","57301","Central / Mountain","43.69591","-98.086401"
"(605) 834-","Landline","Gregory","Saint Charles","SD","South Dakota","57571","Central / Mountain","43.248832","-99.016376"
"(605) 439-","Landline","Edmunds","Ipswich","SD","South Dakota","57451","Central / Mountain","45.421905","-99.258683"
"(605) 323-","Landline","Minnehaha","Sioux Falls","SD","South Dakota","57109","Central / Mountain","43.674582","-96.79134"
"(605) 427-","Landline","Lake","Madison","SD","South Dakota","57042","Central / Mountain","44.054223","-97.091339"
"(605) 414-","Unknown","Hamlin","Castlewood","SD","South Dakota","57223","Central / Mountain","44.65665","-97.116149"
"(605) 776-","Landline","Hughes","Pierre","SD","South Dakota","57501","Central / Mountain","44.334073","-100.094195"
"(605) 760-","Cell Number","Yankton","Yankton","SD","South Dakota","57078","Central / Mountain","42.94396","-97.37689"
"(605) 266-","Landline","Beadle","Hitchcock","SD","South Dakota","57348","Central / Mountain","44.567404","-98.406424"
"(605) 352-","Landline","Beadle","Huron","SD","South Dakota","57350","Central / Mountain","44.398874","-98.180113"
"(605) 899-","Unknown","Bennett","Martin","SD","South Dakota","57551","Central / Mountain","43.172158","-101.734068"
"(605) 454-","Cell Number","Bennett","Martin","SD","South Dakota","57551","Central / Mountain","43.172158","-101.734068"
"(605) 739-","Landline","Meade","Faith","SD","South Dakota","57626","Central / Mountain","45.024533","-102.026734"
"(605) 625-","Landline","Clark","Willow Lake","SD","South Dakota","57278","Central / Mountain","44.659815","-97.573152"
"(605) 370-","Cell Number","Minnehaha","Sioux Falls","SD","South Dakota","57109","Central / Mountain","43.674582","-96.79134"
"(605) 659-","Cell Number","Clay","Vermillion","SD","South Dakota","57069","Central / Mountain","42.854124","-96.973318"
"(605) 421-","Cell Number","Mccook","Salem","SD","South Dakota","57058","Central / Mountain","43.639298","-97.343417"
"(605) 369-","Landline","Bon Homme","Springfield","SD","South Dakota","57062","Central / Mountain","42.881672","-97.926212"
"(605) 361-","Landline","Minnehaha","Sioux Falls","SD","South Dakota","57109","Central / Mountain","43.674582","-96.79134"
"(605) 693-","Landline","Brookings","Brookings","SD","South Dakota","57006","Central / Mountain","44.355091","-96.762102"
"(605) 666-","Landline","Pennington","Keystone","SD","South Dakota","57751","Central / Mountain","43.884764","-103.399471"
"(605) 449-","Landline","Mccook","Bridgewater","SD","South Dakota","57319","Central / Mountain","43.550264","-97.469058"
"(605) 412-","Unknown","Beadle","Huron","SD","South Dakota","57350","Central / Mountain","44.398874","-98.180113"
"(605) 304-","Unknown","Brookings","White","SD","South Dakota","57276","Central / Mountain","44.405596","-96.599788"
"(605) 474-","Landline","Minnehaha","Valley Springs","SD","South Dakota","57068","Central / Mountain","43.594402","-96.528511"
"(605) 428-","Landline","Minnehaha","Dell Rapids","SD","South Dakota","57022","Central / Mountain","43.803585","-96.699766"
"(605) 744-","Unknown","Lincoln","Lennox","SD","South Dakota","57039","Central / Mountain","43.298098","-96.856021"
"(605) 882-","Landline","Codington","Watertown","SD","South Dakota","57201","Central / Mountain","44.955643","-97.177954"
"(605) 486-","Landline","Day","Roslyn","SD","South Dakota","57261","Central / Mountain","45.369855","-97.603949"
"(605) 235-","Landline","Union","North Sioux City","SD","South Dakota","57049","Central / Mountain","42.587483","-96.585026"
"(605) 766-","Landline","Turner","Viborg","SD","South Dakota","57070","Central / Mountain","43.188383","-97.180373"
"(605) 227-","Landline","Davison","Ethan","SD","South Dakota","57334","Central / Mountain","43.59997","-98.074101"
"(605) 487-","Landline","Charles Mix","Lake Andes","SD","South Dakota","57356","Central / Mountain","43.147572","-98.527479"
"(605) 324-","Landline","Faulk","Cresbard","SD","South Dakota","57435","Central / Mountain","45.136245","-98.915424"
"(605) 668-","Landline","Yankton","Yankton","SD","South Dakota","57078","Central / Mountain","42.94396","-97.37689"
"(605) 922-","Unknown","Brookings","Elkton","SD","South Dakota","57026","Central / Mountain","44.289677","-96.540249"
"(605) 920-","Cell Number","Lawrence","Deadwood","SD","South Dakota","57732","Central / Mountain","44.36485","-103.735731"
"(605) 290-","Cell Number","Brown","Aberdeen","SD","South Dakota","57402","Central / Mountain","45.589567","-98.352014"
"(605) 946-","Landline","Douglas","Armour","SD","South Dakota","57313","Central / Mountain","43.341035","-98.398964"
"(605) 723-","Landline","Butte","Belle Fourche","SD","South Dakota","57717","Central / Mountain","44.93037","-103.87313"
"(605) 440-","Cell Number","Custer","Custer","SD","South Dakota","57730","Central / Mountain","43.657304","-103.425807"
"(605) 368-","Landline","Lincoln","Tea","SD","South Dakota","57064","Central / Mountain","43.41434","-96.842783"
"(605) 841-","Cell Number","Tripp","Winner","SD","South Dakota","57580","Central / Mountain","43.331763","-99.803286"
"(605) 493-","Landline","Day","Pierpont","SD","South Dakota","57468","Central / Mountain","45.369855","-97.603949"
"(605) 381-","Cell Number","Pennington","Rapid City","SD","South Dakota","57709","Central / Mountain","44.076106","-103.317149"
"(605) 287-","Landline","Edmunds","Roscoe","SD","South Dakota","57471","Central / Mountain","45.419289","-99.346593"
"(605) 242-","Landline","Union","North Sioux City","SD","South Dakota","57049","Central / Mountain","42.587483","-96.585026"
"(605) 770-","Cell Number","Davison","Mitchell","SD","South Dakota","57301","Central / Mountain","43.69591","-98.086401"
"(605) 253-","Landline","Union","Alcester","SD","South Dakota","57001","Central / Mountain","42.931698","-96.624298"
"(605) 791-","Unknown","Pennington","Rapid City","SD","South Dakota","57709","Central / Mountain","44.076106","-103.317149"
"(605) 927-","Unknown","Roberts","Sisseton","SD","South Dakota","57262","Central / Mountain","45.541443","-96.970202"
"(605) 644-","Landline","Lawrence","Spearfish","SD","South Dakota","57783","Central / Mountain","44.467137","-103.772331"
"(605) 524-","Landline","Corson","Morristown","SD","South Dakota","57645","Central / Mountain","45.708402","-101.154581"
"(605) 256-","Landline","Lake","Madison","SD","South Dakota","57042","Central / Mountain","44.054223","-97.091339"
"(605) 596-","Landline","Spink","Tulare","SD","South Dakota","57476","Central / Mountain","44.893778","-98.402047"
"(605) 934-","Landline","Union","Alcester","SD","South Dakota","57001","Central / Mountain","42.931698","-96.624298"
"(605) 422-","Landline","Union","North Sioux City","SD","South Dakota","57049","Central / Mountain","42.587483","-96.585026"
"(605) 578-","Landline","Lawrence","Deadwood","SD","South Dakota","57732","Central / Mountain","44.36485","-103.735731"
"(605) 455-","Landline","Shannon","Kyle","SD","South Dakota","57752","Central / Mountain","43.352617","-102.5411"
"(605) 389-","Cell Number","Pennington","Rapid City","SD","South Dakota","57709","Central / Mountain","44.076106","-103.317149"
"(605) 407-","Unknown","Bennett","Martin","SD","South Dakota","57551","Central / Mountain","43.172158","-101.734068"
"(605) 319-","Unknown","Todd","Mission","SD","South Dakota","57555","Central / Mountain","43.304572","-100.662079"
"(605) 299-","Landline","Davison","Mitchell","SD","South Dakota","57301","Central / Mountain","43.69591","-98.086401"
"(605) 463-","Landline","Bon Homme","Tabor","SD","South Dakota","57063","Central / Mountain","42.947515","-97.714195"
"(605) 658-","Unknown","Clay","Vermillion","SD","South Dakota","57069","Central / Mountain","42.854124","-96.973318"
"(605) 446-","Landline","Minnehaha","Colton","SD","South Dakota","57018","Central / Mountain","43.790192","-96.907845"
"(605) 734-","Landline","Brule","Chamberlain","SD","South Dakota","57326","Central / Mountain","43.71725","-99.131736"
"(605) 574-","Landline","Pennington","Hill City","SD","South Dakota","57745","Central / Mountain","44.0082","-103.651357"
"(605) 863-","Cell Number","Pennington","Rapid City","SD","South Dakota","57709","Central / Mountain","44.076106","-103.317149"
"(605) 260-","Landline","Yankton","Yankton","SD","South Dakota","57078","Central / Mountain","42.94396","-97.37689"
"(605) 220-","Cell Number","Hughes","Pierre","SD","South Dakota","57501","Central / Mountain","44.334073","-100.094195"
"(605) 391-","Cell Number","Pennington","Rapid City","SD","South Dakota","57709","Central / Mountain","44.076106","-103.317149"
"(605) 648-","Landline","Turner","Marion","SD","South Dakota","57043","Central / Mountain","43.292364","-97.278318"
"(605) 282-","Cell Number","Edmunds","Hosmer","SD","South Dakota","57448","Central / Mountain","45.552579","-99.461653"
"(605) 977-","Landline","Minnehaha","Sioux Falls","SD","South Dakota","57109","Central / Mountain","43.674582","-96.79134"
"(605) 550-","Landline","Davison","Mitchell","SD","South Dakota","57301","Central / Mountain","43.69591","-98.086401"
"(605) 543-","Landline","Minnehaha","Crooks","SD","South Dakota","57020","Central / Mountain","43.666894","-96.822137"
"(605) 579-","Cell Number","Miner","Howard","SD","South Dakota","57349","Central / Mountain","44.037102","-97.56034"
"(605) 544-","Landline","Haakon","Milesville","SD","South Dakota","57553","Central / Mountain","44.370733","-101.527178"
"(605) 633-","Cell Number","Moody","Flandreau","SD","South Dakota","57028","Central / Mountain","43.984004","-96.616189"
"(605) 858-","Unknown","Pennington","Rapid City","SD","South Dakota","57709","Central / Mountain","44.076106","-103.317149"
"(605) 541-","Unknown","Grant","Big Stone City","SD","South Dakota","57216","Central / Mountain","45.170552","-96.534574"
"(605) 306-","Landline","Minnehaha","Sioux Falls","SD","South Dakota","57109","Central / Mountain","43.674582","-96.79134"
"(605) 497-","Unknown","Beadle","Wolsey","SD","South Dakota","57384","Central / Mountain","44.44945","-98.487894"
"(605) 206-","Cell Number","Meade","Sturgis","SD","South Dakota","57785","Central / Mountain","44.369172","-103.361658"
"(605) 224-","Landline","Hughes","Pierre","SD","South Dakota","57501","Central / Mountain","44.334073","-100.094195"
"(605) 204-","Cell Number","Hand","Miller","SD","South Dakota","57362","Central / Mountain","44.480979","-99.062766"
"(605) 732-","Landline","Aurora","Stickney","SD","South Dakota","57375","Central / Mountain","43.571628","-98.498361"
"(605) 599-","Landline","Beadle","Cavour","SD","South Dakota","57324","Central / Mountain","44.325314","-98.013968"
"(605) 483-","Landline","Lake","Wentworth","SD","South Dakota","57075","Central / Mountain","43.996979","-96.967095"
"(605) 883-","Landline","Beadle","Wolsey","SD","South Dakota","57384","Central / Mountain","44.44945","-98.487894"
"(605) 366-","Cell Number","Minnehaha","Sioux Falls","SD","South Dakota","57109","Central / Mountain","43.674582","-96.79134"
"(605) 638-","Landline","Clay","Vermillion","SD","South Dakota","57069","Central / Mountain","42.854124","-96.973318"
"(605) 450-","Cell Number","Spink","Redfield","SD","South Dakota","57469","Central / Mountain","44.954101","-98.406878"
"(605) 759-","Landline","Minnehaha","Sioux Falls","SD","South Dakota","57109","Central / Mountain","43.674582","-96.79134"
"(605) 583-","Landline","Bon Homme","Scotland","SD","South Dakota","57059","Central / Mountain","43.024378","-97.783482"
"(605) 545-","Cell Number","Pennington","Rapid City","SD","South Dakota","57709","Central / Mountain","44.076106","-103.317149"
"(605) 244-","Landline","Perkins","Bison","SD","South Dakota","57620","Central / Mountain","45.409748","-102.513087"
"(605) 273-","Landline","Corson","Mc Intosh","SD","South Dakota","57641","Central / Mountain","45.708402","-101.154581"
"(605) 459-","Landline","Fall River","Oelrichs","SD","South Dakota","57763","Central / Mountain","43.180956","-103.243935"
"(605) 568-","Unknown","Butte","Belle Fourche","SD","South Dakota","57717","Central / Mountain","44.93037","-103.87313"
"(605) 241-","Landline","Minnehaha","Sioux Falls","SD","South Dakota","57109","Central / Mountain","43.674582","-96.79134"
"(605) 479-","Landline","Deuel","Astoria","SD","South Dakota","57213","Central / Mountain","44.562302","-96.591264"
"(605) 737-","Landline","Pennington","Rapid City","SD","South Dakota","57709","Central / Mountain","44.076106","-103.317149"
"(605) 477-","Unknown","Buffalo","Fort Thompson","SD","South Dakota","57339","Central / Mountain","44.064873","-99.251509"
"(605) 639-","Cell Number","Lawrence","Spearfish","SD","South Dakota","57783","Central / Mountain","44.467137","-103.772331"
"(605) 526-","Landline","Minnehaha","Hartford","SD","South Dakota","57033","Central / Mountain","43.630545","-96.814539"
"(605) 983-","Landline","Kingsbury","Arlington","SD","South Dakota","57212","Central / Mountain","44.368264","-97.246086"
"(605) 228-","Cell Number","Brown","Aberdeen","SD","South Dakota","57402","Central / Mountain","45.589567","-98.352014"
"(605) 778-","Landline","Brule","Kimball","SD","South Dakota","57355","Central / Mountain","43.744477","-98.95381"
"(605) 624-","Landline","Clay","Vermillion","SD","South Dakota","57069","Central / Mountain","42.854124","-96.973318"
"(605) 874-","Landline","Deuel","Clear Lake","SD","South Dakota","57226","Central / Mountain","44.761249","-96.690651"
"(605) 301-","Landline","Hughes","Pierre","SD","South Dakota","57501","Central / Mountain","44.334073","-100.094195"
"(605) 565-","Landline","Union","Elk Point","SD","South Dakota","57025","Central / Mountain","42.76399","-96.676742"
"(605) 263-","Landline","Clay","Irene","SD","South Dakota","57037","Central / Mountain","43.068331","-97.130498"
"(605) 756-","Landline","Codington","South Shore","SD","South Dakota","57263","Central / Mountain","45.100745","-97.036356"
"(605) 567-","Landline","Stanley","Hayes","SD","South Dakota","57537","Central / Mountain","44.531281","-101.014052"
"(605) 285-","Landline","Edmunds","Hosmer","SD","South Dakota","57448","Central / Mountain","45.552579","-99.461653"
"(605) 386-","Landline","Pennington","Wall","SD","South Dakota","57790","Central / Mountain","44.013772","-102.238397"
"(605) 785-","Landline","Hamlin","Hazel","SD","South Dakota","57242","Central / Mountain","44.759144","-97.381575"
"(605) 506-","Landline","Clay","Vermillion","SD","South Dakota","57069","Central / Mountain","42.854124","-96.973318"
"(605) 415-","Landline","Pennington","Rapid City","SD","South Dakota","57709","Central / Mountain","44.076106","-103.317149"
"(605) 246-","Landline","Mccook","Spencer","SD","South Dakota","57374","Central / Mountain","43.723565","-97.581441"
"(605) 548-","Unknown","Minnehaha","Baltic","SD","South Dakota","57003","Central / Mountain","43.64514","-96.814589"
"(605) 384-","Landline","Charles Mix","Wagner","SD","South Dakota","57380","Central / Mountain","43.034725","-98.315504"
"(605) 793-","Landline","Hamlin","Castlewood","SD","South Dakota","57223","Central / Mountain","44.65665","-97.116149"
"(605) 680-","Cell Number","Brule","Kimball","SD","South Dakota","57355","Central / Mountain","43.744477","-98.95381"
"(605) 623-","Landline","Grant","Revillo","SD","South Dakota","57259","Central / Mountain","45.080517","-96.555664"
"(605) 269-","Landline","Lawrence","Whitewood","SD","South Dakota","57793","Central / Mountain","44.46498","-103.644136"
"(605) 345-","Landline","Day","Webster","SD","South Dakota","57274","Central / Mountain","45.31506","-97.525395"
"(605) 849-","Landline","Jerauld","Alpena","SD","South Dakota","57312","Central / Mountain","44.122811","-98.412198"
"(605) 876-","Landline","Deuel","Brandt","SD","South Dakota","57218","Central / Mountain","44.76048","-96.668424"
"(605) 832-","Landline","Deuel","Astoria","SD","South Dakota","57213","Central / Mountain","44.562302","-96.591264"
"(605) 472-","Landline","Spink","Redfield","SD","South Dakota","57469","Central / Mountain","44.954101","-98.406878"
"(605) 645-","Landline","Lawrence","Spearfish","SD","South Dakota","57783","Central / Mountain","44.467137","-103.772331"
"(605) 994-","Landline","Brown","Hecla","SD","South Dakota","57446","Central / Mountain","45.849431","-98.157861"
"(605) 784-","Landline","Clark","Bradley","SD","South Dakota","57217","Central / Mountain","44.90626","-97.708049"
"(605) 754-","Landline","Pennington","New Underwood","SD","South Dakota","57761","Central / Mountain","44.056691","-102.79897"
"(605) 551-","Unknown","Marshall","Britton","SD","South Dakota","57430","Central / Mountain","45.761704","-97.72957"
"(605) 587-","Landline","Gregory","Fairfax","SD","South Dakota","57335","Central / Mountain","43.248832","-99.016376"
"(605) 400-","Unknown","Minnehaha","Sioux Falls","SD","South Dakota","57109","Central / Mountain","43.674582","-96.79134"
"(605) 500-","Unknown","Yankton","Yankton","SD","South Dakota","57078","Central / Mountain","42.94396","-97.37689"
"(605) 328-","Landline","Minnehaha","Sioux Falls","SD","South Dakota","57109","Central / Mountain","43.674582","-96.79134"
"(605) 278-","Landline","Harding","Ralph","SD","South Dakota","57650","Central / Mountain","45.578941","-103.493668"
"(605) 360-","Cell Number","Minnehaha","Sioux Falls","SD","South Dakota","57109","Central / Mountain","43.674582","-96.79134"
"(605) 641-","Cell Number","Lawrence","Lead","SD","South Dakota","57754","Central / Mountain","44.444505","-103.752683"
"(605) 768-","Landline","Potter","Gettysburg","SD","South Dakota","57442","Central / Mountain","45.033588","-100.035273"
"(605) 225-","Landline","Brown","Aberdeen","SD","South Dakota","57402","Central / Mountain","45.589567","-98.352014"
"(605) 869-","Landline","Lyman","Kennebec","SD","South Dakota","57544","Central / Mountain","43.85862","-99.824337"
"(605) 584-","Landline","Lawrence","Lead","SD","South Dakota","57754","Central / Mountain","44.444505","-103.752683"
"(605) 984-","Landline","Lincoln","Hudson","SD","South Dakota","57034","Central / Mountain","43.184976","-96.580939"
"(605) 491-","Cell Number","Charles Mix","Lake Andes","SD","South Dakota","57356","Central / Mountain","43.147572","-98.527479"
"(605) 751-","Cell Number","Union","Beresford","SD","South Dakota","57004","Central / Mountain","42.842947","-96.681135"
"(605) 341-","Landline","Pennington","Rapid City","SD","South Dakota","57709","Central / Mountain","44.076106","-103.317149"
"(605) 566-","Unknown","Lawrence","Lead","SD","South Dakota","57754","Central / Mountain","44.444505","-103.752683"
"(605) 267-","Landline","Clay","Irene","SD","South Dakota","57037","Central / Mountain","43.068331","-97.130498"
"(605) 517-","Cell Number","Custer","Custer","SD","South Dakota","57730","Central / Mountain","43.657304","-103.425807"
"(605) 264-","Landline","Sully","Agar","SD","South Dakota","57520","Central / Mountain","44.802621","-100.158903"
"(605) 387-","Landline","Hutchinson","Menno","SD","South Dakota","57045","Central / Mountain","43.248825","-97.538733"
"(605) 836-","Unknown","Lincoln","Canton","SD","South Dakota","57013","Central / Mountain","43.29831","-96.70718"
"(605) 552-","Landline","Turner","Centerville","SD","South Dakota","57014","Central / Mountain","43.291296","-97.042271"
"(605) 358-","Landline","Brown","Frederick","SD","South Dakota","57441","Central / Mountain","45.693116","-98.368918"
"(605) 343-","Landline","Pennington","Rapid City","SD","South Dakota","57709","Central / Mountain","44.076106","-103.317149"
"(605) 216-","Cell Number","Brown","Aberdeen","SD","South Dakota","57402","Central / Mountain","45.589567","-98.352014"
"(605) 691-","Cell Number","Brookings","Brookings","SD","South Dakota","57006","Central / Mountain","44.355091","-96.762102"
"(605) 221-","Landline","Minnehaha","Sioux Falls","SD","South Dakota","57109","Central / Mountain","43.674582","-96.79134"
"(605) 528-","Landline","Minnehaha","Hartford","SD","South Dakota","57033","Central / Mountain","43.630545","-96.814539"
"(605) 716-","Landline","Pennington","Rapid City","SD","South Dakota","57709","Central / Mountain","44.076106","-103.317149"
"(605) 630-","Cell Number","Davison","Mitchell","SD","South Dakota","57301","Central / Mountain","43.69591","-98.086401"
"(605) 969-","Landline","Todd","Saint Francis","SD","South Dakota","57572","Central / Mountain","43.194063","-100.713373"
"(605) 349-","Landline","Minnehaha","Garretson","SD","South Dakota","57030","Central / Mountain","43.747639","-96.596379"
"(605) 553-","Landline","Minnehaha","Sioux Falls","SD","South Dakota","57109","Central / Mountain","43.674582","-96.79134"
"(605) 870-","Cell Number","Hyde","Holabird","SD","South Dakota","57540","Central / Mountain","44.490558","-99.589344"
"(605) 342-","Landline","Pennington","Rapid City","SD","South Dakota","57709","Central / Mountain","44.076106","-103.317149"
"(605) 209-","Cell Number","Pennington","Rapid City","SD","South Dakota","57709","Central / Mountain","44.076106","-103.317149"
"(605) 210-","Cell Number","Butte","Belle Fourche","SD","South Dakota","57717","Central / Mountain","44.93037","-103.87313"
"(605) 558-","Landline","Lincoln","Canton","SD","South Dakota","57013","Central / Mountain","43.29831","-96.70718"
"(605) 758-","Landline","Codington","Florence","SD","South Dakota","57235","Central / Mountain","45.015481","-97.306014"
"(605) 337-","Landline","Charles Mix","Platte","SD","South Dakota","57369","Central / Mountain","43.2916","-98.767186"
"(605) 336-","Landline","Minnehaha","Sioux Falls","SD","South Dakota","57109","Central / Mountain","43.674582","-96.79134"
"(605) 635-","Landline","Spink","Doland","SD","South Dakota","57436","Central / Mountain","44.846523","-98.10236"
"(605) 436-","Landline","Faulk","Seneca","SD","South Dakota","57473","Central / Mountain","44.99142","-99.340678"
"(605) 731-","Landline","Minnehaha","Sioux Falls","SD","South Dakota","57109","Central / Mountain","43.674582","-96.79134"
"(605) 426-","Landline","Edmunds","Ipswich","SD","South Dakota","57451","Central / Mountain","45.421905","-99.258683"
"(605) 884-","Landline","Codington","Watertown","SD","South Dakota","57201","Central / Mountain","44.955643","-97.177954"
"(605) 938-","Landline","Roberts","Wilmot","SD","South Dakota","57279","Central / Mountain","45.39857","-96.832256"
"(605) 881-","Cell Number","Codington","Watertown","SD","South Dakota","57201","Central / Mountain","44.955643","-97.177954"
"(605) 559-","Unknown","Lawrence","Spearfish","SD","South Dakota","57783","Central / Mountain","44.467137","-103.772331"
"(605) 392-","Landline","Hand","Orient","SD","South Dakota","57467","Central / Mountain","44.911775","-99.073204"
"(605) 875-","Landline","Hughes","Harrold","SD","South Dakota","57536","Central / Mountain","44.333927","-99.767237"
"(605) 609-","Landline","Hughes","Pierre","SD","South Dakota","57501","Central / Mountain","44.334073","-100.094195"
"(605) 853-","Landline","Hand","Miller","SD","South Dakota","57362","Central / Mountain","44.480979","-99.062766"
"(605) 258-","Landline","Sully","Onida","SD","South Dakota","57564","Central / Mountain","44.722873","-99.979546"
"(605) 597-","Unknown","Davison","Mitchell","SD","South Dakota","57301","Central / Mountain","43.69591","-98.086401"
"(605) 212-","Cell Number","Minnehaha","Sioux Falls","SD","South Dakota","57109","Central / Mountain","43.674582","-96.79134"
"(605) 947-","Landline","Day","Waubay","SD","South Dakota","57273","Central / Mountain","45.332568","-97.307239"
"(605) 375-","Landline","Harding","Buffalo","SD","South Dakota","57720","Central / Mountain","45.576652","-103.911719"
"(605) 231-","Cell Number","Minnehaha","Sioux Falls","SD","South Dakota","57109","Central / Mountain","43.674582","-96.79134"
"(605) 208-","Cell Number","Tripp","Winner","SD","South Dakota","57580","Central / Mountain","43.331763","-99.803286"
"(605) 248-","Landline","Sanborn","Letcher","SD","South Dakota","57359","Central / Mountain","43.953471","-98.151193"
"(605) 923-","Landline","Pennington","Box Elder","SD","South Dakota","57719","Central / Mountain","44.03667","-103.204293"
"(605) 686-","Unknown","Pennington","Rapid City","SD","South Dakota","57709","Central / Mountain","44.076106","-103.317149"
"(605) 865-","Landline","Dewey","Timber Lake","SD","South Dakota","57656","Central / Mountain","45.427032","-101.07469"
"(605) 944-","Unknown","Bennett","Martin","SD","South Dakota","57551","Central / Mountain","43.172158","-101.734068"
"(605) 675-","Cell Number","Clay","Vermillion","SD","South Dakota","57069","Central / Mountain","42.854124","-96.973318"
"(605) 575-","Landline","Minnehaha","Sioux Falls","SD","South Dakota","57109","Central / Mountain","43.674582","-96.79134"
"(605) 821-","Unknown","Ziebach","Dupree","SD","South Dakota","57623","Central / Mountain","45.050456","-101.607171"
"(605) 344-","Landline","Jackson","Belvidere","SD","South Dakota","57521","Central / Mountain","43.691966","-101.601609"
"(605) 480-","Cell Number","Lake","Madison","SD","South Dakota","57042","Central / Mountain","44.054223","-97.091339"
"(605) 966-","Landline","Union","Jefferson","SD","South Dakota","57038","Central / Mountain","42.580112","-96.576256"
"(605) 782-","Landline","Minnehaha","Sioux Falls","SD","South Dakota","57109","Central / Mountain","43.674582","-96.79134"
"(605) 837-","Landline","Jackson","Kadoka","SD","South Dakota","57543","Central / Mountain","43.824178","-101.389524"
"(605) 293-","Landline","Jerauld","Wessington Springs","SD","South Dakota","57382","Central / Mountain","44.066415","-98.675133"
"(605) 443-","Unknown","Lawrence","Whitewood","SD","South Dakota","57793","Central / Mountain","44.46498","-103.644136"
"(605) 424-","Landline","Fall River","Oral","SD","South Dakota","57766","Central / Mountain","43.239655","-103.527757"
"(605) 933-","Cell Number","Davison","Mitchell","SD","South Dakota","57301","Central / Mountain","43.69591","-98.086401"
"(605) 692-","Landline","Brookings","Brookings","SD","South Dakota","57006","Central / Mountain","44.355091","-96.762102"
"(605) 294-","Landline","Brown","Claremont","SD","South Dakota","57432","Central / Mountain","45.682867","-98.051948"
"(605) 631-","Cell Number","Lawrence","Deadwood","SD","South Dakota","57732","Central / Mountain","44.36485","-103.735731"
"(605) 573-","Landline","Moody","Flandreau","SD","South Dakota","57028","Central / Mountain","43.984004","-96.616189"
"(605) 724-","Landline","Douglas","Armour","SD","South Dakota","57313","Central / Mountain","43.341035","-98.398964"
"(605) 967-","Landline","Meade","Faith","SD","South Dakota","57626","Central / Mountain","45.024533","-102.026734"
"(605) 710-","Unknown","Hamlin","Lake Norden","SD","South Dakota","57248","Central / Mountain","44.588234","-97.142872"
"(605) 879-","Landline","Tripp","Witten","SD","South Dakota","57584","Central / Mountain","43.382122","-99.88231"
"(605) 485-","Landline","Miner","Howard","SD","South Dakota","57349","Central / Mountain","44.037102","-97.56034"
"(605) 217-","Landline","Union","North Sioux City","SD","South Dakota","57049","Central / Mountain","42.587483","-96.585026"
"(605) 496-","Cell Number","Union","Sioux Falls","SD","South Dakota","57109","Central / Mountain","43.674582","-96.79134"
"(605) 997-","Landline","Moody","Flandreau","SD","South Dakota","57028","Central / Mountain","43.984004","-96.616189"
"(605) 787-","Landline","Meade","Black Hawk","SD","South Dakota","57718","Central / Mountain","44.183216","-103.326118"
"(605) 962-","Landline","Hughes","Blunt","SD","South Dakota","57522","Central / Mountain","44.43719","-99.926952"
"(605) 295-","Cell Number","Hughes","Pierre","SD","South Dakota","57501","Central / Mountain","44.334073","-100.094195"
"(605) 702-","Landline","Meade","Sturgis","SD","South Dakota","57785","Central / Mountain","44.369172","-103.361658"
"(605) 654-","Landline","Gregory","Bonesteel","SD","South Dakota","57317","Central / Mountain","43.248832","-99.016376"
"(605) 742-","Landline","Roberts","Sisseton","SD","South Dakota","57262","Central / Mountain","45.541443","-96.970202"
"(605) 669-","Landline","Jones","Murdo","SD","South Dakota","57559","Central / Mountain","43.879993","-100.75734"
"(605) 718-","Landline","Pennington","Rapid City","SD","South Dakota","57709","Central / Mountain","44.076106","-103.317149"
"(605) 203-","Cell Number","Kingsbury","Lake Preston","SD","South Dakota","57249","Central / Mountain","44.369159","-97.382824"
"(605) 350-","Cell Number","Beadle","Huron","SD","South Dakota","57350","Central / Mountain","44.398874","-98.180113"
"(605) 378-","Landline","Todd","Saint Francis","SD","South Dakota","57572","Central / Mountain","43.194063","-100.713373"
"(605) 833-","Landline","Custer","Buffalo Gap","SD","South Dakota","57722","Central / Mountain","43.666816","-103.371071"
"(605) 750-","Cell Number","Lincoln","Lennox","SD","South Dakota","57039","Central / Mountain","43.298098","-96.856021"
"(605) 302-","Landline","Spink","Redfield","SD","South Dakota","57469","Central / Mountain","44.954101","-98.406878"
"(605) 592-","Unknown","Brookings","Brookings","SD","South Dakota","57006","Central / Mountain","44.355091","-96.762102"
"(605) 252-","Landline","Brown","Aberdeen","SD","South Dakota","57402","Central / Mountain","45.589567","-98.352014"
"(605) 239-","Landline","Hanson","Alexandria","SD","South Dakota","57311","Central / Mountain","43.66844","-97.75632"
"(605) 202-","Cell Number","Clay","Vermillion","SD","South Dakota","57069","Central / Mountain","42.854124","-96.973318"
"(605) 527-","Landline","Sanborn","Artesian","SD","South Dakota","57314","Central / Mountain","44.020961","-98.01144"
"(605) 840-","Cell Number","Tripp","Winner","SD","South Dakota","57580","Central / Mountain","43.331763","-99.803286"
"(605) 395-","Landline","Brown","Groton","SD","South Dakota","57445","Central / Mountain","45.589027","-98.245639"
"(605) 516-","Cell Number","Jones","Murdo","SD","South Dakota","57559","Central / Mountain","43.879993","-100.75734"
"(605) 632-","Unknown","Kingsbury","Lake Preston","SD","South Dakota","57249","Central / Mountain","44.369159","-97.382824"
"(605) 741-","Landline","Clay","Vermillion","SD","South Dakota","57069","Central / Mountain","42.854124","-96.973318"
"(605) 534-","Landline","Moody","Colman","SD","South Dakota","57017","Central / Mountain","43.984778","-96.814237"
"(605) 255-","Landline","Custer","Hermosa","SD","South Dakota","57744","Central / Mountain","43.838528","-103.19146"
"(605) 259-","Landline","Mellette","White River","SD","South Dakota","57579","Central / Mountain","43.566116","-100.745912"
"(605) 651-","Cell Number","Brookings","Brookings","SD","South Dakota","57006","Central / Mountain","44.355091","-96.762102"
"(605) 957-","Landline","Union","Beresford","SD","South Dakota","57004","Central / Mountain","42.842947","-96.681135"
"(605) 542-","Landline","Brookings","Aurora","SD","South Dakota","57002","Central / Mountain","44.304195","-96.667977"
"(605) 855-","Landline","Harding","Ralph","SD","South Dakota","57650","Central / Mountain","45.578941","-103.493668"
"(605) 312-","Unknown","Minnehaha","Sioux Falls","SD","South Dakota","57109","Central / Mountain","43.674582","-96.79134"
"(605) 677-","Landline","Clay","Vermillion","SD","South Dakota","57069","Central / Mountain","42.854124","-96.973318"
"(605) 682-","Cell Number","Brule","Kimball","SD","South Dakota","57355","Central / Mountain","43.744477","-98.95381"
"(605) 460-","Cell Number","Spink","Redfield","SD","South Dakota","57469","Central / Mountain","44.954101","-98.406878"
"(605) 795-","Landline","Grant","Strandburg","SD","South Dakota","57265","Central / Mountain","45.021579","-96.74078"
"(605) 999-","Cell Number","Davison","Mitchell","SD","South Dakota","57301","Central / Mountain","43.69591","-98.086401"
"(605) 839-","Unknown","Minnehaha","Brandon","SD","South Dakota","57005","Central / Mountain","43.603401","-96.793708"
"(605) 826-","Landline","Lake","Nunda","SD","South Dakota","57050","Central / Mountain","44.021983","-97.129455"
"(605) 332-","Landline","Minnehaha","Sioux Falls","SD","South Dakota","57109","Central / Mountain","43.674582","-96.79134"
"(605) 262-","Landline","Brown","Aberdeen","SD","South Dakota","57402","Central / Mountain","45.589567","-98.352014"
"(605) 725-","Landline","Brown","Aberdeen","SD","South Dakota","57402","Central / Mountain","45.589567","-98.352014"
"(605) 764-","Landline","Lincoln","Canton","SD","South Dakota","57013","Central / Mountain","43.29831","-96.70718"
"(605) 762-","Landline","Walworth","Glenham","SD","South Dakota","57631","Central / Mountain","45.504288","-100.311701"
"(605) 859-","Landline","Haakon","Philip","SD","South Dakota","57567","Central / Mountain","44.046063","-101.630722"
"(605) 887-","Landline","Spink","Mellette","SD","South Dakota","57461","Central / Mountain","45.155829","-98.426714"
"(605) 847-","Landline","Kingsbury","Lake Preston","SD","South Dakota","57249","Central / Mountain","44.369159","-97.382824"
"(605) 649-","Landline","Walworth","Selby","SD","South Dakota","57472","Central / Mountain","45.434632","-100.098171"
"(605) 588-","Landline","Day","Webster","SD","South Dakota","57274","Central / Mountain","45.31506","-97.525395"
"(605) 878-","Landline","Codington","Watertown","SD","South Dakota","57201","Central / Mountain","44.955643","-97.177954"
"(605) 788-","Landline","Perkins","Bison","SD","South Dakota","57620","Central / Mountain","45.409748","-102.513087"
"(605) 765-","Landline","Potter","Gettysburg","SD","South Dakota","57442","Central / Mountain","45.033588","-100.035273"
"(605) 772-","Landline","Miner","Howard","SD","South Dakota","57349","Central / Mountain","44.037102","-97.56034"
"(605) 434-","Landline","Grant","Milbank","SD","South Dakota","57252","Central / Mountain","45.171617","-96.629203"
"(605) 274-","Landline","Minnehaha","Sioux Falls","SD","South Dakota","57109","Central / Mountain","43.674582","-96.79134"
"(605) 775-","Landline","Gregory","Burke","SD","South Dakota","57523","Central / Mountain","43.182547","-99.293674"
"(605) 862-","Landline","Grant","Big Stone City","SD","South Dakota","57216","Central / Mountain","45.170552","-96.534574"
"(605) 374-","Landline","Perkins","Lemmon","SD","South Dakota","57638","Central / Mountain","45.732219","-102.410975"
"(605) 268-","Cell Number","Roberts","Sisseton","SD","South Dakota","57262","Central / Mountain","45.541443","-96.970202"
"(605) 353-","Landline","Beadle","Huron","SD","South Dakota","57350","Central / Mountain","44.398874","-98.180113"
"(605) 433-","Landline","Pennington","Scenic","SD","South Dakota","57780","Central / Mountain","43.788416","-102.346797"
"(605) 925-","Landline","Hutchinson","Freeman","SD","South Dakota","57029","Central / Mountain","43.321384","-97.547869"
"(605) 860-","Cell Number","Kingsbury","De Smet","SD","South Dakota","57231","Central / Mountain","44.369482","-97.542049"
"(605) 236-","Landline","Davison","Mount Vernon","SD","South Dakota","57363","Central / Mountain","43.674994","-98.164483"
"(605) 956-","Unknown","Codington","Watertown","SD","South Dakota","57201","Central / Mountain","44.955643","-97.177954"
"(605) 894-","Landline","Brule","Pukwana","SD","South Dakota","57370","Central / Mountain","43.776542","-99.186931"
"(605) 889-","Landline","Campbell","Pollock","SD","South Dakota","57648","Central / Mountain","45.844431","-100.283026"
"(605) 733-","Landline","Dewey","Ridgeview","SD","South Dakota","57652","Central / Mountain","45.098685","-100.879214"
"(605) 627-","Landline","Brookings","Volga","SD","South Dakota","57071","Central / Mountain","44.369694","-96.790512"
"(605) 347-","Landline","Meade","Sturgis","SD","South Dakota","57785","Central / Mountain","44.369172","-103.361658"
"(605) 672-","Landline","Clay","Vermillion","SD","South Dakota","57069","Central / Mountain","42.854124","-96.973318"
"(605) 642-","Landline","Lawrence","Spearfish","SD","South Dakota","57783","Central / Mountain","44.467137","-103.772331"
"(605) 481-","Cell Number","Charles Mix","Lake Andes","SD","South Dakota","57356","Central / Mountain","43.147572","-98.527479"
"(605) 314-","Unknown","Corson","Mc Laughlin","SD","South Dakota","57642","Central / Mountain","45.876336","-100.891469"
"(605) 735-","Landline","Marshall","Britton","SD","South Dakota","57430","Central / Mountain","45.761704","-97.72957"
"(605) 222-","Cell Number","Hughes","Pierre","SD","South Dakota","57501","Central / Mountain","44.334073","-100.094195"
"(605) 359-","Cell Number","Minnehaha","Sioux Falls","SD","South Dakota","57109","Central / Mountain","43.674582","-96.79134"
"(605) 786-","Landline","Meade","Black Hawk","SD","South Dakota","57718","Central / Mountain","44.183216","-103.326118"
"(605) 683-","Landline","Lyman","Vivian","SD","South Dakota","57576","Central / Mountain","43.85862","-99.824337"
"(605) 229-","Landline","Brown","Aberdeen","SD","South Dakota","57402","Central / Mountain","45.589567","-98.352014"
"(605) 448-","Landline","Marshall","Britton","SD","South Dakota","57430","Central / Mountain","45.761704","-97.72957"
"(605) 822-","Landline","Todd","Tuthill","SD","South Dakota","57574","Central / Mountain","43.193203","-101.66933"
"(605) 697-","Landline","Brookings","Brookings","SD","South Dakota","57006","Central / Mountain","44.355091","-96.762102"
"(605) 298-","Landline","Day","Andover","SD","South Dakota","57422","Central / Mountain","45.369855","-97.603949"
"(605) 598-","Landline","Faulk","Faulkton","SD","South Dakota","57438","Central / Mountain","45.085504","-99.195418"
"(605) 452-","Landline","Mellette","Wood","SD","South Dakota","57585","Central / Mountain","43.623523","-100.721218"
"(605) 338-","Landline","Minnehaha","Sioux Falls","SD","South Dakota","57109","Central / Mountain","43.674582","-96.79134"
"(605) 730-","Cell Number","Brule","Chamberlain","SD","South Dakota","57326","Central / Mountain","43.71725","-99.131736"
"(605) 857-","Cell Number","Yankton","Yankton","SD","South Dakota","57078","Central / Mountain","42.94396","-97.37689"
"(605) 852-","Landline","Hyde","Holabird","SD","South Dakota","57540","Central / Mountain","44.490558","-99.589344"
"(605) 340-","Landline","Lawrence","Deadwood","SD","South Dakota","57732","Central / Mountain","44.36485","-103.735731"
"(605) 891-","Cell Number","Fall River","Hot Springs","SD","South Dakota","57747","Central / Mountain","43.314186","-103.528353"
"(605) 562-","Unknown","Shannon","Wounded Knee","SD","South Dakota","57794","Central / Mountain","43.352617","-102.5411"
"(605) 854-","Landline","Kingsbury","De Smet","SD","South Dakota","57231","Central / Mountain","44.369482","-97.542049"
"(605) 577-","Landline","Mcpherson","Eureka","SD","South Dakota","57437","Central / Mountain","45.77074","-99.330778"
"(605) 396-","Landline","Brown","Columbia","SD","South Dakota","57433","Central / Mountain","45.537847","-98.339885"
"(605) 797-","Landline","Harding","Camp Crook","SD","South Dakota","57724","Central / Mountain","45.578941","-103.493668"
"(605) 335-","Landline","Minnehaha","Sioux Falls","SD","South Dakota","57109","Central / Mountain","43.674582","-96.79134"
"(605) 281-","Cell Number","Edmunds","Hosmer","SD","South Dakota","57448","Central / Mountain","45.552579","-99.461653"
"(605) 365-","Landline","Ziebach","Dupree","SD","South Dakota","57623","Central / Mountain","45.050456","-101.607171"
"(605) 456-","Landline","Butte","Newell","SD","South Dakota","57760","Central / Mountain","44.715217","-103.417574"
"(605) 880-","Cell Number","Codington","Watertown","SD","South Dakota","57201","Central / Mountain","44.955643","-97.177954"
"(605) 673-","Landline","Custer","Custer","SD","South Dakota","57730","Central / Mountain","43.657304","-103.425807"
"(605) 289-","Landline","Mcpherson","Long Lake","SD","South Dakota","57457","Central / Mountain","45.882332","-99.169825"
"(605) 529-","Landline","Minnehaha","Baltic","SD","South Dakota","57003","Central / Mountain","43.64514","-96.814589"
"(605) 779-","Landline","Douglas","Delmont","SD","South Dakota","57330","Central / Mountain","43.290614","-98.178372"
"(605) 586-","Landline","Lake","Nunda","SD","South Dakota","57050","Central / Mountain","44.021983","-97.129455"
"(605) 297-","Landline","Turner","Parker","SD","South Dakota","57053","Central / Mountain","43.399595","-97.134211"
"(605) 461-","Cell Number","Beadle","Huron","SD","South Dakota","57350","Central / Mountain","44.398874","-98.180113"
"(605) 451-","Unknown","Clay","Wakonda","SD","South Dakota","57073","Central / Mountain","42.996509","-97.058654"
"(605) 482-","Landline","Lake","Ramona","SD","South Dakota","57054","Central / Mountain","44.1186","-97.215191"
"(605) 473-","Landline","Lyman","Reliance","SD","South Dakota","57569","Central / Mountain","43.85862","-99.824337"
"(605) 469-","Cell Number","Charles Mix","Lake Andes","SD","South Dakota","57356","Central / Mountain","43.147572","-98.527479"
"(605) 580-","Cell Number","Lawrence","Lead","SD","South Dakota","57754","Central / Mountain","44.444505","-103.752683"
"(605) 284-","Landline","Mcpherson","Eureka","SD","South Dakota","57437","Central / Mountain","45.77074","-99.330778"
"(605) 408-","Cell Number","Lincoln","Harrisburg","SD","South Dakota","57032","Central / Mountain","43.425258","-96.659737"
"(605) 275-","Landline","Minnehaha","Sioux Falls","SD","South Dakota","57109","Central / Mountain","43.674582","-96.79134"
"(605) 549-","Unknown","Lawrence","Spearfish","SD","South Dakota","57783","Central / Mountain","44.467137","-103.772331"
"(605) 292-","Landline","Davison","Mitchell","SD","South Dakota","57301","Central / Mountain","43.69591","-98.086401"
"(605) 576-","Landline","Harding","Ludlow","SD","South Dakota","57755","Central / Mountain","45.578941","-103.493668"
"(605) 215-","Unknown","Minnehaha","Sioux Falls","SD","South Dakota","57109","Central / Mountain","43.674582","-96.79134"
"(605) 249-","Landline","Aurora","White Lake","SD","South Dakota","57383","Central / Mountain","43.714955","-98.644922"
"(605) 438-","Unknown","Grant","Milbank","SD","South Dakota","57252","Central / Mountain","45.171617","-96.629203"
"(605) 214-","Cell Number","Lincoln","Harrisburg","SD","South Dakota","57032","Central / Mountain","43.425258","-96.659737"
"(605) 678-","Landline","Grant","Revillo","SD","South Dakota","57259","Central / Mountain","45.080517","-96.555664"
"(605) 850-","Cell Number","Walworth","Glenham","SD","South Dakota","57631","Central / Mountain","45.504288","-100.311701"
"(605) 932-","Landline","Roberts","Peever","SD","South Dakota","57257","Central / Mountain","45.542151","-96.951675"
"(605) 664-","Landline","Yankton","Yankton","SD","South Dakota","57078","Central / Mountain","42.94396","-97.37689"
"(605) 557-","Landline","Tripp","Winner","SD","South Dakota","57580","Central / Mountain","43.331763","-99.803286"
"(605) 593-","Landline","Pennington","Rapid City","SD","South Dakota","57709","Central / Mountain","44.076106","-103.317149"
"(605) 546-","Landline","Kingsbury","Iroquois","SD","South Dakota","57353","Central / Mountain","44.369593","-97.652194"
"(605) 671-","Landline","Clay","Vermillion","SD","South Dakota","57069","Central / Mountain","42.854124","-96.973318"
"(605) 676-","Landline","Grant","Stockholm","SD","South Dakota","57264","Central / Mountain","45.106694","-96.802259"
"(605) 357-","Landline","Minnehaha","Sioux Falls","SD","South Dakota","57109","Central / Mountain","43.674582","-96.79134"
"(605) 257-","Landline","Butte","Nisland","SD","South Dakota","57762","Central / Mountain","44.673533","-103.556354"
"(605) 595-","Landline","Minnehaha","Sioux Falls","SD","South Dakota","57109","Central / Mountain","43.674582","-96.79134"
"(605) 844-","Unknown","Clark","Clark","SD","South Dakota","57225","Central / Mountain","44.891983","-97.832972"
"(605) 945-","Landline","Hughes","Pierre","SD","South Dakota","57501","Central / Mountain","44.334073","-100.094195"
"(605) 936-","Unknown","Turner","Viborg","SD","South Dakota","57070","Central / Mountain","43.188383","-97.180373"
"(605) 748-","Landline","Meade","Mud Butte","SD","South Dakota","57758","Central / Mountain","44.589806","-102.787188"
"(605) 467-","Cell Number","Grant","Milbank","SD","South Dakota","57252","Central / Mountain","45.171617","-96.629203"
"(605) 940-","Cell Number","Minnehaha","Sioux Falls","SD","South Dakota","57109","Central / Mountain","43.674582","-96.79134"
"(605) 478-","Cell Number","Hyde","Highmore","SD","South Dakota","57345","Central / Mountain","44.574651","-99.486417"
"(605) 251-","Cell Number","Minnehaha","Sioux Falls","SD","South Dakota","57109","Central / Mountain","43.674582","-96.79134"
"(605) 582-","Landline","Minnehaha","Brandon","SD","South Dakota","57005","Central / Mountain","43.603401","-96.793708"
"(605) 207-","Cell Number","Charles Mix","Platte","SD","South Dakota","57369","Central / Mountain","43.2916","-98.767186"
"(605) 590-","Unknown","Day","Webster","SD","South Dakota","57274","Central / Mountain","45.31506","-97.525395"
"(605) 866-","Landline","Harding","Reva","SD","South Dakota","57651","Central / Mountain","45.578941","-103.493668"
"(605) 890-","Cell Number","Fall River","Hot Springs","SD","South Dakota","57747","Central / Mountain","43.314186","-103.528353"
"(605) 505-","Cell Number","Hutchinson","Parkston","SD","South Dakota","57366","Central / Mountain","43.383849","-97.915618"
"(605) 719-","Landline","Pennington","Rapid City","SD","South Dakota","57709","Central / Mountain","44.076106","-103.317149"
"(605) 329-","Landline","Brown","Frederick","SD","South Dakota","57441","Central / Mountain","45.693116","-98.368918"
"(605) 245-","Landline","Lyman","Lower Brule","SD","South Dakota","57548","Central / Mountain","43.85862","-99.824337"
"(605) 828-","Cell Number","Todd","Mission","SD","South Dakota","57555","Central / Mountain","43.304572","-100.662079"
"(605) 738-","Landline","Marshall","Veblen","SD","South Dakota","57270","Central / Mountain","45.849458","-97.376617"
"(605) 818-","Unknown","Codington","Watertown","SD","South Dakota","57201","Central / Mountain","44.955643","-97.177954"
"(605) 232-","Landline","Union","North Sioux City","SD","South Dakota","57049","Central / Mountain","42.587483","-96.585026"
"(605) 413-","Landline","Minnehaha","Sioux Falls","SD","South Dakota","57109","Central / Mountain","43.674582","-96.79134"
"(605) 325-","Landline","Day","Bristol","SD","South Dakota","57219","Central / Mountain","45.319218","-97.637812"
"(605) 296-","Landline","Mccook","Canistota","SD","South Dakota","57012","Central / Mountain","43.572888","-97.248418"
"(605) 924-","Unknown","Grant","Milbank","SD","South Dakota","57252","Central / Mountain","45.171617","-96.629203"
"(605) 873-","Landline","Hamlin","Estelline","SD","South Dakota","57234","Central / Mountain","44.673762","-97.188324"
"(605) 464-","Cell Number","Bon Homme","Tyndall","SD","South Dakota","57066","Central / Mountain","42.98853","-97.873263"
"(605) 254-","Landline","Minnehaha","Sioux Falls","SD","South Dakota","57109","Central / Mountain","43.674582","-96.79134"
"(605) 240-","Cell Number","Mccook","Salem","SD","South Dakota","57058","Central / Mountain","43.639298","-97.343417"
"(605) 745-","Landline","Fall River","Hot Springs","SD","South Dakota","57747","Central / Mountain","43.314186","-103.528353"
"(605) 547-","Landline","Union","Alcester","SD","South Dakota","57001","Central / Mountain","42.931698","-96.624298"
"(605) 831-","Cell Number","Gregory","Gregory","SD","South Dakota","57533","Central / Mountain","43.213649","-99.36219"
"(605) 895-","Landline","Lyman","Presho","SD","South Dakota","57568","Central / Mountain","43.908372","-100.046855"
"(605) 238-","Landline","Turner","Viborg","SD","South Dakota","57070","Central / Mountain","43.188383","-97.180373"
"(605) 425-","Landline","Mccook","Salem","SD","South Dakota","57058","Central / Mountain","43.639298","-97.343417"
"(605) 684-","Landline","Moody","Colman","SD","South Dakota","57017","Central / Mountain","43.984778","-96.814237"
"(605) 490-","Cell Number","Meade","Sturgis","SD","South Dakota","57785","Central / Mountain","44.369172","-103.361658"
"(605) 458-","Landline","Beadle","Wessington","SD","South Dakota","57381","Central / Mountain","44.415437","-98.642453"
"(605) 346-","Landline","Brown","Frederick","SD","South Dakota","57441","Central / Mountain","45.693116","-98.368918"
"(605) 535-","Landline","Fall River","Oelrichs","SD","South Dakota","57763","Central / Mountain","43.180956","-103.243935"
"(605) 594-","Landline","Minnehaha","Garretson","SD","South Dakota","57030","Central / Mountain","43.747639","-96.596379"
"(605) 380-","Cell Number","Brown","Aberdeen","SD","South Dakota","57402","Central / Mountain","45.589567","-98.352014"
"(605) 830-","Cell Number","Gregory","Gregory","SD","South Dakota","57533","Central / Mountain","43.213649","-99.36219"
"(605) 331-","Landline","Minnehaha","Sioux Falls","SD","South Dakota","57109","Central / Mountain","43.674582","-96.79134"
"(605) 753-","Landline","Codington","Watertown","SD","South Dakota","57201","Central / Mountain","44.955643","-97.177954"
"(605) 687-","Landline","Mcpherson","Eureka","SD","South Dakota","57437","Central / Mountain","45.77074","-99.330778"
"(605) 423-","Landline","Meade","Sturgis","SD","South Dakota","57785","Central / Mountain","44.369172","-103.361658"
"(605) 499-","Cell Number","Meade","Sturgis","SD","South Dakota","57785","Central / Mountain","44.369172","-103.361658"
"(605) 877-","Landline","Pennington","Rapid City","SD","South Dakota","57709","Central / Mountain","44.076106","-103.317149"
"(605) 326-","Landline","Turner","Viborg","SD","South Dakota","57070","Central / Mountain","43.188383","-97.180373"
"(605) 537-","Landline","Roberts","Rosholt","SD","South Dakota","57260","Central / Mountain","45.616422","-96.849416"
"(605) 721-","Landline","Pennington","Rapid City","SD","South Dakota","57709","Central / Mountain","44.076106","-103.317149"
"(605) 581-","Unknown","Clay","Vermillion","SD","South Dakota","57069","Central / Mountain","42.854124","-96.973318"
"(605) 330-","Landline","Minnehaha","Sioux Falls","SD","South Dakota","57109","Central / Mountain","43.674582","-96.79134"
"(605) 435-","Landline","Day","Waubay","SD","South Dakota","57273","Central / Mountain","45.332568","-97.307239"
"(605) 205-","Cell Number","Union","Elk Point","SD","South Dakota","57025","Central / Mountain","42.76399","-96.676742"
"(605) 926-","Unknown","Walworth","Mobridge","SD","South Dakota","57601","Central / Mountain","45.550822","-100.330283"
"(605) 334-","Landline","Minnehaha","Sioux Falls","SD","South Dakota","57109","Central / Mountain","43.674582","-96.79134"
"(605) 653-","Cell Number","Yankton","Yankton","SD","South Dakota","57078","Central / Mountain","42.94396","-97.37689"
"(605) 951-","Unknown","Minnehaha","Sioux Falls","SD","South Dakota","57109","Central / Mountain","43.674582","-96.79134"
"(605) 655-","Landline","Yankton","Yankton","SD","South Dakota","57078","Central / Mountain","42.94396","-97.37689"
"(605) 379-","Landline","Mcpherson","Long Lake","SD","South Dakota","57457","Central / Mountain","45.882332","-99.169825"
"(605) 948-","Landline","Walworth","Java","SD","South Dakota","57452","Central / Mountain","45.449196","-99.821987"
"(605) 715-","Unknown","Brown","Aberdeen","SD","South Dakota","57402","Central / Mountain","45.589567","-98.352014"
"(605) 622-","Landline","Brown","Aberdeen","SD","South Dakota","57402","Central / Mountain","45.589567","-98.352014"
"(605) 230-","Cell Number","Hughes","Pierre","SD","South Dakota","57501","Central / Mountain","44.334073","-100.094195"
"(605) 729-","Landline","Mccook","Bridgewater","SD","South Dakota","57319","Central / Mountain","43.550264","-97.469058"
"(605) 825-","Landline","Mccook","Bridgewater","SD","South Dakota","57319","Central / Mountain","43.550264","-97.469058"
"(605) 348-","Landline","Pennington","Rapid City","SD","South Dakota","57709","Central / Mountain","44.076106","-103.317149"
"(605) 955-","Landline","Campbell","Mound City","SD","South Dakota","57646","Central / Mountain","45.715461","-100.048071"
"(605) 538-","Landline","Ziebach","Dupree","SD","South Dakota","57623","Central / Mountain","45.050456","-101.607171"
"(605) 279-","Landline","Pennington","Wall","SD","South Dakota","57790","Central / Mountain","44.013772","-102.238397"
"(605) 354-","Cell Number","Beadle","Huron","SD","South Dakota","57350","Central / Mountain","44.398874","-98.180113"
"(605) 973-","Landline","Sully","Onida","SD","South Dakota","57564","Central / Mountain","44.722873","-99.979546"
"(605) 488-","Cell Number","Jackson","Kadoka","SD","South Dakota","57543","Central / Mountain","43.824178","-101.389524"
"(605) 351-","Cell Number","Minnehaha","Sioux Falls","SD","South Dakota","57109","Central / Mountain","43.674582","-96.79134"
"(605) 484-","Cell Number","Pennington","Rapid City","SD","South Dakota","57709","Central / Mountain","44.076106","-103.317149"
"(605) 509-","Landline","Minnehaha","Sioux Falls","SD","South Dakota","57109","Central / Mountain","43.674582","-96.79134"
"(605) 662-","Landline","Fall River","Edgemont","SD","South Dakota","57735","Central / Mountain","43.294549","-103.830431"
"(605) 613-","Unknown","Charles Mix","Platte","SD","South Dakota","57369","Central / Mountain","43.2916","-98.767186"
"(605) 589-","Landline","Bon Homme","Tyndall","SD","South Dakota","57066","Central / Mountain","42.98853","-97.873263"
"(605) 429-","Landline","Todd","Saint Francis","SD","South Dakota","57572","Central / Mountain","43.194063","-100.713373"
"(605) 670-","Cell Number","Clay","Vermillion","SD","South Dakota","57069","Central / Mountain","42.854124","-96.973318"
"(605) 647-","Landline","Lincoln","Lennox","SD","South Dakota","57039","Central / Mountain","43.298098","-96.856021"
"(605) 530-","Cell Number","Moody","Colman","SD","South Dakota","57017","Central / Mountain","43.984778","-96.814237"
"(605) 563-","Landline","Turner","Centerville","SD","South Dakota","57014","Central / Mountain","43.291296","-97.042271"
"(605) 665-","Landline","Yankton","Yankton","SD","South Dakota","57078","Central / Mountain","42.94396","-97.37689"
"(605) 377-","Landline","Brown","Aberdeen","SD","South Dakota","57402","Central / Mountain","45.589567","-98.352014"
"(605) 283-","Landline","Edmunds","Hosmer","SD","South Dakota","57448","Central / Mountain","45.552579","-99.461653"
"(605) 652-","Landline","Roberts","Claire City","SD","South Dakota","57224","Central / Mountain","45.616422","-96.849416"
"(605) 656-","Cell Number","Davison","Mitchell","SD","South Dakota","57301","Central / Mountain","43.69591","-98.086401"
"(605) 628-","Landline","Clark","Willow Lake","SD","South Dakota","57278","Central / Mountain","44.659815","-97.573152"
"(605) 280-","Cell Number","Hughes","Pierre","SD","South Dakota","57501","Central / Mountain","44.334073","-100.094195"
"(605) 523-","Landline","Miner","Canova","SD","South Dakota","57321","Central / Mountain","43.892123","-97.540053"
"(605) 928-","Landline","Hutchinson","Parkston","SD","South Dakota","57366","Central / Mountain","43.383849","-97.915618"
"(605) 430-","Cell Number","Pennington","Rapid City","SD","South Dakota","57709","Central / Mountain","44.076106","-103.317149"
"(605) 867-","Landline","Shannon","Pine Ridge","SD","South Dakota","57770","Central / Mountain","43.024319","-102.535178"
"(605) 660-","Cell Number","Yankton","Yankton","SD","South Dakota","57078","Central / Mountain","42.94396","-97.37689"
"(605) 431-","Cell Number","Pennington","Rapid City","SD","South Dakota","57709","Central / Mountain","44.076106","-103.317149"
"(605) 447-","Landline","Faulk","Onaka","SD","South Dakota","57466","Central / Mountain","45.180068","-99.46426"
"(605) 462-","Landline","Jackson","Long Valley","SD","South Dakota","57547","Central / Mountain","43.691966","-101.601609"
"(605) 385-","Landline","Pennington","Box Elder","SD","South Dakota","57719","Central / Mountain","44.03667","-103.204293"
"(605) 533-","Landline","Roberts","Claire City","SD","South Dakota","57224","Central / Mountain","45.616422","-96.849416"
"(605) 382-","Landline","Spink","Conde","SD","South Dakota","57434","Central / Mountain","45.139317","-98.15339"
"(605) 637-","Landline","Roberts","New Effington","SD","South Dakota","57255","Central / Mountain","45.616422","-96.849416"
"(605) 939-","Landline","Pennington","Rapid City","SD","South Dakota","57709","Central / Mountain","44.076106","-103.317149"
"(605) 300-","Cell Number","Union","Beresford","SD","South Dakota","57004","Central / Mountain","42.842947","-96.681135"
"(605) 935-","Landline","Hutchinson","Tripp","SD","South Dakota","57376","Central / Mountain","43.24846","-97.923502"
"(605) 564-","Landline","Perkins","Lodgepole","SD","South Dakota","57640","Central / Mountain","45.703777","-102.663011"
"(605) 556-","Landline","Lake","Madison","SD","South Dakota","57042","Central / Mountain","44.054223","-97.091339"
"(605) 399-","Landline","Pennington","Rapid City","SD","South Dakota","57709","Central / Mountain","44.076106","-103.317149"
"(605) 929-","Cell Number","Minnehaha","Sioux Falls","SD","South Dakota","57109","Central / Mountain","43.674582","-96.79134"
"(605) 943-","Landline","Hand","Ree Heights","SD","South Dakota","57371","Central / Mountain","44.422833","-99.218556"
"(605) 367-","Landline","Minnehaha","Sioux Falls","SD","South Dakota","57109","Central / Mountain","43.674582","-96.79134"
"(605) 237-","Cell Number","Codington","Watertown","SD","South Dakota","57201","Central / Mountain","44.955643","-97.177954"
"(605) 321-","Cell Number","Minnehaha","Sioux Falls","SD","South Dakota","57109","Central / Mountain","43.674582","-96.79134"
"(605) 465-","Unknown","Minnehaha","Sioux Falls","SD","South Dakota","57109","Central / Mountain","43.674582","-96.79134"
"(605) 432-","Landline","Grant","Milbank","SD","South Dakota","57252","Central / Mountain","45.171617","-96.629203"
"(605) 722-","Landline","Lawrence","Spearfish","SD","South Dakota","57783","Central / Mountain","44.467137","-103.772331"
"(605) 792-","Cell Number","Roberts","Hayti","SD","South Dakota","57241","Central / Mountain","44.657338","-97.20497"
"(605) 243-","Landline","Aurora","Stickney","SD","South Dakota","57375","Central / Mountain","43.571628","-98.498361"
"(605) 515-","Cell Number","Pennington","Wall","SD","South Dakota","57790","Central / Mountain","44.013772","-102.238397"
"(605) 626-","Landline","Brown","Aberdeen","SD","South Dakota","57402","Central / Mountain","45.589567","-98.352014"
"(605) 272-","Landline","Deuel","Clear Lake","SD","South Dakota","57226","Central / Mountain","44.761249","-96.690651"
"(605) 995-","Landline","Davison","Mitchell","SD","South Dakota","57301","Central / Mountain","43.69591","-98.086401"
"(605) 495-","Landline","Sanborn","Artesian","SD","South Dakota","57314","Central / Mountain","44.020961","-98.01144"
"(605) 893-","Unknown","Hand","Miller","SD","South Dakota","57362","Central / Mountain","44.480979","-99.062766"
"(605) 755-","Unknown","Pennington","Rapid City","SD","South Dakota","57709","Central / Mountain","44.076106","-103.317149"
"(605) 871-","Cell Number","Hyde","Holabird","SD","South Dakota","57540","Central / Mountain","44.490558","-99.589344"
"(605) 223-","Landline","Hughes","Pierre","SD","South Dakota","57501","Central / Mountain","44.334073","-100.094195"
"(605) 571-","Unknown","Lawrence","Deadwood","SD","South Dakota","57732","Central / Mountain","44.36485","-103.735731"
"(605) 376-","Cell Number","Minnehaha","Sioux Falls","SD","South Dakota","57109","Central / Mountain","43.674582","-96.79134"
"(605) 466-","Landline","Dewey","Isabel","SD","South Dakota","57633","Central / Mountain","45.396212","-101.438525"
"(605) 761-","Landline","Union","Elk Point","SD","South Dakota","57025","Central / Mountain","42.76399","-96.676742"
"(605) 769-","Cell Number","Potter","Gettysburg","SD","South Dakota","57442","Central / Mountain","45.033588","-100.035273"
"(605) 728-","Cell Number","Minnehaha","Sioux Falls","SD","South Dakota","57109","Central / Mountain","43.674582","-96.79134"
"(605) 356-","Landline","Union","Elk Point","SD","South Dakota","57025","Central / Mountain","42.76399","-96.676742"
"(605) 322-","Landline","Minnehaha","Sioux Falls","SD","South Dakota","57109","Central / Mountain","43.674582","-96.79134"
"(605) 698-","Landline","Roberts","Sisseton","SD","South Dakota","57262","Central / Mountain","45.541443","-96.970202"
"(605) 475-","Landline","Spink","Redfield","SD","South Dakota","57469","Central / Mountain","44.954101","-98.406878"
"(605) 856-","Landline","Todd","Mission","SD","South Dakota","57555","Central / Mountain","43.304572","-100.662079"
"(605) 771-","Cell Number","Potter","Gettysburg","SD","South Dakota","57442","Central / Mountain","45.033588","-100.035273"
"(605) 470-","Unknown","Marshall","Britton","SD","South Dakota","57430","Central / Mountain","45.761704","-97.72957"
"(605) 848-","Cell Number","Walworth","Glenham","SD","South Dakota","57631","Central / Mountain","45.504288","-100.311701"
"(605) 213-","Landline","Lincoln","Harrisburg","SD","South Dakota","57032","Central / Mountain","43.425258","-96.659737"
"(605) 520-","Cell Number","Codington","Watertown","SD","South Dakota","57201","Central / Mountain","44.955643","-97.177954"
"(605) 270-","Cell Number","Lake","Madison","SD","South Dakota","57042","Central / Mountain","44.054223","-97.091339"
"(605) 441-","Cell Number","Bennett","Martin","SD","South Dakota","57551","Central / Mountain","43.172158","-101.734068"
"(605) 868-","Cell Number","Codington","Watertown","SD","South Dakota","57201","Central / Mountain","44.955643","-97.177954"
"(605) 310-","Cell Number","Minnehaha","Sioux Falls","SD","South Dakota","57109","Central / Mountain","43.674582","-96.79134"
"(605) 498-","Landline","Lincoln","Harrisburg","SD","South Dakota","57032","Central / Mountain","43.425258","-96.659737"
"(605) 261-","Cell Number","Minnehaha","Sioux Falls","SD","South Dakota","57109","Central / Mountain","43.674582","-96.79134"
"(605) 897-","Landline","Spink","Turton","SD","South Dakota","57477","Central / Mountain","45.045466","-98.182922"
"(605) 985-","Landline","Meade","Enning","SD","South Dakota","57737","Central / Mountain","44.589806","-102.787188"
"(605) 842-","Landline","Tripp","Winner","SD","South Dakota","57580","Central / Mountain","43.331763","-99.803286"
"(605) 620-","Unknown","Kingsbury","Lake Preston","SD","South Dakota","57249","Central / Mountain","44.369159","-97.382824"
"(605) 845-","Landline","Walworth","Mobridge","SD","South Dakota","57601","Central / Mountain","45.550822","-100.330283"
"(605) 468-","Cell Number","Spink","Redfield","SD","South Dakota","57469","Central / Mountain","44.954101","-98.406878"
"(605) 393-","Landline","Pennington","Rapid City","SD","South Dakota","57709","Central / Mountain","44.076106","-103.317149"
"(605) 993-","Landline","Pennington","Wall","SD","South Dakota","57790","Central / Mountain","44.013772","-102.238397"
"(605) 694-","Landline","Roberts","Peever","SD","South Dakota","57257","Central / Mountain","45.542151","-96.951675"
"(605) 444-","Unknown","Minnehaha","Sioux Falls","SD","South Dakota","57109","Central / Mountain","43.674582","-96.79134"
"(605) 489-","Landline","Lake","Chester","SD","South Dakota","57016","Central / Mountain","43.895505","-96.928024"
