"Prefix","Usage","County","City","ShortState","LongState","Zip","Timezone","Latitude","Longitude"
"(801) 394-","Landline","Weber","Ogden","UT","Utah","84407","Mountain","41.238547","-111.965867"
"(801) 557-","Cell Number","Salt Lake","S Salt Lake","UT","Utah","84165","Mountain","40.668068","-111.908297"
"(801) 949-","Cell Number","Salt Lake","S Salt Lake","UT","Utah","84165","Mountain","40.668068","-111.908297"
"(801) 525-","Landline","Davis","Clearfield","UT","Utah","84016","Mountain","40.892995","-111.888121"
"(801) 619-","Landline","Salt Lake","Draper","UT","Utah","84020","Mountain","40.506148","-111.869671"
"(435) 714-","Cell Number","Summit","Park City","UT","Utah","84098","Mountain","40.702896","-111.548098"
"(801) 933-","Landline","Salt Lake","S Salt Lake","UT","Utah","84165","Mountain","40.668068","-111.908297"
"(801) 941-","Cell Number","Weber","Ogden","UT","Utah","84407","Mountain","41.238547","-111.965867"
"(801) 459-","Landline","Weber","Ogden","UT","Utah","84407","Mountain","41.238547","-111.965867"
"(801) 370-","Landline","Utah","Provo","UT","Utah","84601","Mountain","40.235053","-111.695558"
"(801) 567-","Landline","Salt Lake","Midvale","UT","Utah","84047","Mountain","40.608972","-111.885868"
"(801) 872-","Unknown","Davis","Bountiful","UT","Utah","84011","Mountain","40.963547","-112.115984"
"(435) 754-","Landline","Cache","Logan","UT","Utah","84321","Mountain","41.76695","-111.885084"
"(435) 298-","Unknown","Carbon","Price","UT","Utah","84501","Mountain","39.567883","-110.650901"
"(801) 265-","Landline","Salt Lake","Murray","UT","Utah","84123","Mountain","40.65963","-111.919269"
"(801) 718-","Cell Number","Salt Lake","S Salt Lake","UT","Utah","84165","Mountain","40.668068","-111.908297"
"(435) 456-","Landline","Wayne","Torrey","UT","Utah","84775","Mountain","38.296853","-111.413774"
"(801) 532-","Landline","Salt Lake","S Salt Lake","UT","Utah","84165","Mountain","40.668068","-111.908297"
"(801) 762-","Landline","Utah","Provo","UT","Utah","84601","Mountain","40.235053","-111.695558"
"(801) 548-","Cell Number","Salt Lake","S Salt Lake","UT","Utah","84165","Mountain","40.668068","-111.908297"
"(801) 531-","Landline","Salt Lake","S Salt Lake","UT","Utah","84165","Mountain","40.668068","-111.908297"
"(801) 904-","Landline","Salt Lake","Murray","UT","Utah","84123","Mountain","40.65963","-111.919269"
"(801) 501-","Landline","Salt Lake","Draper","UT","Utah","84020","Mountain","40.506148","-111.869671"
"(435) 787-","Landline","Cache","Logan","UT","Utah","84321","Mountain","41.76695","-111.885084"
"(801) 515-","Landline","Utah","Springville","UT","Utah","84663","Mountain","40.180718","-111.562586"
"(801) 340-","Landline","Weber","Ogden","UT","Utah","84407","Mountain","41.238547","-111.965867"
"(801) 254-","Landline","Salt Lake","Riverton","UT","Utah","84095","Mountain","40.554098","-111.953891"
"(435) 625-","Landline","Beaver","Beaver","UT","Utah","84713","Mountain","38.315334","-112.798228"
"(801) 622-","Landline","Weber","Ogden","UT","Utah","84407","Mountain","41.238547","-111.965867"
"(801) 352-","Landline","Salt Lake","Midvale","UT","Utah","84047","Mountain","40.608972","-111.885868"
"(801) 495-","Landline","Salt Lake","Draper","UT","Utah","84020","Mountain","40.506148","-111.869671"
"(801) 447-","Landline","Davis","Farmington","UT","Utah","84025","Mountain","40.969069","-111.907344"
"(435) 865-","Landline","Iron","Cedar City","UT","Utah","84721","Mountain","37.656843","-113.3695"
"(801) 920-","Cell Number","Weber","Ogden","UT","Utah","84407","Mountain","41.238547","-111.965867"
"(801) 333-","Landline","Salt Lake","S Salt Lake","UT","Utah","84165","Mountain","40.668068","-111.908297"
"(801) 615-","Unknown","Utah","Provo","UT","Utah","84601","Mountain","40.235053","-111.695558"
"(801) 741-","Landline","Salt Lake","S Salt Lake","UT","Utah","84165","Mountain","40.668068","-111.908297"
"(435) 704-","Cell Number","Iron","Cedar City","UT","Utah","84721","Mountain","37.656843","-113.3695"
"(801) 338-","Cell Number","Salt Lake","Murray","UT","Utah","84123","Mountain","40.65963","-111.919269"
"(801) 478-","Landline","Salt Lake","S Salt Lake","UT","Utah","84165","Mountain","40.668068","-111.908297"
"(801) 903-","Unknown","Salt Lake","S Salt Lake","UT","Utah","84165","Mountain","40.668068","-111.908297"
"(801) 339-","Cell Number","Salt Lake","Murray","UT","Utah","84123","Mountain","40.65963","-111.919269"
"(801) 220-","Landline","Salt Lake","S Salt Lake","UT","Utah","84165","Mountain","40.668068","-111.908297"
"(801) 960-","Unknown","Utah","Provo","UT","Utah","84601","Mountain","40.235053","-111.695558"
"(435) 571-","Landline","Summit","Park City","UT","Utah","84098","Mountain","40.702896","-111.548098"
"(435) 826-","Landline","Garfield","Antimony","UT","Utah","84712","Mountain","37.729535","-110.543374"
"(801) 921-","Cell Number","Utah","Provo","UT","Utah","84601","Mountain","40.235053","-111.695558"
"(801) 966-","Landline","Salt Lake","Kearns","UT","Utah","84118","Mountain","40.650407","-112.005421"
"(801) 363-","Landline","Salt Lake","S Salt Lake","UT","Utah","84165","Mountain","40.668068","-111.908297"
"(435) 856-","Landline","Juab","Nephi","UT","Utah","84648","Mountain","39.757861","-111.841787"
"(801) 392-","Landline","Weber","Ogden","UT","Utah","84407","Mountain","41.238547","-111.965867"
"(801) 313-","Landline","Salt Lake","Murray","UT","Utah","84123","Mountain","40.65963","-111.919269"
"(435) 587-","Landline","San Juan","Monticello","UT","Utah","84535","Mountain","38.099745","-109.259108"
"(801) 343-","Landline","Utah","Provo","UT","Utah","84601","Mountain","40.235053","-111.695558"
"(801) 673-","Cell Number","Salt Lake","S Salt Lake","UT","Utah","84165","Mountain","40.668068","-111.908297"
"(435) 747-","Landline","Box Elder","Grouse Creek","UT","Utah","84313","Mountain","41.500586","-112.957875"
"(801) 879-","Cell Number","Salt Lake","S Salt Lake","UT","Utah","84165","Mountain","40.668068","-111.908297"
"(801) 713-","Landline","Salt Lake","Murray","UT","Utah","84123","Mountain","40.65963","-111.919269"
"(801) 319-","Cell Number","Utah","Provo","UT","Utah","84601","Mountain","40.235053","-111.695558"
"(801) 681-","Landline","Weber","Ogden","UT","Utah","84407","Mountain","41.238547","-111.965867"
"(801) 969-","Landline","Salt Lake","Kearns","UT","Utah","84118","Mountain","40.650407","-112.005421"
"(801) 848-","Landline","Salt Lake","Holladay","UT","Utah","84121","Mountain","40.622557","-111.777749"
"(801) 776-","Landline","Davis","Clearfield","UT","Utah","84016","Mountain","40.892995","-111.888121"
"(801) 873-","Landline","Utah","Mapleton","UT","Utah","84664","Mountain","40.125168","-111.580197"
"(801) 203-","Landline","Salt Lake","S Salt Lake","UT","Utah","84165","Mountain","40.668068","-111.908297"
"(801) 755-","Cell Number","Salt Lake","S Salt Lake","UT","Utah","84165","Mountain","40.668068","-111.908297"
"(801) 368-","Cell Number","Utah","Provo","UT","Utah","84601","Mountain","40.235053","-111.695558"
"(801) 287-","Landline","Salt Lake","Murray","UT","Utah","84123","Mountain","40.65963","-111.919269"
"(801) 841-","Landline","Utah","Provo","UT","Utah","84601","Mountain","40.235053","-111.695558"
"(801) 299-","Landline","Davis","Bountiful","UT","Utah","84011","Mountain","40.963547","-112.115984"
"(801) 693-","Landline","Davis","Bountiful","UT","Utah","84011","Mountain","40.963547","-112.115984"
"(435) 708-","Unknown","Iron","Cedar City","UT","Utah","84721","Mountain","37.656843","-113.3695"
"(801) 874-","Unknown","Utah","Provo","UT","Utah","84601","Mountain","40.235053","-111.695558"
"(801) 912-","Landline","Salt Lake","S Salt Lake","UT","Utah","84165","Mountain","40.668068","-111.908297"
"(435) 795-","Landline","Millard","Fillmore","UT","Utah","84631","Mountain","39.055572","-112.467412"
"(801) 500-","Unknown","Utah","Provo","UT","Utah","84601","Mountain","40.235053","-111.695558"
"(435) 637-","Landline","Carbon","Price","UT","Utah","84501","Mountain","39.567883","-110.650901"
"(801) 607-","Landline","Utah","Provo","UT","Utah","84601","Mountain","40.235053","-111.695558"
"(801) 508-","Landline","Salt Lake","Magna","UT","Utah","84044","Mountain","40.699401","-112.088875"
"(435) 647-","Landline","Summit","Park City","UT","Utah","84098","Mountain","40.702896","-111.548098"
"(801) 825-","Landline","Davis","Clearfield","UT","Utah","84016","Mountain","40.892995","-111.888121"
"(801) 649-","Landline","Salt Lake","S Salt Lake","UT","Utah","84165","Mountain","40.668068","-111.908297"
"(801) 285-","Unknown","Salt Lake","Midvale","UT","Utah","84047","Mountain","40.608972","-111.885868"
"(435) 263-","Unknown","Iron","Cedar City","UT","Utah","84721","Mountain","37.656843","-113.3695"
"(435) 206-","Cell Number","Cache","Logan","UT","Utah","84321","Mountain","41.76695","-111.885084"
"(801) 318-","Cell Number","Utah","Provo","UT","Utah","84601","Mountain","40.235053","-111.695558"
"(801) 505-","Unknown","Salt Lake","S Salt Lake","UT","Utah","84165","Mountain","40.668068","-111.908297"
"(801) 362-","Cell Number","Utah","Provo","UT","Utah","84601","Mountain","40.235053","-111.695558"
"(801) 576-","Landline","Salt Lake","Draper","UT","Utah","84020","Mountain","40.506148","-111.869671"
"(801) 708-","Unknown","Salt Lake","S Salt Lake","UT","Utah","84165","Mountain","40.668068","-111.908297"
"(801) 420-","Cell Number","Utah","Provo","UT","Utah","84601","Mountain","40.235053","-111.695558"
"(801) 773-","Landline","Davis","Clearfield","UT","Utah","84016","Mountain","40.892995","-111.888121"
"(801) 409-","Landline","Weber","Ogden","UT","Utah","84407","Mountain","41.238547","-111.965867"
"(801) 235-","Landline","Utah","Provo","UT","Utah","84601","Mountain","40.235053","-111.695558"
"(435) 653-","Landline","Emery","Elmo","UT","Utah","84521","Mountain","39.403255","-110.810027"
"(435) 500-","Cell Number","Rich","Randolph","UT","Utah","84064","Mountain","41.690895","-111.184512"
"(801) 454-","Landline","Salt Lake","Midvale","UT","Utah","84047","Mountain","40.608972","-111.885868"
"(801) 373-","Landline","Utah","Provo","UT","Utah","84601","Mountain","40.235053","-111.695558"
"(801) 563-","Landline","Salt Lake","Midvale","UT","Utah","84047","Mountain","40.608972","-111.885868"
"(435) 940-","Landline","Summit","Park City","UT","Utah","84098","Mountain","40.702896","-111.548098"
"(435) 610-","Cell Number","Juab","Nephi","UT","Utah","84648","Mountain","39.757861","-111.841787"
"(435) 562-","Landline","Sevier","Salina","UT","Utah","84654","Mountain","38.921403","-111.908156"
"(435) 820-","Cell Number","Carbon","Price","UT","Utah","84501","Mountain","39.567883","-110.650901"
"(435) 436-","Landline","Sanpete","Mount Pleasant","UT","Utah","84647","Mountain","39.348588","-111.605642"
"(435) 387-","Landline","Beaver","Milford","UT","Utah","84751","Mountain","38.305873","-113.250981"
"(801) 869-","Landline","Salt Lake","S Salt Lake","UT","Utah","84165","Mountain","40.668068","-111.908297"
"(435) 778-","Cell Number","Daggett","Manila","UT","Utah","84046","Mountain","40.990039","-109.704889"
"(801) 684-","Landline","Salt Lake","Kearns","UT","Utah","84118","Mountain","40.650407","-112.005421"
"(435) 621-","Cell Number","Uintah","Vernal","UT","Utah","84079","Mountain","40.160179","-109.547839"
"(801) 491-","Landline","Utah","Springville","UT","Utah","84663","Mountain","40.180718","-111.562586"
"(801) 240-","Landline","Salt Lake","S Salt Lake","UT","Utah","84165","Mountain","40.668068","-111.908297"
"(801) 441-","Cell Number","Salt Lake","Midvale","UT","Utah","84047","Mountain","40.608972","-111.885868"
"(801) 586-","Landline","Davis","Clearfield","UT","Utah","84016","Mountain","40.892995","-111.888121"
"(435) 701-","Cell Number","Iron","Cedar City","UT","Utah","84721","Mountain","37.656843","-113.3695"
"(801) 702-","Landline","Salt Lake","S Salt Lake","UT","Utah","84165","Mountain","40.668068","-111.908297"
"(801) 371-","Landline","Utah","Provo","UT","Utah","84601","Mountain","40.235053","-111.695558"
"(801) 659-","Landline","Weber","Ogden","UT","Utah","84407","Mountain","41.238547","-111.965867"
"(435) 650-","Cell Number","Carbon","Price","UT","Utah","84501","Mountain","39.567883","-110.650901"
"(801) 253-","Landline","Salt Lake","Riverton","UT","Utah","84095","Mountain","40.554098","-111.953891"
"(435) 202-","Cell Number","Cache","Logan","UT","Utah","84321","Mountain","41.76695","-111.885084"
"(435) 419-","Cell Number","San Juan","Monticello","UT","Utah","84535","Mountain","38.099745","-109.259108"
"(801) 472-","Cell Number","Utah","Provo","UT","Utah","84601","Mountain","40.235053","-111.695558"
"(801) 668-","Cell Number","Weber","Ogden","UT","Utah","84407","Mountain","41.238547","-111.965867"
"(435) 548-","Landline","Duchesne","Tabiona","UT","Utah","84072","Mountain","40.359782","-110.721218"
"(801) 905-","Landline","Salt Lake","Murray","UT","Utah","84123","Mountain","40.65963","-111.919269"
"(801) 243-","Cell Number","Salt Lake","S Salt Lake","UT","Utah","84165","Mountain","40.668068","-111.908297"
"(801) 506-","Landline","Salt Lake","Murray","UT","Utah","84123","Mountain","40.65963","-111.919269"
"(801) 620-","Landline","Weber","Ogden","UT","Utah","84407","Mountain","41.238547","-111.965867"
"(801) 533-","Landline","Salt Lake","S Salt Lake","UT","Utah","84165","Mountain","40.668068","-111.908297"
"(435) 572-","Landline","Iron","Cedar City","UT","Utah","84721","Mountain","37.656843","-113.3695"
"(435) 231-","Cell Number","Washington","Central","UT","Utah","84722","Mountain","37.46693","-113.624783"
"(435) 454-","Landline","Duchesne","Altamont","UT","Utah","84001","Mountain","40.320728","-110.435974"
"(801) 722-","Landline","Utah","Provo","UT","Utah","84601","Mountain","40.235053","-111.695558"
"(801) 204-","Landline","Salt Lake","S Salt Lake","UT","Utah","84165","Mountain","40.668068","-111.908297"
"(801) 348-","Landline","Weber","Ogden","UT","Utah","84407","Mountain","41.238547","-111.965867"
"(435) 294-","Landline","Cache","Logan","UT","Utah","84321","Mountain","41.76695","-111.885084"
"(801) 294-","Landline","Davis","Bountiful","UT","Utah","84011","Mountain","40.963547","-112.115984"
"(801) 298-","Landline","Davis","Bountiful","UT","Utah","84011","Mountain","40.963547","-112.115984"
"(801) 792-","Cell Number","Salt Lake","S Salt Lake","UT","Utah","84165","Mountain","40.668068","-111.908297"
"(801) 448-","Unknown","Salt Lake","S Salt Lake","UT","Utah","84165","Mountain","40.668068","-111.908297"
"(801) 827-","Landline","Weber","Ogden","UT","Utah","84407","Mountain","41.238547","-111.965867"
"(801) 787-","Cell Number","Utah","Provo","UT","Utah","84601","Mountain","40.235053","-111.695558"
"(435) 209-","Cell Number","Beaver","Milford","UT","Utah","84751","Mountain","38.305873","-113.250981"
"(801) 834-","Unknown","Salt Lake","S Salt Lake","UT","Utah","84165","Mountain","40.668068","-111.908297"
"(435) 868-","Landline","Iron","Cedar City","UT","Utah","84721","Mountain","37.656843","-113.3695"
"(801) 691-","Unknown","Utah","Provo","UT","Utah","84601","Mountain","40.235053","-111.695558"
"(435) 252-","Landline","Summit","Park City","UT","Utah","84098","Mountain","40.702896","-111.548098"
"(801) 853-","Landline","Utah","Springville","UT","Utah","84663","Mountain","40.180718","-111.562586"
"(801) 634-","Cell Number","Salt Lake","S Salt Lake","UT","Utah","84165","Mountain","40.668068","-111.908297"
"(435) 948-","Cell Number","Rich","Garden City","UT","Utah","84028","Mountain","41.907816","-111.379691"
"(801) 303-","Landline","Salt Lake","S Salt Lake","UT","Utah","84165","Mountain","40.668068","-111.908297"
"(801) 680-","Cell Number","Salt Lake","S Salt Lake","UT","Utah","84165","Mountain","40.668068","-111.908297"
"(801) 824-","Cell Number","Salt Lake","S Salt Lake","UT","Utah","84165","Mountain","40.668068","-111.908297"
"(435) 221-","Cell Number","Beaver","Beaver","UT","Utah","84713","Mountain","38.315334","-112.798228"
"(801) 398-","Landline","Weber","Ogden","UT","Utah","84407","Mountain","41.238547","-111.965867"
"(801) 651-","Cell Number","Salt Lake","S Salt Lake","UT","Utah","84165","Mountain","40.668068","-111.908297"
"(801) 571-","Landline","Salt Lake","Draper","UT","Utah","84020","Mountain","40.506148","-111.869671"
"(801) 451-","Landline","Davis","Farmington","UT","Utah","84025","Mountain","40.969069","-111.907344"
"(801) 442-","Landline","Salt Lake","S Salt Lake","UT","Utah","84165","Mountain","40.668068","-111.908297"
"(435) 636-","Landline","Carbon","Price","UT","Utah","84501","Mountain","39.567883","-110.650901"
"(801) 272-","Landline","Salt Lake","Holladay","UT","Utah","84121","Mountain","40.622557","-111.777749"
"(435) 660-","Cell Number","Juab","Nephi","UT","Utah","84648","Mountain","39.757861","-111.841787"
"(435) 289-","Landline","Rich","Woodruff","UT","Utah","84086","Mountain","41.467578","-111.18365"
"(435) 827-","Landline","Box Elder","Park Valley","UT","Utah","84329","Mountain","41.808234","-113.523193"
"(801) 730-","Landline","Weber","Ogden","UT","Utah","84407","Mountain","41.238547","-111.965867"
"(801) 433-","Landline","Salt Lake","S Salt Lake","UT","Utah","84165","Mountain","40.668068","-111.908297"
"(435) 421-","Cell Number","Beaver","Beaver","UT","Utah","84713","Mountain","38.315334","-112.798228"
"(801) 818-","Landline","Utah","Provo","UT","Utah","84601","Mountain","40.235053","-111.695558"
"(801) 453-","Landline","Salt Lake","Holladay","UT","Utah","84121","Mountain","40.622557","-111.777749"
"(435) 477-","Landline","Iron","Cedar City","UT","Utah","84721","Mountain","37.656843","-113.3695"
"(801) 416-","Landline","Davis","Clearfield","UT","Utah","84016","Mountain","40.892995","-111.888121"
"(801) 365-","Landline","Salt Lake","S Salt Lake","UT","Utah","84165","Mountain","40.668068","-111.908297"
"(801) 457-","Landline","Weber","Ogden","UT","Utah","84407","Mountain","41.238547","-111.965867"
"(801) 245-","Landline","Salt Lake","S Salt Lake","UT","Utah","84165","Mountain","40.668068","-111.908297"
"(801) 470-","Landline","Utah","Provo","UT","Utah","84601","Mountain","40.235053","-111.695558"
"(801) 317-","Landline","Weber","Ogden","UT","Utah","84407","Mountain","41.238547","-111.965867"
"(801) 656-","Landline","Salt Lake","S Salt Lake","UT","Utah","84165","Mountain","40.668068","-111.908297"
"(435) 735-","Landline","Garfield","Panguitch","UT","Utah","84759","Mountain","37.827846","-112.522595"
"(801) 965-","Landline","Salt Lake","Kearns","UT","Utah","84118","Mountain","40.650407","-112.005421"
"(801) 968-","Landline","Salt Lake","Kearns","UT","Utah","84118","Mountain","40.650407","-112.005421"
"(801) 866-","Landline","Weber","Ogden","UT","Utah","84407","Mountain","41.238547","-111.965867"
"(801) 450-","Cell Number","Salt Lake","S Salt Lake","UT","Utah","84165","Mountain","40.668068","-111.908297"
"(801) 422-","Landline","Utah","Provo","UT","Utah","84601","Mountain","40.235053","-111.695558"
"(801) 743-","Landline","Salt Lake","Murray","UT","Utah","84123","Mountain","40.65963","-111.919269"
"(801) 565-","Landline","Salt Lake","Midvale","UT","Utah","84047","Mountain","40.608972","-111.885868"
"(801) 378-","Landline","Utah","Provo","UT","Utah","84601","Mountain","40.235053","-111.695558"
"(801) 568-","Landline","Salt Lake","Midvale","UT","Utah","84047","Mountain","40.608972","-111.885868"
"(801) 647-","Cell Number","Salt Lake","S Salt Lake","UT","Utah","84165","Mountain","40.668068","-111.908297"
"(801) 782-","Landline","Weber","Ogden","UT","Utah","84407","Mountain","41.238547","-111.965867"
"(801) 569-","Landline","Salt Lake","Midvale","UT","Utah","84047","Mountain","40.608972","-111.885868"
"(801) 358-","Cell Number","Utah","Provo","UT","Utah","84601","Mountain","40.235053","-111.695558"
"(801) 387-","Landline","Weber","Ogden","UT","Utah","84407","Mountain","41.238547","-111.965867"
"(801) 431-","Landline","Utah","Provo","UT","Utah","84601","Mountain","40.235053","-111.695558"
"(801) 266-","Landline","Salt Lake","Murray","UT","Utah","84123","Mountain","40.65963","-111.919269"
"(801) 270-","Landline","Salt Lake","Murray","UT","Utah","84123","Mountain","40.65963","-111.919269"
"(801) 671-","Cell Number","Salt Lake","S Salt Lake","UT","Utah","84165","Mountain","40.668068","-111.908297"
"(801) 231-","Cell Number","Salt Lake","S Salt Lake","UT","Utah","84165","Mountain","40.668068","-111.908297"
"(435) 682-","Landline","Iron","Cedar City","UT","Utah","84721","Mountain","37.656843","-113.3695"
"(801) 716-","Cell Number","Salt Lake","Murray","UT","Utah","84123","Mountain","40.65963","-111.919269"
"(435) 748-","Landline","Emery","Castle Dale","UT","Utah","84513","Mountain","39.196393","-111.052868"
"(435) 283-","Landline","Sanpete","Ephraim","UT","Utah","84627","Mountain","39.373122","-111.62523"
"(801) 617-","Landline","Salt Lake","Midvale","UT","Utah","84047","Mountain","40.608972","-111.885868"
"(801) 351-","Landline","Utah","Provo","UT","Utah","84601","Mountain","40.235053","-111.695558"
"(435) 279-","Landline","Box Elder","Honeyville","UT","Utah","84314","Mountain","41.651978","-112.104979"
"(435) 885-","Landline","Daggett","Dutch John","UT","Utah","84023","Mountain","40.936315","-109.432883"
"(801) 850-","Unknown","Utah","Provo","UT","Utah","84601","Mountain","40.235053","-111.695558"
"(801) 321-","Landline","Salt Lake","S Salt Lake","UT","Utah","84165","Mountain","40.668068","-111.908297"
"(801) 962-","Landline","Salt Lake","Kearns","UT","Utah","84118","Mountain","40.650407","-112.005421"
"(801) 751-","Landline","Weber","Ogden","UT","Utah","84407","Mountain","41.238547","-111.965867"
"(801) 838-","Landline","Salt Lake","S Salt Lake","UT","Utah","84165","Mountain","40.668068","-111.908297"
"(801) 259-","Cell Number","Salt Lake","S Salt Lake","UT","Utah","84165","Mountain","40.668068","-111.908297"
"(801) 399-","Landline","Weber","Ogden","UT","Utah","84407","Mountain","41.238547","-111.965867"
"(801) 233-","Landline","Salt Lake","Midvale","UT","Utah","84047","Mountain","40.608972","-111.885868"
"(801) 618-","Landline","Salt Lake","S Salt Lake","UT","Utah","84165","Mountain","40.668068","-111.908297"
"(435) 292-","Unknown","Rich","Woodruff","UT","Utah","84086","Mountain","41.467578","-111.18365"
"(801) 227-","Landline","Utah","Provo","UT","Utah","84601","Mountain","40.235053","-111.695558"
"(435) 616-","Cell Number","Garfield","Panguitch","UT","Utah","84759","Mountain","37.827846","-112.522595"
"(435) 559-","Cell Number","Iron","Cedar City","UT","Utah","84721","Mountain","37.656843","-113.3695"
"(435) 417-","Landline","Juab","Nephi","UT","Utah","84648","Mountain","39.757861","-111.841787"
"(801) 924-","Landline","Salt Lake","S Salt Lake","UT","Utah","84165","Mountain","40.668068","-111.908297"
"(435) 250-","Cell Number","Juab","Nephi","UT","Utah","84648","Mountain","39.757861","-111.841787"
"(801) 369-","Cell Number","Utah","Provo","UT","Utah","84601","Mountain","40.235053","-111.695558"
"(801) 273-","Landline","Salt Lake","Holladay","UT","Utah","84121","Mountain","40.622557","-111.777749"
"(801) 728-","Landline","Davis","Clearfield","UT","Utah","84016","Mountain","40.892995","-111.888121"
"(801) 207-","Landline","Salt Lake","S Salt Lake","UT","Utah","84165","Mountain","40.668068","-111.908297"
"(801) 360-","Cell Number","Utah","Provo","UT","Utah","84601","Mountain","40.235053","-111.695558"
"(801) 578-","Landline","Salt Lake","S Salt Lake","UT","Utah","84165","Mountain","40.668068","-111.908297"
"(435) 513-","Cell Number","Summit","Park City","UT","Utah","84098","Mountain","40.702896","-111.548098"
"(801) 786-","Landline","Weber","Ogden","UT","Utah","84407","Mountain","41.238547","-111.965867"
"(801) 858-","Landline","Salt Lake","S Salt Lake","UT","Utah","84165","Mountain","40.668068","-111.908297"
"(801) 729-","Landline","Weber","Ogden","UT","Utah","84407","Mountain","41.238547","-111.965867"
"(801) 822-","Unknown","Utah","Provo","UT","Utah","84601","Mountain","40.235053","-111.695558"
"(801) 426-","Landline","Utah","Provo","UT","Utah","84601","Mountain","40.235053","-111.695558"
"(801) 890-","Cell Number","Utah","Provo","UT","Utah","84601","Mountain","40.235053","-111.695558"
"(435) 459-","Cell Number","San Juan","Monticello","UT","Utah","84535","Mountain","38.099745","-109.259108"
"(435) 261-","Cell Number","Beaver","Beaver","UT","Utah","84713","Mountain","38.315334","-112.798228"
"(801) 857-","Unknown","Utah","Provo","UT","Utah","84601","Mountain","40.235053","-111.695558"
"(435) 624-","Landline","Garfield","Antimony","UT","Utah","84712","Mountain","37.729535","-110.543374"
"(435) 828-","Cell Number","Uintah","Vernal","UT","Utah","84079","Mountain","40.160179","-109.547839"
"(801) 937-","Landline","Salt Lake","S Salt Lake","UT","Utah","84165","Mountain","40.668068","-111.908297"
"(435) 327-","Cell Number","Iron","Cedar City","UT","Utah","84721","Mountain","37.656843","-113.3695"
"(801) 551-","Landline","Utah","Provo","UT","Utah","84601","Mountain","40.235053","-111.695558"
"(435) 792-","Landline","Cache","Logan","UT","Utah","84321","Mountain","41.76695","-111.885084"
"(801) 293-","Landline","Salt Lake","Murray","UT","Utah","84123","Mountain","40.65963","-111.919269"
"(801) 938-","Landline","Salt Lake","S Salt Lake","UT","Utah","84165","Mountain","40.668068","-111.908297"
"(435) 990-","Cell Number","Iron","Cedar City","UT","Utah","84721","Mountain","37.656843","-113.3695"
"(435) 786-","Landline","Cache","Logan","UT","Utah","84321","Mountain","41.76695","-111.885084"
"(801) 528-","Landline","Weber","Ogden","UT","Utah","84407","Mountain","41.238547","-111.965867"
"(435) 757-","Cell Number","Cache","Logan","UT","Utah","84321","Mountain","41.76695","-111.885084"
"(801) 537-","Landline","Salt Lake","S Salt Lake","UT","Utah","84165","Mountain","40.668068","-111.908297"
"(801) 870-","Cell Number","Salt Lake","S Salt Lake","UT","Utah","84165","Mountain","40.668068","-111.908297"
"(435) 693-","Landline","Millard","Garrison","UT","Utah","84728","Mountain","39.06433","-113.032141"
"(801) 201-","Cell Number","Salt Lake","S Salt Lake","UT","Utah","84165","Mountain","40.668068","-111.908297"
"(801) 428-","Landline","Salt Lake","S Salt Lake","UT","Utah","84165","Mountain","40.668068","-111.908297"
"(801) 881-","Landline","Weber","Ogden","UT","Utah","84407","Mountain","41.238547","-111.965867"
"(801) 714-","Landline","Utah","Provo","UT","Utah","84601","Mountain","40.235053","-111.695558"
"(801) 419-","Landline","Salt Lake","S Salt Lake","UT","Utah","84165","Mountain","40.668068","-111.908297"
"(801) 993-","Landline","Salt Lake","S Salt Lake","UT","Utah","84165","Mountain","40.668068","-111.908297"
"(801) 268-","Landline","Salt Lake","Murray","UT","Utah","84123","Mountain","40.65963","-111.919269"
"(801) 624-","Landline","Weber","Ogden","UT","Utah","84407","Mountain","41.238547","-111.965867"
"(435) 774-","Landline","Cache","Logan","UT","Utah","84321","Mountain","41.76695","-111.885084"
"(435) 235-","Cell Number","Iron","Cedar City","UT","Utah","84721","Mountain","37.656843","-113.3695"
"(801) 967-","Landline","Salt Lake","Kearns","UT","Utah","84118","Mountain","40.650407","-112.005421"
"(435) 545-","Landline","Uintah","Randlett","UT","Utah","84063","Mountain","40.30168","-109.806162"
"(435) 670-","Landline","Sevier","Salina","UT","Utah","84654","Mountain","38.921403","-111.908156"
"(801) 877-","Landline","Utah","Provo","UT","Utah","84601","Mountain","40.235053","-111.695558"
"(801) 703-","Landline","Salt Lake","S Salt Lake","UT","Utah","84165","Mountain","40.668068","-111.908297"
"(801) 562-","Landline","Salt Lake","Midvale","UT","Utah","84047","Mountain","40.608972","-111.885868"
"(801) 305-","Landline","Salt Lake","S Salt Lake","UT","Utah","84165","Mountain","40.668068","-111.908297"
"(435) 671-","Cell Number","Wasatch","Heber City","UT","Utah","84032","Mountain","40.517678","-111.348882"
"(801) 524-","Landline","Salt Lake","S Salt Lake","UT","Utah","84165","Mountain","40.668068","-111.908297"
"(801) 545-","Landline","Salt Lake","Draper","UT","Utah","84020","Mountain","40.506148","-111.869671"
"(801) 902-","Landline","Salt Lake","Kearns","UT","Utah","84118","Mountain","40.650407","-112.005421"
"(435) 640-","Cell Number","Summit","Park City","UT","Utah","84098","Mountain","40.702896","-111.548098"
"(801) 712-","Cell Number","Salt Lake","S Salt Lake","UT","Utah","84165","Mountain","40.668068","-111.908297"
"(801) 761-","Landline","Weber","Ogden","UT","Utah","84407","Mountain","41.238547","-111.965867"
"(435) 472-","Landline","Carbon","Helper","UT","Utah","84526","Mountain","39.637459","-110.77667"
"(435) 503-","Cell Number","Wasatch","Heber City","UT","Utah","84032","Mountain","40.517678","-111.348882"
"(801) 594-","Landline","Salt Lake","S Salt Lake","UT","Utah","84165","Mountain","40.668068","-111.908297"
"(801) 208-","Landline","Salt Lake","Midvale","UT","Utah","84047","Mountain","40.608972","-111.885868"
"(801) 221-","Landline","Utah","Provo","UT","Utah","84601","Mountain","40.235053","-111.695558"
"(801) 823-","Landline","Weber","Ogden","UT","Utah","84407","Mountain","41.238547","-111.965867"
"(801) 587-","Landline","Salt Lake","S Salt Lake","UT","Utah","84165","Mountain","40.668068","-111.908297"
"(801) 421-","Landline","Salt Lake","Midvale","UT","Utah","84047","Mountain","40.608972","-111.885868"
"(801) 896-","Landline","Davis","Clearfield","UT","Utah","84016","Mountain","40.892995","-111.888121"
"(801) 936-","Landline","Davis","Bountiful","UT","Utah","84011","Mountain","40.963547","-112.115984"
"(801) 771-","Landline","Davis","Layton","UT","Utah","84040","Mountain","41.088889","-111.92614"
"(801) 379-","Landline","Utah","Provo","UT","Utah","84601","Mountain","40.235053","-111.695558"
"(801) 816-","Landline","Salt Lake","Draper","UT","Utah","84020","Mountain","40.506148","-111.869671"
"(801) 795-","Landline","Salt Lake","S Salt Lake","UT","Utah","84165","Mountain","40.668068","-111.908297"
"(801) 689-","Landline","Weber","Ogden","UT","Utah","84407","Mountain","41.238547","-111.965867"
"(801) 831-","Cell Number","Salt Lake","S Salt Lake","UT","Utah","84165","Mountain","40.668068","-111.908297"
"(435) 881-","Cell Number","Cache","Logan","UT","Utah","84321","Mountain","41.76695","-111.885084"
"(801) 397-","Landline","Davis","Bountiful","UT","Utah","84011","Mountain","40.963547","-112.115984"
"(801) 381-","Cell Number","Salt Lake","S Salt Lake","UT","Utah","84165","Mountain","40.668068","-111.908297"
"(801) 213-","Landline","Salt Lake","S Salt Lake","UT","Utah","84165","Mountain","40.668068","-111.908297"
"(801) 840-","Landline","Salt Lake","Kearns","UT","Utah","84118","Mountain","40.650407","-112.005421"
"(801) 237-","Landline","Salt Lake","S Salt Lake","UT","Utah","84165","Mountain","40.668068","-111.908297"
"(801) 380-","Cell Number","Utah","Provo","UT","Utah","84601","Mountain","40.235053","-111.695558"
"(435) 709-","Landline","Wasatch","Heber City","UT","Utah","84032","Mountain","40.517678","-111.348882"
"(801) 940-","Cell Number","Weber","Ogden","UT","Utah","84407","Mountain","41.238547","-111.965867"
"(801) 676-","Landline","Salt Lake","Midvale","UT","Utah","84047","Mountain","40.608972","-111.885868"
"(801) 274-","Landline","Salt Lake","Holladay","UT","Utah","84121","Mountain","40.622557","-111.777749"
"(435) 299-","Unknown","Carbon","Price","UT","Utah","84501","Mountain","39.567883","-110.650901"
"(801) 808-","Cell Number","Salt Lake","S Salt Lake","UT","Utah","84165","Mountain","40.668068","-111.908297"
"(801) 374-","Landline","Utah","Provo","UT","Utah","84601","Mountain","40.235053","-111.695558"
"(801) 683-","Landline","Davis","Bountiful","UT","Utah","84011","Mountain","40.963547","-112.115984"
"(435) 659-","Cell Number","Summit","Park City","UT","Utah","84098","Mountain","40.702896","-111.548098"
"(801) 296-","Landline","Davis","Bountiful","UT","Utah","84011","Mountain","40.963547","-112.115984"
"(435) 630-","Cell Number","Carbon","Price","UT","Utah","84501","Mountain","39.567883","-110.650901"
"(801) 366-","Landline","Salt Lake","S Salt Lake","UT","Utah","84165","Mountain","40.668068","-111.908297"
"(801) 241-","Cell Number","Salt Lake","S Salt Lake","UT","Utah","84165","Mountain","40.668068","-111.908297"
"(801) 672-","Landline","Salt Lake","S Salt Lake","UT","Utah","84165","Mountain","40.668068","-111.908297"
"(801) 917-","Landline","Weber","Ogden","UT","Utah","84407","Mountain","41.238547","-111.965867"
"(801) 389-","Cell Number","Weber","Ogden","UT","Utah","84407","Mountain","41.238547","-111.965867"
"(801) 865-","Cell Number","Salt Lake","S Salt Lake","UT","Utah","84165","Mountain","40.668068","-111.908297"
"(435) 393-","Unknown","Iron","Cedar City","UT","Utah","84721","Mountain","37.656843","-113.3695"
"(801) 984-","Landline","Salt Lake","S Salt Lake","UT","Utah","84165","Mountain","40.668068","-111.908297"
"(435) 310-","Cell Number","Beaver","Beaver","UT","Utah","84713","Mountain","38.315334","-112.798228"
"(435) 253-","Cell Number","Millard","Fillmore","UT","Utah","84631","Mountain","39.055572","-112.467412"
"(435) 872-","Landline","Box Elder","Snowville","UT","Utah","84336","Mountain","41.965964","-112.726895"
"(801) 477-","Unknown","Utah","Springville","UT","Utah","84663","Mountain","40.180718","-111.562586"
"(435) 684-","Landline","Wayne","Torrey","UT","Utah","84775","Mountain","38.296853","-111.413774"
"(801) 781-","Landline","Weber","Ogden","UT","Utah","84407","Mountain","41.238547","-111.965867"
"(801) 396-","Cell Number","Weber","Ogden","UT","Utah","84407","Mountain","41.238547","-111.965867"
"(801) 356-","Landline","Utah","Provo","UT","Utah","84601","Mountain","40.235053","-111.695558"
"(801) 332-","Landline","Weber","Ogden","UT","Utah","84407","Mountain","41.238547","-111.965867"
"(801) 987-","Landline","Salt Lake","S Salt Lake","UT","Utah","84165","Mountain","40.668068","-111.908297"
"(435) 779-","Cell Number","Rich","Garden City","UT","Utah","84028","Mountain","41.907816","-111.379691"
"(435) 851-","Cell Number","Sanpete","Manti","UT","Utah","84642","Mountain","39.358358","-111.65769"
"(801) 257-","Landline","Salt Lake","S Salt Lake","UT","Utah","84165","Mountain","40.668068","-111.908297"
"(435) 743-","Landline","Millard","Fillmore","UT","Utah","84631","Mountain","39.055572","-112.467412"
"(801) 256-","Landline","Salt Lake","Midvale","UT","Utah","84047","Mountain","40.608972","-111.885868"
"(435) 608-","Landline","Summit","Park City","UT","Utah","84098","Mountain","40.702896","-111.548098"
"(801) 413-","Landline","Salt Lake","S Salt Lake","UT","Utah","84165","Mountain","40.668068","-111.908297"
"(801) 386-","Landline","Salt Lake","S Salt Lake","UT","Utah","84165","Mountain","40.668068","-111.908297"
"(435) 716-","Landline","Cache","Logan","UT","Utah","84321","Mountain","41.76695","-111.885084"
"(435) 789-","Landline","Uintah","Vernal","UT","Utah","84079","Mountain","40.160179","-109.547839"
"(435) 932-","Landline","Cache","Richmond","UT","Utah","84333","Mountain","41.883064","-111.798034"
"(801) 353-","Landline","Salt Lake","S Salt Lake","UT","Utah","84165","Mountain","40.668068","-111.908297"
"(801) 884-","Landline","Salt Lake","S Salt Lake","UT","Utah","84165","Mountain","40.668068","-111.908297"
"(435) 245-","Landline","Cache","Hyrum","UT","Utah","84319","Mountain","41.717589","-111.879653"
"(801) 942-","Landline","Salt Lake","Holladay","UT","Utah","84121","Mountain","40.622557","-111.777749"
"(801) 455-","Cell Number","Salt Lake","S Salt Lake","UT","Utah","84165","Mountain","40.668068","-111.908297"
"(801) 346-","Landline","Salt Lake","Midvale","UT","Utah","84047","Mountain","40.608972","-111.885868"
"(801) 828-","Landline","Salt Lake","S Salt Lake","UT","Utah","84165","Mountain","40.668068","-111.908297"
"(801) 239-","Landline","Salt Lake","S Salt Lake","UT","Utah","84165","Mountain","40.668068","-111.908297"
"(435) 452-","Landline","Box Elder","Honeyville","UT","Utah","84314","Mountain","41.651978","-112.104979"
"(801) 793-","Unknown","Salt Lake","S Salt Lake","UT","Utah","84165","Mountain","40.668068","-111.908297"
"(801) 964-","Landline","Salt Lake","Kearns","UT","Utah","84118","Mountain","40.650407","-112.005421"
"(801) 923-","Unknown","Davis","Farmington","UT","Utah","84025","Mountain","40.969069","-111.907344"
"(801) 646-","Landline","Salt Lake","S Salt Lake","UT","Utah","84165","Mountain","40.668068","-111.908297"
"(801) 383-","Landline","Salt Lake","S Salt Lake","UT","Utah","84165","Mountain","40.668068","-111.908297"
"(801) 418-","Landline","Utah","Provo","UT","Utah","84601","Mountain","40.235053","-111.695558"
"(801) 705-","Landline","Utah","Provo","UT","Utah","84601","Mountain","40.235053","-111.695558"
"(801) 644-","Cell Number","Weber","Ogden","UT","Utah","84407","Mountain","41.238547","-111.965867"
"(435) 602-","Cell Number","Summit","Park City","UT","Utah","84098","Mountain","40.702896","-111.548098"
"(801) 654-","Cell Number","Salt Lake","S Salt Lake","UT","Utah","84165","Mountain","40.668068","-111.908297"
"(801) 382-","Landline","Salt Lake","S Salt Lake","UT","Utah","84165","Mountain","40.668068","-111.908297"
"(435) 554-","Landline","Cache","Hyrum","UT","Utah","84319","Mountain","41.717589","-111.879653"
"(801) 280-","Landline","Salt Lake","West Jordan","UT","Utah","84088","Mountain","40.587629","-111.98342"
"(801) 931-","Unknown","Salt Lake","S Salt Lake","UT","Utah","84165","Mountain","40.668068","-111.908297"
"(801) 236-","Landline","Salt Lake","S Salt Lake","UT","Utah","84165","Mountain","40.668068","-111.908297"
"(801) 489-","Landline","Utah","Springville","UT","Utah","84663","Mountain","40.180718","-111.562586"
"(435) 353-","Landline","Duchesne","Neola","UT","Utah","84053","Mountain","40.320728","-110.435974"
"(801) 674-","Cell Number","Salt Lake","S Salt Lake","UT","Utah","84165","Mountain","40.668068","-111.908297"
"(801) 895-","Unknown","Salt Lake","S Salt Lake","UT","Utah","84165","Mountain","40.668068","-111.908297"
"(801) 990-","Landline","Salt Lake","S Salt Lake","UT","Utah","84165","Mountain","40.668068","-111.908297"
"(801) 677-","Landline","Davis","Bountiful","UT","Utah","84011","Mountain","40.963547","-112.115984"
"(435) 744-","Landline","Box Elder","Corinne","UT","Utah","84307","Mountain","41.454713","-112.390322"
"(801) 391-","Cell Number","Weber","Ogden","UT","Utah","84407","Mountain","41.238547","-111.965867"
"(801) 855-","Landline","Utah","Provo","UT","Utah","84601","Mountain","40.235053","-111.695558"
"(801) 946-","Unknown","Salt Lake","S Salt Lake","UT","Utah","84165","Mountain","40.668068","-111.908297"
"(801) 244-","Cell Number","Salt Lake","S Salt Lake","UT","Utah","84165","Mountain","40.668068","-111.908297"
"(801) 944-","Landline","Salt Lake","Holladay","UT","Utah","84121","Mountain","40.622557","-111.777749"
"(435) 837-","Landline","Tooele","Rush Valley","UT","Utah","84069","Mountain","40.356629","-112.465914"
"(801) 252-","Landline","Salt Lake","Magna","UT","Utah","84044","Mountain","40.699401","-112.088875"
"(801) 439-","Landline","Salt Lake","Holladay","UT","Utah","84121","Mountain","40.622557","-111.777749"
"(801) 805-","Landline","Utah","Provo","UT","Utah","84601","Mountain","40.235053","-111.695558"
"(435) 871-","Landline","Box Elder","Park Valley","UT","Utah","84329","Mountain","41.808234","-113.523193"
"(435) 679-","Landline","Garfield","Antimony","UT","Utah","84712","Mountain","37.729535","-110.543374"
"(435) 750-","Landline","Cache","Logan","UT","Utah","84321","Mountain","41.76695","-111.885084"
"(801) 556-","Cell Number","Salt Lake","S Salt Lake","UT","Utah","84165","Mountain","40.668068","-111.908297"
"(801) 851-","Landline","Utah","Provo","UT","Utah","84601","Mountain","40.235053","-111.695558"
"(435) 994-","Cell Number","Cache","Logan","UT","Utah","84321","Mountain","41.76695","-111.885084"
"(801) 324-","Landline","Salt Lake","S Salt Lake","UT","Utah","84165","Mountain","40.668068","-111.908297"
"(435) 797-","Landline","Cache","Logan","UT","Utah","84321","Mountain","41.76695","-111.885084"
"(435) 518-","Landline","Sevier","Salina","UT","Utah","84654","Mountain","38.921403","-111.908156"
"(435) 776-","Landline","Summit","Park City","UT","Utah","84098","Mountain","40.702896","-111.548098"
"(801) 733-","Landline","Salt Lake","Holladay","UT","Utah","84121","Mountain","40.622557","-111.777749"
"(801) 749-","Landline","Weber","Ogden","UT","Utah","84407","Mountain","41.238547","-111.965867"
"(801) 629-","Landline","Weber","Ogden","UT","Utah","84407","Mountain","41.238547","-111.965867"
"(801) 737-","Landline","Weber","Ogden","UT","Utah","84407","Mountain","41.238547","-111.965867"
"(435) 691-","Cell Number","Iron","Cedar City","UT","Utah","84721","Mountain","37.656843","-113.3695"
"(801) 583-","Landline","Salt Lake","S Salt Lake","UT","Utah","84165","Mountain","40.668068","-111.908297"
"(801) 655-","Landline","Utah","Provo","UT","Utah","84601","Mountain","40.235053","-111.695558"
"(801) 913-","Cell Number","Salt Lake","S Salt Lake","UT","Utah","84165","Mountain","40.668068","-111.908297"
"(435) 788-","Landline","Wayne","Torrey","UT","Utah","84775","Mountain","38.296853","-111.413774"
"(801) 664-","Unknown","Salt Lake","S Salt Lake","UT","Utah","84165","Mountain","40.668068","-111.908297"
"(801) 709-","Unknown","Utah","Provo","UT","Utah","84601","Mountain","40.235053","-111.695558"
"(801) 819-","Unknown","Salt Lake","S Salt Lake","UT","Utah","84165","Mountain","40.668068","-111.908297"
"(801) 234-","Landline","Utah","Provo","UT","Utah","84601","Mountain","40.235053","-111.695558"
"(801) 218-","Landline","Davis","Farmington","UT","Utah","84025","Mountain","40.969069","-111.907344"
"(801) 349-","Landline","Salt Lake","S Salt Lake","UT","Utah","84165","Mountain","40.668068","-111.908297"
"(801) 605-","Landline","Weber","Ogden","UT","Utah","84407","Mountain","41.238547","-111.965867"
"(801) 277-","Landline","Salt Lake","Holladay","UT","Utah","84121","Mountain","40.622557","-111.777749"
"(801) 408-","Landline","Salt Lake","S Salt Lake","UT","Utah","84165","Mountain","40.668068","-111.908297"
"(435) 244-","Cell Number","Carbon","Price","UT","Utah","84501","Mountain","39.567883","-110.650901"
"(801) 312-","Landline","Salt Lake","Murray","UT","Utah","84123","Mountain","40.65963","-111.919269"
"(435) 657-","Landline","Wasatch","Heber City","UT","Utah","84032","Mountain","40.517678","-111.348882"
"(801) 228-","Landline","Utah","Provo","UT","Utah","84601","Mountain","40.235053","-111.695558"
"(801) 806-","Landline","Utah","Springville","UT","Utah","84663","Mountain","40.180718","-111.562586"
"(435) 831-","Landline","Tooele","Dugway","UT","Utah","84022","Mountain","40.270806","-112.689833"
"(435) 383-","Unknown","Iron","Cedar City","UT","Utah","84721","Mountain","37.656843","-113.3695"
"(435) 758-","Landline","Sevier","Salina","UT","Utah","84654","Mountain","38.921403","-111.908156"
"(801) 836-","Cell Number","Utah","Provo","UT","Utah","84601","Mountain","40.235053","-111.695558"
"(801) 945-","Landline","Salt Lake","S Salt Lake","UT","Utah","84165","Mountain","40.668068","-111.908297"
"(801) 588-","Landline","Salt Lake","S Salt Lake","UT","Utah","84165","Mountain","40.668068","-111.908297"
"(801) 883-","Landline","Salt Lake","S Salt Lake","UT","Utah","84165","Mountain","40.668068","-111.908297"
"(801) 238-","Landline","Salt Lake","S Salt Lake","UT","Utah","84165","Mountain","40.668068","-111.908297"
"(801) 320-","Landline","Salt Lake","S Salt Lake","UT","Utah","84165","Mountain","40.668068","-111.908297"
"(801) 760-","Landline","Weber","Ogden","UT","Utah","84407","Mountain","41.238547","-111.965867"
"(435) 233-","Cell Number","Iron","Cedar City","UT","Utah","84721","Mountain","37.656843","-113.3695"
"(435) 649-","Landline","Summit","Park City","UT","Utah","84098","Mountain","40.702896","-111.548098"
"(801) 523-","Landline","Salt Lake","Draper","UT","Utah","84020","Mountain","40.506148","-111.869671"
"(801) 278-","Landline","Salt Lake","Holladay","UT","Utah","84121","Mountain","40.622557","-111.777749"
"(801) 219-","Cell Number","Salt Lake","S Salt Lake","UT","Utah","84165","Mountain","40.668068","-111.908297"
"(801) 929-","Cell Number","Salt Lake","S Salt Lake","UT","Utah","84165","Mountain","40.668068","-111.908297"
"(801) 440-","Cell Number","Salt Lake","S Salt Lake","UT","Utah","84165","Mountain","40.668068","-111.908297"
"(435) 458-","Landline","Box Elder","Fielding","UT","Utah","84311","Mountain","41.628942","-112.094039"
"(435) 288-","Unknown","Millard","Garrison","UT","Utah","84728","Mountain","39.06433","-113.032141"
"(801) 473-","Cell Number","Utah","Provo","UT","Utah","84601","Mountain","40.235053","-111.695558"
"(801) 282-","Landline","Salt Lake","West Jordan","UT","Utah","84088","Mountain","40.587629","-111.98342"
"(801) 640-","Landline","Weber","Ogden","UT","Utah","84407","Mountain","41.238547","-111.965867"
"(801) 424-","Landline","Salt Lake","Holladay","UT","Utah","84121","Mountain","40.622557","-111.777749"
"(435) 681-","Cell Number","Juab","Nephi","UT","Utah","84648","Mountain","39.757861","-111.841787"
"(801) 899-","Unknown","Utah","Provo","UT","Utah","84601","Mountain","40.235053","-111.695558"
"(801) 534-","Landline","Salt Lake","S Salt Lake","UT","Utah","84165","Mountain","40.668068","-111.908297"
"(435) 514-","Landline","Cache","Logan","UT","Utah","84321","Mountain","41.76695","-111.885084"
"(801) 350-","Landline","Salt Lake","S Salt Lake","UT","Utah","84165","Mountain","40.668068","-111.908297"
"(801) 300-","Unknown","Salt Lake","S Salt Lake","UT","Utah","84165","Mountain","40.668068","-111.908297"
"(801) 436-","Landline","Weber","Ogden","UT","Utah","84407","Mountain","41.238547","-111.965867"
"(435) 635-","Landline","Washington","Hurricane","UT","Utah","84737","Mountain","37.145366","-113.367458"
"(801) 538-","Landline","Salt Lake","S Salt Lake","UT","Utah","84165","Mountain","40.668068","-111.908297"
"(435) 439-","Landline","Iron","Beryl","UT","Utah","84714","Mountain","37.721369","-113.663891"
"(801) 633-","Cell Number","Salt Lake","S Salt Lake","UT","Utah","84165","Mountain","40.668068","-111.908297"
"(801) 403-","Cell Number","Salt Lake","S Salt Lake","UT","Utah","84165","Mountain","40.668068","-111.908297"
"(435) 213-","Landline","Cache","Logan","UT","Utah","84321","Mountain","41.76695","-111.885084"
"(801) 429-","Landline","Utah","Provo","UT","Utah","84601","Mountain","40.235053","-111.695558"
"(435) 227-","Landline","Cache","Logan","UT","Utah","84321","Mountain","41.76695","-111.885084"
"(801) 669-","Unknown","Utah","Provo","UT","Utah","84601","Mountain","40.235053","-111.695558"
"(801) 983-","Landline","Salt Lake","S Salt Lake","UT","Utah","84165","Mountain","40.668068","-111.908297"
"(801) 255-","Landline","Salt Lake","Midvale","UT","Utah","84047","Mountain","40.608972","-111.885868"
"(435) 777-","Unknown","Millard","Garrison","UT","Utah","84728","Mountain","39.06433","-113.032141"
"(801) 852-","Landline","Utah","Provo","UT","Utah","84601","Mountain","40.235053","-111.695558"
"(801) 868-","Landline","Utah","Provo","UT","Utah","84601","Mountain","40.235053","-111.695558"
"(801) 860-","Cell Number","Salt Lake","S Salt Lake","UT","Utah","84165","Mountain","40.668068","-111.908297"
"(435) 433-","Landline","Juab","Mona","UT","Utah","84645","Mountain","39.848111","-111.850284"
"(801) 809-","Cell Number","Salt Lake","S Salt Lake","UT","Utah","84165","Mountain","40.668068","-111.908297"
"(801) 706-","Cell Number","Salt Lake","S Salt Lake","UT","Utah","84165","Mountain","40.668068","-111.908297"
"(801) 262-","Landline","Salt Lake","Murray","UT","Utah","84123","Mountain","40.65963","-111.919269"
"(435) 300-","Cell Number","Summit","Kamas","UT","Utah","84036","Mountain","40.667933","-111.312427"
"(801) 295-","Landline","Davis","Bountiful","UT","Utah","84011","Mountain","40.963547","-112.115984"
"(801) 595-","Landline","Salt Lake","S Salt Lake","UT","Utah","84165","Mountain","40.668068","-111.908297"
"(801) 521-","Landline","Salt Lake","S Salt Lake","UT","Utah","84165","Mountain","40.668068","-111.908297"
"(801) 652-","Cell Number","Salt Lake","S Salt Lake","UT","Utah","84165","Mountain","40.668068","-111.908297"
"(801) 328-","Landline","Salt Lake","S Salt Lake","UT","Utah","84165","Mountain","40.668068","-111.908297"
"(801) 688-","Cell Number","Salt Lake","S Salt Lake","UT","Utah","84165","Mountain","40.668068","-111.908297"
"(801) 739-","Unknown","Salt Lake","S Salt Lake","UT","Utah","84165","Mountain","40.668068","-111.908297"
"(435) 232-","Cell Number","Cache","Logan","UT","Utah","84321","Mountain","41.76695","-111.885084"
"(801) 584-","Landline","Salt Lake","S Salt Lake","UT","Utah","84165","Mountain","40.668068","-111.908297"
"(435) 729-","Cell Number","Summit","Park City","UT","Utah","84098","Mountain","40.702896","-111.548098"
"(801) 675-","Cell Number","Weber","Ogden","UT","Utah","84407","Mountain","41.238547","-111.965867"
"(801) 727-","Unknown","Salt Lake","Midvale","UT","Utah","84047","Mountain","40.608972","-111.885868"
"(801) 919-","Cell Number","Salt Lake","S Salt Lake","UT","Utah","84165","Mountain","40.668068","-111.908297"
"(801) 842-","Landline","Salt Lake","S Salt Lake","UT","Utah","84165","Mountain","40.668068","-111.908297"
"(435) 793-","Landline","Rich","Randolph","UT","Utah","84064","Mountain","41.690895","-111.184512"
"(801) 205-","Cell Number","Salt Lake","S Salt Lake","UT","Utah","84165","Mountain","40.668068","-111.908297"
"(801) 757-","Landline","Salt Lake","S Salt Lake","UT","Utah","84165","Mountain","40.668068","-111.908297"
"(801) 375-","Landline","Utah","Provo","UT","Utah","84601","Mountain","40.235053","-111.695558"
"(801) 630-","Cell Number","Salt Lake","S Salt Lake","UT","Utah","84165","Mountain","40.668068","-111.908297"
"(801) 880-","Landline","Salt Lake","S Salt Lake","UT","Utah","84165","Mountain","40.668068","-111.908297"
"(801) 292-","Landline","Davis","Bountiful","UT","Utah","84011","Mountain","40.963547","-112.115984"
"(801) 694-","Cell Number","Salt Lake","S Salt Lake","UT","Utah","84165","Mountain","40.668068","-111.908297"
"(801) 638-","Cell Number","Salt Lake","S Salt Lake","UT","Utah","84165","Mountain","40.668068","-111.908297"
"(435) 615-","Landline","Summit","Park City","UT","Utah","84098","Mountain","40.702896","-111.548098"
"(801) 275-","Cell Number","Salt Lake","S Salt Lake","UT","Utah","84165","Mountain","40.668068","-111.908297"
"(435) 638-","Landline","Piute","Greenwich","UT","Utah","84732","Mountain","38.328871","-112.142622"
"(801) 657-","Unknown","Salt Lake","Kearns","UT","Utah","84118","Mountain","40.650407","-112.005421"
"(801) 985-","Landline","Davis","Clearfield","UT","Utah","84016","Mountain","40.892995","-111.888121"
"(801) 564-","Cell Number","Weber","Ogden","UT","Utah","84407","Mountain","41.238547","-111.965867"
"(801) 867-","Cell Number","Salt Lake","S Salt Lake","UT","Utah","84165","Mountain","40.668068","-111.908297"
"(801) 479-","Landline","Weber","Ogden","UT","Utah","84407","Mountain","41.238547","-111.965867"
"(801) 377-","Landline","Utah","Provo","UT","Utah","84601","Mountain","40.235053","-111.695558"
"(435) 834-","Landline","Garfield","Panguitch","UT","Utah","84759","Mountain","37.827846","-112.522595"
"(435) 314-","Unknown","Sanpete","Ephraim","UT","Utah","84627","Mountain","39.373122","-111.62523"
"(435) 267-","Unknown","Iron","Cedar City","UT","Utah","84721","Mountain","37.656843","-113.3695"
"(435) 710-","Landline","Iron","Cedar City","UT","Utah","84721","Mountain","37.656843","-113.3695"
"(435) 491-","Cell Number","Wayne","Torrey","UT","Utah","84775","Mountain","38.296853","-111.413774"
"(801) 520-","Cell Number","Salt Lake","S Salt Lake","UT","Utah","84165","Mountain","40.668068","-111.908297"
"(801) 334-","Landline","Weber","Ogden","UT","Utah","84407","Mountain","41.238547","-111.965867"
"(801) 414-","Cell Number","Salt Lake","S Salt Lake","UT","Utah","84165","Mountain","40.668068","-111.908297"
"(801) 445-","Landline","Salt Lake","Riverton","UT","Utah","84095","Mountain","40.554098","-111.953891"
"(801) 603-","Cell Number","Weber","Ogden","UT","Utah","84407","Mountain","41.238547","-111.965867"
"(801) 916-","Cell Number","Salt Lake","S Salt Lake","UT","Utah","84165","Mountain","40.668068","-111.908297"
"(801) 641-","Cell Number","Salt Lake","S Salt Lake","UT","Utah","84165","Mountain","40.668068","-111.908297"
"(801) 752-","Landline","Weber","Ogden","UT","Utah","84407","Mountain","41.238547","-111.965867"
"(435) 864-","Landline","Millard","Delta","UT","Utah","84624","Mountain","39.247056","-112.526542"
"(801) 635-","Cell Number","Salt Lake","S Salt Lake","UT","Utah","84165","Mountain","40.668068","-111.908297"
"(801) 330-","Cell Number","Salt Lake","S Salt Lake","UT","Utah","84165","Mountain","40.668068","-111.908297"
"(801) 835-","Cell Number","Salt Lake","S Salt Lake","UT","Utah","84165","Mountain","40.668068","-111.908297"
"(801) 930-","Landline","Salt Lake","Holladay","UT","Utah","84121","Mountain","40.622557","-111.777749"
"(801) 302-","Landline","Salt Lake","Riverton","UT","Utah","84095","Mountain","40.554098","-111.953891"
"(801) 458-","Cell Number","Weber","Ogden","UT","Utah","84407","Mountain","41.238547","-111.965867"
"(801) 246-","Landline","Salt Lake","S Salt Lake","UT","Utah","84165","Mountain","40.668068","-111.908297"
"(801) 496-","Landline","Utah","Provo","UT","Utah","84601","Mountain","40.235053","-111.695558"
"(801) 225-","Landline","Utah","Provo","UT","Utah","84601","Mountain","40.235053","-111.695558"
"(801) 561-","Landline","Salt Lake","Midvale","UT","Utah","84047","Mountain","40.608972","-111.885868"
"(801) 558-","Cell Number","Salt Lake","S Salt Lake","UT","Utah","84165","Mountain","40.668068","-111.908297"
"(435) 590-","Cell Number","Iron","Cedar City","UT","Utah","84721","Mountain","37.656843","-113.3695"
"(801) 843-","Landline","Weber","Ogden","UT","Utah","84407","Mountain","41.238547","-111.965867"
"(435) 901-","Cell Number","Summit","Park City","UT","Utah","84098","Mountain","40.702896","-111.548098"
"(801) 344-","Landline","Utah","Provo","UT","Utah","84601","Mountain","40.235053","-111.695558"
"(801) 608-","Cell Number","Salt Lake","S Salt Lake","UT","Utah","84165","Mountain","40.668068","-111.908297"
"(801) 650-","Landline","Weber","Ogden","UT","Utah","84407","Mountain","41.238547","-111.965867"
"(801) 337-","Landline","Weber","Ogden","UT","Utah","84407","Mountain","41.238547","-111.965867"
"(801) 250-","Landline","Salt Lake","Magna","UT","Utah","84044","Mountain","40.699401","-112.088875"
"(801) 914-","Cell Number","Salt Lake","Murray","UT","Utah","84123","Mountain","40.65963","-111.919269"
"(435) 645-","Landline","Summit","Park City","UT","Utah","84098","Mountain","40.702896","-111.548098"
"(801) 304-","Landline","Salt Lake","Midvale","UT","Utah","84047","Mountain","40.608972","-111.885868"
"(801) 281-","Landline","Salt Lake","Murray","UT","Utah","84123","Mountain","40.65963","-111.919269"
"(801) 261-","Landline","Salt Lake","Murray","UT","Utah","84123","Mountain","40.65963","-111.919269"
"(801) 417-","Landline","Salt Lake","S Salt Lake","UT","Utah","84165","Mountain","40.668068","-111.908297"
"(801) 856-","Cell Number","Salt Lake","S Salt Lake","UT","Utah","84165","Mountain","40.668068","-111.908297"
"(801) 891-","Cell Number","Salt Lake","S Salt Lake","UT","Utah","84165","Mountain","40.668068","-111.908297"
"(801) 577-","Cell Number","Salt Lake","S Salt Lake","UT","Utah","84165","Mountain","40.668068","-111.908297"
"(801) 833-","Unknown","Salt Lake","S Salt Lake","UT","Utah","84165","Mountain","40.668068","-111.908297"
"(801) 813-","Landline","Salt Lake","S Salt Lake","UT","Utah","84165","Mountain","40.668068","-111.908297"
"(435) 592-","Cell Number","Iron","Cedar City","UT","Utah","84721","Mountain","37.656843","-113.3695"
"(435) 962-","Cell Number","Summit","Park City","UT","Utah","84098","Mountain","40.702896","-111.548098"
"(801) 878-","Unknown","Salt Lake","Riverton","UT","Utah","84095","Mountain","40.554098","-111.953891"
"(801) 209-","Cell Number","Salt Lake","S Salt Lake","UT","Utah","84165","Mountain","40.668068","-111.908297"
"(801) 437-","Landline","Utah","Provo","UT","Utah","84601","Mountain","40.235053","-111.695558"
"(801) 778-","Landline","Weber","Ogden","UT","Utah","84407","Mountain","41.238547","-111.965867"
"(801) 826-","Unknown","Salt Lake","Midvale","UT","Utah","84047","Mountain","40.608972","-111.885868"
"(801) 955-","Landline","Salt Lake","Kearns","UT","Utah","84118","Mountain","40.650407","-112.005421"
"(801) 456-","Landline","Salt Lake","S Salt Lake","UT","Utah","84165","Mountain","40.668068","-111.908297"
"(435) 575-","Landline","Summit","Park City","UT","Utah","84098","Mountain","40.702896","-111.548098"
"(801) 740-","Landline","Weber","Ogden","UT","Utah","84407","Mountain","41.238547","-111.965867"
"(435) 662-","Landline","Iron","Cedar City","UT","Utah","84721","Mountain","37.656843","-113.3695"
"(435) 888-","Landline","Carbon","East Carbon","UT","Utah","84520","Mountain","39.531795","-110.403536"
"(801) 846-","Landline","Salt Lake","Midvale","UT","Utah","84047","Mountain","40.608972","-111.885868"
"(801) 994-","Landline","Salt Lake","S Salt Lake","UT","Utah","84165","Mountain","40.668068","-111.908297"
"(801) 910-","Cell Number","Salt Lake","S Salt Lake","UT","Utah","84165","Mountain","40.668068","-111.908297"
"(435) 200-","Landline","Summit","Park City","UT","Utah","84098","Mountain","40.702896","-111.548098"
"(435) 781-","Landline","Uintah","Vernal","UT","Utah","84079","Mountain","40.160179","-109.547839"
"(801) 258-","Landline","Salt Lake","S Salt Lake","UT","Utah","84165","Mountain","40.668068","-111.908297"
"(801) 995-","Landline","Salt Lake","Provo","UT","Utah","84601","Mountain","40.235053","-111.695558"
"(801) 376-","Cell Number","Utah","Provo","UT","Utah","84601","Mountain","40.235053","-111.695558"
"(435) 363-","Landline","Cache","Logan","UT","Utah","84321","Mountain","41.76695","-111.885084"
"(801) 598-","Cell Number","Salt Lake","S Salt Lake","UT","Utah","84165","Mountain","40.668068","-111.908297"
"(435) 528-","Landline","Sanpete","Manti","UT","Utah","84642","Mountain","39.358358","-111.65769"
"(801) 264-","Landline","Salt Lake","Murray","UT","Utah","84123","Mountain","40.65963","-111.919269"
"(801) 780-","Landline","Salt Lake","Magna","UT","Utah","84044","Mountain","40.699401","-112.088875"
"(435) 438-","Landline","Beaver","Beaver","UT","Utah","84713","Mountain","38.315334","-112.798228"
"(801) 815-","Cell Number","Salt Lake","S Salt Lake","UT","Utah","84165","Mountain","40.668068","-111.908297"
"(435) 425-","Landline","Wayne","Teasdale","UT","Utah","84773","Mountain","38.272761","-111.464123"
"(435) 335-","Landline","Wayne","Teasdale","UT","Utah","84773","Mountain","38.272761","-111.464123"
"(801) 574-","Cell Number","Salt Lake","S Salt Lake","UT","Utah","84165","Mountain","40.668068","-111.908297"
"(801) 926-","Landline","Davis","Clearfield","UT","Utah","84016","Mountain","40.892995","-111.888121"
"(435) 384-","Landline","Emery","Ferron","UT","Utah","84523","Mountain","39.14373","-111.118572"
"(801) 963-","Landline","Salt Lake","Kearns","UT","Utah","84118","Mountain","40.650407","-112.005421"
"(801) 402-","Landline","Davis","Farmington","UT","Utah","84025","Mountain","40.969069","-111.907344"
"(801) 670-","Landline","Weber","Ogden","UT","Utah","84407","Mountain","41.238547","-111.965867"
"(801) 269-","Landline","Salt Lake","Murray","UT","Utah","84123","Mountain","40.65963","-111.919269"
"(801) 665-","Landline","Salt Lake","S Salt Lake","UT","Utah","84165","Mountain","40.668068","-111.908297"
"(801) 623-","Cell Number","Utah","Provo","UT","Utah","84601","Mountain","40.235053","-111.695558"
"(801) 864-","Cell Number","Salt Lake","S Salt Lake","UT","Utah","84165","Mountain","40.668068","-111.908297"
"(435) 759-","Landline","Millard","Fillmore","UT","Utah","84631","Mountain","39.055572","-112.467412"
"(801) 550-","Cell Number","Salt Lake","S Salt Lake","UT","Utah","84165","Mountain","40.668068","-111.908297"
"(801) 372-","Cell Number","Utah","Provo","UT","Utah","84601","Mountain","40.235053","-111.695558"
"(801) 774-","Landline","Davis","Clearfield","UT","Utah","84016","Mountain","40.892995","-111.888121"
"(801) 758-","Landline","Salt Lake","Kearns","UT","Utah","84118","Mountain","40.650407","-112.005421"
"(801) 410-","Unknown","Salt Lake","S Salt Lake","UT","Utah","84165","Mountain","40.668068","-111.908297"
"(801) 530-","Landline","Salt Lake","S Salt Lake","UT","Utah","84165","Mountain","40.668068","-111.908297"
"(801) 263-","Landline","Salt Lake","Murray","UT","Utah","84123","Mountain","40.65963","-111.919269"
"(801) 820-","Landline","Davis","Clearfield","UT","Utah","84016","Mountain","40.892995","-111.888121"
"(435) 604-","Landline","Summit","Park City","UT","Utah","84098","Mountain","40.702896","-111.548098"
"(801) 744-","Landline","Salt Lake","S Salt Lake","UT","Utah","84165","Mountain","40.668068","-111.908297"
"(801) 291-","Cell Number","Salt Lake","Murray","UT","Utah","84123","Mountain","40.65963","-111.919269"
"(801) 518-","Cell Number","Salt Lake","S Salt Lake","UT","Utah","84165","Mountain","40.668068","-111.908297"
"(801) 645-","Cell Number","Weber","Ogden","UT","Utah","84407","Mountain","41.238547","-111.965867"
"(435) 655-","Landline","Summit","Park City","UT","Utah","84098","Mountain","40.702896","-111.548098"
"(801) 885-","Landline","Utah","Provo","UT","Utah","84601","Mountain","40.235053","-111.695558"
"(435) 258-","Landline","Cache","Richmond","UT","Utah","84333","Mountain","41.883064","-111.798034"
"(801) 395-","Landline","Weber","Ogden","UT","Utah","84407","Mountain","41.238547","-111.965867"
"(435) 418-","Cell Number","Beaver","Beaver","UT","Utah","84713","Mountain","38.315334","-112.798228"
"(801) 267-","Landline","Salt Lake","Murray","UT","Utah","84123","Mountain","40.65963","-111.919269"
"(801) 934-","Landline","Davis","Farmington","UT","Utah","84025","Mountain","40.969069","-111.907344"
"(801) 750-","Cell Number","Salt Lake","S Salt Lake","UT","Utah","84165","Mountain","40.668068","-111.908297"
"(801) 616-","Unknown","Utah","Provo","UT","Utah","84601","Mountain","40.235053","-111.695558"
"(435) 687-","Landline","Emery","Huntington","UT","Utah","84528","Mountain","39.283156","-110.961933"
"(435) 542-","Landline","Wayne","Torrey","UT","Utah","84775","Mountain","38.296853","-111.413774"
"(801) 430-","Cell Number","Weber","Ogden","UT","Utah","84407","Mountain","41.238547","-111.965867"
"(801) 803-","Unknown","Salt Lake","S Salt Lake","UT","Utah","84165","Mountain","40.668068","-111.908297"
"(801) 354-","Landline","Utah","Provo","UT","Utah","84601","Mountain","40.235053","-111.695558"
"(801) 284-","Landline","Salt Lake","Murray","UT","Utah","84123","Mountain","40.65963","-111.919269"
"(435) 646-","Landline","Duchesne","Myton","UT","Utah","84052","Mountain","40.200074","-110.049034"
"(801) 812-","Landline","Utah","Provo","UT","Utah","84601","Mountain","40.235053","-111.695558"
"(801) 522-","Landline","Salt Lake","S Salt Lake","UT","Utah","84165","Mountain","40.668068","-111.908297"
"(801) 469-","Landline","Weber","Ogden","UT","Utah","84407","Mountain","41.238547","-111.965867"
"(801) 613-","Unknown","Salt Lake","Kearns","UT","Utah","84118","Mountain","40.650407","-112.005421"
"(801) 636-","Cell Number","Utah","Provo","UT","Utah","84601","Mountain","40.235053","-111.695558"
"(801) 494-","Landline","Utah","Provo","UT","Utah","84601","Mountain","40.235053","-111.695558"
"(801) 271-","Cell Number","Salt Lake","S Salt Lake","UT","Utah","84165","Mountain","40.668068","-111.908297"
"(801) 326-","Landline","Salt Lake","S Salt Lake","UT","Utah","84165","Mountain","40.668068","-111.908297"
"(801) 517-","Landline","Salt Lake","S Salt Lake","UT","Utah","84165","Mountain","40.668068","-111.908297"
"(435) 766-","Cell Number","Uintah","Vernal","UT","Utah","84079","Mountain","40.160179","-109.547839"
"(801) 251-","Landline","Salt Lake","Magna","UT","Utah","84044","Mountain","40.699401","-112.088875"
"(801) 553-","Landline","Salt Lake","Draper","UT","Utah","84020","Mountain","40.506148","-111.869671"
"(435) 613-","Landline","Carbon","Price","UT","Utah","84501","Mountain","39.567883","-110.650901"
"(801) 898-","Cell Number","Salt Lake","S Salt Lake","UT","Utah","84165","Mountain","40.668068","-111.908297"
"(801) 717-","Landline","Utah","Provo","UT","Utah","84601","Mountain","40.235053","-111.695558"
"(801) 310-","Cell Number","Utah","Provo","UT","Utah","84601","Mountain","40.235053","-111.695558"
"(801) 559-","Landline","Salt Lake","Holladay","UT","Utah","84121","Mountain","40.622557","-111.777749"
"(435) 603-","Landline","Cache","Hyrum","UT","Utah","84319","Mountain","41.717589","-111.879653"
"(801) 579-","Landline","Salt Lake","S Salt Lake","UT","Utah","84165","Mountain","40.668068","-111.908297"
"(801) 662-","Unknown","Salt Lake","S Salt Lake","UT","Utah","84165","Mountain","40.668068","-111.908297"
"(435) 870-","Landline","Carbon","Helper","UT","Utah","84526","Mountain","39.637459","-110.77667"
"(801) 452-","Landline","Weber","Ogden","UT","Utah","84407","Mountain","41.238547","-111.965867"
"(801) 475-","Landline","Weber","Ogden","UT","Utah","84407","Mountain","41.238547","-111.965867"
"(801) 342-","Landline","Utah","Provo","UT","Utah","84601","Mountain","40.235053","-111.695558"
"(435) 848-","Landline","Duchesne","Tabiona","UT","Utah","84072","Mountain","40.359782","-110.721218"
"(801) 639-","Landline","Salt Lake","Murray","UT","Utah","84123","Mountain","40.65963","-111.919269"
"(801) 791-","Cell Number","Weber","Ogden","UT","Utah","84407","Mountain","41.238547","-111.965867"
"(801) 260-","Landline","Salt Lake","West Jordan","UT","Utah","84088","Mountain","40.587629","-111.98342"
"(435) 531-","Cell Number","Iron","Cedar City","UT","Utah","84721","Mountain","37.656843","-113.3695"
"(801) 526-","Landline","Salt Lake","S Salt Lake","UT","Utah","84165","Mountain","40.668068","-111.908297"
"(801) 297-","Landline","Salt Lake","S Salt Lake","UT","Utah","84165","Mountain","40.668068","-111.908297"
"(801) 327-","Landline","Salt Lake","S Salt Lake","UT","Utah","84165","Mountain","40.668068","-111.908297"
"(801) 539-","Landline","Salt Lake","S Salt Lake","UT","Utah","84165","Mountain","40.668068","-111.908297"
"(435) 782-","Landline","Summit","Kamas","UT","Utah","84036","Mountain","40.667933","-111.312427"
"(435) 866-","Landline","Box Elder","Portage","UT","Utah","84331","Mountain","41.906183","-112.180605"
"(435) 654-","Landline","Wasatch","Heber City","UT","Utah","84032","Mountain","40.517678","-111.348882"
"(435) 784-","Landline","Daggett","Manila","UT","Utah","84046","Mountain","40.990039","-109.704889"
"(801) 222-","Landline","Utah","Provo","UT","Utah","84601","Mountain","40.235053","-111.695558"
"(801) 329-","Cell Number","Salt Lake","Murray","UT","Utah","84123","Mountain","40.65963","-111.919269"
"(801) 736-","Landline","Salt Lake","S Salt Lake","UT","Utah","84165","Mountain","40.668068","-111.908297"
"(801) 626-","Landline","Weber","Ogden","UT","Utah","84407","Mountain","41.238547","-111.965867"
"(801) 290-","Landline","Salt Lake","S Salt Lake","UT","Utah","84165","Mountain","40.668068","-111.908297"
"(801) 223-","Landline","Utah","Provo","UT","Utah","84601","Mountain","40.235053","-111.695558"
"(801) 695-","Cell Number","Weber","Ogden","UT","Utah","84407","Mountain","41.238547","-111.965867"
"(801) 686-","Cell Number","Weber","Ogden","UT","Utah","84407","Mountain","41.238547","-111.965867"
"(435) 623-","Landline","Juab","Nephi","UT","Utah","84648","Mountain","39.757861","-111.841787"
"(801) 779-","Landline","Davis","Clearfield","UT","Utah","84016","Mountain","40.892995","-111.888121"
"(435) 835-","Landline","Sanpete","Manti","UT","Utah","84642","Mountain","39.358358","-111.65769"
"(435) 340-","Cell Number","Sanpete","Ephraim","UT","Utah","84627","Mountain","39.373122","-111.62523"
"(801) 986-","Cell Number","Salt Lake","S Salt Lake","UT","Utah","84165","Mountain","40.668068","-111.908297"
"(801) 307-","Landline","Salt Lake","Midvale","UT","Utah","84047","Mountain","40.608972","-111.885868"
"(435) 512-","Cell Number","Cache","Logan","UT","Utah","84321","Mountain","41.76695","-111.885084"
"(435) 690-","Cell Number","Garfield","Panguitch","UT","Utah","84759","Mountain","37.827846","-112.522595"
"(801) 602-","Cell Number","Utah","Provo","UT","Utah","84601","Mountain","40.235053","-111.695558"
"(801) 359-","Landline","Salt Lake","S Salt Lake","UT","Utah","84165","Mountain","40.668068","-111.908297"
"(801) 590-","Landline","Salt Lake","S Salt Lake","UT","Utah","84165","Mountain","40.668068","-111.908297"
"(801) 604-","Cell Number","Salt Lake","S Salt Lake","UT","Utah","84165","Mountain","40.668068","-111.908297"
"(801) 289-","Landline","Salt Lake","S Salt Lake","UT","Utah","84165","Mountain","40.668068","-111.908297"
"(801) 839-","Unknown","Salt Lake","S Salt Lake","UT","Utah","84165","Mountain","40.668068","-111.908297"
"(801) 357-","Landline","Utah","Provo","UT","Utah","84601","Mountain","40.235053","-111.695558"
"(801) 915-","Cell Number","Salt Lake","S Salt Lake","UT","Utah","84165","Mountain","40.668068","-111.908297"
"(801) 784-","Landline","Davis","Clearfield","UT","Utah","84016","Mountain","40.892995","-111.888121"
"(801) 697-","Landline","Weber","Ogden","UT","Utah","84407","Mountain","41.238547","-111.965867"
"(801) 580-","Cell Number","Salt Lake","S Salt Lake","UT","Utah","84165","Mountain","40.668068","-111.908297"
"(801) 460-","Landline","Salt Lake","Midvale","UT","Utah","84047","Mountain","40.608972","-111.885868"
"(801) 802-","Landline","Utah","Provo","UT","Utah","84601","Mountain","40.235053","-111.695558"
"(801) 707-","Unknown","Salt Lake","S Salt Lake","UT","Utah","84165","Mountain","40.668068","-111.908297"
"(801) 971-","Cell Number","Salt Lake","S Salt Lake","UT","Utah","84165","Mountain","40.668068","-111.908297"
"(435) 890-","Landline","Cache","Logan","UT","Utah","84321","Mountain","41.76695","-111.885084"
"(435) 219-","Unknown","Uintah","Vernal","UT","Utah","84079","Mountain","40.160179","-109.547839"
"(435) 731-","Cell Number","Summit","Park City","UT","Utah","84098","Mountain","40.702896","-111.548098"
"(801) 502-","Cell Number","Salt Lake","S Salt Lake","UT","Utah","84165","Mountain","40.668068","-111.908297"
"(801) 361-","Cell Number","Utah","Provo","UT","Utah","84601","Mountain","40.235053","-111.695558"
"(801) 288-","Landline","Salt Lake","Murray","UT","Utah","84123","Mountain","40.65963","-111.919269"
"(801) 541-","Cell Number","Salt Lake","S Salt Lake","UT","Utah","84165","Mountain","40.668068","-111.908297"
"(435) 813-","Cell Number","Sanpete","Manti","UT","Utah","84642","Mountain","39.358358","-111.65769"
"(435) 783-","Landline","Summit","Kamas","UT","Utah","84036","Mountain","40.667933","-111.312427"
"(801) 961-","Landline","Salt Lake","S Salt Lake","UT","Utah","84165","Mountain","40.668068","-111.908297"
"(435) 880-","Cell Number","Daggett","Dutch John","UT","Utah","84023","Mountain","40.936315","-109.432883"
"(801) 247-","Unknown","Salt Lake","Magna","UT","Utah","84044","Mountain","40.699401","-112.088875"
"(801) 599-","Cell Number","Salt Lake","S Salt Lake","UT","Utah","84165","Mountain","40.668068","-111.908297"
"(801) 242-","Cell Number","Salt Lake","S Salt Lake","UT","Utah","84165","Mountain","40.668068","-111.908297"
"(801) 404-","Cell Number","Utah","Provo","UT","Utah","84601","Mountain","40.235053","-111.695558"
"(435) 216-","Landline","Washington","Hurricane","UT","Utah","84737","Mountain","37.145366","-113.367458"
"(801) 427-","Cell Number","Utah","Provo","UT","Utah","84601","Mountain","40.235053","-111.695558"
"(801) 554-","Cell Number","Salt Lake","S Salt Lake","UT","Utah","84165","Mountain","40.668068","-111.908297"
"(801) 527-","Landline","Salt Lake","Holladay","UT","Utah","84121","Mountain","40.622557","-111.777749"
"(801) 573-","Cell Number","Salt Lake","S Salt Lake","UT","Utah","84165","Mountain","40.668068","-111.908297"
"(801) 943-","Landline","Salt Lake","Holladay","UT","Utah","84121","Mountain","40.622557","-111.777749"
"(435) 642-","Landline","Summit","Peoa","UT","Utah","84061","Mountain","40.743379","-111.351178"
"(435) 631-","Cell Number","Summit","Park City","UT","Utah","84098","Mountain","40.702896","-111.548098"
"(435) 867-","Landline","Iron","Cedar City","UT","Utah","84721","Mountain","37.656843","-113.3695"
"(801) 560-","Cell Number","Salt Lake","S Salt Lake","UT","Utah","84165","Mountain","40.668068","-111.908297"
"(801) 512-","Unknown","Salt Lake","S Salt Lake","UT","Utah","84165","Mountain","40.668068","-111.908297"
"(435) 214-","Landline","Summit","Park City","UT","Utah","84098","Mountain","40.702896","-111.548098"
"(801) 900-","Unknown","Utah","Provo","UT","Utah","84601","Mountain","40.235053","-111.695558"
"(801) 621-","Landline","Weber","Ogden","UT","Utah","84407","Mountain","41.238547","-111.965867"
"(801) 932-","Landline","Utah","Provo","UT","Utah","84601","Mountain","40.235053","-111.695558"
"(435) 406-","Cell Number","Millard","Delta","UT","Utah","84624","Mountain","39.247056","-112.526542"
"(801) 471-","Cell Number","Utah","Provo","UT","Utah","84601","Mountain","40.235053","-111.695558"
"(801) 661-","Cell Number","Salt Lake","S Salt Lake","UT","Utah","84165","Mountain","40.668068","-111.908297"
"(435) 586-","Landline","Iron","Cedar City","UT","Utah","84721","Mountain","37.656843","-113.3695"
"(435) 749-","Cell Number","Emery","Castle Dale","UT","Utah","84513","Mountain","39.196393","-111.052868"
"(801) 217-","Landline","Davis","Clearfield","UT","Utah","84016","Mountain","40.892995","-111.888121"
"(801) 892-","Landline","Salt Lake","S Salt Lake","UT","Utah","84165","Mountain","40.668068","-111.908297"
"(801) 232-","Cell Number","Salt Lake","S Salt Lake","UT","Utah","84165","Mountain","40.668068","-111.908297"
"(435) 529-","Landline","Sevier","Salina","UT","Utah","84654","Mountain","38.921403","-111.908156"
"(801) 438-","Landline","Salt Lake","Holladay","UT","Utah","84121","Mountain","40.622557","-111.777749"
"(801) 347-","Cell Number","Salt Lake","S Salt Lake","UT","Utah","84165","Mountain","40.668068","-111.908297"
"(435) 381-","Landline","Emery","Castle Dale","UT","Utah","84513","Mountain","39.196393","-111.052868"
"(435) 658-","Landline","Summit","Park City","UT","Utah","84098","Mountain","40.702896","-111.548098"
"(801) 214-","Unknown","Salt Lake","S Salt Lake","UT","Utah","84165","Mountain","40.668068","-111.908297"
"(435) 753-","Landline","Cache","Logan","UT","Utah","84321","Mountain","41.76695","-111.885084"
"(435) 463-","Cell Number","Iron","Cedar City","UT","Utah","84721","Mountain","37.656843","-113.3695"
"(801) 596-","Landline","Salt Lake","S Salt Lake","UT","Utah","84165","Mountain","40.668068","-111.908297"
"(801) 685-","Landline","Salt Lake","Murray","UT","Utah","84123","Mountain","40.65963","-111.919269"
"(801) 788-","Landline","Utah","Provo","UT","Utah","84601","Mountain","40.235053","-111.695558"
"(435) 205-","Cell Number","Summit","Park City","UT","Utah","84098","Mountain","40.702896","-111.548098"
"(435) 855-","Landline","Millard","Garrison","UT","Utah","84728","Mountain","39.06433","-113.032141"
"(801) 446-","Landline","Salt Lake","Riverton","UT","Utah","84095","Mountain","40.554098","-111.953891"
"(435) 770-","Cell Number","Cache","Logan","UT","Utah","84321","Mountain","41.76695","-111.885084"
"(801) 814-","Cell Number","Weber","Ogden","UT","Utah","84407","Mountain","41.238547","-111.965867"
"(435) 760-","Cell Number","Cache","Logan","UT","Utah","84321","Mountain","41.76695","-111.885084"
"(801) 355-","Landline","Salt Lake","S Salt Lake","UT","Utah","84165","Mountain","40.668068","-111.908297"
"(801) 575-","Landline","Salt Lake","S Salt Lake","UT","Utah","84165","Mountain","40.668068","-111.908297"
"(801) 687-","Cell Number","Utah","Provo","UT","Utah","84601","Mountain","40.235053","-111.695558"
"(435) 326-","Landline","Sevier","Sevier","UT","Utah","84766","Mountain","38.578516","-112.310757"
"(801) 335-","Landline","Davis","Bountiful","UT","Utah","84011","Mountain","40.963547","-112.115984"
"(801) 393-","Landline","Weber","Ogden","UT","Utah","84407","Mountain","41.238547","-111.965867"
"(801) 314-","Landline","Salt Lake","Murray","UT","Utah","84123","Mountain","40.65963","-111.919269"
"(801) 625-","Landline","Weber","Ogden","UT","Utah","84407","Mountain","41.238547","-111.965867"
"(435) 752-","Landline","Cache","Logan","UT","Utah","84321","Mountain","41.76695","-111.885084"
"(801) 982-","Landline","Salt Lake","Kearns","UT","Utah","84118","Mountain","40.650407","-112.005421"
"(801) 854-","Unknown","Utah","Provo","UT","Utah","84601","Mountain","40.235053","-111.695558"
"(801) 388-","Cell Number","Weber","Ogden","UT","Utah","84407","Mountain","41.238547","-111.965867"
"(801) 699-","Cell Number","Salt Lake","S Salt Lake","UT","Utah","84165","Mountain","40.668068","-111.908297"
"(435) 755-","Landline","Cache","Logan","UT","Utah","84321","Mountain","41.76695","-111.885084"
"(801) 738-","Unknown","Salt Lake","S Salt Lake","UT","Utah","84165","Mountain","40.668068","-111.908297"
"(801) 249-","Cell Number","Salt Lake","S Salt Lake","UT","Utah","84165","Mountain","40.668068","-111.908297"
"(801) 720-","Landline","Weber","Ogden","UT","Utah","84407","Mountain","41.238547","-111.965867"
"(801) 316-","Landline","Salt Lake","S Salt Lake","UT","Utah","84165","Mountain","40.668068","-111.908297"
"(801) 889-","Unknown","Salt Lake","S Salt Lake","UT","Utah","84165","Mountain","40.668068","-111.908297"
"(801) 226-","Landline","Utah","Provo","UT","Utah","84601","Mountain","40.235053","-111.695558"
"(801) 248-","Cell Number","Salt Lake","S Salt Lake","UT","Utah","84165","Mountain","40.668068","-111.908297"
"(801) 536-","Landline","Salt Lake","S Salt Lake","UT","Utah","84165","Mountain","40.668068","-111.908297"
"(801) 775-","Landline","Davis","Clearfield","UT","Utah","84016","Mountain","40.892995","-111.888121"
"(435) 247-","Landline","Uintah","Lapoint","UT","Utah","84039","Mountain","40.485962","-109.774553"
"(435) 661-","Landline","Garfield","Hite","UT","Utah","84533","Mountain","37.748946","-110.22691"
"(801) 790-","Landline","Salt Lake","S Salt Lake","UT","Utah","84165","Mountain","40.668068","-111.908297"
"(801) 724-","Landline","Utah","Provo","UT","Utah","84601","Mountain","40.235053","-111.695558"
"(435) 374-","Unknown","Cache","Logan","UT","Utah","84321","Mountain","41.76695","-111.885084"
"(801) 400-","Cell Number","Utah","Provo","UT","Utah","84601","Mountain","40.235053","-111.695558"
"(801) 322-","Landline","Salt Lake","S Salt Lake","UT","Utah","84165","Mountain","40.668068","-111.908297"
"(801) 970-","Unknown","Salt Lake","S Salt Lake","UT","Utah","84165","Mountain","40.668068","-111.908297"
"(801) 918-","Cell Number","Salt Lake","S Salt Lake","UT","Utah","84165","Mountain","40.668068","-111.908297"
"(435) 333-","Cell Number","Summit","Park City","UT","Utah","84098","Mountain","40.702896","-111.548098"
"(801) 476-","Landline","Weber","Ogden","UT","Utah","84407","Mountain","41.238547","-111.965867"
"(801) 229-","Landline","Utah","Provo","UT","Utah","84601","Mountain","40.235053","-111.695558"
"(435) 577-","Landline","Garfield","Panguitch","UT","Utah","84759","Mountain","37.827846","-112.522595"
"(801) 735-","Landline","Utah","Provo","UT","Utah","84601","Mountain","40.235053","-111.695558"
"(435) 790-","Cell Number","Uintah","Vernal","UT","Utah","84079","Mountain","40.160179","-109.547839"
"(801) 897-","Cell Number","Salt Lake","S Salt Lake","UT","Utah","84165","Mountain","40.668068","-111.908297"
"(435) 609-","Cell Number","Emery","Castle Dale","UT","Utah","84513","Mountain","39.196393","-111.052868"
"(801) 799-","Landline","Salt Lake","S Salt Lake","UT","Utah","84165","Mountain","40.668068","-111.908297"
"(801) 415-","Landline","Salt Lake","S Salt Lake","UT","Utah","84165","Mountain","40.668068","-111.908297"
"(801) 212-","Landline","Salt Lake","S Salt Lake","UT","Utah","84165","Mountain","40.668068","-111.908297"
"(435) 565-","Landline","Summit","Park City","UT","Utah","84098","Mountain","40.702896","-111.548098"
"(801) 535-","Landline","Salt Lake","S Salt Lake","UT","Utah","84165","Mountain","40.668068","-111.908297"
"(801) 627-","Landline","Weber","Ogden","UT","Utah","84407","Mountain","41.238547","-111.965867"
"(801) 765-","Landline","Utah","Provo","UT","Utah","84601","Mountain","40.235053","-111.695558"
"(801) 909-","Cell Number","Salt Lake","S Salt Lake","UT","Utah","84165","Mountain","40.668068","-111.908297"
"(801) 434-","Landline","Utah","Provo","UT","Utah","84601","Mountain","40.235053","-111.695558"
"(435) 364-","Unknown","Sanpete","Manti","UT","Utah","84642","Mountain","39.358358","-111.65769"
"(435) 712-","Landline","Washington","New Harmony","UT","Utah","84757","Mountain","37.455047","-113.268012"
"(435) 842-","Landline","Millard","Fillmore","UT","Utah","84631","Mountain","39.055572","-112.467412"
"(801) 863-","Landline","Utah","Provo","UT","Utah","84601","Mountain","40.235053","-111.695558"
"(435) 487-","Landline","Summit","Park City","UT","Utah","84098","Mountain","40.702896","-111.548098"
"(801) 566-","Landline","Salt Lake","Midvale","UT","Utah","84047","Mountain","40.608972","-111.885868"
"(801) 988-","Landline","Salt Lake","S Salt Lake","UT","Utah","84165","Mountain","40.668068","-111.908297"
"(435) 580-","Cell Number","Juab","Nephi","UT","Utah","84648","Mountain","39.757861","-111.841787"
"(801) 745-","Landline","Weber","Huntsville","UT","Utah","84317","Mountain","41.266035","-111.715855"
"(801) 715-","Landline","Salt Lake","S Salt Lake","UT","Utah","84165","Mountain","40.668068","-111.908297"
"(801) 582-","Landline","Salt Lake","S Salt Lake","UT","Utah","84165","Mountain","40.668068","-111.908297"
"(435) 713-","Landline","Cache","Logan","UT","Utah","84321","Mountain","41.76695","-111.885084"
"(801) 764-","Landline","Utah","Provo","UT","Utah","84601","Mountain","40.235053","-111.695558"
"(801) 276-","Cell Number","Salt Lake","S Salt Lake","UT","Utah","84165","Mountain","40.668068","-111.908297"
"(801) 202-","Cell Number","Salt Lake","S Salt Lake","UT","Utah","84165","Mountain","40.668068","-111.908297"
"(435) 839-","Landline","Tooele","Vernon","UT","Utah","84080","Mountain","40.086909","-112.455046"
"(801) 953-","Cell Number","Salt Lake","S Salt Lake","UT","Utah","84165","Mountain","40.668068","-111.908297"
"(801) 732-","Landline","Weber","Ogden","UT","Utah","84407","Mountain","41.238547","-111.965867"
"(801) 797-","Landline","Davis","Bountiful","UT","Utah","84011","Mountain","40.963547","-112.115984"
"(801) 325-","Landline","Salt Lake","S Salt Lake","UT","Utah","84165","Mountain","40.668068","-111.908297"
"(801) 503-","Unknown","Salt Lake","S Salt Lake","UT","Utah","84165","Mountain","40.668068","-111.908297"
"(801) 215-","Landline","Salt Lake","S Salt Lake","UT","Utah","84165","Mountain","40.668068","-111.908297"
"(801) 862-","Landline","Utah","Provo","UT","Utah","84601","Mountain","40.235053","-111.695558"
"(801) 704-","Landline","Utah","Springville","UT","Utah","84663","Mountain","40.180718","-111.562586"
"(801) 364-","Landline","Salt Lake","S Salt Lake","UT","Utah","84165","Mountain","40.668068","-111.908297"
"(801) 597-","Cell Number","Salt Lake","S Salt Lake","UT","Utah","84165","Mountain","40.668068","-111.908297"
"(801) 875-","Unknown","Salt Lake","S Salt Lake","UT","Utah","84165","Mountain","40.668068","-111.908297"
"(801) 230-","Cell Number","Salt Lake","S Salt Lake","UT","Utah","84165","Mountain","40.668068","-111.908297"
"(801) 581-","Landline","Salt Lake","S Salt Lake","UT","Utah","84165","Mountain","40.668068","-111.908297"
"(435) 677-","Landline","Iron","Cedar City","UT","Utah","84721","Mountain","37.656843","-113.3695"
"(801) 592-","Cell Number","Utah","Provo","UT","Utah","84601","Mountain","40.235053","-111.695558"
"(801) 690-","Cell Number","Weber","Ogden","UT","Utah","84407","Mountain","41.238547","-111.965867"
"(801) 710-","Cell Number","Weber","Ogden","UT","Utah","84407","Mountain","41.238547","-111.965867"
"(801) 957-","Landline","Salt Lake","Kearns","UT","Utah","84118","Mountain","40.650407","-112.005421"
"(801) 612-","Landline","Weber","Ogden","UT","Utah","84407","Mountain","41.238547","-111.965867"
"(801) 777-","Landline","Davis","Clearfield","UT","Utah","84016","Mountain","40.892995","-111.888121"
"(801) 585-","Landline","Salt Lake","S Salt Lake","UT","Utah","84165","Mountain","40.668068","-111.908297"
"(435) 230-","Cell Number","Box Elder","Honeyville","UT","Utah","84314","Mountain","41.651978","-112.104979"
"(801) 224-","Landline","Utah","Provo","UT","Utah","84601","Mountain","40.235053","-111.695558"
"(801) 731-","Landline","Weber","Ogden","UT","Utah","84407","Mountain","41.238547","-111.965867"
"(801) 519-","Landline","Salt Lake","S Salt Lake","UT","Utah","84165","Mountain","40.668068","-111.908297"
"(801) 951-","Landline","Salt Lake","S Salt Lake","UT","Utah","84165","Mountain","40.668068","-111.908297"
"(801) 345-","Landline","Utah","Provo","UT","Utah","84601","Mountain","40.235053","-111.695558"
"(801) 734-","Landline","Utah","Provo","UT","Utah","84601","Mountain","40.235053","-111.695558"
"(801) 939-","Landline","Davis","Farmington","UT","Utah","84025","Mountain","40.969069","-111.907344"
"(435) 242-","Cell Number","Emery","Green River","UT","Utah","84540","Mountain","38.999877","-109.615008"
"(801) 861-","Landline","Utah","Provo","UT","Utah","84601","Mountain","40.235053","-111.695558"
"(435) 676-","Landline","Garfield","Panguitch","UT","Utah","84759","Mountain","37.827846","-112.522595"
"(435) 286-","Landline","Emery","Ferron","UT","Utah","84523","Mountain","39.14373","-111.118572"
"(435) 238-","Landline","Iron","Cedar City","UT","Utah","84721","Mountain","37.656843","-113.3695"
"(435) 785-","Landline","Wasatch","Heber City","UT","Utah","84032","Mountain","40.517678","-111.348882"
"(801) 648-","Landline","Weber","Ogden","UT","Utah","84407","Mountain","41.238547","-111.965867"
"(801) 367-","Cell Number","Utah","Provo","UT","Utah","84601","Mountain","40.235053","-111.695558"
"(801) 572-","Landline","Salt Lake","Draper","UT","Utah","84020","Mountain","40.506148","-111.869671"
"(801) 323-","Landline","Salt Lake","S Salt Lake","UT","Utah","84165","Mountain","40.668068","-111.908297"
"(801) 631-","Cell Number","Salt Lake","S Salt Lake","UT","Utah","84165","Mountain","40.668068","-111.908297"
"(801) 830-","Cell Number","Utah","Provo","UT","Utah","84601","Mountain","40.235053","-111.695558"
"(801) 759-","Cell Number","Salt Lake","S Salt Lake","UT","Utah","84165","Mountain","40.668068","-111.908297"
"(801) 947-","Landline","Salt Lake","Holladay","UT","Utah","84121","Mountain","40.622557","-111.777749"
"(801) 614-","Landline","Davis","Layton","UT","Utah","84040","Mountain","41.088889","-111.92614"
"(801) 859-","Cell Number","Salt Lake","S Salt Lake","UT","Utah","84165","Mountain","40.668068","-111.908297"
"(801) 637-","Cell Number","Salt Lake","S Salt Lake","UT","Utah","84165","Mountain","40.668068","-111.908297"
"(435) 946-","Landline","Rich","Garden City","UT","Utah","84028","Mountain","41.907816","-111.379691"
"(801) 696-","Landline","Salt Lake","S Salt Lake","UT","Utah","84165","Mountain","40.668068","-111.908297"
"(801) 283-","Cell Number","Utah","Provo","UT","Utah","84601","Mountain","40.235053","-111.695558"
"(435) 878-","Landline","Washington","Central","UT","Utah","84722","Mountain","37.46693","-113.624783"
"(435) 938-","Landline","Cache","Richmond","UT","Utah","84333","Mountain","41.883064","-111.798034"
"(435) 618-","Cell Number","Garfield","Panguitch","UT","Utah","84759","Mountain","37.827846","-112.522595"
"(801) 979-","Cell Number","Salt Lake","S Salt Lake","UT","Utah","84165","Mountain","40.668068","-111.908297"
"(435) 764-","Cell Number","Cache","Logan","UT","Utah","84321","Mountain","41.76695","-111.885084"
