"Prefix","Usage","County","City","ShortState","LongState","Zip","Timezone","Latitude","Longitude"
"(304) 516-","Cell Number","Upshur","Buckhannon","WV","West Virginia","26201","Eastern","38.975479","-80.240664"
"(304) 385-","Landline","Wayne","Dunlow","WV","West Virginia","25511","Eastern","38.132114","-82.418277"
"(304) 717-","Unknown","Greenbrier","Rupert","WV","West Virginia","25984","Eastern","37.968468","-80.669597"
"(304) 896-","Landline","Logan","Logan","WV","West Virginia","25601","Eastern","37.865036","-82.025158"
"(304) 965-","Landline","Kanawha","Elkview","WV","West Virginia","25071","Eastern","38.386942","-81.450424"
"(304) 722-","Landline","Kanawha","Saint Albans","WV","West Virginia","25177","Eastern","38.31461","-81.636926"
"(304) 231-","Landline","Ohio","Wheeling","WV","West Virginia","26003","Eastern","40.102703","-80.647599"
"(304) 536-","Landline","Greenbrier","White Sulphur Springs","WV","West Virginia","24986","Eastern","37.782726","-80.312877"
"(304) 478-","Landline","Tucker","Parsons","WV","West Virginia","26287","Eastern","39.096016","-79.678724"
"(304) 735-","Landline","Preston","Eglon","WV","West Virginia","26716","Eastern","39.458091","-79.688154"
"(304) 927-","Landline","Roane","Spencer","WV","West Virginia","25276","Eastern","38.777675","-81.364262"
"(304) 321-","Landline","Pendleton","Franklin","WV","West Virginia","26807","Eastern","38.648787","-79.327196"
"(304) 761-","Cell Number","Jackson","Ripley","WV","West Virginia","25271","Eastern","38.791845","-81.728065"
"(304) 817-","Landline","Mercer","Bluefield","WV","West Virginia","24701","Eastern","37.332725","-81.160066"
"(304) 742-","Landline","Nicholas","Craigsville","WV","West Virginia","26205","Eastern","38.329918","-80.645376"
"(304) 603-","Landline","Preston","Tunnelton","WV","West Virginia","26444","Eastern","39.458091","-79.688154"
"(304) 412-","Cell Number","Cabell","Huntington","WV","West Virginia","25774","Eastern","38.413384","-82.277401"
"(304) 427-","Cell Number","Monongalia","Morgantown","WV","West Virginia","26508","Eastern","39.595329","-79.922871"
"(304) 888-","Cell Number","Mercer","Bluefield","WV","West Virginia","24701","Eastern","37.332725","-81.160066"
"(304) 875-","Landline","Mcdowell","War","WV","West Virginia","24892","Eastern","37.375246","-81.653889"
"(304) 609-","Landline","Upshur","Buckhannon","WV","West Virginia","26201","Eastern","38.975479","-80.240664"
"(304) 833-","Landline","Kanawha","Charleston","WV","West Virginia","25387","Eastern","38.296818","-81.554655"
"(304) 840-","Landline","Cabell","Huntington","WV","West Virginia","25774","Eastern","38.413384","-82.277401"
"(304) 518-","Cell Number","Taylor","Grafton","WV","West Virginia","26354","Eastern","39.336266","-80.015686"
"(304) 406-","Landline","Lewis","Weston","WV","West Virginia","26452","Eastern","39.042331","-80.447878"
"(304) 472-","Landline","Upshur","Buckhannon","WV","West Virginia","26201","Eastern","38.975479","-80.240664"
"(304) 899-","Landline","Mingo","Williamson","WV","West Virginia","25661","Eastern","37.702526","-82.26002"
"(304) 686-","Landline","Marshall","Cameron","WV","West Virginia","26033","Eastern","39.872322","-80.555275"
"(304) 330-","Cell Number","Kanawha","Charleston","WV","West Virginia","25387","Eastern","38.296818","-81.554655"
"(304) 530-","Landline","Hardy","Moorefield","WV","West Virginia","26836","Eastern","39.018679","-78.820561"
"(304) 380-","Landline","Kanawha","Charleston","WV","West Virginia","25387","Eastern","38.296818","-81.554655"
"(304) 232-","Landline","Ohio","Wheeling","WV","West Virginia","26003","Eastern","40.102703","-80.647599"
"(304) 943-","Landline","Monongalia","Morgantown","WV","West Virginia","26508","Eastern","39.595329","-79.922871"
"(304) 366-","Landline","Marion","Fairmont","WV","West Virginia","26554","Eastern","39.494115","-80.221282"
"(304) 900-","Unknown","Fayette","Fayetteville","WV","West Virginia","25840","Eastern","38.063982","-81.094259"
"(304) 693-","Landline","Grant","Gormania","WV","West Virginia","26720","Eastern","39.070601","-79.233536"
"(304) 237-","Cell Number","Raleigh","Beckley","WV","West Virginia","25801","Eastern","37.767248","-81.216446"
"(304) 492-","Landline","Hampshire","Levels","WV","West Virginia","25431","Eastern","39.314071","-78.659428"
"(304) 967-","Landline","Mcdowell","Jolo","WV","West Virginia","24850","Eastern","37.375246","-81.653889"
"(304) 498-","Landline","Roane","Spencer","WV","West Virginia","25276","Eastern","38.777675","-81.364262"
"(304) 384-","Landline","Mercer","Athens","WV","West Virginia","24712","Eastern","37.452346","-81.00916"
"(304) 915-","Landline","Kanawha","Alum Creek","WV","West Virginia","25003","Eastern","38.243675","-81.771226"
"(304) 305-","Cell Number","Pleasants","Belmont","WV","West Virginia","26134","Eastern","39.375025","-81.263875"
"(304) 685-","Cell Number","Monongalia","Morgantown","WV","West Virginia","26508","Eastern","39.595329","-79.922871"
"(304) 334-","Landline","Wetzel","Smithfield","WV","West Virginia","26437","Eastern","39.575518","-80.666712"
"(304) 317-","Landline","Wetzel","Paden City","WV","West Virginia","26159","Eastern","39.606691","-80.929167"
"(304) 850-","Unknown","Wood","Williamstown","WV","West Virginia","26187","Eastern","39.367796","-81.455899"
"(304) 571-","Landline","Logan","Logan","WV","West Virginia","25601","Eastern","37.865036","-82.025158"
"(304) 625-","Landline","Harrison","Clarksburg","WV","West Virginia","26306","Eastern","39.285204","-80.385344"
"(304) 382-","Landline","Kanawha","Charleston","WV","West Virginia","25387","Eastern","38.296818","-81.554655"
"(304) 916-","Unknown","Wood","Parkersburg","WV","West Virginia","26103","Eastern","39.236427","-81.540501"
"(304) 798-","Landline","Monongalia","Blacksville","WV","West Virginia","26521","Eastern","39.578512","-80.093007"
"(304) 728-","Landline","Jefferson","Charles Town","WV","West Virginia","25414","Eastern","39.313538","-77.860278"
"(304) 202-","Unknown","Wyoming","Pineville","WV","West Virginia","24874","Eastern","37.603344","-81.53998"
"(304) 595-","Landline","Kanawha","East Bank","WV","West Virginia","25067","Eastern","38.209887","-81.438053"
"(304) 331-","Cell Number","Ohio","Wheeling","WV","West Virginia","26003","Eastern","40.102703","-80.647599"
"(304) 418-","Landline","Monongalia","Morgantown","WV","West Virginia","26508","Eastern","39.595329","-79.922871"
"(304) 241-","Cell Number","Cabell","Huntington","WV","West Virginia","25774","Eastern","38.413384","-82.277401"
"(304) 710-","Unknown","Cabell","Huntington","WV","West Virginia","25774","Eastern","38.413384","-82.277401"
"(304) 753-","Landline","Monroe","Peterstown","WV","West Virginia","24963","Eastern","37.399956","-80.797806"
"(304) 265-","Landline","Taylor","Grafton","WV","West Virginia","26354","Eastern","39.336266","-80.015686"
"(304) 982-","Landline","Kanawha","Charleston","WV","West Virginia","25387","Eastern","38.296818","-81.554655"
"(304) 970-","Unknown","Mcdowell","Welch","WV","West Virginia","24801","Eastern","37.411086","-81.539352"
"(304) 708-","Unknown","Monongalia","Pursglove","WV","West Virginia","26546","Eastern","39.674575","-80.034965"
"(304) 283-","Cell Number","Berkeley","Falling Waters","WV","West Virginia","25419","Eastern","39.572966","-77.882155"
"(304) 907-","Landline","Ohio","Wheeling","WV","West Virginia","26003","Eastern","40.102703","-80.647599"
"(304) 824-","Landline","Lincoln","Hamlin","WV","West Virginia","25523","Eastern","38.280522","-82.083145"
"(304) 776-","Landline","Kanawha","Charleston","WV","West Virginia","25387","Eastern","38.296818","-81.554655"
"(304) 649-","Landline","Nicholas","Birch River","WV","West Virginia","26610","Eastern","38.318389","-80.834152"
"(304) 325-","Landline","Mercer","Bluefield","WV","West Virginia","24701","Eastern","37.332725","-81.160066"
"(304) 471-","Landline","Upshur","Buckhannon","WV","West Virginia","26201","Eastern","38.975479","-80.240664"
"(304) 987-","Cell Number","Marion","Fairmont","WV","West Virginia","26554","Eastern","39.494115","-80.221282"
"(304) 882-","Landline","Mason","Mason","WV","West Virginia","25260","Eastern","39.011467","-82.016935"
"(304) 933-","Landline","Harrison","Bridgeport","WV","West Virginia","26330","Eastern","39.309303","-80.282306"
"(304) 377-","Cell Number","Jackson","Ripley","WV","West Virginia","25271","Eastern","38.791845","-81.728065"
"(304) 426-","Landline","Mingo","Matewan","WV","West Virginia","25678","Eastern","37.743063","-82.10801"
"(304) 627-","Landline","Harrison","Clarksburg","WV","West Virginia","26306","Eastern","39.285204","-80.385344"
"(304) 504-","Landline","Marion","Farmington","WV","West Virginia","26571","Eastern","39.506654","-80.252582"
"(304) 357-","Landline","Kanawha","Charleston","WV","West Virginia","25387","Eastern","38.296818","-81.554655"
"(304) 898-","Landline","Mercer","Athens","WV","West Virginia","24712","Eastern","37.452346","-81.00916"
"(304) 771-","Cell Number","Doddridge","West Union","WV","West Virginia","26456","Eastern","39.296522","-80.774491"
"(304) 448-","Landline","Mcdowell","Elbert","WV","West Virginia","24830","Eastern","37.375246","-81.653889"
"(304) 253-","Landline","Raleigh","Beckley","WV","West Virginia","25801","Eastern","37.767248","-81.216446"
"(304) 765-","Landline","Braxton","Sutton","WV","West Virginia","26601","Eastern","38.654141","-80.67597"
"(304) 295-","Landline","Wood","Vienna","WV","West Virginia","26105","Eastern","39.324924","-81.538034"
"(304) 825-","Landline","Marion","Farmington","WV","West Virginia","26571","Eastern","39.506654","-80.252582"
"(304) 814-","Unknown","Putnam","Buffalo","WV","West Virginia","25033","Eastern","38.610603","-81.924758"
"(304) 222-","Cell Number","Raleigh","Beckley","WV","West Virginia","25801","Eastern","37.767248","-81.216446"
"(304) 721-","Landline","Kanawha","Saint Albans","WV","West Virginia","25177","Eastern","38.31461","-81.636926"
"(304) 449-","Landline","Marion","Fairview","WV","West Virginia","26570","Eastern","39.584289","-80.23895"
"(304) 766-","Landline","Kanawha","Dunbar","WV","West Virginia","25064","Eastern","38.348822","-81.570048"
"(304) 651-","Cell Number","Nicholas","Summersville","WV","West Virginia","26651","Eastern","38.326251","-80.854096"
"(304) 746-","Landline","Kanawha","Charleston","WV","West Virginia","25387","Eastern","38.296818","-81.554655"
"(304) 842-","Landline","Harrison","Bridgeport","WV","West Virginia","26330","Eastern","39.309303","-80.282306"
"(304) 494-","Cell Number","Wood","Parkersburg","WV","West Virginia","26103","Eastern","39.236427","-81.540501"
"(304) 836-","Landline","Kanawha","Charleston","WV","West Virginia","25387","Eastern","38.296818","-81.554655"
"(304) 270-","Landline","Berkeley","Falling Waters","WV","West Virginia","25419","Eastern","39.572966","-77.882155"
"(304) 216-","Cell Number","Monongalia","Morgantown","WV","West Virginia","26508","Eastern","39.595329","-79.922871"
"(304) 692-","Cell Number","Monongalia","Morgantown","WV","West Virginia","26508","Eastern","39.595329","-79.922871"
"(304) 404-","Landline","Harrison","West Milford","WV","West Virginia","26451","Eastern","39.199606","-80.40256"
"(304) 759-","Landline","Kanawha","Nitro","WV","West Virginia","25143","Eastern","38.323042","-81.616124"
"(304) 978-","Unknown","Clay","Clay","WV","West Virginia","25043","Eastern","38.467298","-81.080031"
"(304) 350-","Cell Number","Kanawha","Charleston","WV","West Virginia","25387","Eastern","38.296818","-81.554655"
"(304) 217-","Landline","Brooke","Bethany","WV","West Virginia","26032","Eastern","40.210727","-80.550337"
"(304) 343-","Landline","Kanawha","Charleston","WV","West Virginia","25387","Eastern","38.296818","-81.554655"
"(304) 390-","Landline","Cabell","Milton","WV","West Virginia","25541","Eastern","38.434487","-82.134925"
"(304) 661-","Cell Number","Greenbrier","Lewisburg","WV","West Virginia","24901","Eastern","37.844155","-80.538781"
"(304) 892-","Landline","Preston","Newburg","WV","West Virginia","26410","Eastern","39.458091","-79.688154"
"(304) 288-","Cell Number","Monongalia","Morgantown","WV","West Virginia","26508","Eastern","39.595329","-79.922871"
"(304) 200-","Unknown","Wood","Williamstown","WV","West Virginia","26187","Eastern","39.367796","-81.455899"
"(304) 381-","Landline","Monongalia","Morgantown","WV","West Virginia","26508","Eastern","39.595329","-79.922871"
"(304) 410-","Unknown","Kanawha","Charleston","WV","West Virginia","25387","Eastern","38.296818","-81.554655"
"(304) 245-","Landline","Boone","Madison","WV","West Virginia","25130","Eastern","38.063165","-81.818718"
"(304) 659-","Landline","Ritchie","Pennsboro","WV","West Virginia","26415","Eastern","39.279104","-81.001944"
"(304) 483-","Cell Number","Wood","Parkersburg","WV","West Virginia","26103","Eastern","39.236427","-81.540501"
"(304) 359-","Unknown","Kanawha","Belle","WV","West Virginia","25015","Eastern","38.232406","-81.502399"
"(304) 459-","Landline","Hancock","Chester","WV","West Virginia","26034","Eastern","40.556137","-80.565784"
"(304) 434-","Landline","Hardy","Baker","WV","West Virginia","26801","Eastern","38.999518","-78.821226"
"(304) 868-","Landline","Jackson","Ravenswood","WV","West Virginia","26164","Eastern","38.98882","-81.713983"
"(304) 822-","Landline","Hampshire","Romney","WV","West Virginia","26757","Eastern","39.34487","-78.758487"
"(304) 883-","Landline","Nicholas","Summersville","WV","West Virginia","26651","Eastern","38.326251","-80.854096"
"(304) 220-","Landline","Kanawha","Belle","WV","West Virginia","25015","Eastern","38.232406","-81.502399"
"(304) 580-","Landline","Wood","Vienna","WV","West Virginia","26105","Eastern","39.324924","-81.538034"
"(304) 403-","Landline","Preston","Terra Alta","WV","West Virginia","26764","Eastern","39.430634","-79.519679"
"(304) 326-","Landline","Harrison","Clarksburg","WV","West Virginia","26306","Eastern","39.285204","-80.385344"
"(304) 438-","Landline","Greenbrier","Rainelle","WV","West Virginia","25962","Eastern","37.973212","-80.74519"
"(304) 320-","Cell Number","Mercer","Bluefield","WV","West Virginia","24701","Eastern","37.332725","-81.160066"
"(304) 914-","Cell Number","Hancock","Weirton","WV","West Virginia","26062","Eastern","40.507729","-80.565292"
"(304) 425-","Landline","Mercer","Princeton","WV","West Virginia","24740","Eastern","37.379876","-81.117475"
"(304) 893-","Landline","Wood","Parkersburg","WV","West Virginia","26103","Eastern","39.236427","-81.540501"
"(304) 818-","Landline","Mercer","Princeton","WV","West Virginia","24740","Eastern","37.379876","-81.117475"
"(304) 240-","Unknown","Mercer","Bluefield","WV","West Virginia","24701","Eastern","37.332725","-81.160066"
"(304) 336-","Landline","Brooke","Bethany","WV","West Virginia","26032","Eastern","40.210727","-80.550337"
"(304) 854-","Landline","Boone","Whitesville","WV","West Virginia","25209","Eastern","37.991591","-81.542234"
"(304) 638-","Cell Number","Cabell","Huntington","WV","West Virginia","25774","Eastern","38.413384","-82.277401"
"(304) 874-","Landline","Hardy","Wardensville","WV","West Virginia","26851","Eastern","39.077365","-78.593865"
"(304) 556-","Landline","Kanawha","Charleston","WV","West Virginia","25387","Eastern","38.296818","-81.554655"
"(304) 948-","Landline","Cabell","Barboursville","WV","West Virginia","25504","Eastern","38.379347","-82.264954"
"(304) 383-","Landline","Mcdowell","Anawalt","WV","West Virginia","24808","Eastern","37.375246","-81.653889"
"(304) 672-","Cell Number","Harrison","Clarksburg","WV","West Virginia","26306","Eastern","39.285204","-80.385344"
"(304) 871-","Cell Number","Doddridge","West Union","WV","West Virginia","26456","Eastern","39.296522","-80.774491"
"(304) 565-","Landline","Roane","Newton","WV","West Virginia","25266","Eastern","38.731737","-81.314633"
"(304) 980-","Unknown","Preston","Reedsville","WV","West Virginia","26547","Eastern","39.458091","-79.688154"
"(304) 324-","Landline","Mercer","Bluefield","WV","West Virginia","24701","Eastern","37.332725","-81.160066"
"(304) 810-","Landline","Marshall","Moundsville","WV","West Virginia","26041","Eastern","39.916748","-80.737134"
"(304) 525-","Landline","Cabell","Huntington","WV","West Virginia","25774","Eastern","38.413384","-82.277401"
"(304) 752-","Landline","Logan","Logan","WV","West Virginia","25601","Eastern","37.865036","-82.025158"
"(304) 730-","Cell Number","Cabell","Huntington","WV","West Virginia","25774","Eastern","38.413384","-82.277401"
"(304) 614-","Cell Number","Randolph","Elkins","WV","West Virginia","26241","Eastern","38.846815","-79.892841"
"(304) 394-","Landline","Brooke","Wellsburg","WV","West Virginia","26070","Eastern","40.293469","-80.594036"
"(304) 507-","Landline","Preston","Kingwood","WV","West Virginia","26537","Eastern","39.471673","-79.67596"
"(304) 803-","Landline","Braxton","Gassaway","WV","West Virginia","26624","Eastern","38.718522","-80.687337"
"(304) 634-","Cell Number","Cabell","Huntington","WV","West Virginia","25774","Eastern","38.413384","-82.277401"
"(304) 335-","Landline","Randolph","Valley Bend","WV","West Virginia","26293","Eastern","38.75338","-79.814713"
"(304) 644-","Cell Number","Braxton","Sutton","WV","West Virginia","26601","Eastern","38.654141","-80.67597"
"(304) 566-","Landline","Marion","Fairmont","WV","West Virginia","26554","Eastern","39.494115","-80.221282"
"(304) 356-","Cell Number","Kanawha","Charleston","WV","West Virginia","25387","Eastern","38.296818","-81.554655"
"(304) 329-","Landline","Preston","Kingwood","WV","West Virginia","26537","Eastern","39.471673","-79.67596"
"(304) 314-","Landline","Barbour","Philippi","WV","West Virginia","26416","Eastern","39.161343","-80.049182"
"(304) 986-","Landline","Marion","Mannington","WV","West Virginia","26582","Eastern","39.536663","-80.23996"
"(304) 855-","Landline","Logan","Chapmanville","WV","West Virginia","25508","Eastern","37.96087","-82.01076"
"(304) 368-","Landline","Marion","Fairmont","WV","West Virginia","26554","Eastern","39.494115","-80.221282"
"(304) 322-","Cell Number","Monongalia","Morgantown","WV","West Virginia","26508","Eastern","39.595329","-79.922871"
"(304) 254-","Landline","Raleigh","Beckley","WV","West Virginia","25801","Eastern","37.767248","-81.216446"
"(304) 563-","Cell Number","Cabell","Huntington","WV","West Virginia","25774","Eastern","38.413384","-82.277401"
"(304) 337-","Landline","Wetzel","Paden City","WV","West Virginia","26159","Eastern","39.606691","-80.929167"
"(304) 918-","Unknown","Harrison","Clarksburg","WV","West Virginia","26306","Eastern","39.285204","-80.385344"
"(304) 834-","Cell Number","Wood","Parkersburg","WV","West Virginia","26103","Eastern","39.236427","-81.540501"
"(304) 953-","Cell Number","Logan","Logan","WV","West Virginia","25601","Eastern","37.865036","-82.025158"
"(304) 287-","Landline","Marion","Worthington","WV","West Virginia","26591","Eastern","39.451967","-80.26255"
"(304) 745-","Landline","Harrison","West Milford","WV","West Virginia","26451","Eastern","39.199606","-80.40256"
"(304) 696-","Landline","Cabell","Huntington","WV","West Virginia","25774","Eastern","38.413384","-82.277401"
"(304) 954-","Landline","Kanawha","Charleston","WV","West Virginia","25387","Eastern","38.296818","-81.554655"
"(304) 210-","Landline","Wood","Parkersburg","WV","West Virginia","26103","Eastern","39.236427","-81.540501"
"(304) 902-","Landline","Pendleton","Franklin","WV","West Virginia","26807","Eastern","38.648787","-79.327196"
"(304) 509-","Landline","Preston","Newburg","WV","West Virginia","26410","Eastern","39.458091","-79.688154"
"(304) 922-","Cell Number","Mercer","Bluefield","WV","West Virginia","24701","Eastern","37.332725","-81.160066"
"(304) 484-","Landline","Summers","Meadow Bridge","WV","West Virginia","25976","Eastern","37.865186","-80.874366"
"(304) 276-","Cell Number","Monongalia","Morgantown","WV","West Virginia","26508","Eastern","39.595329","-79.922871"
"(304) 805-","Landline","Harrison","Lost Creek","WV","West Virginia","26385","Eastern","39.152121","-80.357602"
"(304) 424-","Landline","Wood","Parkersburg","WV","West Virginia","26103","Eastern","39.236427","-81.540501"
"(304) 800-","Unknown","Mercer","Bluefield","WV","West Virginia","24701","Eastern","37.332725","-81.160066"
"(304) 768-","Landline","Kanawha","Dunbar","WV","West Virginia","25064","Eastern","38.348822","-81.570048"
"(304) 364-","Landline","Braxton","Gassaway","WV","West Virginia","26624","Eastern","38.718522","-80.687337"
"(304) 399-","Landline","Cabell","Huntington","WV","West Virginia","25774","Eastern","38.413384","-82.277401"
"(304) 219-","Landline","Ohio","Wheeling","WV","West Virginia","26003","Eastern","40.102703","-80.647599"
"(304) 392-","Landline","Greenbrier","Rupert","WV","West Virginia","25984","Eastern","37.968468","-80.669597"
"(304) 864-","Landline","Preston","Reedsville","WV","West Virginia","26547","Eastern","39.458091","-79.688154"
"(304) 762-","Landline","Cabell","Barboursville","WV","West Virginia","25504","Eastern","38.379347","-82.264954"
"(304) 309-","Landline","Summers","Hinton","WV","West Virginia","25951","Eastern","37.645544","-80.864634"
"(304) 251-","Cell Number","Raleigh","Beckley","WV","West Virginia","25801","Eastern","37.767248","-81.216446"
"(304) 495-","Landline","Nicholas","Summersville","WV","West Virginia","26651","Eastern","38.326251","-80.854096"
"(304) 428-","Landline","Wood","Parkersburg","WV","West Virginia","26103","Eastern","39.236427","-81.540501"
"(304) 457-","Landline","Barbour","Philippi","WV","West Virginia","26416","Eastern","39.161343","-80.049182"
"(304) 743-","Landline","Cabell","Milton","WV","West Virginia","25541","Eastern","38.434487","-82.134925"
"(304) 550-","Cell Number","Kanawha","Charleston","WV","West Virginia","25387","Eastern","38.296818","-81.554655"
"(304) 474-","Landline","Wood","Rockport","WV","West Virginia","26169","Eastern","39.218276","-81.497865"
"(304) 786-","Cell Number","Jackson","Ripley","WV","West Virginia","25271","Eastern","38.791845","-81.728065"
"(304) 701-","Cell Number","Braxton","Sutton","WV","West Virginia","26601","Eastern","38.654141","-80.67597"
"(304) 215-","Cell Number","Ohio","Wheeling","WV","West Virginia","26003","Eastern","40.102703","-80.647599"
"(304) 624-","Landline","Harrison","Clarksburg","WV","West Virginia","26306","Eastern","39.285204","-80.385344"
"(304) 456-","Landline","Pocahontas","Arbovale","WV","West Virginia","24915","Eastern","38.387966","-79.990585"
"(304) 617-","Landline","Cabell","Huntington","WV","West Virginia","25774","Eastern","38.413384","-82.277401"
"(304) 881-","Landline","Kanawha","Charleston","WV","West Virginia","25387","Eastern","38.296818","-81.554655"
"(304) 937-","Landline","Putnam","Buffalo","WV","West Virginia","25033","Eastern","38.610603","-81.924758"
"(304) 909-","Landline","Ohio","Triadelphia","WV","West Virginia","26059","Eastern","40.081064","-80.59733"
"(304) 389-","Cell Number","Kanawha","Charleston","WV","West Virginia","25387","Eastern","38.296818","-81.554655"
"(304) 703-","Cell Number","Hardy","Moorefield","WV","West Virginia","26836","Eastern","39.018679","-78.820561"
"(304) 360-","Cell Number","Cabell","Huntington","WV","West Virginia","25774","Eastern","38.413384","-82.277401"
"(304) 223-","Unknown","Raleigh","Beckley","WV","West Virginia","25801","Eastern","37.767248","-81.216446"
"(304) 323-","Landline","Mercer","Bluefield","WV","West Virginia","24701","Eastern","37.332725","-81.160066"
"(304) 767-","Landline","Kanawha","Dunbar","WV","West Virginia","25064","Eastern","38.348822","-81.570048"
"(304) 726-","Landline","Mineral","Ridgeley","WV","West Virginia","26753","Eastern","39.600736","-78.769112"
"(304) 694-","Cell Number","Marion","Fairmont","WV","West Virginia","26554","Eastern","39.494115","-80.221282"
"(304) 991-","Unknown","Wood","Parkersburg","WV","West Virginia","26103","Eastern","39.236427","-81.540501"
"(304) 396-","Unknown","Mercer","Princeton","WV","West Virginia","24740","Eastern","37.379876","-81.117475"
"(304) 919-","Cell Number","Hancock","Weirton","WV","West Virginia","26062","Eastern","40.507729","-80.565292"
"(304) 931-","Landline","Harrison","Clarksburg","WV","West Virginia","26306","Eastern","39.285204","-80.385344"
"(304) 848-","Landline","Harrison","Bridgeport","WV","West Virginia","26330","Eastern","39.309303","-80.282306"
"(304) 561-","Landline","Kanawha","Charleston","WV","West Virginia","25387","Eastern","38.296818","-81.554655"
"(304) 835-","Landline","Ritchie","Pennsboro","WV","West Virginia","26415","Eastern","39.279104","-81.001944"
"(304) 880-","Landline","Nicholas","Summersville","WV","West Virginia","26651","Eastern","38.326251","-80.854096"
"(304) 486-","Landline","Wayne","Huntington","WV","West Virginia","25774","Eastern","38.413384","-82.277401"
"(304) 626-","Landline","Harrison","Clarksburg","WV","West Virginia","26306","Eastern","39.285204","-80.385344"
"(304) 407-","Landline","Brooke","Wellsburg","WV","West Virginia","26070","Eastern","40.293469","-80.594036"
"(304) 628-","Landline","Ritchie","Cairo","WV","West Virginia","26337","Eastern","39.198501","-81.068913"
"(304) 947-","Landline","Morgan","Paw Paw","WV","West Virginia","25434","Eastern","39.530566","-78.45729"
"(304) 979-","Unknown","Harrison","Bridgeport","WV","West Virginia","26330","Eastern","39.309303","-80.282306"
"(304) 228-","Cell Number","Raleigh","Beckley","WV","West Virginia","25801","Eastern","37.767248","-81.216446"
"(304) 482-","Cell Number","Wood","Parkersburg","WV","West Virginia","26103","Eastern","39.236427","-81.540501"
"(304) 340-","Landline","Kanawha","Charleston","WV","West Virginia","25387","Eastern","38.296818","-81.554655"
"(304) 402-","Landline","Braxton","Sutton","WV","West Virginia","26601","Eastern","38.654141","-80.67597"
"(304) 544-","Cell Number","Cabell","Huntington","WV","West Virginia","25774","Eastern","38.413384","-82.277401"
"(304) 772-","Landline","Monroe","Union","WV","West Virginia","24983","Eastern","37.552029","-80.539672"
"(304) 941-","Landline","Kanawha","Charleston","WV","West Virginia","25387","Eastern","38.296818","-81.554655"
"(304) 917-","Unknown","Wood","Parkersburg","WV","West Virginia","26103","Eastern","39.236427","-81.540501"
"(304) 849-","Landline","Wayne","East Lynn","WV","West Virginia","25512","Eastern","38.271293","-82.376703"
"(304) 243-","Landline","Ohio","Wheeling","WV","West Virginia","26003","Eastern","40.102703","-80.647599"
"(304) 302-","Landline","Cabell","Barboursville","WV","West Virginia","25504","Eastern","38.379347","-82.264954"
"(304) 348-","Landline","Kanawha","Charleston","WV","West Virginia","25387","Eastern","38.296818","-81.554655"
"(304) 754-","Landline","Berkeley","Falling Waters","WV","West Virginia","25419","Eastern","39.572966","-77.882155"
"(304) 327-","Landline","Mercer","Bluefield","WV","West Virginia","24701","Eastern","37.332725","-81.160066"
"(304) 308-","Landline","Mercer","Bluefield","WV","West Virginia","24701","Eastern","37.332725","-81.160066"
"(304) 225-","Landline","Monongalia","Morgantown","WV","West Virginia","26508","Eastern","39.595329","-79.922871"
"(304) 797-","Landline","Hancock","Weirton","WV","West Virginia","26062","Eastern","40.507729","-80.565292"
"(304) 542-","Cell Number","Kanawha","Charleston","WV","West Virginia","25387","Eastern","38.296818","-81.554655"
"(304) 488-","Cell Number","Wood","Parkersburg","WV","West Virginia","26103","Eastern","39.236427","-81.540501"
"(304) 704-","Cell Number","Randolph","Elkins","WV","West Virginia","26241","Eastern","38.846815","-79.892841"
"(304) 866-","Landline","Tucker","Red Creek","WV","West Virginia","26289","Eastern","39.117906","-79.563678"
"(304) 443-","Unknown","Mingo","Williamson","WV","West Virginia","25661","Eastern","37.702526","-82.26002"
"(304) 535-","Landline","Jefferson","Harpers Ferry","WV","West Virginia","25425","Eastern","39.314617","-77.789387"
"(304) 974-","Unknown","Monongalia","Morgantown","WV","West Virginia","26508","Eastern","39.595329","-79.922871"
"(304) 618-","Cell Number","Nicholas","Summersville","WV","West Virginia","26651","Eastern","38.326251","-80.854096"
"(304) 604-","Landline","Hancock","Weirton","WV","West Virginia","26062","Eastern","40.507729","-80.565292"
"(304) 963-","Cell Number","Cabell","Barboursville","WV","West Virginia","25504","Eastern","38.379347","-82.264954"
"(304) 569-","Landline","Boone","Madison","WV","West Virginia","25130","Eastern","38.063165","-81.818718"
"(304) 420-","Landline","Wood","Parkersburg","WV","West Virginia","26103","Eastern","39.236427","-81.540501"
"(304) 852-","Landline","Braxton","Burnsville","WV","West Virginia","26335","Eastern","38.777546","-80.656974"
"(304) 872-","Landline","Nicholas","Summersville","WV","West Virginia","26651","Eastern","38.326251","-80.854096"
"(304) 512-","Cell Number","Jackson","Ravenswood","WV","West Virginia","26164","Eastern","38.98882","-81.713983"
"(304) 430-","Landline","Putnam","Buffalo","WV","West Virginia","25033","Eastern","38.610603","-81.924758"
"(304) 716-","Landline","Mercer","Princeton","WV","West Virginia","24740","Eastern","37.379876","-81.117475"
"(304) 485-","Landline","Wood","Parkersburg","WV","West Virginia","26103","Eastern","39.236427","-81.540501"
"(304) 961-","Cell Number","Mercer","Princeton","WV","West Virginia","24740","Eastern","37.379876","-81.117475"
"(304) 296-","Landline","Monongalia","Morgantown","WV","West Virginia","26508","Eastern","39.595329","-79.922871"
"(304) 821-","Landline","Berkeley","Inwood","WV","West Virginia","25428","Eastern","39.362373","-78.033065"
"(304) 387-","Landline","Hancock","Chester","WV","West Virginia","26034","Eastern","40.556137","-80.565784"
"(304) 280-","Cell Number","Ohio","Wheeling","WV","West Virginia","26003","Eastern","40.102703","-80.647599"
"(304) 338-","Landline","Randolph","Valley Bend","WV","West Virginia","26293","Eastern","38.75338","-79.814713"
"(304) 502-","Landline","Marion","Fairmont","WV","West Virginia","26554","Eastern","39.494115","-80.221282"
"(304) 977-","Unknown","Mercer","Bluefield","WV","West Virginia","24701","Eastern","37.332725","-81.160066"
"(304) 487-","Landline","Mercer","Princeton","WV","West Virginia","24740","Eastern","37.379876","-81.117475"
"(304) 695-","Cell Number","Harrison","Clarksburg","WV","West Virginia","26306","Eastern","39.285204","-80.385344"
"(304) 285-","Landline","Monongalia","Morgantown","WV","West Virginia","26508","Eastern","39.595329","-79.922871"
"(304) 729-","Landline","Kanawha","Saint Albans","WV","West Virginia","25177","Eastern","38.31461","-81.636926"
"(304) 655-","Landline","Calhoun","Arnoldsburg","WV","West Virginia","25234","Eastern","38.828582","-81.132151"
"(304) 300-","Unknown","Harrison","Clarksburg","WV","West Virginia","26306","Eastern","39.285204","-80.385344"
"(304) 837-","Landline","Kanawha","Charleston","WV","West Virginia","25387","Eastern","38.296818","-81.554655"
"(304) 622-","Landline","Harrison","Clarksburg","WV","West Virginia","26306","Eastern","39.285204","-80.385344"
"(304) 386-","Landline","Wetzel","Reader","WV","West Virginia","26167","Eastern","39.575518","-80.666712"
"(304) 293-","Landline","Monongalia","Morgantown","WV","West Virginia","26508","Eastern","39.595329","-79.922871"
"(304) 489-","Landline","Wood","Mineral Wells","WV","West Virginia","26150","Eastern","39.189677","-81.513911"
"(304) 675-","Landline","Mason","Point Pleasant","WV","West Virginia","25550","Eastern","38.871527","-82.098592"
"(304) 813-","Cell Number","Mineral","Keyser","WV","West Virginia","26726","Eastern","39.452686","-78.892554"
"(304) 597-","Landline","Mineral","Keyser","WV","West Virginia","26726","Eastern","39.452686","-78.892554"
"(304) 744-","Landline","Kanawha","Charleston","WV","West Virginia","25387","Eastern","38.296818","-81.554655"
"(304) 966-","Cell Number","Ohio","Wheeling","WV","West Virginia","26003","Eastern","40.102703","-80.647599"
"(304) 885-","Landline","Jefferson","Charles Town","WV","West Virginia","25414","Eastern","39.313538","-77.860278"
"(304) 995-","Unknown","Berkeley","Falling Waters","WV","West Virginia","25419","Eastern","39.572966","-77.882155"
"(304) 238-","Landline","Ohio","Wheeling","WV","West Virginia","26003","Eastern","40.102703","-80.647599"
"(304) 344-","Landline","Kanawha","Charleston","WV","West Virginia","25387","Eastern","38.296818","-81.554655"
"(304) 257-","Landline","Grant","Petersburg","WV","West Virginia","26847","Eastern","38.990838","-79.129301"
"(304) 749-","Landline","Grant","Maysville","WV","West Virginia","26833","Eastern","39.116709","-79.134177"
"(304) 790-","Cell Number","Mineral","Keyser","WV","West Virginia","26726","Eastern","39.452686","-78.892554"
"(304) 575-","Cell Number","Raleigh","Beckley","WV","West Virginia","25801","Eastern","37.767248","-81.216446"
"(304) 548-","Landline","Kanawha","Clendenin","WV","West Virginia","25045","Eastern","38.453862","-81.357213"
"(304) 218-","Cell Number","Ohio","Wheeling","WV","West Virginia","26003","Eastern","40.102703","-80.647599"
"(304) 865-","Landline","Wood","Parkersburg","WV","West Virginia","26103","Eastern","39.236427","-81.540501"
"(304) 312-","Cell Number","Ohio","Wheeling","WV","West Virginia","26003","Eastern","40.102703","-80.647599"
"(304) 453-","Landline","Wayne","Huntington","WV","West Virginia","25774","Eastern","38.413384","-82.277401"
"(304) 416-","Cell Number","Cabell","Huntington","WV","West Virginia","25774","Eastern","38.413384","-82.277401"
"(304) 442-","Landline","Fayette","Montgomery","WV","West Virginia","25136","Eastern","38.172523","-81.322175"
"(304) 290-","Cell Number","Monongalia","Morgantown","WV","West Virginia","26508","Eastern","39.595329","-79.922871"
"(304) 731-","Cell Number","Raleigh","Beckley","WV","West Virginia","25801","Eastern","37.767248","-81.216446"
"(304) 454-","Landline","Preston","Rowlesburg","WV","West Virginia","26425","Eastern","39.312958","-79.704927"
"(304) 301-","Unknown","Mercer","Athens","WV","West Virginia","24712","Eastern","37.452346","-81.00916"
"(304) 466-","Landline","Summers","Hinton","WV","West Virginia","25951","Eastern","37.645544","-80.864634"
"(304) 755-","Landline","Kanawha","Nitro","WV","West Virginia","25143","Eastern","38.323042","-81.616124"
"(304) 328-","Landline","Monongalia","Maidsville","WV","West Virginia","26541","Eastern","39.658416","-80.028814"
"(304) 932-","Landline","Kanawha","Charleston","WV","West Virginia","25387","Eastern","38.296818","-81.554655"
"(304) 572-","Landline","Pocahontas","Cass","WV","West Virginia","24927","Eastern","38.387966","-79.990585"
"(304) 860-","Unknown","Raleigh","Beckley","WV","West Virginia","25801","Eastern","37.767248","-81.216446"
"(304) 699-","Landline","Wood","Parkersburg","WV","West Virginia","26103","Eastern","39.236427","-81.540501"
"(304) 992-","Unknown","Greenbrier","Lewisburg","WV","West Virginia","24901","Eastern","37.844155","-80.538781"
"(304) 779-","Landline","Fayette","Robson","WV","West Virginia","25173","Eastern","38.076677","-81.237015"
"(304) 873-","Landline","Doddridge","West Union","WV","West Virginia","26456","Eastern","39.296522","-80.774491"
"(304) 236-","Landline","Mingo","Williamson","WV","West Virginia","25661","Eastern","37.702526","-82.26002"
"(304) 339-","Landline","Randolph","Valley Bend","WV","West Virginia","26293","Eastern","38.75338","-79.814713"
"(304) 259-","Landline","Tucker","Davis","WV","West Virginia","26260","Eastern","39.130056","-79.468329"
"(304) 351-","Landline","Kanawha","Charleston","WV","West Virginia","25387","Eastern","38.296818","-81.554655"
"(304) 737-","Landline","Brooke","Wellsburg","WV","West Virginia","26070","Eastern","40.293469","-80.594036"
"(304) 212-","Landline","Monongalia","Morgantown","WV","West Virginia","26508","Eastern","39.595329","-79.922871"
"(304) 682-","Landline","Wyoming","Oceana","WV","West Virginia","24870","Eastern","37.74071","-81.583069"
"(304) 506-","Landline","Taylor","Grafton","WV","West Virginia","26354","Eastern","39.336266","-80.015686"
"(304) 891-","Landline","Roane","Walton","WV","West Virginia","25286","Eastern","38.608737","-81.419262"
"(304) 889-","Landline","Wetzel","Pine Grove","WV","West Virginia","26419","Eastern","39.575518","-80.666712"
"(304) 534-","Landline","Marion","Fairmont","WV","West Virginia","26554","Eastern","39.494115","-80.221282"
"(304) 557-","Unknown","Mercer","Princeton","WV","West Virginia","24740","Eastern","37.379876","-81.117475"
"(304) 832-","Landline","Monroe","Greenville","WV","West Virginia","24945","Eastern","37.552029","-80.539672"
"(304) 538-","Landline","Hardy","Moorefield","WV","West Virginia","26836","Eastern","39.018679","-78.820561"
"(304) 379-","Landline","Preston","Bruceton Mills","WV","West Virginia","26525","Eastern","39.666293","-79.620241"
"(304) 319-","Cell Number","Monongalia","Morgantown","WV","West Virginia","26508","Eastern","39.595329","-79.922871"
"(304) 857-","Landline","Mason","Point Pleasant","WV","West Virginia","25550","Eastern","38.871527","-82.098592"
"(304) 782-","Landline","Harrison","Salem","WV","West Virginia","26426","Eastern","39.245329","-80.49102"
"(304) 773-","Landline","Mason","Mason","WV","West Virginia","25260","Eastern","39.011467","-82.016935"
"(304) 945-","Landline","Kanawha","Saint Albans","WV","West Virginia","25177","Eastern","38.31461","-81.636926"
"(304) 673-","Landline","Raleigh","Beckley","WV","West Virginia","25801","Eastern","37.767248","-81.216446"
"(304) 408-","Landline","Brooke","Bethany","WV","West Virginia","26032","Eastern","40.210727","-80.550337"
"(304) 601-","Unknown","Logan","Logan","WV","West Virginia","25601","Eastern","37.865036","-82.025158"
"(304) 461-","Landline","Raleigh","Beckley","WV","West Virginia","25801","Eastern","37.767248","-81.216446"
"(304) 490-","Cell Number","Wood","Parkersburg","WV","West Virginia","26103","Eastern","39.236427","-81.540501"
"(304) 256-","Landline","Raleigh","Beckley","WV","West Virginia","25801","Eastern","37.767248","-81.216446"
"(304) 784-","Cell Number","Logan","Logan","WV","West Virginia","25601","Eastern","37.865036","-82.025158"
"(304) 585-","Landline","Mcdowell","Welch","WV","West Virginia","24801","Eastern","37.411086","-81.539352"
"(304) 226-","Landline","Webster","Cowen","WV","West Virginia","26206","Eastern","38.423224","-80.564685"
"(304) 796-","Landline","Harrison","Wallace","WV","West Virginia","26448","Eastern","39.285204","-80.385344"
"(304) 876-","Landline","Jefferson","Shepherdstown","WV","West Virginia","25443","Eastern","39.389587","-77.838337"
"(304) 823-","Landline","Barbour","Belington","WV","West Virginia","26250","Eastern","39.022982","-79.932"
"(304) 274-","Landline","Berkeley","Falling Waters","WV","West Virginia","25419","Eastern","39.572966","-77.882155"
"(304) 477-","Landline","Ritchie","Smithville","WV","West Virginia","26178","Eastern","39.198501","-81.068913"
"(304) 647-","Landline","Greenbrier","Lewisburg","WV","West Virginia","24901","Eastern","37.844155","-80.538781"
"(304) 650-","Cell Number","Ohio","Wheeling","WV","West Virginia","26003","Eastern","40.102703","-80.647599"
"(304) 249-","Landline","Pendleton","Brandywine","WV","West Virginia","26802","Eastern","38.684692","-79.353564"
"(304) 598-","Landline","Monongalia","Morgantown","WV","West Virginia","26508","Eastern","39.595329","-79.922871"
"(304) 687-","Cell Number","Logan","Logan","WV","West Virginia","25601","Eastern","37.865036","-82.025158"
"(304) 678-","Cell Number","Braxton","Sutton","WV","West Virginia","26601","Eastern","38.654141","-80.67597"
"(304) 513-","Landline","Kanawha","Charleston","WV","West Virginia","25387","Eastern","38.296818","-81.554655"
"(304) 414-","Landline","Kanawha","Charleston","WV","West Virginia","25387","Eastern","38.296818","-81.554655"
"(304) 520-","Unknown","Greenbrier","Lewisburg","WV","West Virginia","24901","Eastern","37.844155","-80.538781"
"(304) 643-","Landline","Ritchie","Harrisville","WV","West Virginia","26362","Eastern","39.145318","-81.034061"
"(304) 713-","Landline","Braxton","Burnsville","WV","West Virginia","26335","Eastern","38.777546","-80.656974"
"(304) 843-","Landline","Marshall","Moundsville","WV","West Virginia","26041","Eastern","39.916748","-80.737134"
"(304) 523-","Landline","Cabell","Huntington","WV","West Virginia","25774","Eastern","38.413384","-82.277401"
"(304) 255-","Landline","Raleigh","Beckley","WV","West Virginia","25801","Eastern","37.767248","-81.216446"
"(304) 209-","Unknown","Mineral","Keyser","WV","West Virginia","26726","Eastern","39.452686","-78.892554"
"(304) 962-","Cell Number","Cabell","Huntington","WV","West Virginia","25774","Eastern","38.413384","-82.277401"
"(304) 656-","Landline","Mcdowell","Davy","WV","West Virginia","24828","Eastern","37.467849","-81.681104"
"(304) 705-","Landline","Mcdowell","Welch","WV","West Virginia","24801","Eastern","37.411086","-81.539352"
"(304) 242-","Landline","Ohio","Wheeling","WV","West Virginia","26003","Eastern","40.102703","-80.647599"
"(304) 897-","Landline","Hardy","Baker","WV","West Virginia","26801","Eastern","38.999518","-78.821226"
"(304) 809-","Unknown","Mercer","Bluefield","WV","West Virginia","24701","Eastern","37.332725","-81.160066"
"(304) 493-","Landline","Webster","Hacker Valley","WV","West Virginia","26222","Eastern","38.645017","-80.432189"
"(304) 869-","Landline","Ritchie","Ellenboro","WV","West Virginia","26346","Eastern","39.198501","-81.068913"
"(304) 388-","Landline","Kanawha","Charleston","WV","West Virginia","25387","Eastern","38.296818","-81.554655"
"(304) 352-","Landline","Kanawha","Charleston","WV","West Virginia","25387","Eastern","38.296818","-81.554655"
"(304) 934-","Landline","Raleigh","Glen Daniel","WV","West Virginia","25844","Eastern","37.825085","-81.38583"
"(304) 353-","Landline","Kanawha","Charleston","WV","West Virginia","25387","Eastern","38.296818","-81.554655"
"(304) 370-","Landline","Harrison","Salem","WV","West Virginia","26426","Eastern","39.245329","-80.49102"
"(304) 952-","Cell Number","Mercer","Bluefield","WV","West Virginia","24701","Eastern","37.332725","-81.160066"
"(304) 562-","Landline","Putnam","Hurricane","WV","West Virginia","25526","Eastern","38.397097","-81.961657"
"(304) 354-","Landline","Calhoun","Grantsville","WV","West Virginia","26147","Eastern","38.921782","-81.093773"
"(304) 458-","Landline","Putnam","Buffalo","WV","West Virginia","25033","Eastern","38.610603","-81.924758"
"(304) 856-","Landline","Hampshire","Capon Bridge","WV","West Virginia","26711","Eastern","39.314071","-78.659428"
"(304) 281-","Cell Number","Ohio","Wheeling","WV","West Virginia","26003","Eastern","40.102703","-80.647599"
"(304) 376-","Cell Number","Monongalia","Morgantown","WV","West Virginia","26508","Eastern","39.595329","-79.922871"
"(304) 999-","Unknown","Mineral","Fort Ashby","WV","West Virginia","26719","Eastern","39.500536","-78.744739"
"(304) 333-","Landline","Marion","Fairmont","WV","West Virginia","26554","Eastern","39.494115","-80.221282"
"(304) 599-","Landline","Monongalia","Morgantown","WV","West Virginia","26508","Eastern","39.595329","-79.922871"
"(304) 973-","Unknown","Pleasants","Belmont","WV","West Virginia","26134","Eastern","39.375025","-81.263875"
"(304) 247-","Landline","Boone","Madison","WV","West Virginia","25130","Eastern","38.063165","-81.818718"
"(304) 949-","Landline","Kanawha","Charleston","WV","West Virginia","25387","Eastern","38.296818","-81.554655"
"(304) 307-","Landline","Boone","Madison","WV","West Virginia","25130","Eastern","38.063165","-81.818718"
"(304) 795-","Landline","Marion","Mannington","WV","West Virginia","26582","Eastern","39.536663","-80.23996"
"(304) 233-","Landline","Ohio","Wheeling","WV","West Virginia","26003","Eastern","40.102703","-80.647599"
"(304) 670-","Cell Number","Hancock","Weirton","WV","West Virginia","26062","Eastern","40.507729","-80.565292"
"(304) 208-","Landline","Cabell","Huntington","WV","West Virginia","25774","Eastern","38.413384","-82.277401"
"(304) 657-","Cell Number","Marion","Fairmont","WV","West Virginia","26554","Eastern","39.494115","-80.221282"
"(304) 476-","Cell Number","Harrison","Clarksburg","WV","West Virginia","26306","Eastern","39.285204","-80.385344"
"(304) 570-","Landline","Putnam","Buffalo","WV","West Virginia","25033","Eastern","38.610603","-81.924758"
"(304) 299-","Cell Number","Wood","Parkersburg","WV","West Virginia","26103","Eastern","39.236427","-81.540501"
"(304) 541-","Cell Number","Kanawha","Charleston","WV","West Virginia","25387","Eastern","38.296818","-81.554655"
"(304) 758-","Landline","Tyler","Middlebourne","WV","West Virginia","26149","Eastern","39.494178","-80.907644"
"(304) 613-","Cell Number","Upshur","Buckhannon","WV","West Virginia","26201","Eastern","38.975479","-80.240664"
"(304) 362-","Cell Number","Marion","Fairmont","WV","West Virginia","26554","Eastern","39.494115","-80.221282"
"(304) 316-","Landline","Hancock","New Cumberland","WV","West Virginia","26047","Eastern","40.522005","-80.571689"
"(304) 286-","Landline","Clay","Ivydale","WV","West Virginia","25113","Eastern","38.465777","-81.050662"
"(304) 793-","Landline","Greenbrier","Lewisburg","WV","West Virginia","24901","Eastern","37.844155","-80.538781"
"(304) 519-","Landline","Roane","Spencer","WV","West Virginia","25276","Eastern","38.777675","-81.364262"
"(304) 508-","Landline","Marion","Mannington","WV","West Virginia","26582","Eastern","39.536663","-80.23996"
"(304) 397-","Landline","Putnam","Hurricane","WV","West Virginia","25526","Eastern","38.397097","-81.961657"
"(304) 895-","Landline","Mason","Letart","WV","West Virginia","25253","Eastern","38.989085","-81.951871"
"(304) 787-","Landline","Mercer","Flat Top","WV","West Virginia","25841","Eastern","37.554091","-81.100627"
"(304) 371-","Landline","Harrison","Shinnston","WV","West Virginia","26431","Eastern","39.328705","-80.273372"
"(304) 905-","Landline","Ohio","Wheeling","WV","West Virginia","26003","Eastern","40.102703","-80.647599"
"(304) 417-","Cell Number","Cabell","Huntington","WV","West Virginia","25774","Eastern","38.413384","-82.277401"
"(304) 235-","Landline","Mingo","Williamson","WV","West Virginia","25661","Eastern","37.702526","-82.26002"
"(304) 806-","Landline","Harrison","Lumberport","WV","West Virginia","26386","Eastern","39.377263","-80.354173"
"(304) 709-","Landline","Harrison","Clarksburg","WV","West Virginia","26306","Eastern","39.285204","-80.385344"
"(304) 250-","Landline","Raleigh","Beckley","WV","West Virginia","25801","Eastern","37.767248","-81.216446"
"(304) 554-","Landline","Monongalia","Morgantown","WV","West Virginia","26508","Eastern","39.595329","-79.922871"
"(304) 440-","Cell Number","Jackson","Ravenswood","WV","West Virginia","26164","Eastern","38.98882","-81.713983"
"(304) 870-","Landline","Jefferson","Shepherdstown","WV","West Virginia","25443","Eastern","39.389587","-77.838337"
"(304) 413-","Landline","Monongalia","Morgantown","WV","West Virginia","26508","Eastern","39.595329","-79.922871"
"(304) 346-","Landline","Kanawha","Charleston","WV","West Virginia","25387","Eastern","38.296818","-81.554655"
"(304) 739-","Landline","Taylor","Flemington","WV","West Virginia","26347","Eastern","39.345364","-80.04977"
"(304) 938-","Landline","Mcdowell","Iaeger","WV","West Virginia","24844","Eastern","37.375246","-81.653889"
"(304) 894-","Landline","Raleigh","Beckley","WV","West Virginia","25801","Eastern","37.767248","-81.216446"
"(304) 341-","Landline","Kanawha","Charleston","WV","West Virginia","25387","Eastern","38.296818","-81.554655"
"(304) 732-","Landline","Wyoming","Pineville","WV","West Virginia","24874","Eastern","37.603344","-81.53998"
"(304) 683-","Landline","Raleigh","Crab Orchard","WV","West Virginia","25827","Eastern","37.700567","-81.201446"
"(304) 375-","Landline","Wood","Williamstown","WV","West Virginia","26187","Eastern","39.367796","-81.455899"
"(304) 234-","Landline","Ohio","Wheeling","WV","West Virginia","26003","Eastern","40.102703","-80.647599"
"(304) 275-","Landline","Wirt","Elizabeth","WV","West Virginia","26143","Eastern","39.032058","-81.380692"
"(304) 666-","Unknown","Doddridge","West Union","WV","West Virginia","26456","Eastern","39.296522","-80.774491"
"(304) 660-","Cell Number","Summers","Hinton","WV","West Virginia","25951","Eastern","37.645544","-80.864634"
"(304) 527-","Landline","Brooke","Follansbee","WV","West Virginia","26037","Eastern","40.335218","-80.570953"
"(304) 606-","Landline","Barbour","Belington","WV","West Virginia","26250","Eastern","39.022982","-79.932"
"(304) 633-","Cell Number","Cabell","Huntington","WV","West Virginia","25774","Eastern","38.413384","-82.277401"
"(304) 886-","Landline","Berkeley","Falling Waters","WV","West Virginia","25419","Eastern","39.572966","-77.882155"
"(304) 997-","Unknown","Lewis","Weston","WV","West Virginia","26452","Eastern","39.042331","-80.447878"
"(304) 778-","Landline","Lincoln","Branchland","WV","West Virginia","25506","Eastern","38.219908","-82.145897"
"(304) 429-","Landline","Wayne","Huntington","WV","West Virginia","25774","Eastern","38.413384","-82.277401"
"(304) 277-","Landline","Ohio","Wheeling","WV","West Virginia","26003","Eastern","40.102703","-80.647599"
"(304) 664-","Landline","Mingo","Gilbert","WV","West Virginia","25621","Eastern","37.636568","-81.950082"
"(304) 591-","Landline","Roane","Spencer","WV","West Virginia","25276","Eastern","38.777675","-81.364262"
"(304) 207-","Unknown","Raleigh","Beckley","WV","West Virginia","25801","Eastern","37.767248","-81.216446"
"(304) 584-","Landline","Harrison","Lumberport","WV","West Virginia","26386","Eastern","39.377263","-80.354173"
"(304) 204-","Landline","Kanawha","Nitro","WV","West Virginia","25143","Eastern","38.323042","-81.616124"
"(304) 551-","Landline","Ohio","Wheeling","WV","West Virginia","26003","Eastern","40.102703","-80.647599"
"(304) 942-","Landline","Cabell","Huntington","WV","West Virginia","25774","Eastern","38.413384","-82.277401"
"(304) 841-","Landline","Harrison","Clarksburg","WV","West Virginia","26306","Eastern","39.285204","-80.385344"
"(304) 612-","Cell Number","Marion","Fairmont","WV","West Virginia","26554","Eastern","39.494115","-80.221282"
"(304) 258-","Landline","Morgan","Berkeley Springs","WV","West Virginia","25411","Eastern","39.552557","-78.18773"
"(304) 298-","Landline","Mineral","Fort Ashby","WV","West Virginia","26719","Eastern","39.500536","-78.744739"
"(304) 691-","Landline","Cabell","Huntington","WV","West Virginia","25774","Eastern","38.413384","-82.277401"
"(304) 278-","Landline","Marion","Rivesville","WV","West Virginia","26588","Eastern","39.535089","-80.127883"
"(304) 533-","Cell Number","Kanawha","Charleston","WV","West Virginia","25387","Eastern","38.296818","-81.554655"
"(304) 577-","Landline","Roane","Walton","WV","West Virginia","25286","Eastern","38.608737","-81.419262"
"(304) 815-","Landline","Wetzel","New Martinsville","WV","West Virginia","26155","Eastern","39.611459","-80.817928"
"(304) 853-","Landline","Braxton","Burnsville","WV","West Virginia","26335","Eastern","38.777546","-80.656974"
"(304) 578-","Cell Number","Raleigh","Beckley","WV","West Virginia","25801","Eastern","37.767248","-81.216446"
"(304) 858-","Landline","Monroe","Peterstown","WV","West Virginia","24963","Eastern","37.399956","-80.797806"
"(304) 546-","Cell Number","Kanawha","Charleston","WV","West Virginia","25387","Eastern","38.296818","-81.554655"
"(304) 401-","Landline","Tyler","Sistersville","WV","West Virginia","26175","Eastern","39.541445","-80.975638"
"(304) 688-","Cell Number","Logan","Logan","WV","West Virginia","25601","Eastern","37.865036","-82.025158"
"(304) 587-","Landline","Clay","Clay","WV","West Virginia","25043","Eastern","38.467298","-81.080031"
"(304) 908-","Landline","Wayne","Kenova","WV","West Virginia","25530","Eastern","38.356931","-82.525529"
"(304) 748-","Landline","Hancock","Weirton","WV","West Virginia","26062","Eastern","40.507729","-80.565292"
"(304) 658-","Landline","Fayette","Ansted","WV","West Virginia","25812","Eastern","38.135025","-81.087871"
"(304) 400-","Unknown","Kanawha","Charleston","WV","West Virginia","25387","Eastern","38.296818","-81.554655"
"(304) 939-","Cell Number","Cabell","Huntington","WV","West Virginia","25774","Eastern","38.413384","-82.277401"
"(304) 740-","Landline","Hancock","Weirton","WV","West Virginia","26062","Eastern","40.507729","-80.565292"
"(304) 971-","Unknown","Mason","Mason","WV","West Virginia","25260","Eastern","39.011467","-82.016935"
"(304) 547-","Landline","Ohio","Valley Grove","WV","West Virginia","26060","Eastern","40.078249","-80.589611"
"(304) 844-","Cell Number","Harrison","Clarksburg","WV","West Virginia","26306","Eastern","39.285204","-80.385344"
"(304) 526-","Landline","Cabell","Huntington","WV","West Virginia","25774","Eastern","38.413384","-82.277401"
"(304) 983-","Landline","Monongalia","Morgantown","WV","West Virginia","26508","Eastern","39.595329","-79.922871"
"(304) 347-","Landline","Kanawha","Charleston","WV","West Virginia","25387","Eastern","38.296818","-81.554655"
"(304) 583-","Landline","Logan","Man","WV","West Virginia","25635","Eastern","37.735653","-81.875358"
"(304) 517-","Cell Number","Lewis","Weston","WV","West Virginia","26452","Eastern","39.042331","-80.447878"
"(304) 668-","Cell Number","Pendleton","Franklin","WV","West Virginia","26807","Eastern","38.648787","-79.327196"
"(304) 887-","Landline","Mercer","Bluefield","WV","West Virginia","24701","Eastern","37.332725","-81.160066"
"(304) 441-","Unknown","Preston","Kingwood","WV","West Virginia","26537","Eastern","39.471673","-79.67596"
"(304) 303-","Cell Number","Mineral","Ridgeley","WV","West Virginia","26753","Eastern","39.600736","-78.769112"
"(304) 559-","Landline","Ohio","Wheeling","WV","West Virginia","26003","Eastern","40.102703","-80.647599"
"(304) 470-","Landline","Barbour","Philippi","WV","West Virginia","26416","Eastern","39.161343","-80.049182"
"(304) 801-","Landline","Randolph","Elkins","WV","West Virginia","26241","Eastern","38.846815","-79.892841"
"(304) 552-","Cell Number","Kanawha","Charleston","WV","West Virginia","25387","Eastern","38.296818","-81.554655"
"(304) 592-","Landline","Harrison","Shinnston","WV","West Virginia","26431","Eastern","39.328705","-80.273372"
"(304) 318-","Landline","Preston","Rowlesburg","WV","West Virginia","26425","Eastern","39.312958","-79.704927"
"(304) 473-","Landline","Upshur","Buckhannon","WV","West Virginia","26201","Eastern","38.975479","-80.240664"
"(304) 213-","Unknown","Marion","Worthington","WV","West Virginia","26591","Eastern","39.451967","-80.26255"
"(304) 968-","Landline","Kanawha","Elkview","WV","West Virginia","25071","Eastern","38.386942","-81.450424"
"(304) 332-","Landline","Clay","Dille","WV","West Virginia","26617","Eastern","38.465777","-81.050662"
"(304) 690-","Landline","Cabell","Huntington","WV","West Virginia","25774","Eastern","38.413384","-82.277401"
"(304) 610-","Landline","Kanawha","Charleston","WV","West Virginia","25387","Eastern","38.296818","-81.554655"
"(304) 903-","Landline","Taylor","Grafton","WV","West Virginia","26354","Eastern","39.336266","-80.015686"
"(304) 665-","Landline","Pleasants","Belmont","WV","West Virginia","26134","Eastern","39.375025","-81.263875"
"(304) 923-","Cell Number","Raleigh","Beckley","WV","West Virginia","25801","Eastern","37.767248","-81.216446"
"(304) 355-","Landline","Mineral","Piedmont","WV","West Virginia","26750","Eastern","39.546831","-78.909518"
"(304) 988-","Landline","Kanawha","Charleston","WV","West Virginia","25387","Eastern","38.296818","-81.554655"
"(304) 884-","Landline","Harrison","Lost Creek","WV","West Virginia","26385","Eastern","39.152121","-80.357602"
"(304) 826-","Cell Number","Monongalia","Morgantown","WV","West Virginia","26508","Eastern","39.595329","-79.922871"
"(304) 576-","Landline","Mason","Apple Grove","WV","West Virginia","25502","Eastern","38.657528","-82.10679"
"(304) 629-","Cell Number","Harrison","Clarksburg","WV","West Virginia","26306","Eastern","39.285204","-80.385344"
"(304) 785-","Cell Number","Logan","Logan","WV","West Virginia","25601","Eastern","37.865036","-82.025158"
"(304) 879-","Landline","Monongalia","Pursglove","WV","West Virginia","26546","Eastern","39.674575","-80.034965"
"(304) 677-","Cell Number","Harrison","Clarksburg","WV","West Virginia","26306","Eastern","39.285204","-80.385344"
"(304) 549-","Cell Number","Kanawha","Charleston","WV","West Virginia","25387","Eastern","38.296818","-81.554655"
"(304) 564-","Landline","Hancock","New Cumberland","WV","West Virginia","26047","Eastern","40.522005","-80.571689"
"(304) 524-","Landline","Lincoln","Yawkey","WV","West Virginia","25573","Eastern","38.231798","-81.942329"
"(304) 422-","Landline","Wood","Parkersburg","WV","West Virginia","26103","Eastern","39.236427","-81.540501"
"(304) 890-","Landline","Raleigh","Beckley","WV","West Virginia","25801","Eastern","37.767248","-81.216446"
"(304) 391-","Landline","Kanawha","Charleston","WV","West Virginia","25387","Eastern","38.296818","-81.554655"
"(304) 807-","Unknown","Kanawha","Charleston","WV","West Virginia","25387","Eastern","38.296818","-81.554655"
"(304) 543-","Cell Number","Kanawha","Charleston","WV","West Virginia","25387","Eastern","38.296818","-81.554655"
"(304) 373-","Landline","Jackson","Ripley","WV","West Virginia","25271","Eastern","38.791845","-81.728065"
"(304) 764-","Landline","Wayne","Genoa","WV","West Virginia","25517","Eastern","38.132114","-82.418277"
"(304) 405-","Landline","Doddridge","West Union","WV","West Virginia","26456","Eastern","39.296522","-80.774491"
"(304) 605-","Landline","Brooke","Wellsburg","WV","West Virginia","26070","Eastern","40.293469","-80.594036"
"(304) 480-","Landline","Wood","Parkersburg","WV","West Virginia","26103","Eastern","39.236427","-81.540501"
"(304) 315-","Landline","Upshur","French Creek","WV","West Virginia","26218","Eastern","38.899314","-80.226855"
"(304) 503-","Landline","Marion","Fairview","WV","West Virginia","26570","Eastern","39.584289","-80.23895"
"(304) 930-","Unknown","Jefferson","Charles Town","WV","West Virginia","25414","Eastern","39.313538","-77.860278"
"(304) 828-","Landline","Mcdowell","Paynesville","WV","West Virginia","24873","Eastern","37.375246","-81.653889"
"(304) 581-","Landline","Monongalia","Morgantown","WV","West Virginia","26508","Eastern","39.595329","-79.922871"
"(304) 291-","Landline","Monongalia","Morgantown","WV","West Virginia","26508","Eastern","39.595329","-79.922871"
"(304) 741-","Cell Number","Kanawha","Charleston","WV","West Virginia","25387","Eastern","38.296818","-81.554655"
"(304) 993-","Cell Number","Kanawha","Charleston","WV","West Virginia","25387","Eastern","38.296818","-81.554655"
"(304) 619-","Cell Number","Nicholas","Summersville","WV","West Virginia","26651","Eastern","38.326251","-80.854096"
"(304) 271-","Landline","Berkeley","Falling Waters","WV","West Virginia","25419","Eastern","39.572966","-77.882155"
"(304) 201-","Landline","Kanawha","Saint Albans","WV","West Virginia","25177","Eastern","38.31461","-81.636926"
"(304) 363-","Landline","Marion","Fairmont","WV","West Virginia","26554","Eastern","39.494115","-80.221282"
"(304) 757-","Landline","Putnam","Scott Depot","WV","West Virginia","25560","Eastern","38.450355","-81.896554"
"(304) 792-","Landline","Logan","Logan","WV","West Virginia","25601","Eastern","37.865036","-82.025158"
"(304) 464-","Landline","Wood","Waverly","WV","West Virginia","26184","Eastern","39.322871","-81.401137"
"(304) 641-","Cell Number","Harrison","Clarksburg","WV","West Virginia","26306","Eastern","39.285204","-80.385344"
"(304) 510-","Landline","Wetzel","New Martinsville","WV","West Virginia","26155","Eastern","39.611459","-80.817928"
"(304) 712-","Cell Number","Raleigh","Beckley","WV","West Virginia","25801","Eastern","37.767248","-81.216446"
"(304) 720-","Landline","Kanawha","Charleston","WV","West Virginia","25387","Eastern","38.296818","-81.554655"
"(304) 349-","Landline","Ritchie","Auburn","WV","West Virginia","26325","Eastern","39.198501","-81.068913"
"(304) 935-","Landline","Kanawha","Charleston","WV","West Virginia","25387","Eastern","38.296818","-81.554655"
"(304) 663-","Cell Number","Fayette","Fayetteville","WV","West Virginia","25840","Eastern","38.063982","-81.094259"
"(304) 632-","Landline","Fayette","Gauley Bridge","WV","West Virginia","25085","Eastern","38.156166","-81.174906"
"(304) 521-","Landline","Cabell","Huntington","WV","West Virginia","25774","Eastern","38.413384","-82.277401"
"(304) 374-","Cell Number","Hancock","Weirton","WV","West Virginia","26062","Eastern","40.507729","-80.565292"
"(304) 620-","Landline","Harrison","Clarksburg","WV","West Virginia","26306","Eastern","39.285204","-80.385344"
"(304) 588-","Cell Number","Wood","Parkersburg","WV","West Virginia","26103","Eastern","39.236427","-81.540501"
"(304) 819-","Landline","Mercer","Athens","WV","West Virginia","24712","Eastern","37.452346","-81.00916"
"(304) 904-","Landline","Lewis","Weston","WV","West Virginia","26452","Eastern","39.042331","-80.447878"
"(304) 733-","Landline","Cabell","Barboursville","WV","West Virginia","25504","Eastern","38.379347","-82.264954"
"(304) 467-","Landline","Mercer","Matoaka","WV","West Virginia","24736","Eastern","37.416393","-81.202217"
"(304) 906-","Landline","Monongalia","Morgantown","WV","West Virginia","26508","Eastern","39.595329","-79.922871"
"(304) 940-","Cell Number","Randolph","Elkins","WV","West Virginia","26241","Eastern","38.846815","-79.892841"
"(304) 750-","Landline","Braxton","Sutton","WV","West Virginia","26601","Eastern","38.654141","-80.67597"
"(304) 297-","Landline","Mcdowell","Welch","WV","West Virginia","24801","Eastern","37.411086","-81.539352"
"(304) 435-","Cell Number","Kanawha","Charleston","WV","West Virginia","25387","Eastern","38.296818","-81.554655"
"(304) 783-","Landline","Harrison","Lumberport","WV","West Virginia","26386","Eastern","39.377263","-80.354173"
"(304) 289-","Landline","Mineral","Burlington","WV","West Virginia","26710","Eastern","39.443055","-78.964749"
"(304) 600-","Unknown","Mason","Letart","WV","West Virginia","25253","Eastern","38.989085","-81.951871"
"(304) 989-","Cell Number","Kanawha","Charleston","WV","West Virginia","25387","Eastern","38.296818","-81.554655"
"(304) 972-","Unknown","Cabell","Huntington","WV","West Virginia","25774","Eastern","38.413384","-82.277401"
"(304) 780-","Cell Number","Ohio","Wheeling","WV","West Virginia","26003","Eastern","40.102703","-80.647599"
"(304) 816-","Landline","Marion","Fairmont","WV","West Virginia","26554","Eastern","39.494115","-80.221282"
"(304) 727-","Landline","Kanawha","Saint Albans","WV","West Virginia","25177","Eastern","38.31461","-81.636926"
"(304) 760-","Landline","Putnam","Scott Depot","WV","West Virginia","25560","Eastern","38.450355","-81.896554"
"(304) 266-","Cell Number","Lewis","Weston","WV","West Virginia","26452","Eastern","39.042331","-80.447878"
"(304) 802-","Landline","Pendleton","Franklin","WV","West Virginia","26807","Eastern","38.648787","-79.327196"
"(304) 545-","Cell Number","Kanawha","Charleston","WV","West Virginia","25387","Eastern","38.296818","-81.554655"
"(304) 635-","Landline","Randolph","Elkins","WV","West Virginia","26241","Eastern","38.846815","-79.892841"
"(304) 514-","Cell Number","Jackson","Ripley","WV","West Virginia","25271","Eastern","38.791845","-81.728065"
"(304) 630-","Landline","Randolph","Elkins","WV","West Virginia","26241","Eastern","38.846815","-79.892841"
"(304) 955-","Landline","Cabell","Barboursville","WV","West Virginia","25504","Eastern","38.379347","-82.264954"
"(304) 667-","Cell Number","Greenbrier","Lewisburg","WV","West Virginia","24901","Eastern","37.844155","-80.538781"
"(304) 437-","Cell Number","Kanawha","Charleston","WV","West Virginia","25387","Eastern","38.296818","-81.554655"
"(304) 684-","Landline","Pleasants","Saint Marys","WV","West Virginia","26170","Eastern","39.408888","-81.20786"
"(304) 419-","Cell Number","Kanawha","Charleston","WV","West Virginia","25387","Eastern","38.296818","-81.554655"
"(304) 921-","Cell Number","Mercer","Bluefield","WV","West Virginia","24701","Eastern","37.332725","-81.160066"
"(304) 439-","Cell Number","Upshur","Buckhannon","WV","West Virginia","26201","Eastern","38.975479","-80.240664"
"(304) 515-","Landline","Hampshire","Romney","WV","West Virginia","26757","Eastern","39.34487","-78.758487"
"(304) 846-","Landline","Nicholas","Richwood","WV","West Virginia","26261","Eastern","38.230265","-80.578921"
"(304) 345-","Landline","Kanawha","Charleston","WV","West Virginia","25387","Eastern","38.296818","-81.554655"
"(304) 455-","Landline","Wetzel","New Martinsville","WV","West Virginia","26155","Eastern","39.611459","-80.817928"
"(304) 751-","Cell Number","Cabell","Huntington","WV","West Virginia","25774","Eastern","38.413384","-82.277401"
"(304) 830-","Cell Number","Ohio","Wheeling","WV","West Virginia","26003","Eastern","40.102703","-80.647599"
"(304) 862-","Landline","Mcdowell","Northfork","WV","West Virginia","24868","Eastern","37.389939","-81.419578"
"(304) 820-","Cell Number","Berkeley","Falling Waters","WV","West Virginia","25419","Eastern","39.572966","-77.882155"
"(304) 282-","Cell Number","Monongalia","Morgantown","WV","West Virginia","26508","Eastern","39.595329","-79.922871"
"(304) 645-","Landline","Greenbrier","Lewisburg","WV","West Virginia","24901","Eastern","37.844155","-80.538781"
"(304) 214-","Landline","Ohio","Wheeling","WV","West Virginia","26003","Eastern","40.102703","-80.647599"
"(304) 203-","Cell Number","Harrison","Clarksburg","WV","West Virginia","26306","Eastern","39.285204","-80.385344"
"(304) 723-","Landline","Hancock","Weirton","WV","West Virginia","26062","Eastern","40.507729","-80.565292"
"(304) 590-","Cell Number","Kanawha","Charleston","WV","West Virginia","25387","Eastern","38.296818","-81.554655"
"(304) 646-","Cell Number","Greenbrier","Lewisburg","WV","West Virginia","24901","Eastern","37.844155","-80.538781"
"(304) 393-","Landline","Mingo","Kermit","WV","West Virginia","25674","Eastern","37.827155","-82.404906"
"(304) 623-","Landline","Harrison","Clarksburg","WV","West Virginia","26306","Eastern","39.285204","-80.385344"
"(304) 574-","Landline","Fayette","Fayetteville","WV","West Virginia","25840","Eastern","38.063982","-81.094259"
"(304) 481-","Cell Number","Wood","Parkersburg","WV","West Virginia","26103","Eastern","39.236427","-81.540501"
"(304) 747-","Landline","Kanawha","Charleston","WV","West Virginia","25387","Eastern","38.296818","-81.554655"
"(304) 273-","Landline","Jackson","Ravenswood","WV","West Virginia","26164","Eastern","38.98882","-81.713983"
"(304) 631-","Cell Number","Harrison","Clarksburg","WV","West Virginia","26306","Eastern","39.285204","-80.385344"
"(304) 252-","Landline","Raleigh","Beckley","WV","West Virginia","25801","Eastern","37.767248","-81.216446"
"(304) 537-","Cell Number","Cabell","Huntington","WV","West Virginia","25774","Eastern","38.413384","-82.277401"
"(304) 367-","Landline","Marion","Fairmont","WV","West Virginia","26554","Eastern","39.494115","-80.221282"
"(304) 845-","Landline","Marshall","Moundsville","WV","West Virginia","26041","Eastern","39.916748","-80.737134"
"(304) 859-","Cell Number","Kanawha","Charleston","WV","West Virginia","25387","Eastern","38.296818","-81.554655"
"(304) 912-","Landline","Hancock","Chester","WV","West Virginia","26034","Eastern","40.556137","-80.565784"
"(304) 878-","Landline","Upshur","Buckhannon","WV","West Virginia","26201","Eastern","38.975479","-80.240664"
"(304) 310-","Landline","Logan","Chapmanville","WV","West Virginia","25508","Eastern","37.96087","-82.01076"
"(304) 913-","Unknown","Mercer","Princeton","WV","West Virginia","24740","Eastern","37.379876","-81.117475"
"(304) 292-","Landline","Monongalia","Morgantown","WV","West Virginia","26508","Eastern","39.595329","-79.922871"
"(304) 698-","Cell Number","Preston","Kingwood","WV","West Virginia","26537","Eastern","39.471673","-79.67596"
"(304) 654-","Cell Number","Cabell","Huntington","WV","West Virginia","25774","Eastern","38.413384","-82.277401"
"(304) 957-","Unknown","Kanawha","Charleston","WV","West Virginia","25387","Eastern","38.296818","-81.554655"
"(304) 636-","Landline","Randolph","Elkins","WV","West Virginia","26241","Eastern","38.846815","-79.892841"
"(304) 444-","Cell Number","Kanawha","Charleston","WV","West Virginia","25387","Eastern","38.296818","-81.554655"
"(304) 528-","Landline","Cabell","Huntington","WV","West Virginia","25774","Eastern","38.413384","-82.277401"
"(304) 714-","Landline","Hancock","Chester","WV","West Virginia","26034","Eastern","40.556137","-80.565784"
"(304) 361-","Cell Number","Cabell","Huntington","WV","West Virginia","25774","Eastern","38.413384","-82.277401"
"(304) 205-","Unknown","Kanawha","Charleston","WV","West Virginia","25387","Eastern","38.296818","-81.554655"
"(304) 994-","Unknown","Monroe","Peterstown","WV","West Virginia","24963","Eastern","37.399956","-80.797806"
"(304) 791-","Landline","Preston","Terra Alta","WV","West Virginia","26764","Eastern","39.430634","-79.519679"
"(304) 926-","Landline","Kanawha","Charleston","WV","West Virginia","25387","Eastern","38.296818","-81.554655"
"(304) 239-","Landline","Logan","Logan","WV","West Virginia","25601","Eastern","37.865036","-82.025158"
"(304) 680-","Cell Number","Monongalia","Morgantown","WV","West Virginia","26508","Eastern","39.595329","-79.922871"
"(304) 421-","Cell Number","Kanawha","Charleston","WV","West Virginia","25387","Eastern","38.296818","-81.554655"
"(304) 568-","Landline","Preston","Tunnelton","WV","West Virginia","26444","Eastern","39.458091","-79.688154"
"(304) 799-","Landline","Pocahontas","Marlinton","WV","West Virginia","24954","Eastern","38.258638","-80.104625"
"(304) 567-","Landline","Pendleton","Riverton","WV","West Virginia","26814","Eastern","38.684692","-79.353564"
"(304) 738-","Landline","Mineral","Wiley Ford","WV","West Virginia","26767","Eastern","39.617003","-78.763194"
"(304) 522-","Landline","Cabell","Huntington","WV","West Virginia","25774","Eastern","38.413384","-82.277401"
"(304) 432-","Landline","Monongalia","Blacksville","WV","West Virginia","26521","Eastern","39.578512","-80.093007"
"(304) 475-","Landline","Mingo","Delbarton","WV","West Virginia","25670","Eastern","37.718871","-82.193059"
"(304) 951-","Unknown","Kanawha","Charleston","WV","West Virginia","25387","Eastern","38.296818","-81.554655"
"(304) 446-","Landline","Mineral","Elk Garden","WV","West Virginia","26717","Eastern","39.443055","-78.964749"
"(304) 269-","Landline","Lewis","Weston","WV","West Virginia","26452","Eastern","39.042331","-80.447878"
"(304) 224-","Cell Number","Hancock","Weirton","WV","West Virginia","26062","Eastern","40.507729","-80.565292"
"(304) 969-","Unknown","Harrison","Clarksburg","WV","West Virginia","26306","Eastern","39.285204","-80.385344"
"(304) 861-","Landline","Wood","Washington","WV","West Virginia","26181","Eastern","39.206816","-81.65769"
"(304) 925-","Landline","Kanawha","Charleston","WV","West Virginia","25387","Eastern","38.296818","-81.554655"
"(304) 529-","Landline","Cabell","Huntington","WV","West Virginia","25774","Eastern","38.413384","-82.277401"
"(304) 602-","Landline","Marion","Rivesville","WV","West Virginia","26588","Eastern","39.535089","-80.127883"
"(304) 775-","Landline","Wetzel","Hundred","WV","West Virginia","26575","Eastern","39.575518","-80.666712"
"(304) 715-","Landline","Harrison","Clarksburg","WV","West Virginia","26306","Eastern","39.285204","-80.385344"
"(304) 445-","Landline","Greenbrier","Alderson","WV","West Virginia","24910","Eastern","37.84394","-80.572401"
"(304) 706-","Landline","Wayne","Wayne","WV","West Virginia","25570","Eastern","38.222206","-82.418862"
"(304) 460-","Landline","Upshur","Buckhannon","WV","West Virginia","26201","Eastern","38.975479","-80.240664"
"(304) 615-","Cell Number","Wood","Parkersburg","WV","West Virginia","26103","Eastern","39.236427","-81.540501"
"(304) 847-","Landline","Webster","Webster Springs","WV","West Virginia","26288","Eastern","38.483244","-80.447555"
"(304) 724-","Landline","Jefferson","Charles Town","WV","West Virginia","25414","Eastern","39.313538","-77.860278"
"(304) 851-","Cell Number","Grant","Petersburg","WV","West Virginia","26847","Eastern","38.990838","-79.129301"
"(304) 648-","Landline","Wayne","Genoa","WV","West Virginia","25517","Eastern","38.132114","-82.418277"
"(304) 558-","Landline","Kanawha","Charleston","WV","West Virginia","25387","Eastern","38.296818","-81.554655"
"(304) 960-","Cell Number","Mercer","Bluefield","WV","West Virginia","24701","Eastern","37.332725","-81.160066"
"(304) 788-","Landline","Mineral","Keyser","WV","West Virginia","26726","Eastern","39.452686","-78.892554"
"(304) 496-","Landline","Hampshire","Augusta","WV","West Virginia","26704","Eastern","39.251133","-78.618258"
"(304) 479-","Cell Number","Hancock","Weirton","WV","West Virginia","26062","Eastern","40.507729","-80.565292"
"(304) 372-","Landline","Jackson","Ripley","WV","West Virginia","25271","Eastern","38.791845","-81.728065"
"(304) 697-","Landline","Cabell","Huntington","WV","West Virginia","25774","Eastern","38.413384","-82.277401"
"(304) 946-","Landline","Logan","Omar","WV","West Virginia","25638","Eastern","37.741593","-82.003139"
"(304) 910-","Landline","Mercer","Bluefield","WV","West Virginia","24701","Eastern","37.332725","-81.160066"
"(304) 642-","Cell Number","Randolph","Elkins","WV","West Virginia","26241","Eastern","38.846815","-79.892841"
"(304) 369-","Landline","Boone","Madison","WV","West Virginia","25130","Eastern","38.063165","-81.818718"
"(304) 497-","Landline","Greenbrier","Frankford","WV","West Virginia","24938","Eastern","37.915363","-80.335257"
"(304) 838-","Cell Number","Harrison","Clarksburg","WV","West Virginia","26306","Eastern","39.285204","-80.385344"
"(304) 463-","Landline","Tucker","Thomas","WV","West Virginia","26292","Eastern","39.138003","-79.481555"
"(304) 221-","Landline","Marshall","Moundsville","WV","West Virginia","26041","Eastern","39.916748","-80.737134"
"(304) 804-","Landline","Gilmer","Glenville","WV","West Virginia","26351","Eastern","38.940946","-80.83133"
"(304) 679-","Landline","Wood","Walker","WV","West Virginia","26180","Eastern","39.218276","-81.497865"
"(304) 313-","Landline","Tyler","Middlebourne","WV","West Virginia","26149","Eastern","39.494178","-80.907644"
"(304) 924-","Landline","Upshur","French Creek","WV","West Virginia","26218","Eastern","38.899314","-80.226855"
"(304) 395-","Cell Number","Kanawha","Charleston","WV","West Virginia","25387","Eastern","38.296818","-81.554655"
"(304) 342-","Landline","Kanawha","Charleston","WV","West Virginia","25387","Eastern","38.296818","-81.554655"
"(304) 639-","Cell Number","Ohio","Wheeling","WV","West Virginia","26003","Eastern","40.102703","-80.647599"
"(304) 621-","Cell Number","Randolph","Elkins","WV","West Virginia","26241","Eastern","38.846815","-79.892841"
"(304) 736-","Landline","Cabell","Barboursville","WV","West Virginia","25504","Eastern","38.379347","-82.264954"
"(304) 985-","Landline","Monongalia","Morgantown","WV","West Virginia","26508","Eastern","39.595329","-79.922871"
"(304) 560-","Cell Number","Kanawha","Charleston","WV","West Virginia","25387","Eastern","38.296818","-81.554655"
"(304) 774-","Landline","Wyoming","Mullens","WV","West Virginia","25882","Eastern","37.582143","-81.413815"
"(304) 964-","Cell Number","Putnam","Scott Depot","WV","West Virginia","25560","Eastern","38.450355","-81.896554"
"(304) 451-","Landline","Wetzel","New Martinsville","WV","West Virginia","26155","Eastern","39.611459","-80.817928"
"(304) 365-","Cell Number","Marion","Fairmont","WV","West Virginia","26554","Eastern","39.494115","-80.221282"
"(304) 637-","Landline","Randolph","Elkins","WV","West Virginia","26241","Eastern","38.846815","-79.892841"
"(304) 831-","Landline","Logan","Logan","WV","West Virginia","25601","Eastern","37.865036","-82.025158"
"(304) 593-","Cell Number","Mason","Point Pleasant","WV","West Virginia","25550","Eastern","38.871527","-82.098592"
"(304) 929-","Landline","Raleigh","Beckley","WV","West Virginia","25801","Eastern","37.767248","-81.216446"
"(304) 244-","Cell Number","Cabell","Huntington","WV","West Virginia","25774","Eastern","38.413384","-82.277401"
"(304) 227-","Landline","Randolph","Harman","WV","West Virginia","26270","Eastern","38.75338","-79.814713"
"(304) 652-","Landline","Tyler","Sistersville","WV","West Virginia","26175","Eastern","39.541445","-80.975638"
"(304) 928-","Cell Number","Logan","Logan","WV","West Virginia","25601","Eastern","37.865036","-82.025158"
"(304) 540-","Cell Number","Cabell","Huntington","WV","West Virginia","25774","Eastern","38.413384","-82.277401"
"(304) 468-","Cell Number","Hancock","Weirton","WV","West Virginia","26062","Eastern","40.507729","-80.565292"
"(304) 284-","Landline","Monongalia","Morgantown","WV","West Virginia","26508","Eastern","39.595329","-79.922871"
"(304) 272-","Landline","Wayne","Wayne","WV","West Virginia","25570","Eastern","38.222206","-82.418862"
"(304) 725-","Landline","Jefferson","Charles Town","WV","West Virginia","25414","Eastern","39.313538","-77.860278"
"(304) 769-","Landline","Kanawha","Charleston","WV","West Virginia","25387","Eastern","38.296818","-81.554655"
"(304) 981-","Landline","Fayette","Montgomery","WV","West Virginia","25136","Eastern","38.172523","-81.322175"
"(304) 573-","Cell Number","Raleigh","Beckley","WV","West Virginia","25801","Eastern","37.767248","-81.216446"
"(304) 452-","Landline","Lewis","Walkersville","WV","West Virginia","26447","Eastern","38.945847","-80.51449"
"(304) 794-","Landline","Hancock","Weirton","WV","West Virginia","26062","Eastern","40.507729","-80.565292"
"(304) 763-","Landline","Raleigh","White Oak","WV","West Virginia","25989","Eastern","37.684255","-81.048923"
"(304) 499-","Landline","Fayette","Montgomery","WV","West Virginia","25136","Eastern","38.172523","-81.322175"
"(304) 230-","Landline","Ohio","Wheeling","WV","West Virginia","26003","Eastern","40.102703","-80.647599"
"(304) 781-","Landline","Cabell","Huntington","WV","West Virginia","25774","Eastern","38.413384","-82.277401"
"(304) 770-","Landline","Raleigh","Beckley","WV","West Virginia","25801","Eastern","37.767248","-81.216446"
"(304) 531-","Cell Number","Jackson","Ripley","WV","West Virginia","25271","Eastern","38.791845","-81.728065"
"(304) 206-","Landline","Kanawha","Charleston","WV","West Virginia","25387","Eastern","38.296818","-81.554655"
"(304) 491-","Cell Number","Hancock","Weirton","WV","West Virginia","26062","Eastern","40.507729","-80.565292"
"(304) 532-","Cell Number","Jackson","Ripley","WV","West Virginia","25271","Eastern","38.791845","-81.728065"
"(304) 669-","Cell Number","Harrison","Clarksburg","WV","West Virginia","26306","Eastern","39.285204","-80.385344"
"(304) 863-","Landline","Wood","Washington","WV","West Virginia","26181","Eastern","39.206816","-81.65769"
"(304) 674-","Landline","Mason","Point Pleasant","WV","West Virginia","25550","Eastern","38.871527","-82.098592"
"(304) 358-","Landline","Pendleton","Franklin","WV","West Virginia","26807","Eastern","38.648787","-79.327196"
"(304) 789-","Landline","Preston","Terra Alta","WV","West Virginia","26764","Eastern","39.430634","-79.519679"
"(304) 423-","Landline","Harrison","Clarksburg","WV","West Virginia","26306","Eastern","39.285204","-80.385344"
"(304) 294-","Landline","Wyoming","Mullens","WV","West Virginia","25882","Eastern","37.582143","-81.413815"
"(304) 608-","Landline","Harrison","Bridgeport","WV","West Virginia","26330","Eastern","39.309303","-80.282306"
"(304) 653-","Landline","Pocahontas","Hillsboro","WV","West Virginia","24946","Eastern","38.110904","-80.264059"
"(304) 248-","Landline","Mercer","Bramwell","WV","West Virginia","24715","Eastern","37.343532","-81.325281"
"(304) 607-","Landline","Pendleton","Brandywine","WV","West Virginia","26802","Eastern","38.684692","-79.353564"
"(304) 553-","Landline","Kanawha","Charleston","WV","West Virginia","25387","Eastern","38.296818","-81.554655"
"(304) 306-","Landline","Kanawha","Alum Creek","WV","West Virginia","25003","Eastern","38.243675","-81.771226"
"(304) 501-","Unknown","Wayne","Wayne","WV","West Virginia","25570","Eastern","38.222206","-82.418862"
"(304) 447-","Landline","Wetzel","New Martinsville","WV","West Virginia","26155","Eastern","39.611459","-80.817928"
"(304) 756-","Landline","Kanawha","Alum Creek","WV","West Virginia","25003","Eastern","38.243675","-81.771226"
"(304) 539-","Cell Number","Kanawha","Charleston","WV","West Virginia","25387","Eastern","38.296818","-81.554655"
"(304) 415-","Cell Number","Kanawha","Charleston","WV","West Virginia","25387","Eastern","38.296818","-81.554655"
"(304) 827-","Landline","Mcdowell","Northfork","WV","West Virginia","24868","Eastern","37.389939","-81.419578"
"(304) 505-","Landline","Brooke","Follansbee","WV","West Virginia","26037","Eastern","40.335218","-80.570953"
"(304) 229-","Landline","Berkeley","Inwood","WV","West Virginia","25428","Eastern","39.362373","-78.033065"
"(304) 808-","Landline","Harrison","Bridgeport","WV","West Virginia","26330","Eastern","39.309303","-80.282306"
"(304) 279-","Cell Number","Berkeley","Falling Waters","WV","West Virginia","25419","Eastern","39.572966","-77.882155"
"(304) 689-","Cell Number","Braxton","Sutton","WV","West Virginia","26601","Eastern","38.654141","-80.67597"
"(304) 975-","Unknown","Ohio","Wheeling","WV","West Virginia","26003","Eastern","40.102703","-80.647599"
"(304) 450-","Cell Number","Kanawha","Charleston","WV","West Virginia","25387","Eastern","38.296818","-81.554655"
"(304) 586-","Landline","Putnam","Winfield","WV","West Virginia","25213","Eastern","38.50099","-81.914048"
"(304) 984-","Landline","Kanawha","Charleston","WV","West Virginia","25387","Eastern","38.296818","-81.554655"
"(304) 718-","Cell Number","Wood","Parkersburg","WV","West Virginia","26103","Eastern","39.236427","-81.540501"
"(304) 734-","Landline","Kanawha","East Bank","WV","West Virginia","25067","Eastern","38.209887","-81.438053"
"(304) 920-","Cell Number","Mercer","Bluefield","WV","West Virginia","24701","Eastern","37.332725","-81.160066"
"(304) 462-","Landline","Gilmer","Glenville","WV","West Virginia","26351","Eastern","38.940946","-80.83133"
"(304) 719-","Unknown","Kanawha","Charleston","WV","West Virginia","25387","Eastern","38.296818","-81.554655"
"(304) 436-","Landline","Mcdowell","Welch","WV","West Virginia","24801","Eastern","37.411086","-81.539352"
"(304) 829-","Landline","Brooke","Bethany","WV","West Virginia","26032","Eastern","40.210727","-80.550337"
"(304) 431-","Landline","Mercer","Princeton","WV","West Virginia","24740","Eastern","37.379876","-81.117475"
