"Prefix","Usage","County","City","ShortState","LongState","Zip","Timezone","Latitude","Longitude"
"(307) 278-","Landline","Johnson","Buffalo","WY","Wyoming","82834","Mountain","44.122611","-106.561068"
"(307) 765-","Landline","Big Horn","Greybull","WY","Wyoming","82426","Mountain","44.477394","-108.130553"
"(307) 259-","Cell Number","Natrona","Casper","WY","Wyoming","82605","Mountain","42.966192","-106.807047"
"(307) 473-","Landline","Carbon","Casper","WY","Wyoming","82605","Mountain","42.966192","-106.807047"
"(307) 203-","Cell Number","Teton","Jackson","WY","Wyoming","83002","Mountain","43.50537","-110.786527"
"(307) 758-","Landline","Sheridan","Clearmont","WY","Wyoming","82835","Mountain","44.770346","-106.425278"
"(307) 854-","Unknown","Fremont","Riverton","WY","Wyoming","82501","Mountain","43.180647","-108.925734"
"(307) 437-","Landline","Natrona","Midwest","WY","Wyoming","82643","Mountain","43.405584","-106.278264"
"(307) 787-","Landline","Uinta","Lyman","WY","Wyoming","82937","Mountain","41.331817","-110.303367"
"(307) 685-","Landline","Campbell","Gillette","WY","Wyoming","82716","Mountain","44.377283","-105.550237"
"(307) 790-","Cell Number","Crook","Sundance","WY","Wyoming","82729","Mountain","44.352274","-104.420625"
"(307) 721-","Landline","Albany","Laramie","WY","Wyoming","82073","Mountain","41.307065","-105.624667"
"(307) 386-","Landline","Lincoln","La Barge","WY","Wyoming","83123","Mountain","42.206598","-110.286804"
"(307) 752-","Cell Number","Sheridan","Sheridan","WY","Wyoming","82801","Mountain","44.780378","-106.837563"
"(307) 744-","Cell Number","Weston","Newcastle","WY","Wyoming","82701","Mountain","43.8397","-104.567814"
"(307) 754-","Landline","Park","Powell","WY","Wyoming","82435","Mountain","44.615962","-108.948914"
"(307) 422-","Landline","Platte","Chugwater","WY","Wyoming","82210","Mountain","41.74064","-104.871308"
"(307) 977-","Cell Number","Albany","Laramie","WY","Wyoming","82073","Mountain","41.307065","-105.624667"
"(307) 282-","Cell Number","Crook","Sundance","WY","Wyoming","82729","Mountain","44.352274","-104.420625"
"(307) 309-","Unknown","Converse","Glenrock","WY","Wyoming","82637","Mountain","42.780251","-105.871922"
"(307) 526-","Landline","Fremont","Lander","WY","Wyoming","82520","Mountain","42.920832","-108.591264"
"(307) 797-","Cell Number","Natrona","Casper","WY","Wyoming","82605","Mountain","42.966192","-106.807047"
"(307) 255-","Cell Number","Uinta","Evanston","WY","Wyoming","82930","Mountain","41.233758","-110.664401"
"(307) 649-","Landline","Laramie","Carpenter","WY","Wyoming","82054","Mountain","41.097376","-104.356347"
"(307) 622-","Unknown","Campbell","Gillette","WY","Wyoming","82716","Mountain","44.377283","-105.550237"
"(307) 834-","Landline","Laramie","Meriden","WY","Wyoming","82081","Mountain","41.513944","-104.441122"
"(307) 660-","Cell Number","Campbell","Gillette","WY","Wyoming","82716","Mountain","44.377283","-105.550237"
"(307) 939-","Landline","Campbell","Gillette","WY","Wyoming","82716","Mountain","44.377283","-105.550237"
"(307) 699-","Cell Number","Teton","Jackson","WY","Wyoming","83002","Mountain","43.50537","-110.786527"
"(307) 886-","Landline","Lincoln","Afton","WY","Wyoming","83110","Mountain","42.711296","-110.619734"
"(307) 730-","Cell Number","Teton","Jackson","WY","Wyoming","83002","Mountain","43.50537","-110.786527"
"(307) 426-","Unknown","Laramie","Cheyenne","WY","Wyoming","82001","Mountain","41.25173","-104.56264"
"(307) 708-","Cell Number","Uinta","Evanston","WY","Wyoming","82930","Mountain","41.233758","-110.664401"
"(307) 340-","Cell Number","Niobrara","Manville","WY","Wyoming","82227","Mountain","42.73001","-104.702397"
"(307) 723-","Cell Number","Lincoln","Kemmerer","WY","Wyoming","83101","Mountain","42.368433","-110.514132"
"(307) 401-","Cell Number","Goshen","Torrington","WY","Wyoming","82240","Mountain","42.072314","-104.187474"
"(307) 431-","Cell Number","Washakie","Worland","WY","Wyoming","82401","Mountain","44.008105","-108.141457"
"(307) 703-","Cell Number","Albany","Laramie","WY","Wyoming","82073","Mountain","41.307065","-105.624667"
"(307) 738-","Landline","Johnson","Kaycee","WY","Wyoming","82639","Mountain","43.720933","-106.541709"
"(307) 529-","Unknown","Laramie","Cheyenne","WY","Wyoming","82001","Mountain","41.25173","-104.56264"
"(307) 779-","Cell Number","Platte","Wheatland","WY","Wyoming","82201","Mountain","42.013984","-104.967405"
"(307) 715-","Cell Number","Goshen","Torrington","WY","Wyoming","82240","Mountain","42.072314","-104.187474"
"(307) 354-","Cell Number","Sweetwater","Rock Springs","WY","Wyoming","82901","Mountain","41.634515","-109.149045"
"(307) 440-","Unknown","Big Horn","Basin","WY","Wyoming","82410","Mountain","44.346935","-108.165824"
"(307) 281-","Cell Number","Crook","Sundance","WY","Wyoming","82729","Mountain","44.352274","-104.420625"
"(307) 472-","Landline","Carbon","Casper","WY","Wyoming","82605","Mountain","42.966192","-106.807047"
"(307) 469-","Landline","Big Horn","Hyattville","WY","Wyoming","82428","Mountain","44.217942","-107.681792"
"(307) 238-","Landline","Lincoln","Afton","WY","Wyoming","83110","Mountain","42.711296","-110.619734"
"(307) 871-","Cell Number","Sweetwater","Green River","WY","Wyoming","82935","Mountain","41.51437","-109.427616"
"(307) 710-","Cell Number","Carbon","Rawlins","WY","Wyoming","82301","Mountain","41.538075","-106.921959"
"(307) 768-","Landline","Sweetwater","Rock Springs","WY","Wyoming","82901","Mountain","41.634515","-109.149045"
"(307) 749-","Cell Number","Sublette","Pinedale","WY","Wyoming","82941","Mountain","42.849757","-109.938968"
"(307) 761-","Cell Number","Albany","Laramie","WY","Wyoming","82073","Mountain","41.307065","-105.624667"
"(307) 739-","Landline","Teton","Jackson","WY","Wyoming","83002","Mountain","43.50537","-110.786527"
"(307) 884-","Cell Number","Lincoln","Afton","WY","Wyoming","83110","Mountain","42.711296","-110.619734"
"(307) 731-","Cell Number","Big Horn","Lovell","WY","Wyoming","82431","Mountain","44.584242","-108.264522"
"(307) 332-","Landline","Fremont","Lander","WY","Wyoming","82520","Mountain","42.920832","-108.591264"
"(307) 717-","Cell Number","Converse","Douglas","WY","Wyoming","82633","Mountain","42.894084","-105.389691"
"(307) 379-","Landline","Carbon","Medicine Bow","WY","Wyoming","82329","Mountain","41.834011","-106.180829"
"(307) 330-","Cell Number","Fremont","Lander","WY","Wyoming","82520","Mountain","42.920832","-108.591264"
"(307) 290-","Cell Number","Crook","Sundance","WY","Wyoming","82729","Mountain","44.352274","-104.420625"
"(307) 684-","Landline","Johnson","Buffalo","WY","Wyoming","82834","Mountain","44.122611","-106.561068"
"(307) 798-","Unknown","Albany","Rock River","WY","Wyoming","82083","Mountain","42.023074","-105.51461"
"(307) 344-","Landline","Park","Yellowstone National Park","WY","Wyoming","82190","Mountain","44.795733","-110.613731"
"(307) 706-","Cell Number","Sheridan","Sheridan","WY","Wyoming","82801","Mountain","44.780378","-106.837563"
"(307) 747-","Cell Number","Uinta","Fort Bridger","WY","Wyoming","82933","Mountain","41.295023","-110.399094"
"(307) 532-","Landline","Goshen","Torrington","WY","Wyoming","82240","Mountain","42.072314","-104.187474"
"(307) 875-","Landline","Sweetwater","Green River","WY","Wyoming","82935","Mountain","41.51437","-109.427616"
"(307) 436-","Landline","Converse","Glenrock","WY","Wyoming","82637","Mountain","42.780251","-105.871922"
"(307) 269-","Landline","Platte","Wheatland","WY","Wyoming","82201","Mountain","42.013984","-104.967405"
"(307) 742-","Landline","Albany","Laramie","WY","Wyoming","82073","Mountain","41.307065","-105.624667"
"(307) 712-","Cell Number","Park","Cody","WY","Wyoming","82414","Mountain","44.541637","-109.436585"
"(307) 620-","Cell Number","Johnson","Buffalo","WY","Wyoming","82834","Mountain","44.122611","-106.561068"
"(307) 363-","Unknown","Campbell","Gillette","WY","Wyoming","82716","Mountain","44.377283","-105.550237"
"(307) 645-","Landline","Park","Powell","WY","Wyoming","82435","Mountain","44.615962","-108.948914"
"(307) 455-","Landline","Fremont","Dubois","WY","Wyoming","82513","Mountain","43.549861","-109.704749"
"(307) 260-","Cell Number","Sublette","Big Piney","WY","Wyoming","83113","Mountain","42.648328","-110.124616"
"(307) 782-","Landline","Uinta","Fort Bridger","WY","Wyoming","82933","Mountain","41.295023","-110.399094"
"(307) 735-","Landline","Platte","Glendo","WY","Wyoming","82213","Mountain","42.481824","-104.980954"
"(307) 762-","Landline","Big Horn","Burlington","WY","Wyoming","82411","Mountain","44.436282","-108.470326"
"(307) 334-","Landline","Niobrara","Manville","WY","Wyoming","82227","Mountain","42.73001","-104.702397"
"(307) 200-","Landline","Teton","Jackson","WY","Wyoming","83002","Mountain","43.50537","-110.786527"
"(307) 223-","Landline","Albany","Laramie","WY","Wyoming","82073","Mountain","41.307065","-105.624667"
"(307) 347-","Landline","Washakie","Worland","WY","Wyoming","82401","Mountain","44.008105","-108.141457"
"(307) 459-","Landline","Laramie","Cheyenne","WY","Wyoming","82001","Mountain","41.25173","-104.56264"
"(307) 389-","Cell Number","Sweetwater","Rock Springs","WY","Wyoming","82901","Mountain","41.634515","-109.149045"
"(307) 320-","Cell Number","Carbon","Rawlins","WY","Wyoming","82301","Mountain","41.538075","-106.921959"
"(307) 780-","Cell Number","Uinta","Fort Bridger","WY","Wyoming","82933","Mountain","41.295023","-110.399094"
"(307) 771-","Landline","Laramie","Cheyenne","WY","Wyoming","82001","Mountain","41.25173","-104.56264"
"(307) 384-","Landline","Uinta","Evanston","WY","Wyoming","82930","Mountain","41.233758","-110.664401"
"(307) 383-","Landline","Carbon","Baggs","WY","Wyoming","82321","Mountain","41.025579","-107.569976"
"(307) 851-","Cell Number","Fremont","Riverton","WY","Wyoming","82501","Mountain","43.180647","-108.925734"
"(307) 840-","Cell Number","Fremont","Riverton","WY","Wyoming","82501","Mountain","43.180647","-108.925734"
"(307) 221-","Cell Number","Laramie","Cheyenne","WY","Wyoming","82001","Mountain","41.25173","-104.56264"
"(307) 874-","Landline","Uinta","Lonetree","WY","Wyoming","82936","Mountain","41.024224","-110.173336"
"(307) 756-","Landline","Crook","Moorcroft","WY","Wyoming","82721","Mountain","44.415431","-104.838916"
"(307) 704-","Cell Number","Campbell","Gillette","WY","Wyoming","82716","Mountain","44.377283","-105.550237"
"(307) 878-","Landline","Crook","Hulett","WY","Wyoming","82720","Mountain","44.675348","-104.661438"
"(307) 760-","Cell Number","Albany","Laramie","WY","Wyoming","82073","Mountain","41.307065","-105.624667"
"(307) 298-","Landline","Converse","Douglas","WY","Wyoming","82633","Mountain","42.894084","-105.389691"
"(307) 554-","Landline","Converse","Glenrock","WY","Wyoming","82637","Mountain","42.780251","-105.871922"
"(307) 265-","Landline","Carbon","Casper","WY","Wyoming","82605","Mountain","42.966192","-106.807047"
"(307) 670-","Cell Number","Campbell","Gillette","WY","Wyoming","82716","Mountain","44.377283","-105.550237"
"(307) 755-","Landline","Albany","Laramie","WY","Wyoming","82073","Mountain","41.307065","-105.624667"
"(307) 630-","Cell Number","Laramie","Cheyenne","WY","Wyoming","82001","Mountain","41.25173","-104.56264"
"(307) 365-","Unknown","Laramie","Cheyenne","WY","Wyoming","82001","Mountain","41.25173","-104.56264"
"(307) 774-","Cell Number","Teton","Jackson","WY","Wyoming","83002","Mountain","43.50537","-110.786527"
"(307) 201-","Landline","Teton","Jackson","WY","Wyoming","83002","Mountain","43.50537","-110.786527"
"(307) 650-","Cell Number","Laramie","Cheyenne","WY","Wyoming","82001","Mountain","41.25173","-104.56264"
"(307) 789-","Landline","Uinta","Evanston","WY","Wyoming","82930","Mountain","41.233758","-110.664401"
"(307) 326-","Landline","Carbon","Encampment","WY","Wyoming","82325","Mountain","41.224462","-106.790506"
"(307) 375-","Landline","Washakie","Worland","WY","Wyoming","82401","Mountain","44.008105","-108.141457"
"(307) 272-","Cell Number","Park","Cody","WY","Wyoming","82414","Mountain","44.541637","-109.436585"
"(307) 327-","Landline","Carbon","Encampment","WY","Wyoming","82325","Mountain","41.224462","-106.790506"
"(307) 413-","Cell Number","Teton","Jackson","WY","Wyoming","83002","Mountain","43.50537","-110.786527"
"(307) 277-","Cell Number","Natrona","Casper","WY","Wyoming","82605","Mountain","42.966192","-106.807047"
"(307) 705-","Cell Number","Sweetwater","Rock Springs","WY","Wyoming","82901","Mountain","41.634515","-109.149045"
"(307) 224-","Landline","Carbon","Casper","WY","Wyoming","82605","Mountain","42.966192","-106.807047"
"(307) 674-","Landline","Sheridan","Sheridan","WY","Wyoming","82801","Mountain","44.780378","-106.837563"
"(307) 462-","Landline","Natrona","Casper","WY","Wyoming","82605","Mountain","42.966192","-106.807047"
"(307) 727-","Cell Number","Lincoln","Kemmerer","WY","Wyoming","83101","Mountain","42.368433","-110.514132"
"(307) 213-","Landline","Park","Cody","WY","Wyoming","82414","Mountain","44.541637","-109.436585"
"(307) 713-","Cell Number","Teton","Jackson","WY","Wyoming","83002","Mountain","43.50537","-110.786527"
"(307) 271-","Landline","Park","Powell","WY","Wyoming","82435","Mountain","44.615962","-108.948914"
"(307) 388-","Cell Number","Washakie","Worland","WY","Wyoming","82401","Mountain","44.008105","-108.141457"
"(307) 682-","Landline","Campbell","Gillette","WY","Wyoming","82716","Mountain","44.377283","-105.550237"
"(307) 527-","Landline","Park","Cody","WY","Wyoming","82414","Mountain","44.541637","-109.436585"
"(307) 279-","Landline","Lincoln","Cokeville","WY","Wyoming","83114","Mountain","42.247455","-110.941119"
"(307) 464-","Landline","Campbell","Gillette","WY","Wyoming","82716","Mountain","44.377283","-105.550237"
"(307) 663-","Landline","Niobrara","Lance Creek","WY","Wyoming","82222","Mountain","43.152195","-104.59198"
"(307) 270-","Cell Number","Lincoln","Cokeville","WY","Wyoming","83114","Mountain","42.247455","-110.941119"
"(307) 373-","Unknown","Big Horn","Greybull","WY","Wyoming","82426","Mountain","44.477394","-108.130553"
"(307) 380-","Cell Number","Carbon","Baggs","WY","Wyoming","82321","Mountain","41.025579","-107.569976"
"(307) 943-","Landline","Platte","Wheatland","WY","Wyoming","82201","Mountain","42.013984","-104.967405"
"(307) 672-","Landline","Sheridan","Sheridan","WY","Wyoming","82801","Mountain","44.780378","-106.837563"
"(307) 358-","Landline","Converse","Douglas","WY","Wyoming","82633","Mountain","42.894084","-105.389691"
"(307) 351-","Cell Number","Converse","Douglas","WY","Wyoming","82633","Mountain","42.894084","-105.389691"
"(307) 261-","Landline","Carbon","Casper","WY","Wyoming","82605","Mountain","42.966192","-106.807047"
"(307) 335-","Landline","Fremont","Lander","WY","Wyoming","82520","Mountain","42.920832","-108.591264"
"(307) 497-","Landline","Uinta","Evanston","WY","Wyoming","82930","Mountain","41.233758","-110.664401"
"(307) 870-","Cell Number","Sweetwater","Green River","WY","Wyoming","82935","Mountain","41.51437","-109.427616"
"(307) 922-","Landline","Sweetwater","Rock Springs","WY","Wyoming","82901","Mountain","41.634515","-109.149045"
"(307) 621-","Cell Number","Johnson","Buffalo","WY","Wyoming","82834","Mountain","44.122611","-106.561068"
"(307) 212-","Landline","Sweetwater","Rock Springs","WY","Wyoming","82901","Mountain","41.634515","-109.149045"
"(307) 360-","Cell Number","Sublette","Pinedale","WY","Wyoming","82941","Mountain","42.849757","-109.938968"
"(307) 331-","Cell Number","Platte","Wheatland","WY","Wyoming","82201","Mountain","42.013984","-104.967405"
"(307) 325-","Landline","Carbon","Hanna","WY","Wyoming","82327","Mountain","41.869647","-106.552216"
"(307) 664-","Landline","Big Horn","Deaver","WY","Wyoming","82421","Mountain","44.702955","-108.335432"
"(307) 543-","Landline","Teton","Moran","WY","Wyoming","83013","Mountain","43.950896","-110.553181"
"(307) 299-","Cell Number","Campbell","Gillette","WY","Wyoming","82716","Mountain","44.377283","-105.550237"
"(307) 425-","Unknown","Johnson","Buffalo","WY","Wyoming","82834","Mountain","44.122611","-106.561068"
"(307) 763-","Cell Number","Sheridan","Sheridan","WY","Wyoming","82801","Mountain","44.780378","-106.837563"
"(307) 686-","Landline","Campbell","Gillette","WY","Wyoming","82716","Mountain","44.377283","-105.550237"
"(307) 709-","Cell Number","Fremont","Riverton","WY","Wyoming","82501","Mountain","43.180647","-108.925734"
"(307) 640-","Cell Number","Laramie","Cheyenne","WY","Wyoming","82001","Mountain","41.25173","-104.56264"
"(307) 341-","Landline","Sheridan","Parkman","WY","Wyoming","82838","Mountain","44.808925","-107.135181"
"(307) 634-","Landline","Laramie","Cheyenne","WY","Wyoming","82001","Mountain","41.25173","-104.56264"
"(307) 322-","Landline","Platte","Wheatland","WY","Wyoming","82201","Mountain","42.013984","-104.967405"
"(307) 274-","Landline","Laramie","Cheyenne","WY","Wyoming","82001","Mountain","41.25173","-104.56264"
"(307) 872-","Landline","Sweetwater","Green River","WY","Wyoming","82935","Mountain","41.51437","-109.427616"
"(307) 460-","Landline","Albany","Laramie","WY","Wyoming","82073","Mountain","41.307065","-105.624667"
"(307) 534-","Landline","Goshen","Torrington","WY","Wyoming","82240","Mountain","42.072314","-104.187474"
"(307) 288-","Landline","Uinta","Evanston","WY","Wyoming","82930","Mountain","41.233758","-110.664401"
"(307) 243-","Landline","Laramie","Cheyenne","WY","Wyoming","82001","Mountain","41.25173","-104.56264"
"(307) 275-","Landline","Laramie","Cheyenne","WY","Wyoming","82001","Mountain","41.25173","-104.56264"
"(307) 339-","Cell Number","Carbon","Hanna","WY","Wyoming","82327","Mountain","41.869647","-106.552216"
"(307) 887-","Cell Number","Lincoln","Afton","WY","Wyoming","83110","Mountain","42.711296","-110.619734"
"(307) 687-","Landline","Campbell","Gillette","WY","Wyoming","82716","Mountain","44.377283","-105.550237"
"(307) 390-","Cell Number","Lincoln","La Barge","WY","Wyoming","83123","Mountain","42.206598","-110.286804"
"(307) 366-","Landline","Washakie","Ten Sleep","WY","Wyoming","82442","Mountain","43.908687","-107.530662"
"(307) 343-","Unknown","Albany","Laramie","WY","Wyoming","82073","Mountain","41.307065","-105.624667"
"(307) 677-","Cell Number","Uinta","Evanston","WY","Wyoming","82930","Mountain","41.233758","-110.664401"
"(307) 533-","Unknown","Sheridan","Sheridan","WY","Wyoming","82801","Mountain","44.780378","-106.837563"
"(307) 949-","Cell Number","Weston","Newcastle","WY","Wyoming","82701","Mountain","43.8397","-104.567814"
"(307) 247-","Cell Number","Natrona","Casper","WY","Wyoming","82605","Mountain","42.966192","-106.807047"
"(307) 432-","Landline","Laramie","Cheyenne","WY","Wyoming","82001","Mountain","41.25173","-104.56264"
"(307) 356-","Landline","Carbon","Medicine Bow","WY","Wyoming","82329","Mountain","41.834011","-106.180829"
"(307) 444-","Landline","Uinta","Evanston","WY","Wyoming","82930","Mountain","41.233758","-110.664401"
"(307) 745-","Landline","Albany","Laramie","WY","Wyoming","82073","Mountain","41.307065","-105.624667"
"(307) 267-","Cell Number","Natrona","Casper","WY","Wyoming","82605","Mountain","42.966192","-106.807047"
"(307) 280-","Cell Number","Sweetwater","Farson","WY","Wyoming","82932","Mountain","42.083362","-109.418358"
"(307) 349-","Cell Number","Fremont","Lander","WY","Wyoming","82520","Mountain","42.920832","-108.591264"
"(307) 333-","Landline","Natrona","Casper","WY","Wyoming","82605","Mountain","42.966192","-106.807047"
"(307) 724-","Cell Number","Natrona","Casper","WY","Wyoming","82605","Mountain","42.966192","-106.807047"
"(307) 899-","Cell Number","Park","Cody","WY","Wyoming","82414","Mountain","44.541637","-109.436585"
"(307) 202-","Cell Number","Park","Powell","WY","Wyoming","82435","Mountain","44.615962","-108.948914"
"(307) 439-","Unknown","Natrona","Casper","WY","Wyoming","82605","Mountain","42.966192","-106.807047"
"(307) 283-","Landline","Crook","Sundance","WY","Wyoming","82729","Mountain","44.352274","-104.420625"
"(307) 252-","Cell Number","Sweetwater","Rock Springs","WY","Wyoming","82901","Mountain","41.634515","-109.149045"
"(307) 467-","Landline","Crook","Alva","WY","Wyoming","82711","Mountain","44.68734","-104.441353"
"(307) 856-","Landline","Fremont","Riverton","WY","Wyoming","82501","Mountain","43.180647","-108.925734"
"(307) 253-","Unknown","Natrona","Casper","WY","Wyoming","82605","Mountain","42.966192","-106.807047"
"(307) 631-","Cell Number","Laramie","Cheyenne","WY","Wyoming","82001","Mountain","41.25173","-104.56264"
"(307) 788-","Landline","Goshen","Torrington","WY","Wyoming","82240","Mountain","42.072314","-104.187474"
"(307) 486-","Landline","Fremont","Crowheart","WY","Wyoming","82512","Mountain","43.362997","-109.221657"
"(307) 876-","Landline","Fremont","Shoshoni","WY","Wyoming","82649","Mountain","43.191539","-108.009659"
"(307) 578-","Landline","Park","Cody","WY","Wyoming","82414","Mountain","44.541637","-109.436585"
"(307) 348-","Landline","Carbon","Hanna","WY","Wyoming","82327","Mountain","41.869647","-106.552216"
"(307) 237-","Landline","Carbon","Casper","WY","Wyoming","82605","Mountain","42.966192","-106.807047"
"(307) 772-","Landline","Laramie","Cheyenne","WY","Wyoming","82001","Mountain","41.25173","-104.56264"
"(307) 520-","Cell Number","Carbon","Medicine Bow","WY","Wyoming","82329","Mountain","41.834011","-106.180829"
"(307) 367-","Landline","Sublette","Pinedale","WY","Wyoming","82941","Mountain","42.849757","-109.938968"
"(307) 696-","Unknown","Campbell","Gillette","WY","Wyoming","82716","Mountain","44.377283","-105.550237"
"(307) 729-","Landline","Carbon","Rawlins","WY","Wyoming","82301","Mountain","41.538075","-106.921959"
"(307) 632-","Landline","Laramie","Cheyenne","WY","Wyoming","82001","Mountain","41.25173","-104.56264"
"(307) 837-","Landline","Goshen","Torrington","WY","Wyoming","82240","Mountain","42.072314","-104.187474"
"(307) 751-","Cell Number","Sheridan","Sheridan","WY","Wyoming","82801","Mountain","44.780378","-106.837563"
"(307) 773-","Landline","Laramie","Cheyenne","WY","Wyoming","82001","Mountain","41.25173","-104.56264"
"(307) 855-","Landline","Fremont","Riverton","WY","Wyoming","82501","Mountain","43.180647","-108.925734"
"(307) 337-","Unknown","Natrona","Casper","WY","Wyoming","82605","Mountain","42.966192","-106.807047"
"(307) 540-","Cell Number","Fremont","Jeffrey City","WY","Wyoming","82310","Mountain","42.472474","-107.760978"
"(307) 548-","Landline","Big Horn","Lovell","WY","Wyoming","82431","Mountain","44.584242","-108.264522"
"(307) 828-","Landline","Lincoln","Kemmerer","WY","Wyoming","83101","Mountain","42.368433","-110.514132"
"(307) 257-","Landline","Campbell","Gillette","WY","Wyoming","82716","Mountain","44.377283","-105.550237"
"(307) 689-","Cell Number","Campbell","Gillette","WY","Wyoming","82716","Mountain","44.377283","-105.550237"
"(307) 734-","Landline","Teton","Jackson","WY","Wyoming","83002","Mountain","43.50537","-110.786527"
"(307) 248-","Cell Number","Lincoln","Afton","WY","Wyoming","83110","Mountain","42.711296","-110.619734"
"(307) 287-","Unknown","Laramie","Cheyenne","WY","Wyoming","82001","Mountain","41.25173","-104.56264"
"(307) 849-","Landline","Lincoln","Cokeville","WY","Wyoming","83114","Mountain","42.247455","-110.941119"
"(307) 775-","Landline","Laramie","Cheyenne","WY","Wyoming","82001","Mountain","41.25173","-104.56264"
"(307) 638-","Landline","Laramie","Cheyenne","WY","Wyoming","82001","Mountain","41.25173","-104.56264"
"(307) 586-","Landline","Park","Cody","WY","Wyoming","82414","Mountain","44.541637","-109.436585"
"(307) 624-","Cell Number","Converse","Douglas","WY","Wyoming","82633","Mountain","42.894084","-105.389691"
"(307) 880-","Cell Number","Lincoln","Freedom","WY","Wyoming","83120","Mountain","43.026767","-111.003953"
"(307) 478-","Landline","Sweetwater","Green River","WY","Wyoming","82935","Mountain","41.51437","-109.427616"
"(307) 702-","Cell Number","Natrona","Casper","WY","Wyoming","82605","Mountain","42.966192","-106.807047"
"(307) 733-","Landline","Teton","Jackson","WY","Wyoming","83002","Mountain","43.50537","-110.786527"
"(307) 391-","Cell Number","Crook","Moorcroft","WY","Wyoming","82721","Mountain","44.415431","-104.838916"
"(307) 352-","Landline","Sweetwater","Rock Springs","WY","Wyoming","82901","Mountain","41.634515","-109.149045"
"(307) 766-","Landline","Albany","Laramie","WY","Wyoming","82073","Mountain","41.307065","-105.624667"
"(307) 399-","Cell Number","Albany","Laramie","WY","Wyoming","82073","Mountain","41.307065","-105.624667"
"(307) 701-","Cell Number","Laramie","Cheyenne","WY","Wyoming","82001","Mountain","41.25173","-104.56264"
"(307) 217-","Cell Number","Johnson","Buffalo","WY","Wyoming","82834","Mountain","44.122611","-106.561068"
"(307) 220-","Cell Number","Laramie","Cheyenne","WY","Wyoming","82001","Mountain","41.25173","-104.56264"
"(307) 655-","Landline","Sheridan","Wolf","WY","Wyoming","82844","Mountain","44.850012","-107.185309"
"(307) 720-","Cell Number","Platte","Wheatland","WY","Wyoming","82201","Mountain","42.013984","-104.967405"
"(307) 850-","Cell Number","Fremont","Riverton","WY","Wyoming","82501","Mountain","43.180647","-108.925734"
"(307) 468-","Landline","Weston","Upton","WY","Wyoming","82730","Mountain","43.937319","-104.620856"
"(307) 328-","Landline","Carbon","Rawlins","WY","Wyoming","82301","Mountain","41.538075","-106.921959"
"(307) 778-","Landline","Laramie","Cheyenne","WY","Wyoming","82001","Mountain","41.25173","-104.56264"
"(307) 250-","Cell Number","Park","Cody","WY","Wyoming","82414","Mountain","44.541637","-109.436585"
"(307) 740-","Cell Number","Teton","Jackson","WY","Wyoming","83002","Mountain","43.50537","-110.786527"
"(307) 995-","Landline","Carbon","Casper","WY","Wyoming","82605","Mountain","42.966192","-106.807047"
"(307) 509-","Unknown","Laramie","Cheyenne","WY","Wyoming","82001","Mountain","41.25173","-104.56264"
"(307) 377-","Cell Number","Natrona","Casper","WY","Wyoming","82605","Mountain","42.966192","-106.807047"
"(307) 258-","Cell Number","Natrona","Casper","WY","Wyoming","82605","Mountain","42.966192","-106.807047"
"(307) 732-","Landline","Teton","Jackson","WY","Wyoming","83002","Mountain","43.50537","-110.786527"
"(307) 750-","Landline","Sheridan","Sheridan","WY","Wyoming","82801","Mountain","44.780378","-106.837563"
"(307) 382-","Landline","Sweetwater","Rock Springs","WY","Wyoming","82901","Mountain","41.634515","-109.149045"
"(307) 477-","Cell Number","Laramie","Cheyenne","WY","Wyoming","82001","Mountain","41.25173","-104.56264"
"(307) 466-","Landline","Sweetwater","Green River","WY","Wyoming","82935","Mountain","41.51437","-109.427616"
"(307) 465-","Landline","Weston","Osage","WY","Wyoming","82723","Mountain","44.04631","-104.360224"
"(307) 421-","Cell Number","Laramie","Cheyenne","WY","Wyoming","82001","Mountain","41.25173","-104.56264"
"(307) 233-","Landline","Carbon","Casper","WY","Wyoming","82605","Mountain","42.966192","-106.807047"
"(307) 549-","Cell Number","Park","Yellowstone National Park","WY","Wyoming","82190","Mountain","44.795733","-110.613731"
"(307) 836-","Landline","Platte","Guernsey","WY","Wyoming","82214","Mountain","42.256819","-104.786912"
"(307) 262-","Cell Number","Natrona","Casper","WY","Wyoming","82605","Mountain","42.966192","-106.807047"
"(307) 757-","Landline","Laramie","Cheyenne","WY","Wyoming","82001","Mountain","41.25173","-104.56264"
"(307) 541-","Cell Number","Teton","Moran","WY","Wyoming","83013","Mountain","43.950896","-110.553181"
"(307) 359-","Cell Number","Converse","Douglas","WY","Wyoming","82633","Mountain","42.894084","-105.389691"
"(307) 537-","Landline","Sublette","Pinedale","WY","Wyoming","82941","Mountain","42.849757","-109.938968"
"(307) 920-","Cell Number","Laramie","Cheyenne","WY","Wyoming","82001","Mountain","41.25173","-104.56264"
"(307) 222-","Landline","Laramie","Cheyenne","WY","Wyoming","82001","Mountain","41.25173","-104.56264"
"(307) 728-","Cell Number","Fremont","Shoshoni","WY","Wyoming","82649","Mountain","43.191539","-108.009659"
"(307) 297-","Cell Number","Sweetwater","Green River","WY","Wyoming","82935","Mountain","41.51437","-109.427616"
"(307) 315-","Unknown","Natrona","Casper","WY","Wyoming","82605","Mountain","42.966192","-106.807047"
"(307) 587-","Landline","Park","Cody","WY","Wyoming","82414","Mountain","44.541637","-109.436585"
"(307) 292-","Unknown","Park","Cody","WY","Wyoming","82414","Mountain","44.541637","-109.436585"
"(307) 314-","Unknown","Albany","Laramie","WY","Wyoming","82073","Mountain","41.307065","-105.624667"
"(307) 369-","Unknown","Laramie","Cheyenne","WY","Wyoming","82001","Mountain","41.25173","-104.56264"
"(307) 656-","Unknown","Lincoln","Alpine","WY","Wyoming","83128","Mountain","43.030327","-110.884515"
"(307) 254-","Cell Number","Park","Powell","WY","Wyoming","82435","Mountain","44.615962","-108.948914"
"(307) 268-","Landline","Carbon","Casper","WY","Wyoming","82605","Mountain","42.966192","-106.807047"
"(307) 438-","Unknown","Fremont","Lander","WY","Wyoming","82520","Mountain","42.920832","-108.591264"
"(307) 433-","Landline","Laramie","Cheyenne","WY","Wyoming","82001","Mountain","41.25173","-104.56264"
"(307) 417-","Unknown","Carbon","Rawlins","WY","Wyoming","82301","Mountain","41.538075","-106.921959"
"(307) 242-","Landline","Park","Yellowstone National Park","WY","Wyoming","82190","Mountain","44.795733","-110.613731"
"(307) 748-","Landline","Fremont","Riverton","WY","Wyoming","82501","Mountain","43.180647","-108.925734"
"(307) 783-","Landline","Uinta","Evanston","WY","Wyoming","82930","Mountain","41.233758","-110.664401"
"(307) 877-","Landline","Lincoln","Kemmerer","WY","Wyoming","83101","Mountain","42.368433","-110.514132"
"(307) 737-","Landline","Sheridan","Sheridan","WY","Wyoming","82801","Mountain","44.780378","-106.837563"
"(307) 688-","Landline","Campbell","Gillette","WY","Wyoming","82716","Mountain","44.377283","-105.550237"
"(307) 544-","Landline","Fremont","Jeffrey City","WY","Wyoming","82310","Mountain","42.472474","-107.760978"
"(307) 276-","Landline","Sublette","Big Piney","WY","Wyoming","83113","Mountain","42.648328","-110.124616"
"(307) 714-","Cell Number","Fremont","Lander","WY","Wyoming","82520","Mountain","42.920832","-108.591264"
"(307) 313-","Unknown","Uinta","Evanston","WY","Wyoming","82930","Mountain","41.233758","-110.664401"
"(307) 600-","Cell Number","Lincoln","Cokeville","WY","Wyoming","83114","Mountain","42.247455","-110.941119"
"(307) 683-","Landline","Sheridan","Sheridan","WY","Wyoming","82801","Mountain","44.780378","-106.837563"
"(307) 256-","Cell Number","Laramie","Cheyenne","WY","Wyoming","82001","Mountain","41.25173","-104.56264"
"(307) 230-","Cell Number","Natrona","Casper","WY","Wyoming","82605","Mountain","42.966192","-106.807047"
"(307) 371-","Cell Number","Sweetwater","Rock Springs","WY","Wyoming","82901","Mountain","41.634515","-109.149045"
"(307) 378-","Landline","Albany","Rock River","WY","Wyoming","82083","Mountain","42.023074","-105.51461"
"(307) 362-","Landline","Sweetwater","Rock Springs","WY","Wyoming","82901","Mountain","41.634515","-109.149045"
"(307) 481-","Unknown","Niobrara","Van Tassell","WY","Wyoming","82242","Mountain","42.703263","-104.140785"
"(307) 885-","Landline","Lincoln","Afton","WY","Wyoming","83110","Mountain","42.711296","-110.619734"
"(307) 736-","Landline","Sheridan","Arvada","WY","Wyoming","82831","Mountain","44.731059","-106.392413"
"(307) 457-","Landline","Fremont","Jeffrey City","WY","Wyoming","82310","Mountain","42.472474","-107.760978"
"(307) 741-","Cell Number","Converse","Glenrock","WY","Wyoming","82637","Mountain","42.780251","-105.871922"
"(307) 996-","Landline","Laramie","Cheyenne","WY","Wyoming","82001","Mountain","41.25173","-104.56264"
"(307) 896-","Landline","Crook","Aladdin","WY","Wyoming","82710","Mountain","44.738184","-104.288519"
"(307) 563-","Landline","Lincoln","Kemmerer","WY","Wyoming","83101","Mountain","42.368433","-110.514132"
"(307) 868-","Landline","Park","Meeteetse","WY","Wyoming","82433","Mountain","44.165967","-108.916862"
"(307) 324-","Landline","Carbon","Rawlins","WY","Wyoming","82301","Mountain","41.538075","-106.921959"
"(307) 799-","Cell Number","Uinta","Evanston","WY","Wyoming","82930","Mountain","41.233758","-110.664401"
"(307) 679-","Cell Number","Uinta","Evanston","WY","Wyoming","82930","Mountain","41.233758","-110.664401"
"(307) 719-","Cell Number","Johnson","Buffalo","WY","Wyoming","82834","Mountain","44.122611","-106.561068"
"(307) 514-","Landline","Laramie","Cheyenne","WY","Wyoming","82001","Mountain","41.25173","-104.56264"
"(307) 577-","Landline","Carbon","Casper","WY","Wyoming","82605","Mountain","42.966192","-106.807047"
"(307) 234-","Landline","Carbon","Casper","WY","Wyoming","82605","Mountain","42.966192","-106.807047"
"(307) 316-","Unknown","Laramie","Cheyenne","WY","Wyoming","82001","Mountain","41.25173","-104.56264"
"(307) 241-","Cell Number","Platte","Wheatland","WY","Wyoming","82201","Mountain","42.013984","-104.967405"
"(307) 707-","Cell Number","Sweetwater","Green River","WY","Wyoming","82935","Mountain","41.51437","-109.427616"
"(307) 522-","Landline","Teton","Jackson","WY","Wyoming","83002","Mountain","43.50537","-110.786527"
"(307) 654-","Landline","Lincoln","Freedom","WY","Wyoming","83120","Mountain","43.026767","-111.003953"
"(307) 568-","Landline","Big Horn","Basin","WY","Wyoming","82410","Mountain","44.346935","-108.165824"
"(307) 545-","Landline","Park","Yellowstone National Park","WY","Wyoming","82190","Mountain","44.795733","-110.613731"
"(307) 215-","Landline","Carbon","Casper","WY","Wyoming","82605","Mountain","42.966192","-106.807047"
"(307) 673-","Landline","Sheridan","Sheridan","WY","Wyoming","82801","Mountain","44.780378","-106.837563"
"(307) 859-","Landline","Sublette","Pinedale","WY","Wyoming","82941","Mountain","42.849757","-109.938968"
"(307) 214-","Cell Number","Laramie","Cheyenne","WY","Wyoming","82001","Mountain","41.25173","-104.56264"
"(307) 450-","Cell Number","Fremont","Dubois","WY","Wyoming","82513","Mountain","43.549861","-109.704749"
"(307) 441-","Unknown","Natrona","Casper","WY","Wyoming","82605","Mountain","42.966192","-106.807047"
"(307) 890-","Cell Number","Lincoln","Freedom","WY","Wyoming","83120","Mountain","43.026767","-111.003953"
"(307) 321-","Cell Number","Carbon","Rawlins","WY","Wyoming","82301","Mountain","41.538075","-106.921959"
"(307) 461-","Landline","Sheridan","Sheridan","WY","Wyoming","82801","Mountain","44.780378","-106.837563"
"(307) 216-","Cell Number","Niobrara","Manville","WY","Wyoming","82227","Mountain","42.73001","-104.702397"
"(307) 264-","Cell Number","Teton","Jackson","WY","Wyoming","83002","Mountain","43.50537","-110.786527"
"(307) 329-","Cell Number","Carbon","Encampment","WY","Wyoming","82325","Mountain","41.224462","-106.790506"
"(307) 232-","Landline","Carbon","Casper","WY","Wyoming","82605","Mountain","42.966192","-106.807047"
"(307) 857-","Landline","Fremont","Riverton","WY","Wyoming","82501","Mountain","43.180647","-108.925734"
"(307) 680-","Cell Number","Campbell","Gillette","WY","Wyoming","82716","Mountain","44.377283","-105.550237"
"(307) 941-","Cell Number","Weston","Newcastle","WY","Wyoming","82701","Mountain","43.8397","-104.567814"
"(307) 575-","Cell Number","Goshen","Torrington","WY","Wyoming","82240","Mountain","42.072314","-104.187474"
"(307) 643-","Landline","Crook","Beulah","WY","Wyoming","82712","Mountain","44.543625","-104.074532"
"(307) 785-","Landline","Niobrara","Manville","WY","Wyoming","82227","Mountain","42.73001","-104.702397"
"(307) 567-","Cell Number","Campbell","Gillette","WY","Wyoming","82716","Mountain","44.377283","-105.550237"
"(307) 759-","Cell Number","Niobrara","Van Tassell","WY","Wyoming","82242","Mountain","42.703263","-104.140785"
"(307) 286-","Cell Number","Laramie","Cheyenne","WY","Wyoming","82001","Mountain","41.25173","-104.56264"
"(307) 690-","Cell Number","Teton","Jackson","WY","Wyoming","83002","Mountain","43.50537","-110.786527"
"(307) 883-","Landline","Lincoln","Freedom","WY","Wyoming","83120","Mountain","43.026767","-111.003953"
"(307) 350-","Cell Number","Sweetwater","Rock Springs","WY","Wyoming","82901","Mountain","41.634515","-109.149045"
"(307) 235-","Landline","Carbon","Casper","WY","Wyoming","82605","Mountain","42.966192","-106.807047"
"(307) 245-","Landline","Laramie","Pine Bluffs","WY","Wyoming","82082","Mountain","41.277286","-104.205462"
"(307) 718-","Cell Number","Washakie","Worland","WY","Wyoming","82401","Mountain","44.008105","-108.141457"
"(307) 368-","Landline","Converse","Douglas","WY","Wyoming","82633","Mountain","42.894084","-105.389691"
"(307) 675-","Landline","Sheridan","Sheridan","WY","Wyoming","82801","Mountain","44.780378","-106.837563"
"(307) 716-","Cell Number","Park","Powell","WY","Wyoming","82435","Mountain","44.615962","-108.948914"
"(307) 777-","Landline","Laramie","Cheyenne","WY","Wyoming","82001","Mountain","41.25173","-104.56264"
"(307) 746-","Landline","Weston","Newcastle","WY","Wyoming","82701","Mountain","43.8397","-104.567814"
"(307) 338-","Unknown","Goshen","Torrington","WY","Wyoming","82240","Mountain","42.072314","-104.187474"
"(307) 231-","Cell Number","Sublette","Pinedale","WY","Wyoming","82941","Mountain","42.849757","-109.938968"
"(307) 370-","Cell Number","Carbon","Rawlins","WY","Wyoming","82301","Mountain","41.538075","-106.921959"
"(307) 246-","Landline","Laramie","Albin","WY","Wyoming","82050","Mountain","41.335468","-104.249495"
"(307) 345-","Cell Number","Fremont","Lander","WY","Wyoming","82520","Mountain","42.920832","-108.591264"
"(307) 463-","Landline","Fremont","Riverton","WY","Wyoming","82501","Mountain","43.180647","-108.925734"
"(307) 633-","Landline","Laramie","Cheyenne","WY","Wyoming","82001","Mountain","41.25173","-104.56264"
"(307) 273-","Landline","Sweetwater","Farson","WY","Wyoming","82932","Mountain","42.083362","-109.418358"
"(307) 681-","Unknown","Campbell","Rozet","WY","Wyoming","82727","Mountain","44.412924","-105.529275"
"(307) 240-","Cell Number","Fremont","Riverton","WY","Wyoming","82501","Mountain","43.180647","-108.925734"
"(307) 392-","Unknown","Lincoln","Cokeville","WY","Wyoming","83114","Mountain","42.247455","-110.941119"
"(307) 635-","Landline","Laramie","Cheyenne","WY","Wyoming","82001","Mountain","41.25173","-104.56264"
"(307) 547-","Landline","Laramie","Burns","WY","Wyoming","82053","Mountain","41.235922","-104.378477"
"(307) 251-","Unknown","Natrona","Casper","WY","Wyoming","82605","Mountain","42.966192","-106.807047"
"(307) 764-","Landline","Park","Powell","WY","Wyoming","82435","Mountain","44.615962","-108.948914"
"(307) 266-","Landline","Carbon","Casper","WY","Wyoming","82605","Mountain","42.966192","-106.807047"
"(307) 637-","Landline","Laramie","Cheyenne","WY","Wyoming","82001","Mountain","41.25173","-104.56264"
"(307) 227-","Landline","Natrona","Casper","WY","Wyoming","82605","Mountain","42.966192","-106.807047"
"(307) 629-","Cell Number","Weston","Newcastle","WY","Wyoming","82701","Mountain","43.8397","-104.567814"
"(307) 858-","Cell Number","Fremont","Riverton","WY","Wyoming","82501","Mountain","43.180647","-108.925734"
